no,postal_code,urban,area_code,sub_district,dt2,city,province
1,80571,Kedewatan,51.04.05.2004,Ubud,Kabupaten,Gianyar,Bali
2,80571,Lodtunduh,51.04.05.2001,Ubud,Kabupaten,Gianyar,Bali
3,80571,Mas,51.04.05.2002,Ubud,Kabupaten,Gianyar,Bali
4,80571,Peliatan,51.04.05.2006,Ubud,Kabupaten,Gianyar,Bali
5,80571,Petulu,51.04.05.2007,Ubud,Kabupaten,Gianyar,Bali
6,80571,Sayan,51.04.05.2008,Ubud,Kabupaten,Gianyar,Bali
7,80571,Singakerta (Singekerta),51.04.05.2003,Ubud,Kabupaten,Gianyar,Bali
8,80571,Ubud,51.04.05.1005,Ubud,Kabupaten,Gianyar,Bali
9,80671,Bangbang,51.06.03.2005,Tembuku,Kabupaten,Bangli,Bali
10,80671,Jehem,51.06.03.2001,Tembuku,Kabupaten,Bangli,Bali
11,80671,Peninjoan,51.06.03.2006,Tembuku,Kabupaten,Bangli,Bali
12,80671,Tembuku,51.06.03.2002,Tembuku,Kabupaten,Bangli,Bali
13,80671,Undisan,51.06.03.2004,Tembuku,Kabupaten,Bangli,Bali
14,80671,Yangapi,51.06.03.2003,Tembuku,Kabupaten,Bangli,Bali
15,81173,Bondalem,51.08.09.2005,Tejakula,Kabupaten,Buleleng,Bali
16,81173,Julah,51.08.09.2003,Tejakula,Kabupaten,Buleleng,Bali
17,81173,Les,51.08.09.2007,Tejakula,Kabupaten,Buleleng,Bali
18,81173,Madenan,51.08.09.2004,Tejakula,Kabupaten,Buleleng,Bali
19,81173,Pacung,51.08.09.2002,Tejakula,Kabupaten,Buleleng,Bali
20,81173,Penuktukan,51.08.09.2008,Tejakula,Kabupaten,Buleleng,Bali
21,81173,Sambirenteng,51.08.09.2009,Tejakula,Kabupaten,Buleleng,Bali
22,81173,Sembiran,51.08.09.2001,Tejakula,Kabupaten,Buleleng,Bali
23,81173,Tejakula,51.08.09.2006,Tejakula,Kabupaten,Buleleng,Bali
24,81173,Tembok,51.08.09.2010,Tejakula,Kabupaten,Buleleng,Bali
25,80561,Kedisan,51.04.06.2004,Tegallalang,Kabupaten,Gianyar,Bali
26,80561,Keliki,51.04.06.2001,Tegallalang,Kabupaten,Gianyar,Bali
27,80561,Kenderan,51.04.06.2003,Tegallalang,Kabupaten,Gianyar,Bali
28,80561,Pupuan,51.04.06.2005,Tegallalang,Kabupaten,Gianyar,Bali
29,80561,Sebatu,51.04.06.2006,Tegallalang,Kabupaten,Gianyar,Bali
30,80561,Taro,51.04.06.2007,Tegallalang,Kabupaten,Gianyar,Bali
31,80561,Tegallalang,51.04.06.2002,Tegallalang,Kabupaten,Gianyar,Bali
32,80552,Manukaya,51.04.04.2004,Tampaksiring (Tampak Siring),Kabupaten,Gianyar,Bali
33,80552,Pejeng,51.04.04.2001,Tampaksiring (Tampak Siring),Kabupaten,Gianyar,Bali
34,80552,Pejeng Kaja,51.04.04.2006,Tampaksiring (Tampak Siring),Kabupaten,Gianyar,Bali
35,80552,Pejeng Kangin,51.04.04.2007,Tampaksiring (Tampak Siring),Kabupaten,Gianyar,Bali
36,80552,Pejeng Kawan,51.04.04.2005,Tampaksiring (Tampak Siring),Kabupaten,Gianyar,Bali
37,80552,Pejeng Klod (Kelod),51.04.04.2008,Tampaksiring (Tampak Siring),Kabupaten,Gianyar,Bali
38,80552,Sanding,51.04.04.2002,Tampaksiring (Tampak Siring),Kabupaten,Gianyar,Bali
39,80552,Tampaksiring,51.04.04.2003,Tampaksiring (Tampak Siring),Kabupaten,Gianyar,Bali
40,82112,Bongan (Boongan),51.02.05.2003,Tabanan,Kabupaten,Tabanan,Bali
41,82115,Buahan,51.02.05.2011,Tabanan,Kabupaten,Tabanan,Bali
42,82111,Dauh Peken,51.02.05.2005,Tabanan,Kabupaten,Tabanan,Bali
43,82114,Dejan Peken (Dajan Peken),51.02.05.2006,Tabanan,Kabupaten,Tabanan,Bali
44,82113,Delod Peken,51.02.05.2004,Tabanan,Kabupaten,Tabanan,Bali
45,82115,Denbantas,51.02.05.2007,Tabanan,Kabupaten,Tabanan,Bali
46,82115,Gubug,51.02.05.2002,Tabanan,Kabupaten,Tabanan,Bali
47,82115,Sedandan (Sesandan),51.02.05.2012,Tabanan,Kabupaten,Tabanan,Bali
48,82115,Subamia,51.02.05.2008,Tabanan,Kabupaten,Tabanan,Bali
49,82115,Sudimara,51.02.05.2001,Tabanan,Kabupaten,Tabanan,Bali
50,82115,Tunjuk,51.02.05.2010,Tabanan,Kabupaten,Tabanan,Bali
51,82111,Wanasari,51.02.05.2009,Tabanan,Kabupaten,Tabanan,Bali
52,80661,Abuan,51.06.01.2003,Susut,Kabupaten,Bangli,Bali
53,80661,Apuan,51.06.01.2001,Susut,Kabupaten,Bangli,Bali
54,80661,Demulih,51.06.01.2002,Susut,Kabupaten,Bangli,Bali
55,80661,Pengiangan,51.06.01.2009,Susut,Kabupaten,Bangli,Bali
56,80661,Penglumbaran,51.06.01.2006,Susut,Kabupaten,Bangli,Bali
57,80661,Selat,51.06.01.2008,Susut,Kabupaten,Bangli,Bali
58,80661,Sulahan,51.06.01.2005,Susut,Kabupaten,Bangli,Bali
59,80661,Susut,51.06.01.2004,Susut,Kabupaten,Bangli,Bali
60,80661,Tiga,51.06.01.2007,Susut,Kabupaten,Bangli,Bali
61,80582,Batuan,51.04.01.2007,Sukawati,Kabupaten,Gianyar,Bali
62,80582,Batuan Kaler,51.04.01.2012,Sukawati,Kabupaten,Gianyar,Bali
63,80582,Batubulan,51.04.01.2001,Sukawati,Kabupaten,Gianyar,Bali
64,80582,Batubulan Kangin,51.04.01.2009,Sukawati,Kabupaten,Gianyar,Bali
65,80582,Celuk,51.04.01.2005,Sukawati,Kabupaten,Gianyar,Bali
66,80582,Guwang,51.04.01.2003,Sukawati,Kabupaten,Gianyar,Bali
67,80582,Kemenuh,51.04.01.2008,Sukawati,Kabupaten,Gianyar,Bali
68,80582,Ketewel,51.04.01.2002,Sukawati,Kabupaten,Gianyar,Bali
69,80582,Singapadu,51.04.01.2006,Sukawati,Kabupaten,Gianyar,Bali
70,80582,Singapadu Kaler,51.04.01.2011,Sukawati,Kabupaten,Gianyar,Bali
71,80582,Singapadu Tengah,51.04.01.2010,Sukawati,Kabupaten,Gianyar,Bali
72,80582,Sukawati,51.04.01.2004,Sukawati,Kabupaten,Gianyar,Bali
73,81161,Ambengan,51.08.05.2003,Sukasada,Kabupaten,Buleleng,Bali
74,81161,Gitgit,51.08.05.2004,Sukasada,Kabupaten,Buleleng,Bali
75,81161,Kayu Putih (Kayuputih),51.08.05.2015,Sukasada,Kabupaten,Buleleng,Bali
76,81161,Padangbulia,51.08.05.2008,Sukasada,Kabupaten,Buleleng,Bali
77,81161,Pancasari,51.08.05.2001,Sukasada,Kabupaten,Buleleng,Bali
78,81161,Panji,51.08.05.2011,Sukasada,Kabupaten,Buleleng,Bali
79,81161,Panji Anom,51.08.05.2012,Sukasada,Kabupaten,Buleleng,Bali
80,81161,Pegadungan,51.08.05.2007,Sukasada,Kabupaten,Buleleng,Bali
81,81161,Pegayaman,51.08.05.2005,Sukasada,Kabupaten,Buleleng,Bali
82,81161,Sambangan,51.08.05.2010,Sukasada,Kabupaten,Buleleng,Bali
83,81161,Selat,51.08.05.2014,Sukasada,Kabupaten,Buleleng,Bali
84,81161,Silangjana,51.08.05.2006,Sukasada,Kabupaten,Buleleng,Bali
85,81161,Sukasada,51.08.05.1009,Sukasada,Kabupaten,Buleleng,Bali
86,81161,Tegallinggah (Tegal Linggah / Tegalinggah),51.08.05.2013,Sukasada,Kabupaten,Buleleng,Bali
87,81161,Wanagiri,51.08.05.2002,Sukasada,Kabupaten,Buleleng,Bali
88,80864,Kerta Buana (Kertha Buana),51.07.02.2008,Sidemen,Kabupaten,Karangasem,Bali
89,80864,Lakasari (Lokasari),51.07.02.2009,Sidemen,Kabupaten,Karangasem,Bali
90,80864,Sangkan Gunung,51.07.02.2004,Sidemen,Kabupaten,Karangasem,Bali
91,80864,Sidemen,51.07.02.2003,Sidemen,Kabupaten,Karangasem,Bali
92,80864,Sinduwati (Sindu Wati),51.07.02.2006,Sidemen,Kabupaten,Karangasem,Bali
93,80864,Talibeng,51.07.02.2002,Sidemen,Kabupaten,Karangasem,Bali
94,80864,Tangkup,51.07.02.2001,Sidemen,Kabupaten,Karangasem,Bali
95,80864,Telaga Tawang,51.07.02.2005,Sidemen,Kabupaten,Karangasem,Bali
96,80864,Tri Eka Buana,51.07.02.2007,Sidemen,Kabupaten,Karangasem,Bali
97,80864,Wismakerta (Wisma Kerta),51.07.02.2010,Sidemen,Kabupaten,Karangasem,Bali
98,81153,Banjarasem (Banjar Asem),51.08.02.2019,Seririt,Kabupaten,Buleleng,Bali
99,81153,Bestala,51.08.02.2008,Seririt,Kabupaten,Buleleng,Bali
100,81153,Bubunan,51.08.02.2013,Seririt,Kabupaten,Buleleng,Bali
101,81153,Gunungsari,51.08.02.2006,Seririt,Kabupaten,Buleleng,Bali
102,81153,Joanyar,51.08.02.2010,Seririt,Kabupaten,Buleleng,Bali
103,81153,Kalianget,51.08.02.2009,Seririt,Kabupaten,Buleleng,Bali
104,81153,Kalisada,51.08.02.2020,Seririt,Kabupaten,Buleleng,Bali
105,81153,Lokapaksa,51.08.02.2017,Seririt,Kabupaten,Buleleng,Bali
106,81153,Mayong,51.08.02.2005,Seririt,Kabupaten,Buleleng,Bali
107,81153,Munduk Bestala,51.08.02.2007,Seririt,Kabupaten,Buleleng,Bali
108,81153,Pangkungparuk,51.08.02.2018,Seririt,Kabupaten,Buleleng,Bali
109,81153,Patemoh (Patemon),51.08.02.2014,Seririt,Kabupaten,Buleleng,Bali
110,81153,Pengastulan,51.08.02.2016,Seririt,Kabupaten,Buleleng,Bali
111,81153,Rangdu,51.08.02.2004,Seririt,Kabupaten,Buleleng,Bali
112,81153,Ringdikit,51.08.02.2003,Seririt,Kabupaten,Buleleng,Bali
113,81153,Seririt,51.08.02.1015,Seririt,Kabupaten,Buleleng,Bali
114,81153,Sulanyah,51.08.02.2012,Seririt,Kabupaten,Buleleng,Bali
115,81153,Tangguwisia,51.08.02.2011,Seririt,Kabupaten,Buleleng,Bali
116,81153,Ularan,51.08.02.2002,Seririt,Kabupaten,Buleleng,Bali
117,81153,Umeanyar,51.08.02.2021,Seririt,Kabupaten,Buleleng,Bali
118,81153,Unggahan,51.08.02.2001,Seririt,Kabupaten,Buleleng,Bali
119,82160,Bantas,51.02.02.2003,"Selemadeg Timur (Salamadeg Timur, Salemadeg Timur)",Kabupaten,Tabanan,Bali
120,82160,Beraban,51.02.02.2007,"Selemadeg Timur (Salamadeg Timur, Salemadeg Timur)",Kabupaten,Tabanan,Bali
121,82160,Dalang,51.02.02.2009,"Selemadeg Timur (Salamadeg Timur, Salemadeg Timur)",Kabupaten,Tabanan,Bali
122,82160,Gadungan,51.02.02.2002,"Selemadeg Timur (Salamadeg Timur, Salemadeg Timur)",Kabupaten,Tabanan,Bali
123,82160,Gadungsari (Gadung Sari),51.02.02.2010,"Selemadeg Timur (Salamadeg Timur, Salemadeg Timur)",Kabupaten,Tabanan,Bali
124,82160,Gunung Salak,51.02.02.2001,"Selemadeg Timur (Salamadeg Timur, Salemadeg Timur)",Kabupaten,Tabanan,Bali
125,82160,Mambang,51.02.02.2004,"Selemadeg Timur (Salamadeg Timur, Salemadeg Timur)",Kabupaten,Tabanan,Bali
126,82160,Megati,51.02.02.2005,"Selemadeg Timur (Salamadeg Timur, Salemadeg Timur)",Kabupaten,Tabanan,Bali
127,82160,Tangguntiti,51.02.02.2006,"Selemadeg Timur (Salamadeg Timur, Salemadeg Timur)",Kabupaten,Tabanan,Bali
128,82160,Tegal Mengkeb,51.02.02.2008,"Selemadeg Timur (Salamadeg Timur, Salemadeg Timur)",Kabupaten,Tabanan,Bali
129,82162,Angkah,51.02.03.2009,Selemadeg Barat (Salemadeg Barat),Kabupaten,Tabanan,Bali
130,82162,Antosari,51.02.03.2004,Selemadeg Barat (Salemadeg Barat),Kabupaten,Tabanan,Bali
131,82162,Bengkel Sari,51.02.03.2011,Selemadeg Barat (Salemadeg Barat),Kabupaten,Tabanan,Bali
132,82162,Lalanglinggah (Lalang Linggah),51.02.03.2003,Selemadeg Barat (Salemadeg Barat),Kabupaten,Tabanan,Bali
133,82162,Lumbung,51.02.03.2005,Selemadeg Barat (Salemadeg Barat),Kabupaten,Tabanan,Bali
134,82162,Lumbung Kauh,51.02.03.2006,Selemadeg Barat (Salemadeg Barat),Kabupaten,Tabanan,Bali
135,82162,Mundeh,51.02.03.2001,Selemadeg Barat (Salemadeg Barat),Kabupaten,Tabanan,Bali
136,82162,Mundeh Kangin,51.02.03.2002,Selemadeg Barat (Salemadeg Barat),Kabupaten,Tabanan,Bali
137,82162,Mundeh Kauh,51.02.03.2008,Selemadeg Barat (Salemadeg Barat),Kabupaten,Tabanan,Bali
138,82162,Selabih,51.02.03.2010,Selemadeg Barat (Salemadeg Barat),Kabupaten,Tabanan,Bali
139,82162,Tiing Gading (Tiying Gading),51.02.03.2007,Selemadeg Barat (Salemadeg Barat),Kabupaten,Tabanan,Bali
140,82164,Antap,51.02.01.2007,Selemadeg,Kabupaten,Tabanan,Bali
141,82164,Bajera,51.02.01.2001,Selemadeg,Kabupaten,Tabanan,Bali
142,82164,Bajera Utara,51.02.01.2010,Selemadeg,Kabupaten,Tabanan,Bali
143,82164,Berembeng,51.02.01.2004,Selemadeg,Kabupaten,Tabanan,Bali
144,82164,Manikyang,51.02.01.2009,Selemadeg,Kabupaten,Tabanan,Bali
145,82164,Pupuan Sawah,51.02.01.2003,Selemadeg,Kabupaten,Tabanan,Bali
146,82164,Sarampingan (Serampingan),51.02.01.2006,Selemadeg,Kabupaten,Tabanan,Bali
147,82164,Selemadeg,51.02.01.2005,Selemadeg,Kabupaten,Tabanan,Bali
148,82164,Wanagiri,51.02.01.2002,Selemadeg,Kabupaten,Tabanan,Bali
149,82164,Wanagiri Kauh,51.02.01.2008,Selemadeg,Kabupaten,Tabanan,Bali
150,80862,Amerta Bhuana,51.07.07.2008,Selat,Kabupaten,Karangasem,Bali
151,80862,Duda,51.07.07.2003,Selat,Kabupaten,Karangasem,Bali
152,80862,Duda Timur,51.07.07.2006,Selat,Kabupaten,Karangasem,Bali
153,80862,Duda Utara,51.07.07.2005,Selat,Kabupaten,Karangasem,Bali
154,80862,Muncan,51.07.07.2001,Selat,Kabupaten,Karangasem,Bali
155,80862,Pering Sari,51.07.07.2007,Selat,Kabupaten,Karangasem,Bali
156,80862,Sebudi,51.07.07.2004,Selat,Kabupaten,Karangasem,Bali
157,80862,Selat,51.07.07.2002,Selat,Kabupaten,Karangasem,Bali
158,81171,Bebetin,51.08.07.2004,Sawan,Kabupaten,Buleleng,Bali
159,81171,Bungkulan,51.08.07.2013,Sawan,Kabupaten,Buleleng,Bali
160,81171,Galungan,51.08.07.2002,Sawan,Kabupaten,Buleleng,Bali
161,81171,Giri Emas,51.08.07.2014,Sawan,Kabupaten,Buleleng,Bali
162,81171,Jagaraga,51.08.07.2009,Sawan,Kabupaten,Buleleng,Bali
163,81171,Kerobokan,51.08.07.2011,Sawan,Kabupaten,Buleleng,Bali
164,81171,Lemukih,51.08.07.2001,Sawan,Kabupaten,Buleleng,Bali
165,81171,Menyali,51.08.07.2007,Sawan,Kabupaten,Buleleng,Bali
166,81171,Sangsit,51.08.07.2012,Sawan,Kabupaten,Buleleng,Bali
167,81171,Sawan,51.08.07.2006,Sawan,Kabupaten,Buleleng,Bali
168,81171,Sekumpul,51.08.07.2003,Sawan,Kabupaten,Buleleng,Bali
169,81171,Sinabun,51.08.07.2010,Sawan,Kabupaten,Buleleng,Bali
170,81171,Sudaji,51.08.07.2005,Sawan,Kabupaten,Buleleng,Bali
171,81171,Suwug,51.08.07.2008,Sawan,Kabupaten,Buleleng,Bali
172,80863,Besakih,51.07.01.2004,Rendang,Kabupaten,Karangasem,Bali
173,80863,Menanga,51.07.01.2003,Rendang,Kabupaten,Karangasem,Bali
174,80863,Nongan,51.07.01.2001,Rendang,Kabupaten,Karangasem,Bali
175,80863,Pempatan,51.07.01.2005,Rendang,Kabupaten,Karangasem,Bali
176,80863,Pesaban,51.07.01.2006,Rendang,Kabupaten,Karangasem,Bali
177,80863,Rendang,51.07.01.2002,Rendang,Kabupaten,Karangasem,Bali
178,82163,Bantiran,51.02.10.2008,Pupuan,Kabupaten,Tabanan,Bali
179,82163,Batungsel,51.02.10.2003,Pupuan,Kabupaten,Tabanan,Bali
180,82163,Belatungan,51.02.10.2011,Pupuan,Kabupaten,Tabanan,Bali
181,82163,Belimbing,51.02.10.2001,Pupuan,Kabupaten,Tabanan,Bali
182,82163,Jelijih Punggung (Jelijih Punggang),51.02.10.2010,Pupuan,Kabupaten,Tabanan,Bali
183,82163,Karyasari (Karya Sari),51.02.10.2013,Pupuan,Kabupaten,Tabanan,Bali
184,82163,Kebon Padangan,51.02.10.2004,Pupuan,Kabupaten,Tabanan,Bali
185,82163,Munduk Temu,51.02.10.2005,Pupuan,Kabupaten,Tabanan,Bali
186,82163,Padangan,51.02.10.2009,Pupuan,Kabupaten,Tabanan,Bali
187,82163,Pajahan,51.02.10.2012,Pupuan,Kabupaten,Tabanan,Bali
188,82163,Pujungan,51.02.10.2006,Pupuan,Kabupaten,Tabanan,Bali
189,82163,Pupuan,51.02.10.2007,Pupuan,Kabupaten,Tabanan,Bali
190,82163,Sai,51.02.10.2014,Pupuan,Kabupaten,Tabanan,Bali
191,82163,Sanda,51.02.10.2002,Pupuan,Kabupaten,Tabanan,Bali
192,80353,Belok/Sidan,51.03.04.2003,Petang,Kabupaten,Badung,Bali
193,80353,Carangsari,51.03.04.2001,Petang,Kabupaten,Badung,Bali
194,80353,Getasan,51.03.04.2005,Petang,Kabupaten,Badung,Bali
195,80353,Pangsan,51.03.04.2006,Petang,Kabupaten,Badung,Bali
196,80353,Pelaga,51.03.04.2004,Petang,Kabupaten,Badung,Bali
197,80353,Petang,51.03.04.2002,Petang,Kabupaten,Badung,Bali
198,80353,Sulangai,51.03.04.2007,Petang,Kabupaten,Badung,Bali
199,82152,Babakan (Babahan),51.02.08.2011,Penebel,Kabupaten,Tabanan,Bali
200,82152,Biaung,51.02.08.2005,Penebel,Kabupaten,Tabanan,Bali
201,82152,Buruan,51.02.08.2004,Penebel,Kabupaten,Tabanan,Bali
202,82152,Jatiluwih,51.02.08.2013,Penebel,Kabupaten,Tabanan,Bali
203,82152,Jegu,51.02.08.2002,Penebel,Kabupaten,Tabanan,Bali
204,82152,Mengesta (Mengeste),51.02.08.2009,Penebel,Kabupaten,Tabanan,Bali
205,82152,Penatahan,51.02.08.2007,Penebel,Kabupaten,Tabanan,Bali
206,82152,Penebel,51.02.08.2010,Penebel,Kabupaten,Tabanan,Bali
207,82152,Pesagi,51.02.08.2017,Penebel,Kabupaten,Tabanan,Bali
208,82152,Pitra,51.02.08.2006,Penebel,Kabupaten,Tabanan,Bali
209,82152,Rejasa,51.02.08.2001,Penebel,Kabupaten,Tabanan,Bali
210,82152,Riang Gede,51.02.08.2003,Penebel,Kabupaten,Tabanan,Bali
211,82152,Sangketan,51.02.08.2018,Penebel,Kabupaten,Tabanan,Bali
212,82152,Senganan,51.02.08.2012,Penebel,Kabupaten,Tabanan,Bali
213,82152,Tajen,51.02.08.2015,Penebel,Kabupaten,Tabanan,Bali
214,82152,Tegallinggah (Tegalinggah),51.02.08.2016,Penebel,Kabupaten,Tabanan,Bali
215,82152,Tengkudak,51.02.08.2008,Penebel,Kabupaten,Tabanan,Bali
216,82152,Wongaya Gede,51.02.08.2014,Penebel,Kabupaten,Tabanan,Bali
217,82262,Asahduren,51.01.03.2003,Pekutatan,Kabupaten,Jembrana,Bali
218,82262,Gumbrih,51.01.03.2006,Pekutatan,Kabupaten,Jembrana,Bali
219,82262,Manggissari,51.01.03.2007,Pekutatan,Kabupaten,Jembrana,Bali
220,82262,Medewi,51.01.03.2001,Pekutatan,Kabupaten,Jembrana,Bali
221,82262,Pangyangan,51.01.03.2005,Pekutatan,Kabupaten,Jembrana,Bali
222,82262,Pekutatan,51.01.03.2004,Pekutatan,Kabupaten,Jembrana,Bali
223,82262,Pengeragoan (Pengragoan),51.01.03.2008,Pekutatan,Kabupaten,Jembrana,Bali
224,82262,Pulukan,51.01.03.2002,Pekutatan,Kabupaten,Jembrana,Bali
225,80572,Bresela (Beresela),51.04.07.2009,Payangan,Kabupaten,Gianyar,Bali
226,80572,Buahan,51.04.07.2005,Payangan,Kabupaten,Gianyar,Bali
227,80572,Buahan Kaja,51.04.07.2008,Payangan,Kabupaten,Gianyar,Bali
228,80572,Bukian,51.04.07.2003,Payangan,Kabupaten,Gianyar,Bali
229,80572,Kelusa,51.04.07.2002,Payangan,Kabupaten,Gianyar,Bali
230,80572,Kerta,51.04.07.2006,Payangan,Kabupaten,Gianyar,Bali
231,80572,Melinggih,51.04.07.2001,Payangan,Kabupaten,Gianyar,Bali
232,80572,Melinggih Kelod,51.04.07.2007,Payangan,Kabupaten,Gianyar,Bali
233,80572,Puhu,51.04.07.2004,Payangan,Kabupaten,Gianyar,Bali
234,80771,Batukandik,51.05.01.2004,Nusa Penida (Nusapenida),Kabupaten,Klungkung,Bali
235,80771,Batumadeg,51.05.01.2002,Nusa Penida (Nusapenida),Kabupaten,Klungkung,Bali
236,80771,Batununggul,51.05.01.2008,Nusa Penida (Nusapenida),Kabupaten,Klungkung,Bali
237,80771,Bunga Mekar,51.05.01.2016,Nusa Penida (Nusapenida),Kabupaten,Klungkung,Bali
238,80771,Jungutbatu,51.05.01.2013,Nusa Penida (Nusapenida),Kabupaten,Klungkung,Bali
239,80771,Kampung Toyapakeh,51.05.01.2011,Nusa Penida (Nusapenida),Kabupaten,Klungkung,Bali
240,80771,Klumpu,51.05.01.2003,Nusa Penida (Nusapenida),Kabupaten,Klungkung,Bali
241,80771,Kutampi,51.05.01.2009,Nusa Penida (Nusapenida),Kabupaten,Klungkung,Bali
242,80771,Kutampi Kaler,51.05.01.2015,Nusa Penida (Nusapenida),Kabupaten,Klungkung,Bali
243,80771,Lembongan,51.05.01.2012,Nusa Penida (Nusapenida),Kabupaten,Klungkung,Bali
244,80771,Ped,51.05.01.2010,Nusa Penida (Nusapenida),Kabupaten,Klungkung,Bali
245,80771,Pejukutan,51.05.01.2014,Nusa Penida (Nusapenida),Kabupaten,Klungkung,Bali
246,80771,Sakti,51.05.01.2001,Nusa Penida (Nusapenida),Kabupaten,Klungkung,Bali
247,80771,Sekartaji,51.05.01.2005,Nusa Penida (Nusapenida),Kabupaten,Klungkung,Bali
248,80771,Suana,51.05.01.2007,Nusa Penida (Nusapenida),Kabupaten,Klungkung,Bali
249,80771,Tanglad,51.05.01.2006,Nusa Penida (Nusapenida),Kabupaten,Klungkung,Bali
250,82212,Baler Bale Agung,51.01.01.1006,Negara,Kabupaten,Jembrana,Bali
251,82218,Baluk,51.01.01.2002,Negara,Kabupaten,Jembrana,Bali
252,82213,Banjar Tengah,51.01.01.1008,Negara,Kabupaten,Jembrana,Bali
253,82218,Banyu Biru (Banyubiru),51.01.01.2003,Negara,Kabupaten,Jembrana,Bali
254,82218,Berangbang,51.01.01.2005,Negara,Kabupaten,Jembrana,Bali
255,82218,Cupel,51.01.01.2001,Negara,Kabupaten,Jembrana,Bali
256,82218,Kaliakah,51.01.01.2004,Negara,Kabupaten,Jembrana,Bali
257,82214,Lelateng,51.01.01.1013,Negara,Kabupaten,Jembrana,Bali
258,82215,Loloan Barat,51.01.01.1014,Negara,Kabupaten,Jembrana,Bali
259,82218,Pengambengan,51.01.01.2011,Negara,Kabupaten,Jembrana,Bali
260,82218,Tegal Badeng Barat,51.01.01.2010,Negara,Kabupaten,Jembrana,Bali
261,82218,Tegal Badeng Timur,51.01.01.2009,Negara,Kabupaten,Jembrana,Bali
262,80351,Abianbase,51.03.02.1014,Mengwi,Kabupaten,Badung,Bali
263,80351,Baha,51.03.02.2008,Mengwi,Kabupaten,Badung,Bali
264,80351,Buduk,51.03.02.2002,Mengwi,Kabupaten,Badung,Bali
265,80351,Cemagi,51.03.02.2017,Mengwi,Kabupaten,Badung,Bali
266,80351,Gulingan,51.03.02.2012,Mengwi,Kabupaten,Badung,Bali
267,80351,Kapal,51.03.02.1004,Mengwi,Kabupaten,Badung,Bali
268,80351,Kekeran,51.03.02.2010,Mengwi,Kabupaten,Badung,Bali
269,80351,Kuwun (Kuwum),51.03.02.2020,Mengwi,Kabupaten,Badung,Bali
270,80351,Lukluk,51.03.02.1016,Mengwi,Kabupaten,Badung,Bali
271,80351,Mengwi,51.03.02.2009,Mengwi,Kabupaten,Badung,Bali
272,80351,Mengwitani,51.03.02.2003,Mengwi,Kabupaten,Badung,Bali
273,80351,Munggu,51.03.02.2001,Mengwi,Kabupaten,Badung,Bali
274,80351,Penarungan,51.03.02.2006,Mengwi,Kabupaten,Badung,Bali
275,80351,Pererenan,51.03.02.2018,Mengwi,Kabupaten,Badung,Bali
276,80351,Sading,51.03.02.1015,Mengwi,Kabupaten,Badung,Bali
277,80351,Sembung,51.03.02.2007,Mengwi,Kabupaten,Badung,Bali
278,80351,Sempidi,51.03.02.1005,Mengwi,Kabupaten,Badung,Bali
279,80351,Sobangan,51.03.02.2011,Mengwi,Kabupaten,Badung,Bali
280,80351,Tumbakbayuh (Tumbak Bayuh),51.03.02.2019,Mengwi,Kabupaten,Badung,Bali
281,80351,Werdi Bhuwana,51.03.02.2013,Mengwi,Kabupaten,Badung,Bali
282,82261,Delodberawah (Delod Berawah),51.01.02.2005,Mendoyo,Kabupaten,Jembrana,Bali
283,82261,Mendoyo Dangin Tukad,51.01.02.2003,Mendoyo,Kabupaten,Jembrana,Bali
284,82261,Mendoyo Dauh Tukad,51.01.02.2001,Mendoyo,Kabupaten,Jembrana,Bali
285,82261,Penyaringan,51.01.02.2007,Mendoyo,Kabupaten,Jembrana,Bali
286,82261,Pergung,51.01.02.2004,Mendoyo,Kabupaten,Jembrana,Bali
287,82261,Pohsanten,51.01.02.2002,Mendoyo,Kabupaten,Jembrana,Bali
288,82261,Tegalcangkring (Tegal Cangkring),51.01.02.1006,Mendoyo,Kabupaten,Jembrana,Bali
289,82261,Yeh Sumbul,51.01.02.2009,Mendoyo,Kabupaten,Jembrana,Bali
290,82261,Yehembang (Yeh Embang),51.01.02.2008,Mendoyo,Kabupaten,Jembrana,Bali
291,82261,Yehembang Kangin (Yeh Embang Kangin),51.01.02.2011,Mendoyo,Kabupaten,Jembrana,Bali
292,82261,Yehembang Kauh (Yeh Embang Kauh),51.01.02.2010,Mendoyo,Kabupaten,Jembrana,Bali
293,82252,Blimbingsari (Belimbingsari),51.01.04.2003,Melaya,Kabupaten,Jembrana,Bali
294,82252,Candikusuma,51.01.04.2007,Melaya,Kabupaten,Jembrana,Bali
295,82252,Ekasari,51.01.04.2004,Melaya,Kabupaten,Jembrana,Bali
296,82252,Gilimanuk,51.01.04.1001,Melaya,Kabupaten,Jembrana,Bali
297,82252,Manistutu,51.01.04.2010,Melaya,Kabupaten,Jembrana,Bali
298,82252,Melaya,51.01.04.2002,Melaya,Kabupaten,Jembrana,Bali
299,82252,Nusasari (Nusa Sari),51.01.04.2005,Melaya,Kabupaten,Jembrana,Bali
300,82252,Tukadaya,51.01.04.2009,Melaya,Kabupaten,Jembrana,Bali
301,82252,Tuwed,51.01.04.2008,Melaya,Kabupaten,Jembrana,Bali
302,82252,Warnasari,51.01.04.2006,Melaya,Kabupaten,Jembrana,Bali
303,82181,Baru,51.02.07.2016,Marga,Kabupaten,Tabanan,Bali
304,82181,Batannyuh,51.02.07.2004,Marga,Kabupaten,Tabanan,Bali
305,82181,Beringkit,51.02.07.2002,Marga,Kabupaten,Tabanan,Bali
306,82181,Cau Belayu,51.02.07.2010,Marga,Kabupaten,Tabanan,Bali
307,82181,Geluntung,51.02.07.2015,Marga,Kabupaten,Tabanan,Bali
308,82181,Kukuh,51.02.07.2001,Marga,Kabupaten,Tabanan,Bali
309,82181,Kuwum,51.02.07.2006,Marga,Kabupaten,Tabanan,Bali
310,82181,Marga,51.02.07.2008,Marga,Kabupaten,Tabanan,Bali
311,82181,Marga Dajan Puri,51.02.07.2013,Marga,Kabupaten,Tabanan,Bali
312,82181,Marga Dauh Puri,51.02.07.2014,Marga,Kabupaten,Tabanan,Bali
313,82181,Payangan,51.02.07.2012,Marga,Kabupaten,Tabanan,Bali
314,82181,Peken,51.02.07.2003,Marga,Kabupaten,Tabanan,Bali
315,82181,Petiga,51.02.07.2009,Marga,Kabupaten,Tabanan,Bali
316,82181,Selanbawak,51.02.07.2007,Marga,Kabupaten,Tabanan,Bali
317,82181,Tegaljadi,51.02.07.2005,Marga,Kabupaten,Tabanan,Bali
318,82181,Tua,51.02.07.2011,Marga,Kabupaten,Tabanan,Bali
319,80871,Antiga,51.07.03.2002,Manggis,Kabupaten,Karangasem,Bali
320,80871,Antiga Kelod,51.07.03.2010,Manggis,Kabupaten,Karangasem,Bali
321,80871,Gegelang,51.07.03.2001,Manggis,Kabupaten,Karangasem,Bali
322,80871,Manggis,51.07.03.2004,Manggis,Kabupaten,Karangasem,Bali
323,80871,Ngis,51.07.03.2007,Manggis,Kabupaten,Karangasem,Bali
324,80871,Nyuh Tebel,51.07.03.2005,Manggis,Kabupaten,Karangasem,Bali
325,80871,Padangbai,51.07.03.2009,Manggis,Kabupaten,Karangasem,Bali
326,80871,Pasedahan (Pesedahan),51.07.03.2011,Manggis,Kabupaten,Karangasem,Bali
327,80871,Selumbung,51.07.03.2008,Manggis,Kabupaten,Karangasem,Bali
328,80871,Sengkidu,51.07.03.2012,Manggis,Kabupaten,Karangasem,Bali
329,80871,Tenganan,51.07.03.2006,Manggis,Kabupaten,Karangasem,Bali
330,80871,Ulakan,51.07.03.2003,Manggis,Kabupaten,Karangasem,Bali
331,80363,Canggu,51.03.06.2005,Kuta Utara,Kabupaten,Badung,Bali
332,80363,Dalung,51.03.06.2006,Kuta Utara,Kabupaten,Badung,Bali
333,80363,Kerobokan,51.03.06.1002,Kuta Utara,Kabupaten,Badung,Bali
334,80363,Kerobokan Kaja,51.03.06.1003,Kuta Utara,Kabupaten,Badung,Bali
335,80363,Kerobokan Kelod,51.03.06.1001,Kuta Utara,Kabupaten,Badung,Bali
336,80363,Tibubeneng,51.03.06.2004,Kuta Utara,Kabupaten,Badung,Bali
337,80362,Benoa,51.03.05.1004,Kuta Selatan,Kabupaten,Badung,Bali
338,80362,Jimbaran,51.03.05.1006,Kuta Selatan,Kabupaten,Badung,Bali
339,80362,Kutuh,51.03.05.2003,Kuta Selatan,Kabupaten,Badung,Bali
340,80362,Pecatu,51.03.05.2001,Kuta Selatan,Kabupaten,Badung,Bali
341,80362,Tanjung Benoa,51.03.05.1005,Kuta Selatan,Kabupaten,Badung,Bali
342,80362,Ungasan,51.03.05.2002,Kuta Selatan,Kabupaten,Badung,Bali
343,80361,Kedonganan,51.03.01.1003,Kuta,Kabupaten,Badung,Bali
344,80361,Kuta,51.03.01.1002,Kuta,Kabupaten,Badung,Bali
345,80361,Legian,51.03.01.1004,Kuta,Kabupaten,Badung,Bali
346,80361,Seminyak,51.03.01.1005,Kuta,Kabupaten,Badung,Bali
347,80361,Tuban,51.03.01.1001,Kuta,Kabupaten,Badung,Bali
348,81172,Bengkala,51.08.08.2010,Kubutambahan,Kabupaten,Buleleng,Bali
349,81172,Bila,51.08.08.2009,Kubutambahan,Kabupaten,Buleleng,Bali
350,81172,Bontihing,51.08.08.2003,Kubutambahan,Kabupaten,Buleleng,Bali
351,81172,Bukti,51.08.08.2012,Kubutambahan,Kabupaten,Buleleng,Bali
352,81172,Bulian,51.08.08.2008,Kubutambahan,Kabupaten,Buleleng,Bali
353,81172,Depeha,51.08.08.2006,Kubutambahan,Kabupaten,Buleleng,Bali
354,81172,Kubutambahan,51.08.08.2011,Kubutambahan,Kabupaten,Buleleng,Bali
355,81172,Mengening,51.08.08.2013,Kubutambahan,Kabupaten,Buleleng,Bali
356,81172,Pakisan,51.08.08.2002,Kubutambahan,Kabupaten,Buleleng,Bali
357,81172,Tajun,51.08.08.2004,Kubutambahan,Kabupaten,Buleleng,Bali
358,81172,Tambakan,51.08.08.2001,Kubutambahan,Kabupaten,Buleleng,Bali
359,81172,Tamblang,51.08.08.2007,Kubutambahan,Kabupaten,Buleleng,Bali
360,81172,Tunjung,51.08.08.2005,Kubutambahan,Kabupaten,Buleleng,Bali
361,80853,Ban,51.07.08.2001,Kubu,Kabupaten,Karangasem,Bali
362,80853,Baturinggit (Batu Ringgit),51.07.08.2008,Kubu,Kabupaten,Karangasem,Bali
363,80853,Dukuh,51.07.08.2002,Kubu,Kabupaten,Karangasem,Bali
364,80853,Kubu,51.07.08.2003,Kubu,Kabupaten,Karangasem,Bali
365,80853,Sukadana,51.07.08.2009,Kubu,Kabupaten,Karangasem,Bali
366,80853,Tianyar (Tianyar Timur),51.07.08.2004,Kubu,Kabupaten,Karangasem,Bali
367,80853,Tianyar Barat,51.07.08.2005,Kubu,Kabupaten,Karangasem,Bali
368,80853,Tianyar Tengah,51.07.08.2006,Kubu,Kabupaten,Karangasem,Bali
369,80853,Tulamben,51.07.08.2007,Kubu,Kabupaten,Karangasem,Bali
370,80716,Akah,51.05.03.2014,Klungkung,Kabupaten,Klungkung,Bali
371,80716,Gelgel,51.05.03.2003,Klungkung,Kabupaten,Klungkung,Bali
372,80716,Jumpai,51.05.03.2005,Klungkung,Kabupaten,Klungkung,Bali
373,80716,Kamasan,51.05.03.2007,Klungkung,Kabupaten,Klungkung,Bali
374,80716,Kampung Gelgel,51.05.03.2004,Klungkung,Kabupaten,Klungkung,Bali
375,80716,Manduang,51.05.03.2015,Klungkung,Kabupaten,Klungkung,Bali
376,80716,Satra,51.05.03.2001,Klungkung,Kabupaten,Klungkung,Bali
377,80716,Selat,51.05.03.2016,Klungkung,Kabupaten,Klungkung,Bali
378,80716,Selisihan,51.05.03.2018,Klungkung,Kabupaten,Klungkung,Bali
379,80712,Semarapura Kaja,51.05.03.1008,Klungkung,Kabupaten,Klungkung,Bali
380,80716,Semarapura Kangin,51.05.03.1011,Klungkung,Kabupaten,Klungkung,Bali
381,80713,Semarapura Kauh,51.05.03.1009,Klungkung,Kabupaten,Klungkung,Bali
382,80716,Semarapura Kelod Kangin (Semarapura Klod Kangin),51.05.03.1012,Klungkung,Kabupaten,Klungkung,Bali
383,80716,Semarapura Klod/Kelod,51.05.03.1013,Klungkung,Kabupaten,Klungkung,Bali
384,80711,Semarapura Tengah,51.05.03.1010,Klungkung,Kabupaten,Klungkung,Bali
385,80716,Tangkas,51.05.03.2006,Klungkung,Kabupaten,Klungkung,Bali
386,80716,Tegak,51.05.03.2017,Klungkung,Kabupaten,Klungkung,Bali
387,80716,Tojan,51.05.03.2002,Klungkung,Kabupaten,Klungkung,Bali
388,80652,Abangsongan (Abang Songan),51.06.04.2020,Kintamani,Kabupaten,Bangli,Bali
389,80652,Abuan,51.06.04.2013,Kintamani,Kabupaten,Bangli,Bali
390,80652,Awan,51.06.04.2032,Kintamani,Kabupaten,Bangli,Bali
391,80652,Bantang,51.06.04.2042,Kintamani,Kabupaten,Bangli,Bali
392,80652,Banua,51.06.04.2012,Kintamani,Kabupaten,Bangli,Bali
393,80652,Batudinding (Batu Dinding),51.06.04.2022,Kintamani,Kabupaten,Bangli,Bali
394,80652,Batukaang,51.06.04.2035,Kintamani,Kabupaten,Bangli,Bali
395,80652,Batur Selatan,51.06.04.2026,Kintamani,Kabupaten,Bangli,Bali
396,80652,Batur Tengah,51.06.04.2027,Kintamani,Kabupaten,Bangli,Bali
397,80652,Batur Utara,51.06.04.2028,Kintamani,Kabupaten,Bangli,Bali
398,80652,Bayung Cerik (Bayungcerik),51.06.04.2008,Kintamani,Kabupaten,Bangli,Bali
399,80652,Bayung Gede (Bayunggede),51.06.04.2016,Kintamani,Kabupaten,Bangli,Bali
400,80652,Belancan,51.06.04.2010,Kintamani,Kabupaten,Bangli,Bali
401,80652,Belandingan,51.06.04.2048,Kintamani,Kabupaten,Bangli,Bali
402,80652,Belanga,51.06.04.2034,Kintamani,Kabupaten,Bangli,Bali
403,80652,Belantih,51.06.04.2036,Kintamani,Kabupaten,Bangli,Bali
404,80652,Binyan,51.06.04.2002,Kintamani,Kabupaten,Bangli,Bali
405,80652,Bonyoh,51.06.04.2014,Kintamani,Kabupaten,Bangli,Bali
406,80652,Buahan,51.06.04.2019,Kintamani,Kabupaten,Bangli,Bali
407,80652,Bunutin,51.06.04.2004,Kintamani,Kabupaten,Bangli,Bali
408,80652,Catur,51.06.04.2037,Kintamani,Kabupaten,Bangli,Bali
409,80652,Daup,51.06.04.2031,Kintamani,Kabupaten,Bangli,Bali
410,80652,Dausa,51.06.04.2041,Kintamani,Kabupaten,Bangli,Bali
411,80652,Gunungbau,51.06.04.2033,Kintamani,Kabupaten,Bangli,Bali
412,80652,Katung,51.06.04.2011,Kintamani,Kabupaten,Bangli,Bali
413,80652,Kedisan,51.06.04.2018,Kintamani,Kabupaten,Bangli,Bali
414,80652,Kintamani,51.06.04.2029,Kintamani,Kabupaten,Bangli,Bali
415,80652,Kutuh,51.06.04.2044,Kintamani,Kabupaten,Bangli,Bali
416,80652,Langgahan,51.06.04.2005,Kintamani,Kabupaten,Bangli,Bali
417,80652,Lembean,51.06.04.2006,Kintamani,Kabupaten,Bangli,Bali
418,80652,Mangguh,51.06.04.2009,Kintamani,Kabupaten,Bangli,Bali
419,80652,Manikliyu,51.06.04.2007,Kintamani,Kabupaten,Bangli,Bali
420,80652,Mengani,51.06.04.2001,Kintamani,Kabupaten,Bangli,Bali
421,80652,Pengejaran,51.06.04.2038,Kintamani,Kabupaten,Bangli,Bali
422,80652,Pinggan,51.06.04.2047,Kintamani,Kabupaten,Bangli,Bali
423,80652,Satra,51.06.04.2040,Kintamani,Kabupaten,Bangli,Bali
424,80652,Sekaan,51.06.04.2015,Kintamani,Kabupaten,Bangli,Bali
425,80652,Sekardadi,51.06.04.2017,Kintamani,Kabupaten,Bangli,Bali
426,80652,Selulung,51.06.04.2039,Kintamani,Kabupaten,Bangli,Bali
427,80652,Serai (Serahi),51.06.04.2030,Kintamani,Kabupaten,Bangli,Bali
428,80652,Siakin (Siyakin),51.06.04.2046,Kintamani,Kabupaten,Bangli,Bali
429,80652,Songan A,51.06.04.2024,Kintamani,Kabupaten,Bangli,Bali
430,80652,Songan B,51.06.04.2025,Kintamani,Kabupaten,Bangli,Bali
431,80652,Subaya,51.06.04.2045,Kintamani,Kabupaten,Bangli,Bali
432,80652,Sukawana,51.06.04.2043,Kintamani,Kabupaten,Bangli,Bali
433,80652,Suter,51.06.04.2021,Kintamani,Kabupaten,Bangli,Bali
434,80652,Terunyan,51.06.04.2023,Kintamani,Kabupaten,Bangli,Bali
435,80652,Ulian,51.06.04.2003,Kintamani,Kabupaten,Bangli,Bali
436,82161,Batuaji,51.02.04.2013,Kerambitan,Kabupaten,Tabanan,Bali
437,82161,Baturiti,51.02.04.2010,Kerambitan,Kabupaten,Tabanan,Bali
438,82161,Belumbang,51.02.04.2004,Kerambitan,Kabupaten,Tabanan,Bali
439,82161,Kelating,51.02.04.2002,Kerambitan,Kabupaten,Tabanan,Bali
440,82161,Kerambitan,51.02.04.2006,Kerambitan,Kabupaten,Tabanan,Bali
441,82161,Kesiut,51.02.04.2014,Kerambitan,Kabupaten,Tabanan,Bali
442,82161,Kukuh,51.02.04.2009,Kerambitan,Kabupaten,Tabanan,Bali
443,82161,Meliling,51.02.04.2011,Kerambitan,Kabupaten,Tabanan,Bali
444,82161,Pangkung Karung,51.02.04.2007,Kerambitan,Kabupaten,Tabanan,Bali
445,82161,Penarukan,51.02.04.2003,Kerambitan,Kabupaten,Tabanan,Bali
446,82161,Samsam,51.02.04.2008,Kerambitan,Kabupaten,Tabanan,Bali
447,82161,Sembung Gede,51.02.04.2012,Kerambitan,Kabupaten,Tabanan,Bali
448,82161,Tibubiu (Tibu Biu / Tibubiyu),51.02.04.2001,Kerambitan,Kabupaten,Tabanan,Bali
449,82161,Timpag,51.02.04.2015,Kerambitan,Kabupaten,Tabanan,Bali
450,82161,Tista,51.02.04.2005,Kerambitan,Kabupaten,Tabanan,Bali
451,82121,Abian Tuwung,51.02.06.2014,Kediri,Kabupaten,Tabanan,Bali
452,82123,Banjar Anyar,51.02.06.2015,Kediri,Kabupaten,Tabanan,Bali
453,82121,Belalang,51.02.06.2003,Kediri,Kabupaten,Tabanan,Bali
454,82121,Bengkel,51.02.06.2001,Kediri,Kabupaten,Tabanan,Bali
455,82121,Beraban,51.02.06.2004,Kediri,Kabupaten,Tabanan,Bali
456,82121,Buwit,51.02.06.2005,Kediri,Kabupaten,Tabanan,Bali
457,82121,Cepaka,51.02.06.2006,Kediri,Kabupaten,Tabanan,Bali
458,82121,Kaba-Kaba,51.02.06.2007,Kediri,Kabupaten,Tabanan,Bali
459,82121,Kediri,51.02.06.2013,Kediri,Kabupaten,Tabanan,Bali
460,82121,Nyambu,51.02.06.2008,Kediri,Kabupaten,Tabanan,Bali
461,82121,Nyitdah,51.02.06.2011,Kediri,Kabupaten,Tabanan,Bali
462,82121,Pandak Bandung,51.02.06.2009,Kediri,Kabupaten,Tabanan,Bali
463,82121,Pandak Gede,51.02.06.2010,Kediri,Kabupaten,Tabanan,Bali
464,82121,Pangkung Tibah,51.02.06.2002,Kediri,Kabupaten,Tabanan,Bali
465,82121,Pejaten,51.02.06.2012,Kediri,Kabupaten,Tabanan,Bali
466,80811,Bugbug,51.07.04.2001,Karangasem (Karang Asem),Kabupaten,Karangasem,Bali
467,80811,Bukit,51.07.04.2011,Karangasem (Karang Asem),Kabupaten,Karangasem,Bali
468,80811,Karang asem (Karangasem),51.07.04.1004,Karangasem (Karang Asem),Kabupaten,Karangasem,Bali
469,80811,Padang Kerta,51.07.04.1003,Karangasem (Karang Asem),Kabupaten,Karangasem,Bali
470,80811,Pertima,51.07.04.2009,Karangasem (Karang Asem),Kabupaten,Karangasem,Bali
471,80811,Seraya (Seraya Tengah),51.07.04.2006,Karangasem (Karang Asem),Kabupaten,Karangasem,Bali
472,80811,Seraya Barat,51.07.04.2007,Karangasem (Karang Asem),Kabupaten,Karangasem,Bali
473,80811,Seraya Timur,51.07.04.2008,Karangasem (Karang Asem),Kabupaten,Karangasem,Bali
474,80813,Subagan,51.07.04.1002,Karangasem (Karang Asem),Kabupaten,Karangasem,Bali
475,80811,Tegalinggah (Tegallinggah),51.07.04.2010,Karangasem (Karang Asem),Kabupaten,Karangasem,Bali
476,80811,Tumbu,51.07.04.2005,Karangasem (Karang Asem),Kabupaten,Karangasem,Bali
477,82218,Air Kuning,51.01.05.2007,Jembrana,Kabupaten,Jembrana,Bali
478,82218,Batu Agung (Batuagung),51.01.05.2004,Jembrana,Kabupaten,Jembrana,Bali
479,82218,Budeng,51.01.05.2006,Jembrana,Kabupaten,Jembrana,Bali
480,82218,Dangin Tukadaya,51.01.05.2010,Jembrana,Kabupaten,Jembrana,Bali
481,82218,Dauhwaru,51.01.05.1005,Jembrana,Kabupaten,Jembrana,Bali
482,82216,Loloan Timur,51.01.05.1003,Jembrana,Kabupaten,Jembrana,Bali
483,82211,Pendem,51.01.05.1001,Jembrana,Kabupaten,Jembrana,Bali
484,82218,Perancak,51.01.05.2002,Jembrana,Kabupaten,Jembrana,Bali
485,82218,Sangkaragung,51.01.05.1009,Jembrana,Kabupaten,Jembrana,Bali
486,82218,Yehkuning (Yeh Kuning),51.01.05.2008,Jembrana,Kabupaten,Jembrana,Bali
487,80515,Abianbase,51.04.03.1005,Gianyar,Kabupaten,Gianyar,Bali
488,80515,Bakbakan,51.04.03.2009,Gianyar,Kabupaten,Gianyar,Bali
489,80513,Beng,51.04.03.1008,Gianyar,Kabupaten,Gianyar,Bali
490,80515,Bitera,51.04.03.1007,Gianyar,Kabupaten,Gianyar,Bali
491,80511,Gianyar,51.04.03.1006,Gianyar,Kabupaten,Gianyar,Bali
492,80515,Lebih,51.04.03.2004,Gianyar,Kabupaten,Gianyar,Bali
493,80515,Petak,51.04.03.2012,Gianyar,Kabupaten,Gianyar,Bali
494,80515,Petak Kaja,51.04.03.2014,Gianyar,Kabupaten,Gianyar,Bali
495,80512,Samplangan,51.04.03.1003,Gianyar,Kabupaten,Gianyar,Bali
496,80515,Serongga,51.04.03.2013,Gianyar,Kabupaten,Gianyar,Bali
497,80515,Siangan,51.04.03.2010,Gianyar,Kabupaten,Gianyar,Bali
498,80515,Sidan,51.04.03.2002,Gianyar,Kabupaten,Gianyar,Bali
499,80515,Sumita,51.04.03.2016,Gianyar,Kabupaten,Gianyar,Bali
500,80515,Suwat,51.04.03.2011,Gianyar,Kabupaten,Gianyar,Bali
501,80515,Tegal Tugu,51.04.03.2017,Gianyar,Kabupaten,Gianyar,Bali
502,80515,Temesi,51.04.03.2015,Gianyar,Kabupaten,Gianyar,Bali
503,80515,Tulikup,51.04.03.2001,Gianyar,Kabupaten,Gianyar,Bali
504,81155,Banyupoh,51.08.01.2005,Gerokgak,Kabupaten,Buleleng,Bali
505,81155,Celukanbawang (Celukan Bawang),51.08.01.2013,Gerokgak,Kabupaten,Buleleng,Bali
506,81155,Gerokgak,51.08.01.2009,Gerokgak,Kabupaten,Buleleng,Bali
507,81155,Musi,51.08.01.2007,Gerokgak,Kabupaten,Buleleng,Bali
508,81155,Patas,51.08.01.2010,Gerokgak,Kabupaten,Buleleng,Bali
509,81155,Pejarakan,51.08.01.2002,Gerokgak,Kabupaten,Buleleng,Bali
510,81155,Pemuteran,51.08.01.2004,Gerokgak,Kabupaten,Buleleng,Bali
511,81155,Pengulon,51.08.01.2011,Gerokgak,Kabupaten,Buleleng,Bali
512,81155,Penyambangan (Penyabangan),51.08.01.2006,Gerokgak,Kabupaten,Buleleng,Bali
513,81155,Sanggalangit,51.08.01.2008,Gerokgak,Kabupaten,Buleleng,Bali
514,81155,Sumberkima,51.08.01.2003,Gerokgak,Kabupaten,Buleleng,Bali
515,81155,Sumberklampok (Sumber Klampok),51.08.01.2001,Gerokgak,Kabupaten,Buleleng,Bali
516,81155,Tinga-tinga (Tinga Tinga),51.08.01.2012,Gerokgak,Kabupaten,Buleleng,Bali
517,81155,Tukadsumaga (Tukad Sumaga),51.08.01.2014,Gerokgak,Kabupaten,Buleleng,Bali
518,80231,Dangin Puri Kaja,51.71.04.2003,Denpasar Utara,Kota,Denpasar,Bali
519,80233,Dangin Puri Kangin,51.71.04.2001,Denpasar Utara,Kota,Denpasar,Bali
520,80231,Dangin Puri Kauh,51.71.04.2002,Denpasar Utara,Kota,Denpasar,Bali
521,80111,Dauh Puri Kaja,51.71.04.2006,Denpasar Utara,Kota,Denpasar,Bali
522,80115,Peguyangan,51.71.04.1009,Denpasar Utara,Kota,Denpasar,Bali
523,80115,Peguyangan Kaja,51.71.04.2010,Denpasar Utara,Kota,Denpasar,Bali
524,80115,Peguyangan Kangin,51.71.04.2011,Denpasar Utara,Kota,Denpasar,Bali
525,80118,Pemecutan Kaja,51.71.04.2005,Denpasar Utara,Kota,Denpasar,Bali
526,80239,Tonja,51.71.04.1004,Denpasar Utara,Kota,Denpasar,Bali
527,80116,Ubung,51.71.04.1007,Denpasar Utara,Kota,Denpasar,Bali
528,80116,Ubung Kaja,51.71.04.2008,Denpasar Utara,Kota,Denpasar,Bali
529,80232,Dangin Puri,51.71.02.1010,Denpasar Timur,Kota,Denpasar,Bali
530,80234,Dangin Puri Kelod (Dangin Puri Klod),51.71.02.2001,Denpasar Timur,Kota,Denpasar,Bali
531,80237,Kesiman,51.71.02.1003,Denpasar Timur,Kota,Denpasar,Bali
532,80237,Kesiman Kertalangu,51.71.02.2005,Denpasar Timur,Kota,Denpasar,Bali
533,80237,Kesiman Petilan,51.71.02.2004,Denpasar Timur,Kota,Denpasar,Bali
534,80238,Penatih,51.71.02.1014,Denpasar Timur,Kota,Denpasar,Bali
535,80238,Penatih Dangin Puri,51.71.02.2015,Denpasar Timur,Kota,Denpasar,Bali
536,80235,Sumerta,51.71.02.1006,Denpasar Timur,Kota,Denpasar,Bali
537,80236,Sumerta Kaja,51.71.02.2007,Denpasar Timur,Kota,Denpasar,Bali
538,80236,Sumerta Kauh,51.71.02.2008,Denpasar Timur,Kota,Denpasar,Bali
539,80239,Sumerta Kelod/Klod,51.71.02.2002,Denpasar Timur,Kota,Denpasar,Bali
540,80225,Panjer,51.71.01.1004,Denpasar Selatan,Kota,Denpasar,Bali
541,80222,Pedungan,51.71.01.1002,Denpasar Selatan,Kota,Denpasar,Bali
542,80221,Pemogan,51.71.01.2008,Denpasar Selatan,Kota,Denpasar,Bali
543,80226,Renon,51.71.01.1005,Denpasar Selatan,Kota,Denpasar,Bali
544,80228,Sanur,51.71.01.1006,Denpasar Selatan,Kota,Denpasar,Bali
545,80227,Sanur Kaja,51.71.01.2009,Denpasar Selatan,Kota,Denpasar,Bali
546,80227,Sanur Kauh,51.71.01.2010,Denpasar Selatan,Kota,Denpasar,Bali
547,80229,Serangan,51.71.01.1001,Denpasar Selatan,Kota,Denpasar,Bali
548,80223,Sesetan,51.71.01.1003,Denpasar Selatan,Kota,Denpasar,Bali
549,80224,Sidakarya,51.71.01.2007,Denpasar Selatan,Kota,Denpasar,Bali
550,80113,Dauh Puri,51.71.03.1005,Denpasar Barat,Kota,Denpasar,Bali
551,80112,Dauh Puri Kangin,51.71.03.2006,Denpasar Barat,Kota,Denpasar,Bali
552,80113,Dauh Puri Kauh,51.71.03.2003,Denpasar Barat,Kota,Denpasar,Bali
553,80114,Dauh Puri Klod/Kelod,51.71.03.2004,Denpasar Barat,Kota,Denpasar,Bali
554,80117,Padang Sambian Kaja (Padangsambian Kaja),51.71.03.2011,Denpasar Barat,Kota,Denpasar,Bali
555,80117,Padangsambian,51.71.03.1010,Denpasar Barat,Kota,Denpasar,Bali
556,80117,Padangsambian Klod/Kelod,51.71.03.2001,Denpasar Barat,Kota,Denpasar,Bali
557,80119,Pemecutan,51.71.03.1007,Denpasar Barat,Kota,Denpasar,Bali
558,80119,Pemecutan Klod/Kelod,51.71.03.2002,Denpasar Barat,Kota,Denpasar,Bali
559,80119,Tegal Harum,51.71.03.2008,Denpasar Barat,Kota,Denpasar,Bali
560,80119,Tegal Kertha,51.71.03.2009,Denpasar Barat,Kota,Denpasar,Bali
561,80761,Besan,51.05.04.2012,Dawan,Kabupaten,Klungkung,Bali
562,80761,Dawan Kaler,51.05.04.2011,Dawan,Kabupaten,Klungkung,Bali
563,80761,Dawan Kelod (Dawan Klod),51.05.04.2009,Dawan,Kabupaten,Klungkung,Bali
564,80761,Gunaksa,51.05.04.2005,Dawan,Kabupaten,Klungkung,Bali
565,80761,Kampung Kusamba,51.05.04.2007,Dawan,Kabupaten,Klungkung,Bali
566,80761,Kusamba,51.05.04.2006,Dawan,Kabupaten,Klungkung,Bali
567,80761,Paksebali,51.05.04.2001,Dawan,Kabupaten,Klungkung,Bali
568,80761,Pesinggahan,51.05.04.2008,Dawan,Kabupaten,Klungkung,Bali
569,80761,Pikat,51.05.04.2010,Dawan,Kabupaten,Klungkung,Bali
570,80761,Sampalan Kelod (Sampalan Klod),51.05.04.2003,Dawan,Kabupaten,Klungkung,Bali
571,80761,Sampalan Tengah,51.05.04.2002,Dawan,Kabupaten,Klungkung,Bali
572,80761,Sulang,51.05.04.2004,Dawan,Kabupaten,Klungkung,Bali
573,81154,Bengkel,51.08.03.2013,Busungbiu (Busung biu),Kabupaten,Buleleng,Bali
574,81154,Bongancina,51.08.03.2003,Busungbiu (Busung biu),Kabupaten,Buleleng,Bali
575,81154,Busungbiu,51.08.03.2011,Busungbiu (Busung biu),Kabupaten,Buleleng,Bali
576,81154,Kedia (Kedis),51.08.03.2009,Busungbiu (Busung biu),Kabupaten,Buleleng,Bali
577,81154,Kekeran,51.08.03.2010,Busungbiu (Busung biu),Kabupaten,Buleleng,Bali
578,81154,Pelapuan,51.08.03.2012,Busungbiu (Busung biu),Kabupaten,Buleleng,Bali
579,81154,Pucaksari,51.08.03.2004,Busungbiu (Busung biu),Kabupaten,Buleleng,Bali
580,81154,Sepang,51.08.03.2001,Busungbiu (Busung biu),Kabupaten,Buleleng,Bali
581,81154,Sepang Kelod,51.08.03.2015,Busungbiu (Busung biu),Kabupaten,Buleleng,Bali
582,81154,Subuk,51.08.03.2007,Busungbiu (Busung biu),Kabupaten,Buleleng,Bali
583,81154,Telaga,51.08.03.2005,Busungbiu (Busung biu),Kabupaten,Buleleng,Bali
584,81154,Tinggarsari,51.08.03.2008,Busungbiu (Busung biu),Kabupaten,Buleleng,Bali
585,81154,Tista,51.08.03.2002,Busungbiu (Busung biu),Kabupaten,Buleleng,Bali
586,81154,Titab,51.08.03.2006,Busungbiu (Busung biu),Kabupaten,Buleleng,Bali
587,81154,Umejero,51.08.03.2014,Busungbiu (Busung biu),Kabupaten,Buleleng,Bali
588,81119,Alasangker,51.08.06.2016,Buleleng,Kabupaten,Buleleng,Bali
589,81119,Anturan,51.08.06.2002,Buleleng,Kabupaten,Buleleng,Bali
590,81112,Astina,51.08.06.1022,Buleleng,Kabupaten,Buleleng,Bali
591,81113,Banjar Bali,51.08.06.1027,Buleleng,Kabupaten,Buleleng,Bali
592,81113,Banjar Jawa,51.08.06.1023,Buleleng,Kabupaten,Buleleng,Bali
593,81117,Banjar Tegal,51.08.06.1007,Buleleng,Kabupaten,Buleleng,Bali
594,81116,Banyuasari (Banyuasri),51.08.06.1006,Buleleng,Kabupaten,Buleleng,Bali
595,81119,Banyuning,51.08.06.1019,Buleleng,Kabupaten,Buleleng,Bali
596,81119,Beratan,51.08.06.1012,Buleleng,Kabupaten,Buleleng,Bali
597,81119,Bhakti Seraga (Baktiseraga),51.08.06.2005,Buleleng,Kabupaten,Buleleng,Bali
598,81119,Jinengdalem,51.08.06.2018,Buleleng,Kabupaten,Buleleng,Bali
599,81119,Kalibukbuk,51.08.06.2001,Buleleng,Kabupaten,Buleleng,Bali
600,81116,Kaliuntu,51.08.06.1024,Buleleng,Kabupaten,Buleleng,Bali
601,81115,Kampung Anyar,51.08.06.1025,Buleleng,Kabupaten,Buleleng,Bali
602,81114,Kampung Baru,51.08.06.1029,Buleleng,Kabupaten,Buleleng,Bali
603,81115,Kampung Bugis,51.08.06.1026,Buleleng,Kabupaten,Buleleng,Bali
604,81114,Kampung Kajanan,51.08.06.1021,Buleleng,Kabupaten,Buleleng,Bali
605,81111,Kampung Singaraja,51.08.06.1010,Buleleng,Kabupaten,Buleleng,Bali
606,81112,Kendran,51.08.06.1008,Buleleng,Kabupaten,Buleleng,Bali
607,81119,Liligundi,51.08.06.1011,Buleleng,Kabupaten,Buleleng,Bali
608,81119,Naga Sepaha (Nagasepaha),51.08.06.2014,Buleleng,Kabupaten,Buleleng,Bali
609,81118,Paket Agung,51.08.06.1009,Buleleng,Kabupaten,Buleleng,Bali
610,81119,Pemaron,51.08.06.2004,Buleleng,Kabupaten,Buleleng,Bali
611,81119,Penarukan,51.08.06.1020,Buleleng,Kabupaten,Buleleng,Bali
612,81119,Penglatan,51.08.06.2028,Buleleng,Kabupaten,Buleleng,Bali
613,81119,Petandakan,51.08.06.2015,Buleleng,Kabupaten,Buleleng,Bali
614,81119,Poh Bengong (Poh Bergong),51.08.06.2017,Buleleng,Kabupaten,Buleleng,Bali
615,81119,Sarimekar (Sari Mekar),51.08.06.2013,Buleleng,Kabupaten,Buleleng,Bali
616,81119,Tukadmungga,51.08.06.2003,Buleleng,Kabupaten,Buleleng,Bali
617,80581,Bedulu,51.04.02.2007,Blahbatuh (Belah Batuh),Kabupaten,Gianyar,Bali
618,80581,Belega,51.04.02.2004,Blahbatuh (Belah Batuh),Kabupaten,Gianyar,Bali
619,80581,Blahbatuh,51.04.02.2005,Blahbatuh (Belah Batuh),Kabupaten,Gianyar,Bali
620,80581,Bona,51.04.02.2009,Blahbatuh (Belah Batuh),Kabupaten,Gianyar,Bali
621,80581,Buruan,51.04.02.2006,Blahbatuh (Belah Batuh),Kabupaten,Gianyar,Bali
622,80581,Keramas,51.04.02.2003,Blahbatuh (Belah Batuh),Kabupaten,Gianyar,Bali
623,80581,Medahan,51.04.02.2008,Blahbatuh (Belah Batuh),Kabupaten,Gianyar,Bali
624,80581,Pering,51.04.02.2002,Blahbatuh (Belah Batuh),Kabupaten,Gianyar,Bali
625,80581,Saba,51.04.02.2001,Blahbatuh (Belah Batuh),Kabupaten,Gianyar,Bali
626,80861,Bebanden (Bebandem),51.07.06.2003,Bebandem,Kabupaten,Karangasem,Bali
627,80861,Buana Giri,51.07.06.2007,Bebandem,Kabupaten,Karangasem,Bali
628,80861,Budekeling (Budakeling / Bude Keling),51.07.06.2002,Bebandem,Kabupaten,Karangasem,Bali
629,80861,Bungaya (Bungaya Kauh),51.07.06.2001,Bebandem,Kabupaten,Karangasem,Bali
630,80861,Bungaya Kangin,51.07.06.2006,Bebandem,Kabupaten,Karangasem,Bali
631,80861,Jungutan,51.07.06.2005,Bebandem,Kabupaten,Karangasem,Bali
632,80861,Macang,51.07.06.2008,Bebandem,Kabupaten,Karangasem,Bali
633,80861,Sibetan,51.07.06.2004,Bebandem,Kabupaten,Karangasem,Bali
634,82191,Angseri,51.02.09.2004,Baturiti,Kabupaten,Tabanan,Bali
635,82191,Antapan,51.02.09.2007,Baturiti,Kabupaten,Tabanan,Bali
636,82191,Apuan,51.02.09.2003,Baturiti,Kabupaten,Tabanan,Bali
637,82191,Bangli,51.02.09.2005,Baturiti,Kabupaten,Tabanan,Bali
638,82191,Batunya,51.02.09.2010,Baturiti,Kabupaten,Tabanan,Bali
639,82191,Baturiti,51.02.09.2006,Baturiti,Kabupaten,Tabanan,Bali
640,82191,Candikuning,51.02.09.2008,Baturiti,Kabupaten,Tabanan,Bali
641,82191,Luwus,51.02.09.2002,Baturiti,Kabupaten,Tabanan,Bali
642,82191,Mekarsari,51.02.09.2009,Baturiti,Kabupaten,Tabanan,Bali
643,82191,Perean,51.02.09.2001,Baturiti,Kabupaten,Tabanan,Bali
644,82191,Perean Kangin,51.02.09.2012,Baturiti,Kabupaten,Tabanan,Bali
645,82191,Perean Tengah,51.02.09.2011,Baturiti,Kabupaten,Tabanan,Bali
646,80752,Aan,51.05.02.2008,Banjarangkan,Kabupaten,Klungkung,Bali
647,80752,Bakas,51.05.02.2005,Banjarangkan,Kabupaten,Klungkung,Bali
648,80752,Banjarangkan,51.05.02.2003,Banjarangkan,Kabupaten,Klungkung,Bali
649,80752,Bungbungan,51.05.02.2010,Banjarangkan,Kabupaten,Klungkung,Bali
650,80752,Getakan,51.05.02.2006,Banjarangkan,Kabupaten,Klungkung,Bali
651,80752,Negari,51.05.02.2001,Banjarangkan,Kabupaten,Klungkung,Bali
652,80752,Nyalian,51.05.02.2009,Banjarangkan,Kabupaten,Klungkung,Bali
653,80752,Nyanglan,51.05.02.2012,Banjarangkan,Kabupaten,Klungkung,Bali
654,80752,Takmung,51.05.02.2002,Banjarangkan,Kabupaten,Klungkung,Bali
655,80752,Tihingan,51.05.02.2007,Banjarangkan,Kabupaten,Klungkung,Bali
656,80752,Timuhun,51.05.02.2011,Banjarangkan,Kabupaten,Klungkung,Bali
657,80752,Tohpati,51.05.02.2013,Banjarangkan,Kabupaten,Klungkung,Bali
658,80752,Tusan,51.05.02.2004,Banjarangkan,Kabupaten,Klungkung,Bali
659,81152,Banjar,51.08.04.2013,Banjar,Kabupaten,Buleleng,Bali
660,81152,Banjar Tegeha,51.08.04.2012,Banjar,Kabupaten,Buleleng,Bali
661,81152,Banyuatis,51.08.04.2004,Banjar,Kabupaten,Buleleng,Bali
662,81152,Banyuseri (Banyusri),51.08.04.2001,Banjar,Kabupaten,Buleleng,Bali
663,81152,Cempaga,51.08.04.2009,Banjar,Kabupaten,Buleleng,Bali
664,81152,Dencarik,51.08.04.2014,Banjar,Kabupaten,Buleleng,Bali
665,81152,Gesing,51.08.04.2005,Banjar,Kabupaten,Buleleng,Bali
666,81152,Gobleg,51.08.04.2007,Banjar,Kabupaten,Buleleng,Bali
667,81152,Kaliasem,51.08.04.2017,Banjar,Kabupaten,Buleleng,Bali
668,81152,Kayuputih,51.08.04.2003,Banjar,Kabupaten,Buleleng,Bali
669,81152,Munduk,51.08.04.2006,Banjar,Kabupaten,Buleleng,Bali
670,81152,Pedawa,51.08.04.2008,Banjar,Kabupaten,Buleleng,Bali
671,81152,Sidetapa,51.08.04.2010,Banjar,Kabupaten,Buleleng,Bali
672,81152,Tampekan,51.08.04.2011,Banjar,Kabupaten,Buleleng,Bali
673,81152,Temukus,51.08.04.2015,Banjar,Kabupaten,Buleleng,Bali
674,81152,Tigawasa,51.08.04.2016,Banjar,Kabupaten,Buleleng,Bali
675,81152,Tirtasari,51.08.04.2002,Banjar,Kabupaten,Buleleng,Bali
676,80614,Bebalang,51.06.02.1003,Bangli,Kabupaten,Bangli,Bali
677,80614,Bunutin,51.06.02.2001,Bangli,Kabupaten,Bangli,Bali
678,80612,Cempaga,51.06.02.1005,Bangli,Kabupaten,Bangli,Bali
679,80613,Kawan,51.06.02.1004,Bangli,Kabupaten,Bangli,Bali
680,80614,Kayubihi,51.06.02.2007,Bangli,Kabupaten,Bangli,Bali
681,80611,Kubu,51.06.02.1006,Bangli,Kabupaten,Bangli,Bali
682,80611,Landih,51.06.02.2009,Bangli,Kabupaten,Bangli,Bali
683,80614,Pengotan,51.06.02.2008,Bangli,Kabupaten,Bangli,Bali
684,80614,Tamanbali (Taman Bali),51.06.02.2002,Bangli,Kabupaten,Bangli,Bali
685,80352,Abiansemal,51.03.03.2008,Abiansemal,Kabupaten,Badung,Bali
686,80352,Angantaka,51.03.03.2005,Abiansemal,Kabupaten,Badung,Bali
687,80352,Ayunan,51.03.03.2012,Abiansemal,Kabupaten,Badung,Bali
688,80352,Blahkiuh,51.03.03.2011,Abiansemal,Kabupaten,Badung,Bali
689,80352,Bongkasa,51.03.03.2009,Abiansemal,Kabupaten,Badung,Bali
690,80352,Bongkasa Pertiwi,51.03.03.2018,Abiansemal,Kabupaten,Badung,Bali
691,80352,Darmasaba,51.03.03.2001,Abiansemal,Kabupaten,Badung,Bali
692,80352,Dauh Yeh Cani,51.03.03.2016,Abiansemal,Kabupaten,Badung,Bali
693,80352,Jagapati,51.03.03.2004,Abiansemal,Kabupaten,Badung,Bali
694,80352,Mambal,51.03.03.2007,Abiansemal,Kabupaten,Badung,Bali
695,80352,Mekar Bhuwana,51.03.03.2015,Abiansemal,Kabupaten,Badung,Bali
696,80352,Punggul,51.03.03.2014,Abiansemal,Kabupaten,Badung,Bali
697,80352,Sangeh,51.03.03.2013,Abiansemal,Kabupaten,Badung,Bali
698,80352,Sedang,51.03.03.2006,Abiansemal,Kabupaten,Badung,Bali
699,80352,Selat,51.03.03.2017,Abiansemal,Kabupaten,Badung,Bali
700,80352,Sibang Gede,51.03.03.2003,Abiansemal,Kabupaten,Badung,Bali
701,80352,Sibang Kaja,51.03.03.2002,Abiansemal,Kabupaten,Badung,Bali
702,80352,Taman,51.03.03.2010,Abiansemal,Kabupaten,Badung,Bali
703,80852,Ababi,51.07.05.2001,Abang,Kabupaten,Karangasem,Bali
704,80852,Abang,51.07.05.2005,Abang,Kabupaten,Karangasem,Bali
705,80852,Bunutan,51.07.05.2003,Abang,Kabupaten,Karangasem,Bali
706,80852,Culik,51.07.05.2008,Abang,Kabupaten,Karangasem,Bali
707,80852,Datah,51.07.05.2007,Abang,Kabupaten,Karangasem,Bali
708,80852,Kerta Mandala,51.07.05.2010,Abang,Kabupaten,Karangasem,Bali
709,80852,Kesimpar,51.07.05.2013,Abang,Kabupaten,Karangasem,Bali
710,80852,Labasari (Laba Sari),51.07.05.2011,Abang,Kabupaten,Karangasem,Bali
711,80852,Nawa Kerti (Nawakerti),51.07.05.2012,Abang,Kabupaten,Karangasem,Bali
712,80852,Pidpid,51.07.05.2006,Abang,Kabupaten,Karangasem,Bali
713,80852,Purwakerti,51.07.05.2009,Abang,Kabupaten,Karangasem,Bali
714,80852,Tista,51.07.05.2004,Abang,Kabupaten,Karangasem,Bali
715,80852,Tiying Tali (Tiyingtali),51.07.05.2002,Abang,Kabupaten,Karangasem,Bali
716,80852,Tribuana (Tri Buana),51.07.05.2014,Abang,Kabupaten,Karangasem,Bali