no,postal_code,urban,area_code,sub_district,dt2,city,province
1,42352,Banjarsari,36.02.15.2006,Warunggunung,Kabupaten,Lebak,Banten
2,42352,Baros,36.02.15.2005,Warunggunung,Kabupaten,Lebak,Banten
3,42352,Cempaka,36.02.15.2011,Warunggunung,Kabupaten,Lebak,Banten
4,42352,Cibuah,36.02.15.2003,Warunggunung,Kabupaten,Lebak,Banten
5,42352,Jagabaya,36.02.15.2009,Warunggunung,Kabupaten,Lebak,Banten
6,42352,Padasuka,36.02.15.2007,Warunggunung,Kabupaten,Lebak,Banten
7,42352,Pasir Tangkil (Pasirtangkil),36.02.15.2004,Warunggunung,Kabupaten,Lebak,Banten
8,42352,Selaraja,36.02.15.2010,Warunggunung,Kabupaten,Lebak,Banten
9,42352,Sindangsari,36.02.15.2012,Warunggunung,Kabupaten,Lebak,Banten
10,42352,Sukaraja,36.02.15.2008,Warunggunung,Kabupaten,Lebak,Banten
11,42352,Sukarendah,36.02.15.2001,Warunggunung,Kabupaten,Lebak,Banten
12,42352,Warunggunung,36.02.15.2002,Warunggunung,Kabupaten,Lebak,Banten
13,42453,Binangun,36.04.06.2003,Waringinkurung (Waringin Kurung),Kabupaten,Serang,Banten
14,42453,Cokopsulanjana,36.04.06.2010,Waringinkurung (Waringin Kurung),Kabupaten,Serang,Banten
15,42453,Kemuning,36.04.06.2011,Waringinkurung (Waringin Kurung),Kabupaten,Serang,Banten
16,42453,Melati,36.04.06.2004,Waringinkurung (Waringin Kurung),Kabupaten,Serang,Banten
17,42453,Sambilawang,36.04.06.2008,Waringinkurung (Waringin Kurung),Kabupaten,Serang,Banten
18,42453,Sampir,36.04.06.2009,Waringinkurung (Waringin Kurung),Kabupaten,Serang,Banten
19,42453,Sasahan,36.04.06.2005,Waringinkurung (Waringin Kurung),Kabupaten,Serang,Banten
20,42453,Suka Dalem (Sukadalem),36.04.06.2006,Waringinkurung (Waringin Kurung),Kabupaten,Serang,Banten
21,42453,Sukabares,36.04.06.2007,Waringinkurung (Waringin Kurung),Kabupaten,Serang,Banten
22,42453,Talaga Luhur (Telaga Luhur),36.04.06.2002,Waringinkurung (Waringin Kurung),Kabupaten,Serang,Banten
23,42453,Waringinkurung,36.04.06.2001,Waringinkurung (Waringin Kurung),Kabupaten,Serang,Banten
24,42396,Bejod,36.02.21.2002,Wanasalam,Kabupaten,Lebak,Banten
25,42396,Cikeusik,36.02.21.2007,Wanasalam,Kabupaten,Lebak,Banten
26,42396,Cilangkap,36.02.21.2003,Wanasalam,Kabupaten,Lebak,Banten
27,42396,Cipedang,36.02.21.2011,Wanasalam,Kabupaten,Lebak,Banten
28,42396,Cipeucang,36.02.21.2004,Wanasalam,Kabupaten,Lebak,Banten
29,42396,Cisarap,36.02.21.2009,Wanasalam,Kabupaten,Lebak,Banten
30,42396,Karangpamindangan,36.02.21.2013,Wanasalam,Kabupaten,Lebak,Banten
31,42396,Katapang (Ketapang),36.02.21.2008,Wanasalam,Kabupaten,Lebak,Banten
32,42396,Muara,36.02.21.2005,Wanasalam,Kabupaten,Lebak,Banten
33,42396,Parungpanjang,36.02.21.2006,Wanasalam,Kabupaten,Lebak,Banten
34,42396,Parungsari,36.02.21.2012,Wanasalam,Kabupaten,Lebak,Banten
35,42396,Sukatani,36.02.21.2010,Wanasalam,Kabupaten,Lebak,Banten
36,42396,Wanasalam,36.02.21.2001,Wanasalam,Kabupaten,Lebak,Banten
37,42183,Cigoong,36.73.03.1002,Walantaka,Kota,Serang,Banten
38,42183,Kalodran (Kalodoran),36.73.03.1008,Walantaka,Kota,Serang,Banten
39,42183,Kapuren (Kepuren),36.73.03.1009,Walantaka,Kota,Serang,Banten
40,42183,Kiara,36.73.03.1006,Walantaka,Kota,Serang,Banten
41,42183,Lebakwangi,36.73.03.1016,Walantaka,Kota,Serang,Banten
42,42183,Nyapah,36.73.03.1003,Walantaka,Kota,Serang,Banten
43,42183,Pabuaran,36.73.03.1011,Walantaka,Kota,Serang,Banten
44,42183,Pager Agung (Pageragung),36.73.03.1007,Walantaka,Kota,Serang,Banten
45,42183,Pangampelan (Pengampelan),36.73.03.1004,Walantaka,Kota,Serang,Banten
46,42183,Pasuluhan,36.73.03.1012,Walantaka,Kota,Serang,Banten
47,42183,Pipitan,36.73.03.1014,Walantaka,Kota,Serang,Banten
48,42183,Tegalsari,36.73.03.1013,Walantaka,Kota,Serang,Banten
49,42183,Teritih,36.73.03.1010,Walantaka,Kota,Serang,Banten
50,42183,Walantaka,36.73.03.1001,Walantaka,Kota,Serang,Banten
51,42174,Bojong Catang,36.04.20.2007,Tunjung Teja,Kabupaten,Serang,Banten
52,42174,Bojong Menteng,36.04.20.2006,Tunjung Teja,Kabupaten,Serang,Banten
53,42174,Bojong Pandan,36.04.20.2008,Tunjung Teja,Kabupaten,Serang,Banten
54,42174,Kemuning (Kamuning),36.04.20.2005,Tunjung Teja,Kabupaten,Serang,Banten
55,42174,Malanggah,36.04.20.2004,Tunjung Teja,Kabupaten,Serang,Banten
56,42174,Pancaregang (Pancarecang),36.04.20.2009,Tunjung Teja,Kabupaten,Serang,Banten
57,42174,Panunggulan,36.04.20.2003,Tunjung Teja,Kabupaten,Serang,Banten
58,42174,Sukasari,36.04.20.2002,Tunjung Teja,Kabupaten,Serang,Banten
59,42174,Tanjung Teja (Tunjung Teja),36.04.20.2001,Tunjung Teja,Kabupaten,Serang,Banten
60,42193,Alang Alang,36.04.13.2012,Tirtayasa,Kabupaten,Serang,Banten
61,42193,Kamanisan (Kemanisan),36.04.13.2003,Tirtayasa,Kabupaten,Serang,Banten
62,42193,Kebon,36.04.13.2005,Tirtayasa,Kabupaten,Serang,Banten
63,42193,Kebuyutan,36.04.13.2013,Tirtayasa,Kabupaten,Serang,Banten
64,42193,Laban,36.04.13.2010,Tirtayasa,Kabupaten,Serang,Banten
65,42193,Lontar,36.04.13.2007,Tirtayasa,Kabupaten,Serang,Banten
66,42193,Pontang Legon,36.04.13.2004,Tirtayasa,Kabupaten,Serang,Banten
67,42193,Puser,36.04.13.2014,Tirtayasa,Kabupaten,Serang,Banten
68,42193,Samparwadi,36.04.13.2002,Tirtayasa,Kabupaten,Serang,Banten
69,42193,Sujung,36.04.13.2006,Tirtayasa,Kabupaten,Serang,Banten
70,42193,Susukan,36.04.13.2008,Tirtayasa,Kabupaten,Serang,Banten
71,42193,Tengkurak,36.04.13.2011,Tirtayasa,Kabupaten,Serang,Banten
72,42193,Tirtayasa,36.04.13.2001,Tirtayasa,Kabupaten,Serang,Banten
73,42193,Wargasara,36.04.13.2009,Tirtayasa,Kabupaten,Serang,Banten
74,15721,Bantar Panjang,36.03.03.2014,Tigaraksa,Kabupaten,Tangerang,Banten
75,15721,Cileles,36.03.03.2011,Tigaraksa,Kabupaten,Tangerang,Banten
76,15721,Cisereh,36.03.03.2009,Tigaraksa,Kabupaten,Tangerang,Banten
77,15721,Kadu Agung,36.03.03.1007,Tigaraksa,Kabupaten,Tangerang,Banten
78,15721,Margasari (Marga Sari),36.03.03.2010,Tigaraksa,Kabupaten,Tangerang,Banten
79,15721,Matagara (Mata Gara),36.03.03.2003,Tigaraksa,Kabupaten,Tangerang,Banten
80,15721,Pasir Bolang,36.03.03.2002,Tigaraksa,Kabupaten,Tangerang,Banten
81,15721,Pasir Nangka,36.03.03.2004,Tigaraksa,Kabupaten,Tangerang,Banten
82,15721,Pematang,36.03.03.2008,Tigaraksa,Kabupaten,Tangerang,Banten
83,15721,Pete,36.03.03.2005,Tigaraksa,Kabupaten,Tangerang,Banten
84,15721,Sodong,36.03.03.2012,Tigaraksa,Kabupaten,Tangerang,Banten
85,15721,Tapos,36.03.03.2013,Tigaraksa,Kabupaten,Tangerang,Banten
86,15721,Tegalsari,36.03.03.2006,Tigaraksa,Kabupaten,Tangerang,Banten
87,15721,Tigaraksa,36.03.03.1001,Tigaraksa,Kabupaten,Tangerang,Banten
88,15510,Babakan Asem,36.03.13.2003,Teluknaga,Kabupaten,Tangerang,Banten
89,15510,Bojong Renged,36.03.13.2002,Teluknaga,Kabupaten,Tangerang,Banten
90,15510,Kampung Besar,36.03.13.2013,Teluknaga,Kabupaten,Tangerang,Banten
91,15510,Kampung Melayu Barat,36.03.13.2007,Teluknaga,Kabupaten,Tangerang,Banten
92,15510,Kampung Melayu Timur,36.03.13.2006,Teluknaga,Kabupaten,Tangerang,Banten
93,15510,Keboncau (Kebon Cau),36.03.13.2004,Teluknaga,Kabupaten,Tangerang,Banten
94,15510,Lemo,36.03.13.2009,Teluknaga,Kabupaten,Tangerang,Banten
95,15510,Muara,36.03.13.2008,Teluknaga,Kabupaten,Tangerang,Banten
96,15510,Pangkalan,36.03.13.2005,Teluknaga,Kabupaten,Tangerang,Banten
97,15510,Tanjung Burung,36.03.13.2012,Teluknaga,Kabupaten,Tangerang,Banten
98,15510,Tanjung Pasir,36.03.13.2010,Teluknaga,Kabupaten,Tangerang,Banten
99,15510,Tegal Angus,36.03.13.2011,Teluknaga,Kabupaten,Tangerang,Banten
100,15510,Teluknaga (Teluk Naga),36.03.13.2001,Teluknaga,Kabupaten,Tangerang,Banten
101,15118,Babakan,36.71.01.1008,Tangerang,Kota,Tangerang,Banten
102,15119,Buaran Indah,36.71.01.1004,Tangerang,Kota,Tangerang,Banten
103,15117,Cikokol,36.71.01.1005,Tangerang,Kota,Tangerang,Banten
104,15117,Kelapa Indah,36.71.01.1006,Tangerang,Kota,Tangerang,Banten
105,15111,Sukaasih (Suka Asih),36.71.01.1002,Tangerang,Kota,Tangerang,Banten
106,15111,Sukarasa,36.71.01.1001,Tangerang,Kota,Tangerang,Banten
107,15118,Sukasari,36.71.01.1007,Tangerang,Kota,Tangerang,Banten
108,15119,Tanah Tinggi,36.71.01.1003,Tangerang,Kota,Tangerang,Banten
109,42194,Bendung,36.04.14.2007,Tanara,Kabupaten,Serang,Banten
110,42194,Cerukcuk,36.04.14.2002,Tanara,Kabupaten,Serang,Banten
111,42194,Cibodas,36.04.14.2009,Tanara,Kabupaten,Serang,Banten
112,42194,Lempuyang,36.04.14.2005,Tanara,Kabupaten,Serang,Banten
113,42194,Pedaleman,36.04.14.2008,Tanara,Kabupaten,Serang,Banten
114,42194,Siremen,36.04.14.2006,Tanara,Kabupaten,Serang,Banten
115,42194,Sukamanah,36.04.14.2004,Tanara,Kabupaten,Serang,Banten
116,42194,Tanara,36.04.14.2001,Tanara,Kabupaten,Serang,Banten
117,42194,Tenjoayu (Tenjo Ayu),36.04.14.2003,Tanara,Kabupaten,Serang,Banten
118,42162,Cibendung,36.73.06.1013,Taktakan,Kota,Serang,Banten
119,42162,Cilowong,36.73.06.1006,Taktakan,Kota,Serang,Banten
120,42162,Drangong,36.73.06.1008,Taktakan,Kota,Serang,Banten
121,42162,Kalanganyar (Kalang Anyar),36.73.06.1005,Taktakan,Kota,Serang,Banten
122,42162,Kuranji,36.73.06.1004,Taktakan,Kota,Serang,Banten
123,42162,Lialang,36.73.06.1011,Taktakan,Kota,Serang,Banten
124,42162,Pancur,36.73.06.1003,Taktakan,Kota,Serang,Banten
125,42162,Panggungjati,36.73.06.1007,Taktakan,Kota,Serang,Banten
126,42162,Sayar,36.73.06.1002,Taktakan,Kota,Serang,Banten
127,42162,Sepang,36.73.06.1010,Taktakan,Kota,Serang,Banten
128,42162,Taktakan,36.73.06.1001,Taktakan,Kota,Serang,Banten
129,42162,Taman Baru (Tamanbaru),36.73.06.1012,Taktakan,Kota,Serang,Banten
130,42162,Umbul Tengah,36.73.06.1009,Taktakan,Kota,Serang,Banten
131,42283,Cigorondong,36.01.01.2005,Sumur,Kabupaten,Pandeglang,Banten
132,42283,Kertajaya,36.01.01.2002,Sumur,Kabupaten,Pandeglang,Banten
133,42283,Kertamukti,36.01.01.2003,Sumur,Kabupaten,Pandeglang,Banten
134,42283,Sumberjaya,36.01.01.2001,Sumur,Kabupaten,Pandeglang,Banten
135,42283,Tamanjaya,36.01.01.2006,Sumur,Kabupaten,Pandeglang,Banten
136,42283,Tunggaljaya,36.01.01.2004,Sumur,Kabupaten,Pandeglang,Banten
137,42283,Ujungjaya,36.01.01.2007,Sumur,Kabupaten,Pandeglang,Banten
138,42267,Cibungur,36.01.29.2008,Sukaresmi,Kabupaten,Pandeglang,Banten
139,42267,Cikuya,36.01.29.2010,Sukaresmi,Kabupaten,Pandeglang,Banten
140,42267,Karyasari,36.01.29.2002,Sukaresmi,Kabupaten,Pandeglang,Banten
141,42267,Kubangkampil,36.01.29.2006,Sukaresmi,Kabupaten,Pandeglang,Banten
142,42267,Pasirkadu,36.01.29.2005,Sukaresmi,Kabupaten,Pandeglang,Banten
143,42267,Perdana,36.01.29.2003,Sukaresmi,Kabupaten,Pandeglang,Banten
144,42267,Seuseupan,36.01.29.2001,Sukaresmi,Kabupaten,Pandeglang,Banten
145,42267,Sidamukti,36.01.29.2007,Sukaresmi,Kabupaten,Pandeglang,Banten
146,42267,Sukaresmi,36.01.29.2004,Sukaresmi,Kabupaten,Pandeglang,Banten
147,42267,Weru,36.01.29.2009,Sukaresmi,Kabupaten,Pandeglang,Banten
148,15612,Benda,36.03.27.2001,Sukamulya,Kabupaten,Tangerang,Banten
149,15612,Bunar,36.03.27.2007,Sukamulya,Kabupaten,Tangerang,Banten
150,15612,Buniayu (Buni Ayu),36.03.27.2004,Sukamulya,Kabupaten,Tangerang,Banten
151,15612,Kaliasin (Kali Asin),36.03.27.2003,Sukamulya,Kabupaten,Tangerang,Banten
152,15612,Kubang,36.03.27.2008,Sukamulya,Kabupaten,Tangerang,Banten
153,15612,Merak,36.03.27.2006,Sukamulya,Kabupaten,Tangerang,Banten
154,15612,Parahu,36.03.27.2005,Sukamulya,Kabupaten,Tangerang,Banten
155,15612,Sukamulya (Suka Mulya),36.03.27.2002,Sukamulya,Kabupaten,Tangerang,Banten
156,15532,Buaran Jati,36.03.10.2002,Sukadiri,Kabupaten,Tangerang,Banten
157,15532,Gintung,36.03.10.2008,Sukadiri,Kabupaten,Tangerang,Banten
158,15532,Karang Serang,36.03.10.2005,Sukadiri,Kabupaten,Tangerang,Banten
159,15532,Kosambi,36.03.10.2006,Sukadiri,Kabupaten,Tangerang,Banten
160,15532,Mekar Kondang,36.03.10.2007,Sukadiri,Kabupaten,Tangerang,Banten
161,15532,Pekayon,36.03.10.2004,Sukadiri,Kabupaten,Tangerang,Banten
162,15532,Rawa Kidang,36.03.10.2003,Sukadiri,Kabupaten,Tangerang,Banten
163,15532,Sukadiri,36.03.10.2001,Sukadiri,Kabupaten,Tangerang,Banten
164,15731,Cikareo,36.03.31.2005,Solear,Kabupaten,Tangerang,Banten
165,15731,Cikasungka,36.03.31.2003,Solear,Kabupaten,Tangerang,Banten
166,15731,Cikuya,36.03.31.2002,Solear,Kabupaten,Tangerang,Banten
167,15731,Cireundeu,36.03.31.2004,Solear,Kabupaten,Tangerang,Banten
168,15731,Munjul,36.03.31.2007,Solear,Kabupaten,Tangerang,Banten
169,15731,Pasanggrahan,36.03.31.2006,Solear,Kabupaten,Tangerang,Banten
170,15731,Solear,36.03.31.2001,Solear,Kabupaten,Tangerang,Banten
171,42280,Bojen,36.01.35.2004,Sobang,Kabupaten,Pandeglang,Banten
172,42280,Bojenwetan,36.01.35.2008,Sobang,Kabupaten,Pandeglang,Banten
173,42280,Cimanis,36.01.35.2001,Sobang,Kabupaten,Pandeglang,Banten
174,42318,Ciparasi,36.02.22.2001,Sobang,Kabupaten,Lebak,Banten
175,42318,Cirompang,36.02.22.2009,Sobang,Kabupaten,Lebak,Banten
176,42318,Hariang,36.02.22.2006,Sobang,Kabupaten,Lebak,Banten
177,42280,Kertaraharja,36.01.35.2003,Sobang,Kabupaten,Pandeglang,Banten
178,42280,Kutamekar,36.01.35.2005,Sobang,Kabupaten,Pandeglang,Banten
179,42318,Majasari,36.02.22.2007,Sobang,Kabupaten,Lebak,Banten
180,42280,Pangkalan,36.01.35.2007,Sobang,Kabupaten,Pandeglang,Banten
181,42318,Sinar Jaya,36.02.22.2008,Sobang,Kabupaten,Lebak,Banten
182,42315,Sindanglaya,36.02.22.2004,Sobang,Kabupaten,Lebak,Banten
183,42318,Sobang,36.02.22.2002,Sobang,Kabupaten,Lebak,Banten
184,42280,Sobang,36.01.35.2006,Sobang,Kabupaten,Pandeglang,Banten
185,42318,Sukajaya,36.02.22.2003,Sobang,Kabupaten,Lebak,Banten
186,42318,Sukamaju,36.02.22.2005,Sobang,Kabupaten,Lebak,Banten
187,42318,Sukaresmi,36.02.22.2010,Sobang,Kabupaten,Lebak,Banten
188,42280,Teluklada,36.01.35.2002,Sobang,Kabupaten,Pandeglang,Banten
189,42276,Bojongmanik,36.01.31.2003,Sindangresmi,Kabupaten,Pandeglang,Banten
190,42276,Cempakawarna (Campakawarna),36.01.31.2004,Sindangresmi,Kabupaten,Pandeglang,Banten
191,42276,Ciodeng,36.01.31.2001,Sindangresmi,Kabupaten,Pandeglang,Banten
192,42276,Kadumalati,36.01.31.2009,Sindangresmi,Kabupaten,Pandeglang,Banten
193,42276,Pasirdurung,36.01.31.2008,Sindangresmi,Kabupaten,Pandeglang,Banten
194,42276,Pasirlancar,36.01.31.2006,Sindangresmi,Kabupaten,Pandeglang,Banten
195,42276,Pasirloa,36.01.31.2005,Sindangresmi,Kabupaten,Pandeglang,Banten
196,42276,Pasirtenjo,36.01.31.2002,Sindangresmi,Kabupaten,Pandeglang,Banten
197,42276,Sidangresmi (Sindangresmi),36.01.31.2007,Sindangresmi,Kabupaten,Pandeglang,Banten
198,15561,Badak Anom,36.03.29.2007,Sindang Jaya,Kabupaten,Tangerang,Banten
199,15561,Sindang Jaya,36.03.29.2001,Sindang Jaya,Kabupaten,Tangerang,Banten
200,15561,Sindangasih (Sindang Asih),36.03.29.2004,Sindang Jaya,Kabupaten,Tangerang,Banten
201,15561,Sindangpanon (Sindang Panon),36.03.29.2005,Sindang Jaya,Kabupaten,Tangerang,Banten
202,15561,Sindangsono (Sindang Sono),36.03.29.2006,Sindang Jaya,Kabupaten,Tangerang,Banten
203,15561,Sukaharja (Suka Harja),36.03.29.2003,Sindang Jaya,Kabupaten,Tangerang,Banten
204,15561,Wanakerta (Wana Kerta),36.03.29.2002,Sindang Jaya,Kabupaten,Tangerang,Banten
205,15315,Babakan,36.74.07.1005,Setu,Kota,Tangerang Selatan,Banten
206,15315,Bakti Jaya,36.74.07.1006,Setu,Kota,Tangerang Selatan,Banten
207,15313,Kademangan,36.74.07.1004,Setu,Kota,Tangerang Selatan,Banten
208,15312,Keranggan (Kranggan),36.74.07.1003,Setu,Kota,Tangerang Selatan,Banten
209,15314,Muncul,36.74.07.1001,Setu,Kota,Tangerang Selatan,Banten
210,15314,Setu,36.74.07.1002,Setu,Kota,Tangerang Selatan,Banten
211,15323,Jelupang,36.74.02.1006,Serpong Utara,Kota,Tangerang Selatan,Banten
212,15320,Lengkong Karya,36.74.02.1007,Serpong Utara,Kota,Tangerang Selatan,Banten
213,15320,Pakualam,36.74.02.1002,Serpong Utara,Kota,Tangerang Selatan,Banten
214,15324,Pakujaya (Paku Jaya),36.74.02.1003,Serpong Utara,Kota,Tangerang Selatan,Banten
215,15325,Pakulonan,36.74.02.1001,Serpong Utara,Kota,Tangerang Selatan,Banten
216,15326,Pondok Jagung,36.74.02.1004,Serpong Utara,Kota,Tangerang Selatan,Banten
217,15326,Pondok Jagung Timur,36.74.02.1005,Serpong Utara,Kota,Tangerang Selatan,Banten
218,15310,Buaran,36.74.01.1006,Serpong,Kota,Tangerang Selatan,Banten
219,15310,Ciater,36.74.01.1001,Serpong,Kota,Tangerang Selatan,Banten
220,15310,Cilenggang,36.74.01.1008,Serpong,Kota,Tangerang Selatan,Banten
221,15321,Lengkong Gudang,36.74.01.1004,Serpong,Kota,Tangerang Selatan,Banten
222,15321,Lengkong Gudang Timur,36.74.01.1007,Serpong,Kota,Tangerang Selatan,Banten
223,15322,Lengkong Wetan,36.74.01.1005,Serpong,Kota,Tangerang Selatan,Banten
224,15310,Rawa Mekarjaya (Rawa Mekar Jaya),36.74.01.1003,Serpong,Kota,Tangerang Selatan,Banten
225,15318,Rawabuntu (Rawa Buntu),36.74.01.1002,Serpong,Kota,Tangerang Selatan,Banten
226,15311,Serpong,36.74.01.1009,Serpong,Kota,Tangerang Selatan,Banten
227,42111,Cimuncang,36.73.01.1006,Serang,Kota,Serang,Banten
228,42117,Cipare,36.73.01.1002,Serang,Kota,Serang,Banten
229,42114,Kagungan,36.73.01.1012,Serang,Kota,Serang,Banten
230,42116,Kaligandu,36.73.01.1010,Serang,Kota,Serang,Banten
231,42112,Kota Baru (Kotabaru),36.73.01.1004,Serang,Kota,Serang,Banten
232,42115,Lontarbaru,36.73.01.1009,Serang,Kota,Serang,Banten
233,42113,Lopang,36.73.01.1005,Serang,Kota,Serang,Banten
234,42116,Serang,36.73.01.1001,Serang,Kota,Serang,Banten
235,42116,Sukawana,36.73.01.1008,Serang,Kota,Serang,Banten
236,42118,Sumur Pecung (Sumurpecung),36.73.01.1003,Serang,Kota,Serang,Banten
237,42119,Terondol,36.73.01.1011,Serang,Kota,Serang,Banten
238,42111,Unyur,36.73.01.1007,Serang,Kota,Serang,Banten
239,15521,Gempol Sari,36.03.30.2005,Sepatan Timur,Kabupaten,Tangerang,Banten
240,15521,Jati Mulya,36.03.30.2003,Sepatan Timur,Kabupaten,Tangerang,Banten
241,15521,Kampung Kelor,36.03.30.2006,Sepatan Timur,Kabupaten,Tangerang,Banten
242,15521,Kedaung Barat,36.03.30.2001,Sepatan Timur,Kabupaten,Tangerang,Banten
243,15521,Lebak Wangi,36.03.30.2002,Sepatan Timur,Kabupaten,Tangerang,Banten
244,15521,Pondok Kelor,36.03.30.2007,Sepatan Timur,Kabupaten,Tangerang,Banten
245,15521,Sangiang,36.03.30.2004,Sepatan Timur,Kabupaten,Tangerang,Banten
246,15521,Tanah Merah,36.03.30.2008,Sepatan Timur,Kabupaten,Tangerang,Banten
247,15520,Karet,36.03.16.2002,Sepatan,Kabupaten,Tangerang,Banten
248,15520,Kayu Agung,36.03.16.2003,Sepatan,Kabupaten,Tangerang,Banten
249,15520,Kayu Bongkok,36.03.16.2004,Sepatan,Kabupaten,Tangerang,Banten
250,15520,Mekar Jaya,36.03.16.2012,Sepatan,Kabupaten,Tangerang,Banten
251,15520,Pisangan Jaya,36.03.16.2011,Sepatan,Kabupaten,Tangerang,Banten
252,15520,Pondok Jaya,36.03.16.2008,Sepatan,Kabupaten,Tangerang,Banten
253,15520,Sarakan,36.03.16.2015,Sepatan,Kabupaten,Tangerang,Banten
254,15520,Sepatan,36.03.16.1001,Sepatan,Kabupaten,Tangerang,Banten
255,42278,Ciandur,36.01.14.2006,Saketi,Kabupaten,Pandeglang,Banten
256,42278,Girijaya,36.01.14.2012,Saketi,Kabupaten,Pandeglang,Banten
257,42278,Kadudampit,36.01.14.2007,Saketi,Kabupaten,Pandeglang,Banten
258,42278,Langensari,36.01.14.2001,Saketi,Kabupaten,Pandeglang,Banten
259,42278,Majau,36.01.14.2003,Saketi,Kabupaten,Pandeglang,Banten
260,42278,Medalsari,36.01.14.2002,Saketi,Kabupaten,Pandeglang,Banten
261,42278,Mekarwangi,36.01.14.2010,Saketi,Kabupaten,Pandeglang,Banten
262,42278,Parigi,36.01.14.2009,Saketi,Kabupaten,Pandeglang,Banten
263,42278,Saketi,36.01.14.2011,Saketi,Kabupaten,Pandeglang,Banten
264,42278,Sindanghayu,36.01.14.2013,Saketi,Kabupaten,Pandeglang,Banten
265,42278,Sodong,36.01.14.2004,Saketi,Kabupaten,Pandeglang,Banten
266,42278,Sukalangu,36.01.14.2014,Saketi,Kabupaten,Pandeglang,Banten
267,42278,Talagasari,36.01.14.2005,Saketi,Kabupaten,Pandeglang,Banten
268,42278,Wanagiri,36.01.14.2008,Saketi,Kabupaten,Pandeglang,Banten
269,42371,Bungurmekar (Bangunmekar),36.02.12.2014,Sajira,Kabupaten,Lebak,Banten
270,42371,Calungbungur,36.02.12.2004,Sajira,Kabupaten,Lebak,Banten
271,42371,Ciuyah,36.02.12.2015,Sajira,Kabupaten,Lebak,Banten
272,42371,Maraya,36.02.12.2001,Sajira,Kabupaten,Lebak,Banten
273,42371,Margaluyu,36.02.12.2013,Sajira,Kabupaten,Lebak,Banten
274,42371,Mekarsari,36.02.12.2007,Sajira,Kabupaten,Lebak,Banten
275,42371,Paja,36.02.12.2012,Sajira,Kabupaten,Lebak,Banten
276,42371,Pajagan,36.02.12.2009,Sajira,Kabupaten,Lebak,Banten
277,42371,Parungsari,36.02.12.2005,Sajira,Kabupaten,Lebak,Banten
278,42371,Sajira,36.02.12.2002,Sajira,Kabupaten,Lebak,Banten
279,42371,Sajira Mekar (Sajiramekar),36.02.12.2011,Sajira,Kabupaten,Lebak,Banten
280,42371,Sindangsari,36.02.12.2006,Sajira,Kabupaten,Lebak,Banten
281,42371,Sukajaya,36.02.12.2010,Sajira,Kabupaten,Lebak,Banten
282,42371,Sukamarga,36.02.12.2008,Sajira,Kabupaten,Lebak,Banten
283,42371,Sukarame,36.02.12.2003,Sajira,Kabupaten,Lebak,Banten
284,42317,Cijoro Lebak,36.02.14.1006,Rangkasbitung,Kabupaten,Lebak,Banten
285,42316,Cijoro Pasir,36.02.14.1008,Rangkasbitung,Kabupaten,Lebak,Banten
286,42312,Cimangeunteung (Cimangeungteung),36.02.14.2021,Rangkasbitung,Kabupaten,Lebak,Banten
287,42312,Citeras,36.02.14.2009,Rangkasbitung,Kabupaten,Lebak,Banten
288,42315,Jatimulya,36.02.14.2013,Rangkasbitung,Kabupaten,Lebak,Banten
289,42312,Kolelet Wetan,36.02.14.2011,Rangkasbitung,Kabupaten,Lebak,Banten
290,42312,Mekarsari,36.02.14.2014,Rangkasbitung,Kabupaten,Lebak,Banten
291,42311,Muara Ciujung Barat,36.02.14.1007,Rangkasbitung,Kabupaten,Lebak,Banten
292,42314,Muara Ciujung Timur,36.02.14.1012,Rangkasbitung,Kabupaten,Lebak,Banten
293,42312,Nameng,36.02.14.2010,Rangkasbitung,Kabupaten,Lebak,Banten
294,42319,Narimbang Mulia,36.02.14.2023,Rangkasbitung,Kabupaten,Lebak,Banten
295,42312,Pabuaran,36.02.14.2016,Rangkasbitung,Kabupaten,Lebak,Banten
296,42312,Pasirtanjung,36.02.14.2001,Rangkasbitung,Kabupaten,Lebak,Banten
297,42312,Rangkasbitung Barat,36.02.14.1002,Rangkasbitung,Kabupaten,Lebak,Banten
298,42313,Rangkasbitung Timur,36.02.14.2017,Rangkasbitung,Kabupaten,Lebak,Banten
299,42312,Sukamanah,36.02.14.2019,Rangkasbitung,Kabupaten,Lebak,Banten
300,15540,Daon,36.03.11.2013,Rajeg,Kabupaten,Tangerang,Banten
301,15540,Jambu Karya,36.03.11.2005,Rajeg,Kabupaten,Tangerang,Banten
302,15540,Lembangsari (Lembang Sari),36.03.11.2006,Rajeg,Kabupaten,Tangerang,Banten
303,15540,Mekarsari,36.03.11.2014,Rajeg,Kabupaten,Tangerang,Banten
304,15540,Pangarengan,36.03.11.2003,Rajeg,Kabupaten,Tangerang,Banten
305,15540,Rajeg,36.03.11.2001,Rajeg,Kabupaten,Tangerang,Banten
306,15540,Rajeg Mulya (Rajegmulya),36.03.11.2002,Rajeg,Kabupaten,Tangerang,Banten
307,15540,Ranca Bango,36.03.11.2012,Rajeg,Kabupaten,Tangerang,Banten
308,15540,Sukamanah (Suka Manah),36.03.11.2007,Rajeg,Kabupaten,Tangerang,Banten
309,15540,Sukasari (Suka Sari),36.03.11.2011,Rajeg,Kabupaten,Tangerang,Banten
310,15540,Sukatani (Suka Tani),36.03.11.1010,Rajeg,Kabupaten,Tangerang,Banten
311,15540,Tanjakan,36.03.11.2008,Rajeg,Kabupaten,Tangerang,Banten
312,15540,Tanjakan Mekar,36.03.11.2009,Rajeg,Kabupaten,Tangerang,Banten
313,42433,Kebon Dalem (Kebondalem),36.72.07.1003,Purwakarta,Kota,Cilegon,Banten
314,42434,Kotabumi,36.72.07.1002,Purwakarta,Kota,Cilegon,Banten
315,42437,Pabean,36.72.07.1006,Purwakarta,Kota,Cilegon,Banten
316,42437,Purwakarta,36.72.07.1004,Purwakarta,Kota,Cilegon,Banten
317,42431,Ramanuju,36.72.07.1001,Purwakarta,Kota,Cilegon,Banten
318,42437,Tegal Bunder,36.72.07.1005,Purwakarta,Kota,Cilegon,Banten
319,42254,Banjarnegara,36.01.32.2007,Pulosari,Kabupaten,Pandeglang,Banten
320,42254,Banjarwangi,36.01.32.2002,Pulosari,Kabupaten,Pandeglang,Banten
321,42254,Cilentung,36.01.32.2009,Pulosari,Kabupaten,Pandeglang,Banten
322,42254,Kaduhejo,36.01.32.2006,Pulosari,Kabupaten,Pandeglang,Banten
323,42254,Karyawangi,36.01.32.2004,Pulosari,Kabupaten,Pandeglang,Banten
324,42254,Koranji,36.01.32.2001,Pulosari,Kabupaten,Pandeglang,Banten
325,42254,Sanghiangdengdek,36.01.32.2008,Pulosari,Kabupaten,Pandeglang,Banten
326,42254,Sukaraja,36.01.32.2005,Pulosari,Kabupaten,Pandeglang,Banten
327,42254,Sukasari,36.01.32.2003,Pulosari,Kabupaten,Pandeglang,Banten
328,42431,Lebakgede (Lebak Gede),36.72.03.1002,Pulomerak,Kota,Cilegon,Banten
329,42438,Mekarsari,36.72.03.1003,Pulomerak,Kota,Cilegon,Banten
330,42439,Suralaya,36.72.03.1004,Pulomerak,Kota,Cilegon,Banten
331,42438,Tamansari,36.72.03.1001,Pulomerak,Kota,Cilegon,Banten
332,42455,Argawana,36.04.08.2006,Pulo Ampel,Kabupaten,Serang,Banten
333,42455,Banyuwangi,36.04.08.2007,Pulo Ampel,Kabupaten,Serang,Banten
334,42455,Gedung Soka (Kedung Soka),36.04.08.2004,Pulo Ampel,Kabupaten,Serang,Banten
335,42455,Mangunreja,36.04.08.2003,Pulo Ampel,Kabupaten,Serang,Banten
336,42455,Margasari,36.04.08.2008,Pulo Ampel,Kabupaten,Serang,Banten
337,42455,Pulo Ampel,36.04.08.2001,Pulo Ampel,Kabupaten,Serang,Banten
338,42455,Pulo Panjang,36.04.08.2009,Pulo Ampel,Kabupaten,Serang,Banten
339,42455,Salira,36.04.08.2005,Pulo Ampel,Kabupaten,Serang,Banten
340,42455,Sumuranja,36.04.08.2002,Pulo Ampel,Kabupaten,Serang,Banten
341,42192,Domas,36.04.12.2009,Pontang,Kabupaten,Serang,Banten
342,42192,Kaserangan (Keserangan),36.04.12.2011,Pontang,Kabupaten,Serang,Banten
343,42192,Kelapian (Kalapian),36.04.12.2006,Pontang,Kabupaten,Serang,Banten
344,42192,Kubang Puji,36.04.12.2008,Pontang,Kabupaten,Serang,Banten
345,42192,Linduk,36.04.12.2003,Pontang,Kabupaten,Serang,Banten
346,42192,Pontang,36.04.12.2001,Pontang,Kabupaten,Serang,Banten
347,42192,Pulokencana (Pulo Kencana),36.04.12.2004,Pontang,Kabupaten,Serang,Banten
348,42192,Singarajan,36.04.12.2010,Pontang,Kabupaten,Serang,Banten
349,42192,Suka Jaya (Sukajaya),36.04.12.2013,Pontang,Kabupaten,Serang,Banten
350,42192,Sukanegara,36.04.12.2002,Pontang,Kabupaten,Serang,Banten
351,42192,Wanayasa,36.04.12.2012,Pontang,Kabupaten,Serang,Banten
352,15223,Jurangmangu Barat (Jurang Mangu Barat),36.74.03.1010,Pondok Aren,Kota,Tangerang Selatan,Banten
353,15222,Jurangmangu Timur (Jurang Mangu Timur),36.74.03.1011,Pondok Aren,Kota,Tangerang Selatan,Banten
354,15227,Parigi (Perigi Lama),36.74.03.1008,Pondok Aren,Kota,Tangerang Selatan,Banten
355,15228,Parigi Baru (Perigi Baru),36.74.03.1009,Pondok Aren,Kota,Tangerang Selatan,Banten
356,15224,Pondok Aren,36.74.03.1005,Pondok Aren,Kota,Tangerang Selatan,Banten
357,15221,Pondok Betung,36.74.03.1001,Pondok Aren,Kota,Tangerang Selatan,Banten
358,15220,Pondok Jaya,36.74.03.1004,Pondok Aren,Kota,Tangerang Selatan,Banten
359,15226,Pondok Kacang Barat,36.74.03.1006,Pondok Aren,Kota,Tangerang Selatan,Banten
360,15226,Pondok Kacang Timur,36.74.03.1007,Pondok Aren,Kota,Tangerang Selatan,Banten
361,15225,Pondok Karya,36.74.03.1003,Pondok Aren,Kota,Tangerang Selatan,Banten
362,15229,Pondok Pucung,36.74.03.1002,Pondok Aren,Kota,Tangerang Selatan,Banten
363,15142,Cipete,36.71.11.1007,Pinang (Penang),Kota,Tangerang,Banten
364,15144,Kunciran,36.71.11.1004,Pinang (Penang),Kota,Tangerang,Banten
365,15144,Kunciran Indah,36.71.11.1005,Pinang (Penang),Kota,Tangerang,Banten
366,15144,Kunciran Jaya,36.71.11.1006,Pinang (Penang),Kota,Tangerang,Banten
367,15145,Nerogtog,36.71.11.1003,Pinang (Penang),Kota,Tangerang,Banten
368,15142,Pakojan,36.71.11.1008,Pinang (Penang),Kota,Tangerang,Banten
369,15143,Panunggangan,36.71.11.1009,Pinang (Penang),Kota,Tangerang,Banten
370,15143,Panunggangan Timur,36.71.11.1011,Pinang (Penang),Kota,Tangerang,Banten
371,15143,Panunggangan Utara,36.71.11.1010,Pinang (Penang),Kota,Tangerang,Banten
372,15145,Pinang,36.71.11.1001,Pinang (Penang),Kota,Tangerang,Banten
373,15145,Sudimara Pinang,36.71.11.1002,Pinang (Penang),Kota,Tangerang,Banten
374,42275,Bungurcopong,36.01.11.2006,Picung,Kabupaten,Pandeglang,Banten
375,42275,Ciherang,36.01.11.2005,Picung,Kabupaten,Pandeglang,Banten
376,42275,Cililitan,36.01.11.2002,Picung,Kabupaten,Pandeglang,Banten
377,42275,Ganggaeng,36.01.11.2009,Picung,Kabupaten,Pandeglang,Banten
378,42275,Kadubera,36.01.11.2008,Picung,Kabupaten,Pandeglang,Banten
379,42275,Kadupandak,36.01.11.2003,Picung,Kabupaten,Pandeglang,Banten
380,42275,Kolelet,36.01.11.2004,Picung,Kabupaten,Pandeglang,Banten
381,42275,Pasirpanjang,36.01.11.2007,Picung,Kabupaten,Pandeglang,Banten
382,42275,Pasirsedang,36.01.11.2001,Picung,Kabupaten,Pandeglang,Banten
383,42172,Bojong Nangka,36.04.19.2015,Petir,Kabupaten,Serang,Banten
384,42172,Cirangkong,36.04.19.2002,Petir,Kabupaten,Serang,Banten
385,42172,Cirendeu (Cireundeu),36.04.19.2009,Petir,Kabupaten,Serang,Banten
386,42172,Kadugenep,36.04.19.2008,Petir,Kabupaten,Serang,Banten
387,42172,Kampung Baru,36.04.19.2011,Petir,Kabupaten,Serang,Banten
388,42172,Kubang Jaya,36.04.19.2014,Petir,Kabupaten,Serang,Banten
389,42172,Mekar Baru (Mekarbaru),36.04.19.2012,Petir,Kabupaten,Serang,Banten
390,42172,Nagarapadang (Nagara Padang),36.04.19.2007,Petir,Kabupaten,Serang,Banten
391,42172,Padasuka,36.04.19.2005,Petir,Kabupaten,Serang,Banten
392,42172,Petir,36.04.19.2001,Petir,Kabupaten,Serang,Banten
393,42172,Sanding,36.04.19.2010,Petir,Kabupaten,Serang,Banten
394,42172,Seuat,36.04.19.2006,Petir,Kabupaten,Serang,Banten
395,42172,Seuat Jaya,36.04.19.2013,Petir,Kabupaten,Serang,Banten
396,42172,Sindangsari,36.04.19.2004,Petir,Kabupaten,Serang,Banten
397,42172,Tambiluk,36.04.19.2003,Petir,Kabupaten,Serang,Banten
398,15132,Gebang Raya,36.71.08.1003,Periuk,Kota,Tangerang,Banten
399,15133,Gembor,36.71.08.1002,Periuk,Kota,Tangerang,Banten
400,15131,Periuk,36.71.08.1001,Periuk,Kota,Tangerang,Banten
401,15131,Periuk Jaya,36.71.08.1005,Periuk,Kota,Tangerang,Banten
402,15132,Sangiang Jaya,36.71.08.1004,Periuk,Kota,Tangerang,Banten
403,42266,Babakankeusik,36.01.24.2014,Patia,Kabupaten,Pandeglang,Banten
404,42266,Ciawi,36.01.24.2018,Patia,Kabupaten,Pandeglang,Banten
405,42266,Cimoyan,36.01.24.2010,Patia,Kabupaten,Pandeglang,Banten
406,42266,Idaman,36.01.24.2011,Patia,Kabupaten,Pandeglang,Banten
407,42266,Pasirgadung,36.01.24.2009,Patia,Kabupaten,Pandeglang,Banten
408,42266,Patia,36.01.24.2008,Patia,Kabupaten,Pandeglang,Banten
409,42266,Rahayu,36.01.24.2017,Patia,Kabupaten,Pandeglang,Banten
410,42266,Simpangtiga,36.01.24.2020,Patia,Kabupaten,Pandeglang,Banten
411,42266,Surianeun,36.01.24.2015,Patia,Kabupaten,Pandeglang,Banten
412,42266,Turus,36.01.24.2006,Patia,Kabupaten,Pandeglang,Banten
413,15560,Gelam Jaya,36.03.12.2013,Pasar Kemis,Kabupaten,Tangerang,Banten
414,15560,Kuta Baru,36.03.12.1014,Pasar Kemis,Kabupaten,Tangerang,Banten
415,15560,Kuta Jaya,36.03.12.1012,Pasar Kemis,Kabupaten,Tangerang,Banten
416,15560,Kutabumi (Kuta Bumi),36.03.12.1010,Pasar Kemis,Kabupaten,Tangerang,Banten
417,15560,Pangadegan,36.03.12.2011,Pasar Kemis,Kabupaten,Tangerang,Banten
418,15560,Pasar Kemis,36.03.12.2001,Pasar Kemis,Kabupaten,Tangerang,Banten
419,15560,Sindangsari (Sindang Sari),36.03.12.1005,Pasar Kemis,Kabupaten,Tangerang,Banten
420,15560,Suka Asih (Sukaasih),36.03.12.2015,Pasar Kemis,Kabupaten,Tangerang,Banten
421,15560,Sukamantri,36.03.12.2008,Pasar Kemis,Kabupaten,Tangerang,Banten
422,15711,Ciakar,36.03.19.2007,Panongan,Kabupaten,Tangerang,Banten
423,15711,Mekar Bakti,36.03.19.1002,Panongan,Kabupaten,Tangerang,Banten
424,15711,Mekar Jaya,36.03.19.2006,Panongan,Kabupaten,Tangerang,Banten
425,15711,Panongan,36.03.19.2008,Panongan,Kabupaten,Tangerang,Banten
426,15711,Peusar,36.03.19.2003,Panongan,Kabupaten,Tangerang,Banten
427,15711,Ranca Iyuh,36.03.19.2001,Panongan,Kabupaten,Tangerang,Banten
428,15711,Ranca Kalapa,36.03.19.2004,Panongan,Kabupaten,Tangerang,Banten
429,15711,Serdang Kulon,36.03.19.2005,Panongan,Kabupaten,Tangerang,Banten
430,42281,Citeureup,36.01.06.2011,Panimbang,Kabupaten,Pandeglang,Banten
431,42281,Gombong,36.01.06.2004,Panimbang,Kabupaten,Pandeglang,Banten
432,42281,Mekar Jaya (Mekarsari),36.01.06.2009,Panimbang,Kabupaten,Pandeglang,Banten
433,42281,Mekarjaya,36.01.06.2002,Panimbang,Kabupaten,Pandeglang,Banten
434,42281,Panimbangjaya,36.01.06.2001,Panimbang,Kabupaten,Pandeglang,Banten
435,42281,Tanjungjaya,36.01.06.2012,Panimbang,Kabupaten,Pandeglang,Banten
436,42390,Cibarengkok,36.02.02.2019,Panggarangan,Kabupaten,Lebak,Banten
437,42390,Cimandiri,36.02.02.2005,Panggarangan,Kabupaten,Lebak,Banten
438,42390,Gununggede (Gunung Gede),36.02.02.2009,Panggarangan,Kabupaten,Lebak,Banten
439,42390,Hegarmanah,36.02.02.2017,Panggarangan,Kabupaten,Lebak,Banten
440,42390,Jatake,36.02.02.2003,Panggarangan,Kabupaten,Lebak,Banten
441,42390,Mekarjaya,36.02.02.2011,Panggarangan,Kabupaten,Lebak,Banten
442,42390,Panggarangan,36.02.02.2002,Panggarangan,Kabupaten,Lebak,Banten
443,42390,Sindangratu,36.02.02.2014,Panggarangan,Kabupaten,Lebak,Banten
444,42390,Situregen (Situragen),36.02.02.2010,Panggarangan,Kabupaten,Lebak,Banten
445,42390,Sogong,36.02.02.2004,Panggarangan,Kabupaten,Lebak,Banten
446,42390,Sukajadi,36.02.02.2018,Panggarangan,Kabupaten,Lebak,Banten
447,42219,Babakan Kalanganyar (Babakan Kalang Anyar),36.01.21.1003,Pandeglang,Kabupaten,Pandeglang,Banten
448,42212,Kabayan,36.01.21.1004,Pandeglang,Kabupaten,Pandeglang,Banten
449,42218,Kadomas,36.01.21.1002,Pandeglang,Kabupaten,Pandeglang,Banten
450,42211,Pandeglang,36.01.21.1009,Pandeglang,Kabupaten,Pandeglang,Banten
451,15415,Bambuapus (Bambu Apus),36.74.06.1007,Pamulang,Kota,Tangerang Selatan,Banten
452,15418,Benda Baru,36.74.06.1002,Pamulang,Kota,Tangerang Selatan,Banten
453,15415,Kedaung,36.74.06.1006,Pamulang,Kota,Tangerang Selatan,Banten
454,15417,Pamulang Barat,36.74.06.1001,Pamulang,Kota,Tangerang Selatan,Banten
455,15417,Pamulang Timur,36.74.06.1008,Pamulang,Kota,Tangerang Selatan,Banten
456,15416,Pondok Benda,36.74.06.1003,Pamulang,Kota,Tangerang Selatan,Banten
457,15418,Pondok Cabe Ilir,36.74.06.1005,Pamulang,Kota,Tangerang Selatan,Banten
458,15418,Pondok Cabe Udik,36.74.06.1004,Pamulang,Kota,Tangerang Selatan,Banten
459,42179,Binong,36.04.24.2006,Pamarayan,Kabupaten,Serang,Banten
460,42179,Damping,36.04.24.2002,Pamarayan,Kabupaten,Serang,Banten
461,42179,Kampung Baru,36.04.24.2008,Pamarayan,Kabupaten,Serang,Banten
462,42179,Keboncau (Kebon Cau),36.04.24.2004,Pamarayan,Kabupaten,Serang,Banten
463,42179,Pamarayan,36.04.24.2001,Pamarayan,Kabupaten,Serang,Banten
464,42179,Pasir Kembang,36.04.24.2018,Pamarayan,Kabupaten,Serang,Banten
465,42179,Pasirlimus,36.04.24.2010,Pamarayan,Kabupaten,Serang,Banten
466,42179,Pudar,36.04.24.2005,Pamarayan,Kabupaten,Serang,Banten
467,42179,Sangiang,36.04.24.2007,Pamarayan,Kabupaten,Serang,Banten
468,42179,Wirana,36.04.24.2003,Pamarayan,Kabupaten,Serang,Banten
469,15570,Buaran Bambu,36.03.15.2006,Pakuhaji,Kabupaten,Tangerang,Banten
470,15570,Buaran Mangga,36.03.15.2005,Pakuhaji,Kabupaten,Tangerang,Banten
471,15570,Bunisari (Bonasari),36.03.15.2003,Pakuhaji,Kabupaten,Tangerang,Banten
472,15570,Gaga,36.03.15.2014,Pakuhaji,Kabupaten,Tangerang,Banten
473,15570,Kalibaru,36.03.15.2007,Pakuhaji,Kabupaten,Tangerang,Banten
474,15570,Kiara Payung,36.03.15.2012,Pakuhaji,Kabupaten,Tangerang,Banten
475,15570,Kohod,36.03.15.2008,Pakuhaji,Kabupaten,Tangerang,Banten
476,15570,Kramat,36.03.15.2009,Pakuhaji,Kabupaten,Tangerang,Banten
477,15570,Laksana,36.03.15.2013,Pakuhaji,Kabupaten,Tangerang,Banten
478,15570,Paku Alam,36.03.15.2002,Pakuhaji,Kabupaten,Tangerang,Banten
479,15570,Pakuhaji,36.03.15.1001,Pakuhaji,Kabupaten,Tangerang,Banten
480,15570,Rawa Boni,36.03.15.2004,Pakuhaji,Kabupaten,Tangerang,Banten
481,15570,Sukawali,36.03.15.2010,Pakuhaji,Kabupaten,Tangerang,Banten
482,15570,Surya Bahari,36.03.15.2011,Pakuhaji,Kabupaten,Tangerang,Banten
483,42265,Bama,36.01.09.2006,Pagelaran,Kabupaten,Pandeglang,Banten
484,42265,Bulagor,36.01.09.2010,Pagelaran,Kabupaten,Pandeglang,Banten
485,42265,Harapankarya,36.01.09.2011,Pagelaran,Kabupaten,Pandeglang,Banten
486,42265,Kertasana (Kartasana),36.01.09.2005,Pagelaran,Kabupaten,Pandeglang,Banten
487,42265,Margagiri,36.01.09.2013,Pagelaran,Kabupaten,Pandeglang,Banten
488,42265,Margasana,36.01.09.2007,Pagelaran,Kabupaten,Pandeglang,Banten
489,42265,Montor,36.01.09.2004,Pagelaran,Kabupaten,Pandeglang,Banten
490,42265,Pagelaran,36.01.09.2002,Pagelaran,Kabupaten,Pandeglang,Banten
491,42265,Senangsari,36.01.09.2012,Pagelaran,Kabupaten,Pandeglang,Banten
492,42265,Sindanglaya,36.01.09.2008,Pagelaran,Kabupaten,Pandeglang,Banten
493,42265,Sukadame,36.01.09.2001,Pagelaran,Kabupaten,Pandeglang,Banten
494,42265,Surakarta,36.01.09.2003,Pagelaran,Kabupaten,Pandeglang,Banten
495,42265,Tegalpapak,36.01.09.2009,Pagelaran,Kabupaten,Pandeglang,Banten
496,15336,Cicalengka,36.03.22.2002,Pagedangan,Kabupaten,Tangerang,Banten
497,15332,Cihuni,36.03.22.2009,Pagedangan,Kabupaten,Tangerang,Banten
498,15335,Cijantra,36.03.22.2005,Pagedangan,Kabupaten,Tangerang,Banten
499,15330,Jatake,36.03.22.2008,Pagedangan,Kabupaten,Tangerang,Banten
500,15337,Kadu Sirung,36.03.22.2010,Pagedangan,Kabupaten,Tangerang,Banten
501,15157,Karang Tengah,36.03.22.2012,Pagedangan,Kabupaten,Tangerang,Banten
502,15331,Lengkong Kulon,36.03.22.2006,Pagedangan,Kabupaten,Tangerang,Banten
503,15330,Malang Nengah,36.03.22.2011,Pagedangan,Kabupaten,Tangerang,Banten
504,15334,Medang,36.03.22.1004,Pagedangan,Kabupaten,Tangerang,Banten
505,15339,Pagedangan,36.03.22.2003,Pagedangan,Kabupaten,Tangerang,Banten
506,15338,Situ Gadung,36.03.22.2007,Pagedangan,Kabupaten,Tangerang,Banten
507,42168,Barugbug,36.04.29.2007,Padarincang,Kabupaten,Serang,Banten
508,42168,Batu Kuwung (Batukuwung),36.04.29.2008,Padarincang,Kabupaten,Serang,Banten
509,42168,Bugel,36.04.29.2002,Padarincang,Kabupaten,Serang,Banten
510,42168,Cibojong,36.04.29.2003,Padarincang,Kabupaten,Serang,Banten
511,42168,Ciomas,36.04.29.2006,Padarincang,Kabupaten,Serang,Banten
512,42168,Cipayung,36.04.29.2012,Padarincang,Kabupaten,Serang,Banten
513,42168,Cisaat,36.04.29.2005,Padarincang,Kabupaten,Serang,Banten
514,42168,Citasuk,36.04.29.2004,Padarincang,Kabupaten,Serang,Banten
515,42168,Curug Goong,36.04.29.2013,Padarincang,Kabupaten,Serang,Banten
516,42168,Kadu Kempong,36.04.29.2014,Padarincang,Kabupaten,Serang,Banten
517,42168,Kadubeureum,36.04.29.2011,Padarincang,Kabupaten,Serang,Banten
518,42168,Kelumpang (Kalumpang),36.04.29.2010,Padarincang,Kabupaten,Serang,Banten
519,42168,Kramatlaban,36.04.29.2009,Padarincang,Kabupaten,Serang,Banten
520,42168,Padarincang,36.04.29.2001,Padarincang,Kabupaten,Serang,Banten
521,42163,Kadubeureum,36.04.28.2006,Pabuaran,Kabupaten,Serang,Banten
522,42163,Pabuaran,36.04.28.2001,Pabuaran,Kabupaten,Serang,Banten
523,42163,Pancanegara,36.04.28.2009,Pabuaran,Kabupaten,Serang,Banten
524,42163,Pasanggrahan,36.04.28.2013,Pabuaran,Kabupaten,Serang,Banten
525,42163,Sindangheula,36.04.28.2012,Pabuaran,Kabupaten,Serang,Banten
526,42163,Sindangsari,36.04.28.2010,Pabuaran,Kabupaten,Serang,Banten
527,42163,Talaga Warna,36.04.28.2015,Pabuaran,Kabupaten,Serang,Banten
528,42163,Tanjungsari,36.04.28.2007,Pabuaran,Kabupaten,Serang,Banten
529,15121,Karang Anyar,36.71.10.1006,Neglasari,Kota,Tangerang,Banten
530,15121,Karang Sari,36.71.10.1002,Neglasari,Kota,Tangerang,Banten
531,15128,Kedaung Baru,36.71.10.1007,Neglasari,Kota,Tangerang,Banten
532,15128,Kedaung Wetan,36.71.10.1004,Neglasari,Kota,Tangerang,Banten
533,15129,Mekarsari (Mekar Sari),36.71.10.1005,Neglasari,Kota,Tangerang,Banten
534,15129,Neglasari,36.71.10.1001,Neglasari,Kota,Tangerang,Banten
535,15127,Selapajang Jaya,36.71.10.1003,Neglasari,Kota,Tangerang,Banten
536,42275,Cibitung,36.01.08.2009,Munjul,Kabupaten,Pandeglang,Banten
537,42275,Curuglanglang,36.01.08.2007,Munjul,Kabupaten,Pandeglang,Banten
538,42275,Gunungbatu,36.01.08.2005,Munjul,Kabupaten,Pandeglang,Banten
539,42275,Kotadukuh,36.01.08.2011,Munjul,Kabupaten,Pandeglang,Banten
540,42275,Lebak,36.01.08.2018,Munjul,Kabupaten,Pandeglang,Banten
541,42275,Munjul,36.01.08.2008,Munjul,Kabupaten,Pandeglang,Banten
542,42275,Panacaran,36.01.08.2006,Munjul,Kabupaten,Pandeglang,Banten
543,42275,Pasanggrahan,36.01.08.2001,Munjul,Kabupaten,Pandeglang,Banten
544,42275,Sukasaba,36.01.08.2002,Munjul,Kabupaten,Pandeglang,Banten
545,42364,Cikarang,36.02.05.2008,Muncang,Kabupaten,Lebak,Banten
546,42364,Ciminyak,36.02.05.2004,Muncang,Kabupaten,Lebak,Banten
547,42364,Girijagabaya,36.02.05.2021,Muncang,Kabupaten,Lebak,Banten
548,42364,Jagaraksa,36.02.05.2018,Muncang,Kabupaten,Lebak,Banten
549,42364,Leuwicoo,36.02.05.2006,Muncang,Kabupaten,Lebak,Banten
550,42364,Mekarwangi,36.02.05.2020,Muncang,Kabupaten,Lebak,Banten
551,42364,Muncang,36.02.05.2005,Muncang,Kabupaten,Lebak,Banten
552,42364,Pasireurih,36.02.05.2003,Muncang,Kabupaten,Lebak,Banten
553,42364,Pasirnangka,36.02.05.2013,Muncang,Kabupaten,Lebak,Banten
554,42364,Sindangwangi,36.02.05.2007,Muncang,Kabupaten,Lebak,Banten
555,42364,Sukanagara,36.02.05.2012,Muncang,Kabupaten,Lebak,Banten
556,42364,Tanjungwangi,36.02.05.2019,Muncang,Kabupaten,Lebak,Banten
557,42262,Alaswangi,36.01.13.2001,Menes,Kabupaten,Pandeglang,Banten
558,42262,Cigandeng,36.01.13.2004,Menes,Kabupaten,Pandeglang,Banten
559,42262,Cilabanbulan,36.01.13.2013,Menes,Kabupaten,Pandeglang,Banten
560,42262,Kadupayung,36.01.13.2015,Menes,Kabupaten,Pandeglang,Banten
561,42262,Kananga,36.01.13.2003,Menes,Kabupaten,Pandeglang,Banten
562,42262,Menes,36.01.13.2005,Menes,Kabupaten,Pandeglang,Banten
563,42262,Muruy,36.01.13.2006,Menes,Kabupaten,Pandeglang,Banten
564,42262,Purwaraja,36.01.13.2011,Menes,Kabupaten,Pandeglang,Banten
565,42262,Ramaya,36.01.13.2016,Menes,Kabupaten,Pandeglang,Banten
566,42262,Sindangkarya,36.01.13.2012,Menes,Kabupaten,Pandeglang,Banten
567,42262,Sukamanah,36.01.13.2010,Menes,Kabupaten,Pandeglang,Banten
568,42262,Tegalwangi,36.01.13.2002,Menes,Kabupaten,Pandeglang,Banten
569,42279,Kadubelang,36.01.30.2001,Mekarjaya,Kabupaten,Pandeglang,Banten
570,42279,Kadujangkung,36.01.30.2005,Mekarjaya,Kabupaten,Pandeglang,Banten
571,42279,Medong,36.01.30.2006,Mekarjaya,Kabupaten,Pandeglang,Banten
572,42279,Mekarjaya,36.01.30.2008,Mekarjaya,Kabupaten,Pandeglang,Banten
573,42279,Pareang,36.01.30.2002,Mekarjaya,Kabupaten,Pandeglang,Banten
574,42279,Rancabugel,36.01.30.2004,Mekarjaya,Kabupaten,Pandeglang,Banten
575,42279,Sukamulya,36.01.30.2007,Mekarjaya,Kabupaten,Pandeglang,Banten
576,42279,Warasinga (Wirasinga),36.01.30.2003,Mekarjaya,Kabupaten,Pandeglang,Banten
577,15551,Cijeruk,36.03.33.2003,Mekar Baru,Kabupaten,Tangerang,Banten
578,15551,Gandaria (Ganda Ria),36.03.33.2008,Mekar Baru,Kabupaten,Tangerang,Banten
579,15551,Jenggot,36.03.33.2006,Mekar Baru,Kabupaten,Tangerang,Banten
580,15551,Kedaung,36.03.33.2002,Mekar Baru,Kabupaten,Tangerang,Banten
581,15551,Klutuk,36.03.33.2005,Mekar Baru,Kabupaten,Tangerang,Banten
582,15551,Kosambi Dalam,36.03.33.2007,Mekar Baru,Kabupaten,Tangerang,Banten
583,15551,Mekar Baru,36.03.33.2001,Mekar Baru,Kabupaten,Tangerang,Banten
584,15551,Waliwis,36.03.33.2004,Mekar Baru,Kabupaten,Tangerang,Banten
585,15531,Banyu Asih,36.03.08.2011,Mauk,Kabupaten,Tangerang,Banten
586,15531,Gunung Sari,36.03.08.2006,Mauk,Kabupaten,Tangerang,Banten
587,15531,Jatiwaringin (Jati Waringin),36.03.08.2010,Mauk,Kabupaten,Tangerang,Banten
588,15531,Kedung Dalem,36.03.08.2007,Mauk,Kabupaten,Tangerang,Banten
589,15531,Ketapang,36.03.08.2012,Mauk,Kabupaten,Tangerang,Banten
590,15531,Marga Mulya,36.03.08.2008,Mauk,Kabupaten,Tangerang,Banten
591,15531,Mauk Barat,36.03.08.2001,Mauk,Kabupaten,Tangerang,Banten
592,15531,Mauk Timur,36.03.08.1002,Mauk,Kabupaten,Tangerang,Banten
593,15531,Sasak,36.03.08.2005,Mauk,Kabupaten,Tangerang,Banten
594,15531,Tanjung Anom,36.03.08.2009,Mauk,Kabupaten,Tangerang,Banten
595,15531,Tegal Kunir Kidul,36.03.08.2003,Mauk,Kabupaten,Tangerang,Banten
596,15531,Tegal Kunir Lor,36.03.08.2004,Mauk,Kabupaten,Tangerang,Banten
597,42261,Cikoneng,36.01.17.2002,Mandalawangi,Kabupaten,Pandeglang,Banten
598,42261,Cikumbuen (Cikumbueun),36.01.17.2008,Mandalawangi,Kabupaten,Pandeglang,Banten
599,42261,Curuglemo,36.01.17.2014,Mandalawangi,Kabupaten,Pandeglang,Banten
600,42261,Giripawana,36.01.17.2012,Mandalawangi,Kabupaten,Pandeglang,Banten
601,42261,Gunungsari,36.01.17.2010,Mandalawangi,Kabupaten,Pandeglang,Banten
602,42261,Kurungkambing,36.01.17.2004,Mandalawangi,Kabupaten,Pandeglang,Banten
603,42261,Mandalasari,36.01.17.2013,Mandalawangi,Kabupaten,Pandeglang,Banten
604,42261,Mandalawangi,36.01.17.2005,Mandalawangi,Kabupaten,Pandeglang,Banten
605,42261,Nembol,36.01.17.2003,Mandalawangi,Kabupaten,Pandeglang,Banten
606,42261,Pandat,36.01.17.2001,Mandalawangi,Kabupaten,Pandeglang,Banten
607,42261,Panjangjaya,36.01.17.2011,Mandalawangi,Kabupaten,Pandeglang,Banten
608,42261,Pari,36.01.17.2015,Mandalawangi,Kabupaten,Pandeglang,Banten
609,42261,Ramea,36.01.17.2009,Mandalawangi,Kabupaten,Pandeglang,Banten
610,42261,Sinarjaya,36.01.17.2006,Mandalawangi,Kabupaten,Pandeglang,Banten
611,42261,Sirnagalih,36.01.17.2007,Mandalawangi,Kabupaten,Pandeglang,Banten
612,42165,Angsana,36.04.32.2003,Mancak,Kabupaten,Serang,Banten
613,42165,Bale Kambang (Balekambang),36.04.32.2013,Mancak,Kabupaten,Serang,Banten
614,42165,Bale Kencana,36.04.32.2014,Mancak,Kabupaten,Serang,Banten
615,42165,Batukuda,36.04.32.2011,Mancak,Kabupaten,Serang,Banten
616,42165,Cikedung,36.04.32.2005,Mancak,Kabupaten,Serang,Banten
617,42165,Ciwarna,36.04.32.2002,Mancak,Kabupaten,Serang,Banten
618,42165,Labuan (Labuhan),36.04.32.2012,Mancak,Kabupaten,Serang,Banten
619,42165,Mancak,36.04.32.2001,Mancak,Kabupaten,Serang,Banten
620,42165,Pasirwaru,36.04.32.2008,Mancak,Kabupaten,Serang,Banten
621,42165,Sangiang,36.04.32.2007,Mancak,Kabupaten,Serang,Banten
622,42165,Sigedong,36.04.32.2006,Mancak,Kabupaten,Serang,Banten
623,42165,Talaga,36.04.32.2004,Mancak,Kabupaten,Serang,Banten
624,42165,Waringin,36.04.32.2009,Mancak,Kabupaten,Serang,Banten
625,42165,Winong,36.04.32.2010,Mancak,Kabupaten,Serang,Banten
626,42391,Bolang,36.02.01.2006,Malingping,Kabupaten,Lebak,Banten
627,42391,Cilangkahan,36.02.01.2002,Malingping,Kabupaten,Lebak,Banten
628,42391,Cipeundeuy,36.02.01.2009,Malingping,Kabupaten,Lebak,Banten
629,42391,Kadujajar,36.02.01.2014,Malingping,Kabupaten,Lebak,Banten
630,42391,Kersaratu,36.02.01.2016,Malingping,Kabupaten,Lebak,Banten
631,42391,Malingping Selatan,36.02.01.2018,Malingping,Kabupaten,Lebak,Banten
632,42391,Malingping Utara,36.02.01.2005,Malingping,Kabupaten,Lebak,Banten
633,42391,Pagelaran,36.02.01.2003,Malingping,Kabupaten,Lebak,Banten
634,42391,Rahong,36.02.01.2013,Malingping,Kabupaten,Lebak,Banten
635,42391,Sangiang (Sanghiang),36.02.01.2026,Malingping,Kabupaten,Lebak,Banten
636,42391,Senanghati,36.02.01.2024,Malingping,Kabupaten,Lebak,Banten
637,42391,Sukamanah,36.02.01.2023,Malingping,Kabupaten,Lebak,Banten
638,42391,Sukaraja,36.02.01.2004,Malingping,Kabupaten,Lebak,Banten
639,42391,Sumberwaras (Sumber Waras),36.02.01.2019,Malingping,Kabupaten,Lebak,Banten
640,42214,Cilaja,36.01.34.1005,Majasari,Kabupaten,Pandeglang,Banten
641,42211,Karaton,36.01.34.1002,Majasari,Kabupaten,Pandeglang,Banten
642,42215,Pagerbatu,36.01.34.1004,Majasari,Kabupaten,Pandeglang,Banten
643,42216,Saruni,36.01.34.1003,Majasari,Kabupaten,Pandeglang,Banten
644,42217,Sukaratu,36.01.34.1001,Majasari,Kabupaten,Pandeglang,Banten
645,42382,Binong,36.02.13.2008,Maja,Kabupaten,Lebak,Banten
646,42382,Buyut Mekar (Buyut),36.02.13.2022,Maja,Kabupaten,Lebak,Banten
647,42382,Cilangkap,36.02.13.2018,Maja,Kabupaten,Lebak,Banten
648,42382,Curugbadak (Curug Badak),36.02.13.2015,Maja,Kabupaten,Lebak,Banten
649,42382,Gubugan Cibeureum (Gubugcibeureum),36.02.13.2009,Maja,Kabupaten,Lebak,Banten
650,42382,Maja,36.02.13.2006,Maja,Kabupaten,Lebak,Banten
651,42382,Maja Baru,36.02.13.2023,Maja,Kabupaten,Lebak,Banten
652,42382,Mekarsari,36.02.13.2011,Maja,Kabupaten,Lebak,Banten
653,42382,Padasuka,36.02.13.2012,Maja,Kabupaten,Lebak,Banten
654,42382,Pasirkecapi (Pasir Kecapi),36.02.13.2021,Maja,Kabupaten,Lebak,Banten
655,42382,Pasirkembang (Pasir Kembang),36.02.13.2020,Maja,Kabupaten,Lebak,Banten
656,42382,Sangiang,36.02.13.2007,Maja,Kabupaten,Lebak,Banten
657,42382,Sindangmulya,36.02.13.2016,Maja,Kabupaten,Lebak,Banten
658,42382,Tanjungsari (Tanjung Sari),36.02.13.2005,Maja,Kabupaten,Lebak,Banten
659,42362,Bojongmenteng (Bojong Menteng),36.02.06.2008,Leuwidamar,Kabupaten,Lebak,Banten
660,42362,Cibungur,36.02.06.2003,Leuwidamar,Kabupaten,Lebak,Banten
661,42362,Cisimeut,36.02.06.2002,Leuwidamar,Kabupaten,Lebak,Banten
662,42362,Cisimeut Raya,36.02.06.2012,Leuwidamar,Kabupaten,Lebak,Banten
663,42362,Jalupangmulya (Jalupang Mulya),36.02.06.2011,Leuwidamar,Kabupaten,Lebak,Banten
664,42362,Kanekes,36.02.06.2001,Leuwidamar,Kabupaten,Lebak,Banten
665,42362,Lebakparahiang (Lebak Parahiang),36.02.06.2005,Leuwidamar,Kabupaten,Lebak,Banten
666,42362,Leuwidamar,36.02.06.2004,Leuwidamar,Kabupaten,Lebak,Banten
667,42362,Margawangi,36.02.06.2009,Leuwidamar,Kabupaten,Lebak,Banten
668,42362,Nayagati,36.02.06.2007,Leuwidamar,Kabupaten,Lebak,Banten
669,42362,Sangkanwangi,36.02.06.2006,Leuwidamar,Kabupaten,Lebak,Banten
670,42362,Wantisari,36.02.06.2010,Leuwidamar,Kabupaten,Lebak,Banten
671,15820,Babakan,36.03.20.1011,Legok,Kabupaten,Tangerang,Banten
672,15820,Babat,36.03.20.2004,Legok,Kabupaten,Tangerang,Banten
673,15820,Bojongkamal (Bojong Kamal),36.03.20.2008,Legok,Kabupaten,Tangerang,Banten
674,15820,Caringin,36.03.20.2002,Legok,Kabupaten,Tangerang,Banten
675,15820,Ciangir,36.03.20.2005,Legok,Kabupaten,Tangerang,Banten
676,15820,Cirarab,36.03.20.2012,Legok,Kabupaten,Tangerang,Banten
677,15820,Kamuning (Kemuning),36.03.20.2010,Legok,Kabupaten,Tangerang,Banten
678,15820,Legok,36.03.20.2006,Legok,Kabupaten,Tangerang,Banten
679,15820,Palasari (Pala Sari),36.03.20.2007,Legok,Kabupaten,Tangerang,Banten
680,15820,Rancagong,36.03.20.2009,Legok,Kabupaten,Tangerang,Banten
681,15820,Serdang Wetan,36.03.20.2003,Legok,Kabupaten,Tangerang,Banten
682,42351,Banjaririgasi (Banjar Irigasi),36.02.25.2001,Lebakgedong,Kabupaten,Lebak,Banten
683,42351,Banjarsari,36.02.25.2004,Lebakgedong,Kabupaten,Lebak,Banten
684,42351,Ciladaeun,36.02.25.2002,Lebakgedong,Kabupaten,Lebak,Banten
685,42351,Lebakgedong,36.02.25.2003,Lebakgedong,Kabupaten,Lebak,Banten
686,42351,Lebaksangka,36.02.25.2006,Lebakgedong,Kabupaten,Lebak,Banten
687,42351,Lebaksitu,36.02.25.2005,Lebakgedong,Kabupaten,Lebak,Banten
688,42181,Bolang,36.04.35.2008,Lebak Wangi,Kabupaten,Serang,Banten
689,42181,Kamaruton,36.04.35.2001,Lebak Wangi,Kabupaten,Serang,Banten
690,42181,Kebonratu,36.04.35.2010,Lebak Wangi,Kabupaten,Serang,Banten
691,42181,Kencana Harapan,36.04.35.2005,Lebak Wangi,Kabupaten,Serang,Banten
692,42181,Lebak Kepuh,36.04.35.2004,Lebak Wangi,Kabupaten,Serang,Banten
693,42181,Lebak Wangi (Lebakwangi),36.04.35.2003,Lebak Wangi,Kabupaten,Serang,Banten
694,42181,Pegandikan (Pegantikan),36.04.35.2006,Lebak Wangi,Kabupaten,Serang,Banten
695,42181,Purwadadi,36.04.35.2007,Lebak Wangi,Kabupaten,Serang,Banten
696,42181,Teras Bendung (Terasbendung),36.04.35.2002,Lebak Wangi,Kabupaten,Serang,Banten
697,42181,Tirem,36.04.35.2009,Lebak Wangi,Kabupaten,Serang,Banten
698,15155,Cipadu,36.71.13.1003,Larangan,Kota,Tangerang,Banten
699,15155,Cipadu Jaya,36.71.13.1007,Larangan,Kota,Tangerang,Banten
700,15154,Gaga,36.71.13.1006,Larangan,Kota,Tangerang,Banten
701,15156,Kreo,36.71.13.1004,Larangan,Kota,Tangerang,Banten
702,15156,Kreo Selatan,36.71.13.1008,Larangan,Kota,Tangerang,Banten
703,15154,Larangan Indah,36.71.13.1005,Larangan,Kota,Tangerang,Banten
704,15154,Larangan Selatan,36.71.13.1002,Larangan,Kota,Tangerang,Banten
705,15154,Larangan Utara,36.71.13.1001,Larangan,Kota,Tangerang,Banten
706,42260,Banyubiru,36.01.12.2003,Labuan,Kabupaten,Pandeglang,Banten
707,42260,Banyumekar,36.01.12.2015,Labuan,Kabupaten,Pandeglang,Banten
708,42260,Caringin,36.01.12.2004,Labuan,Kabupaten,Pandeglang,Banten
709,42260,Cigondang,36.01.12.2012,Labuan,Kabupaten,Pandeglang,Banten
710,42260,Kalanganyar,36.01.12.2013,Labuan,Kabupaten,Pandeglang,Banten
711,42260,Labuan,36.01.12.2002,Labuan,Kabupaten,Pandeglang,Banten
712,42260,Rancateureup,36.01.12.2001,Labuan,Kabupaten,Pandeglang,Banten
713,42260,Sukamaju,36.01.12.2014,Labuan,Kabupaten,Pandeglang,Banten
714,42260,Teluk,36.01.12.2010,Labuan,Kabupaten,Pandeglang,Banten
715,15550,Bakung,36.03.07.2013,Kronjo,Kabupaten,Tangerang,Banten
716,15550,Blukbuk,36.03.07.2015,Kronjo,Kabupaten,Tangerang,Banten
717,15550,Cirumpak,36.03.07.2017,Kronjo,Kabupaten,Tangerang,Banten
718,15550,Kronjo,36.03.07.2001,Kronjo,Kabupaten,Tangerang,Banten
719,15550,Muncung,36.03.07.2007,Kronjo,Kabupaten,Tangerang,Banten
720,15550,Pagedangan Ilir,36.03.07.2008,Kronjo,Kabupaten,Tangerang,Banten
721,15550,Pagedangan Udik,36.03.07.2009,Kronjo,Kabupaten,Tangerang,Banten
722,15550,Pagenjahan,36.03.07.2002,Kronjo,Kabupaten,Tangerang,Banten
723,15550,Pasilian,36.03.07.2010,Kronjo,Kabupaten,Tangerang,Banten
724,15550,Pasir,36.03.07.2006,Kronjo,Kabupaten,Tangerang,Banten
725,15621,Jengkol,36.03.06.2014,Kresek,Kabupaten,Tangerang,Banten
726,15621,Kemuning,36.03.06.2007,Kresek,Kabupaten,Tangerang,Banten
727,15621,Koper,36.03.06.2013,Kresek,Kabupaten,Tangerang,Banten
728,15621,Kresek,36.03.06.2018,Kresek,Kabupaten,Tangerang,Banten
729,15621,Pasir Ampo,36.03.06.2001,Kresek,Kabupaten,Tangerang,Banten
730,15621,Patrasana (Patra Sana),36.03.06.2015,Kresek,Kabupaten,Tangerang,Banten
731,15621,Rancailat (Ranca Ilat),36.03.06.2003,Kresek,Kabupaten,Tangerang,Banten
732,15621,Renged,36.03.06.2009,Kresek,Kabupaten,Tangerang,Banten
733,15621,Talok,36.03.06.2011,Kresek,Kabupaten,Tangerang,Banten
734,42161,Harjatani,36.04.05.2005,Kramatwatu,Kabupaten,Serang,Banten
735,42161,Kramatwatu,36.04.05.2001,Kramatwatu,Kabupaten,Serang,Banten
736,42161,Lebakwana,36.04.05.2011,Kramatwatu,Kabupaten,Serang,Banten
737,42161,Margasana,36.04.05.2002,Kramatwatu,Kabupaten,Serang,Banten
738,42161,Margatani,36.04.05.2015,Kramatwatu,Kabupaten,Serang,Banten
739,42161,Pamengkang,36.04.05.2009,Kramatwatu,Kabupaten,Serang,Banten
740,42161,Pegadingan,36.04.05.2010,Kramatwatu,Kabupaten,Serang,Banten
741,42161,Pejaten,36.04.05.2003,Kramatwatu,Kabupaten,Serang,Banten
742,42161,Pelamunan,36.04.05.2013,Kramatwatu,Kabupaten,Serang,Banten
743,42161,Serdang,36.04.05.2006,Kramatwatu,Kabupaten,Serang,Banten
744,42161,Teluk Terate,36.04.05.2014,Kramatwatu,Kabupaten,Serang,Banten
745,42161,Terate,36.04.05.2007,Kramatwatu,Kabupaten,Serang,Banten
746,42161,Tonjong,36.04.05.2008,Kramatwatu,Kabupaten,Serang,Banten
747,42161,Toyomerto,36.04.05.2004,Kramatwatu,Kabupaten,Serang,Banten
748,42161,Wanayasa,36.04.05.2012,Kramatwatu,Kabupaten,Serang,Banten
749,42184,Cisait,36.04.11.2013,Kragilan,Kabupaten,Serang,Banten
750,42184,Dukuh,36.04.11.2004,Kragilan,Kabupaten,Serang,Banten
751,42184,Jeruk Tipis (Jeruktipis),36.04.11.2008,Kragilan,Kabupaten,Serang,Banten
752,42184,Kendayakan,36.04.11.2011,Kragilan,Kabupaten,Serang,Banten
753,42184,Kragilan,36.04.11.2001,Kragilan,Kabupaten,Serang,Banten
754,42184,Kramatjati,36.04.11.2014,Kragilan,Kabupaten,Serang,Banten
755,42184,Pematang,36.04.11.2003,Kragilan,Kabupaten,Serang,Banten
756,42184,Sentul,36.04.11.2007,Kragilan,Kabupaten,Serang,Banten
757,42184,Silebu,36.04.11.2002,Kragilan,Kabupaten,Serang,Banten
758,42184,Sukajadi,36.04.11.2006,Kragilan,Kabupaten,Serang,Banten
759,42184,Tegalmaja,36.04.11.2012,Kragilan,Kabupaten,Serang,Banten
760,42184,Undar Andir,36.04.11.2005,Kragilan,Kabupaten,Serang,Banten
761,15212,Belimbing,36.03.14.2008,Kosambi,Kabupaten,Tangerang,Banten
762,15212,Cengklong,36.03.14.2007,Kosambi,Kabupaten,Tangerang,Banten
763,15211,Dadap,36.03.14.1010,Kosambi,Kabupaten,Tangerang,Banten
764,15211,Jati Mulya (Jatimulya),36.03.14.2009,Kosambi,Kabupaten,Tangerang,Banten
765,15213,Kosambi Barat,36.03.14.1001,Kosambi,Kabupaten,Tangerang,Banten
766,15213,Kosambi Timur,36.03.14.2002,Kosambi,Kabupaten,Tangerang,Banten
767,15215,Ranga Rengas (Rawa Rengas),36.03.14.2005,Kosambi,Kabupaten,Tangerang,Banten
768,15215,Rawa Burung,36.03.14.2006,Kosambi,Kabupaten,Tangerang,Banten
769,15214,Salembaran Jati,36.03.14.2004,Kosambi,Kabupaten,Tangerang,Banten
770,15214,Salembaran Jaya (Salembaran Raya),36.03.14.1003,Kosambi,Kabupaten,Tangerang,Banten
771,42250,Awilega,36.01.33.2002,Koroncong,Kabupaten,Pandeglang,Banten
772,42250,Bangkonol,36.01.33.2009,Koroncong,Kabupaten,Pandeglang,Banten
773,42250,Gerendong,36.01.33.2003,Koroncong,Kabupaten,Pandeglang,Banten
774,42250,Karangsetra,36.01.33.2007,Koroncong,Kabupaten,Pandeglang,Banten
775,42250,Koroncong,36.01.33.2004,Koroncong,Kabupaten,Pandeglang,Banten
776,42250,Pakuluran,36.01.33.2005,Koroncong,Kabupaten,Pandeglang,Banten
777,42250,Paniis,36.01.33.2008,Koroncong,Kabupaten,Pandeglang,Banten
778,42250,Pasirjaksa,36.01.33.2010,Koroncong,Kabupaten,Pandeglang,Banten
779,42250,Pasirkarag (Pasirkarang),36.01.33.2011,Koroncong,Kabupaten,Pandeglang,Banten
780,42250,Setrajaya,36.01.33.2006,Koroncong,Kabupaten,Pandeglang,Banten
781,42250,Sukajaya,36.01.33.2001,Koroncong,Kabupaten,Pandeglang,Banten
782,42250,Tegalongok,36.01.33.2012,Koroncong,Kabupaten,Pandeglang,Banten
783,42178,Babakanjaya (Babakan Jaya),36.04.25.2009,Kopo,Kabupaten,Serang,Banten
784,42178,Carenang Udik,36.04.25.2007,Kopo,Kabupaten,Serang,Banten
785,42178,Cidahu,36.04.25.2004,Kopo,Kabupaten,Serang,Banten
786,42178,Gabus,36.04.25.2006,Kopo,Kabupaten,Serang,Banten
787,42178,Garut,36.04.25.2002,Kopo,Kabupaten,Serang,Banten
788,42178,Kopo,36.04.25.2001,Kopo,Kabupaten,Serang,Banten
789,42178,Mekarbaru,36.04.25.2010,Kopo,Kabupaten,Serang,Banten
790,42178,Nanggung,36.04.25.2003,Kopo,Kabupaten,Serang,Banten
791,42178,Nyompok,36.04.25.2005,Kopo,Kabupaten,Serang,Banten
792,42178,Rancasumur,36.04.25.2008,Kopo,Kabupaten,Serang,Banten
793,42185,Barengkok,36.04.16.2006,Kibin,Kabupaten,Serang,Banten
794,42185,Ciagel,36.04.16.2009,Kibin,Kabupaten,Serang,Banten
795,42185,Cijeruk,36.04.16.2003,Kibin,Kabupaten,Serang,Banten
796,42185,Ketos,36.04.16.2002,Kibin,Kabupaten,Serang,Banten
797,42185,Kibin,36.04.16.2001,Kibin,Kabupaten,Serang,Banten
798,42185,Nagara,36.04.16.2004,Kibin,Kabupaten,Serang,Banten
799,42185,Nambo Ilir,36.04.16.2005,Kibin,Kabupaten,Serang,Banten
800,42185,Sukamaju,36.04.16.2007,Kibin,Kabupaten,Serang,Banten
801,42185,Tambak,36.04.16.2008,Kibin,Kabupaten,Serang,Banten
802,15530,Karang Anyar,36.03.09.2002,Kemiri,Kabupaten,Tangerang,Banten
803,15530,Kemiri,36.03.09.2004,Kemiri,Kabupaten,Tangerang,Banten
804,15530,Klebet (Kjlebet / Kelebet),36.03.09.2006,Kemiri,Kabupaten,Tangerang,Banten
805,15530,Legok Suka Maju (Legok Sula Maju),36.03.09.2007,Kemiri,Kabupaten,Tangerang,Banten
806,15530,Lontar,36.03.09.2003,Kemiri,Kabupaten,Tangerang,Banten
807,15530,Patramanggala (Patra Manggala),36.03.09.2001,Kemiri,Kabupaten,Tangerang,Banten
808,15530,Ranca Labuh,36.03.09.2005,Kemiri,Kabupaten,Tangerang,Banten
809,15811,Bencongan,36.03.28.1002,Kelapa Dua,Kabupaten,Tangerang,Banten
810,15811,Bencongan Indah,36.03.28.1003,Kelapa Dua,Kabupaten,Tangerang,Banten
811,15811,Bojong Nangka,36.03.28.1005,Kelapa Dua,Kabupaten,Tangerang,Banten
812,15811,Curug Sangerang (Curug Sangereng),36.03.28.2006,Kelapa Dua,Kabupaten,Tangerang,Banten
813,15811,Kelapa Dua,36.03.28.1001,Kelapa Dua,Kabupaten,Tangerang,Banten
814,15811,Pakulonan Barat,36.03.28.1004,Kelapa Dua,Kabupaten,Tangerang,Banten
815,42191,Banten,36.73.02.1007,Kasemen,Kota,Serang,Banten
816,42191,Bendung,36.73.02.1006,Kasemen,Kota,Serang,Banten
817,42191,Kasemen,36.73.02.1001,Kasemen,Kota,Serang,Banten
818,42191,Kasunyatan,36.73.02.1010,Kasemen,Kota,Serang,Banten
819,42191,Kilasah,36.73.02.1009,Kasemen,Kota,Serang,Banten
820,42191,Margaluyu,36.73.02.1011,Kasemen,Kota,Serang,Banten
821,42191,Mesjid Priyayi,36.73.02.1002,Kasemen,Kota,Serang,Banten
822,42191,Sawah Luhur,36.73.02.1008,Kasemen,Kota,Serang,Banten
823,42191,Terumbu,36.73.02.1003,Kasemen,Kota,Serang,Banten
824,42191,Warung Jaud,36.73.02.1004,Kasemen,Kota,Serang,Banten
825,15115,Bojong Jaya,36.71.07.1002,Karawaci,Kota,Tangerang,Banten
826,15113,Bugel,36.71.07.1009,Karawaci,Kota,Tangerang,Banten
827,15114,Cimone,36.71.07.1005,Karawaci,Kota,Tangerang,Banten
828,15116,Cimone Jaya,36.71.07.1006,Karawaci,Kota,Tangerang,Banten
829,15113,Gerendeng,36.71.07.1013,Karawaci,Kota,Tangerang,Banten
830,15115,Karawaci,36.71.07.1001,Karawaci,Kota,Tangerang,Banten
831,15116,Karawaci Baru,36.71.07.1003,Karawaci,Kota,Tangerang,Banten
832,15112,Koang Jaya,36.71.07.1016,Karawaci,Kota,Tangerang,Banten
833,15113,Margasari (Marga Sari),36.71.07.1010,Karawaci,Kota,Tangerang,Banten
834,15112,Nambo Jaya,36.71.07.1012,Karawaci,Kota,Tangerang,Banten
835,15116,Nusa Jaya,36.71.07.1004,Karawaci,Kota,Tangerang,Banten
836,15114,Pabuaran,36.71.07.1007,Karawaci,Kota,Tangerang,Banten
837,15112,Pabuaran Tumpeng,36.71.07.1011,Karawaci,Kota,Tangerang,Banten
838,15112,Pasar Baru,36.71.07.1015,Karawaci,Kota,Tangerang,Banten
839,15113,Sukajadi (Suka Jadi),36.71.07.1014,Karawaci,Kota,Tangerang,Banten
840,15114,Sumur Pancing (Pacing),36.71.07.1008,Karawaci,Kota,Tangerang,Banten
841,15157,Karang Mulya,36.71.12.1002,Karang Tengah,Kota,Tangerang,Banten
842,15157,Karang Tengah,36.71.12.1001,Karang Tengah,Kota,Tangerang,Banten
843,15157,Karang Timur,36.71.12.1005,Karang Tengah,Kota,Tangerang,Banten
844,15159,Padurenan (Pedurenan),36.71.12.1006,Karang Tengah,Kota,Tangerang,Banten
845,15159,Parung Jaya,36.71.12.1007,Karang Tengah,Kota,Tangerang,Banten
846,15159,Pondok Bahar,36.71.12.1003,Karang Tengah,Kota,Tangerang,Banten
847,15158,Pondok Pucung,36.71.12.1004,Karang Tengah,Kota,Tangerang,Banten
848,42213,Cigadung,36.01.25.1002,Karang Tanjung,Kabupaten,Pandeglang,Banten
849,42213,Juhut,36.01.25.1014,Karang Tanjung,Kabupaten,Pandeglang,Banten
850,42213,Kadumerak,36.01.25.1001,Karang Tanjung,Kabupaten,Pandeglang,Banten
851,42213,Pagadungan,36.01.25.1003,Karang Tanjung,Kabupaten,Pandeglang,Banten
852,42312,Aweh,36.02.24.2004,Kalanganyar,Kabupaten,Lebak,Banten
853,42311,Cikatapis,36.02.24.2007,Kalanganyar,Kabupaten,Lebak,Banten
854,42312,Cilangkap,36.02.24.2003,Kalanganyar,Kabupaten,Lebak,Banten
855,42312,Kalanganyar,36.02.24.2001,Kalanganyar,Kabupaten,Lebak,Banten
856,42312,Pasirkupa,36.02.24.2002,Kalanganyar,Kabupaten,Lebak,Banten
857,42312,Sangiangtanjung (Sangiang Tanjung),36.02.24.2005,Kalanganyar,Kabupaten,Lebak,Banten
858,42312,Sukamekarsari,36.02.24.2006,Kalanganyar,Kabupaten,Lebak,Banten
859,42253,Banjarsari,36.01.19.2009,Kaduhejo,Kabupaten,Pandeglang,Banten
860,42253,Banyumundu (Bayumundu),36.01.19.2002,Kaduhejo,Kabupaten,Pandeglang,Banten
861,42253,Campaka,36.01.19.2001,Kaduhejo,Kabupaten,Pandeglang,Banten
862,42253,Ciputri,36.01.19.2010,Kaduhejo,Kabupaten,Pandeglang,Banten
863,42253,Kadugemblo,36.01.19.2008,Kaduhejo,Kabupaten,Pandeglang,Banten
864,42253,Mandalasari,36.01.19.2003,Kaduhejo,Kabupaten,Pandeglang,Banten
865,42253,Palurahan,36.01.19.2006,Kaduhejo,Kabupaten,Pandeglang,Banten
866,42253,Saninten,36.01.19.2005,Kaduhejo,Kabupaten,Pandeglang,Banten
867,42253,Sukamanah,36.01.19.2007,Kaduhejo,Kabupaten,Pandeglang,Banten
868,42253,Sukasari,36.01.19.2004,Kaduhejo,Kabupaten,Pandeglang,Banten
869,42413,Gedong Dalem,36.72.05.1005,Jombang,Kota,Cilegon,Banten
870,42411,Jombang Wetan,36.72.05.1002,Jombang,Kota,Cilegon,Banten
871,42414,Masigit,36.72.05.1003,Jombang,Kota,Cilegon,Banten
872,42412,Panggung Rawi,36.72.05.1004,Jombang,Kota,Cilegon,Banten
873,42416,Sukmajaya,36.72.05.1001,Jombang,Kota,Cilegon,Banten
874,42263,Babadsari,36.01.16.2015,Jiput,Kabupaten,Pandeglang,Banten
875,42263,Banyuresmi,36.01.16.2013,Jiput,Kabupaten,Pandeglang,Banten
876,42263,Citaman,36.01.16.2007,Jiput,Kabupaten,Pandeglang,Banten
877,42263,Janaka,36.01.16.2005,Jiput,Kabupaten,Pandeglang,Banten
878,42263,Jayamekar,36.01.16.2008,Jiput,Kabupaten,Pandeglang,Banten
879,42263,Jiput,36.01.16.2002,Jiput,Kabupaten,Pandeglang,Banten
880,42263,Pamarayan,36.01.16.2001,Jiput,Kabupaten,Pandeglang,Banten
881,42263,Salapraya,36.01.16.2012,Jiput,Kabupaten,Pandeglang,Banten
882,42263,Sampang Bitung (Sampangbitung),36.01.16.2014,Jiput,Kabupaten,Pandeglang,Banten
883,42263,Sikulan,36.01.16.2006,Jiput,Kabupaten,Pandeglang,Banten
884,42263,Sukacai,36.01.16.2003,Jiput,Kabupaten,Pandeglang,Banten
885,42263,Sukamanah,36.01.16.2011,Jiput,Kabupaten,Pandeglang,Banten
886,42263,Tenjolahang,36.01.16.2004,Jiput,Kabupaten,Pandeglang,Banten
887,15611,Cikande,36.03.02.2008,Jayanti,Kabupaten,Tangerang,Banten
888,15611,Dangdeur (Dang Deur),36.03.02.2007,Jayanti,Kabupaten,Tangerang,Banten
889,15611,Jayanti,36.03.02.2006,Jayanti,Kabupaten,Tangerang,Banten
890,15611,Pabuaran,36.03.02.2002,Jayanti,Kabupaten,Tangerang,Banten
891,15611,Pangkat,36.03.02.2001,Jayanti,Kabupaten,Tangerang,Banten
892,15611,Pasir Gintung,36.03.02.2009,Jayanti,Kabupaten,Tangerang,Banten
893,15611,Pasir Muncang,36.03.02.2004,Jayanti,Kabupaten,Tangerang,Banten
894,15611,Sumur Bandung,36.03.02.2005,Jayanti,Kabupaten,Tangerang,Banten
895,42177,Bojot,36.04.26.2002,Jawilan,Kabupaten,Serang,Banten
896,42177,Cemplang,36.04.26.2003,Jawilan,Kabupaten,Serang,Banten
897,42177,Jawilan,36.04.26.2001,Jawilan,Kabupaten,Serang,Banten
898,42177,Junti,36.04.26.2009,Jawilan,Kabupaten,Serang,Banten
899,42177,Kareo,36.04.26.2008,Jawilan,Kabupaten,Serang,Banten
900,42177,Majasari,36.04.26.2006,Jawilan,Kabupaten,Serang,Banten
901,42177,Pagintungan,36.04.26.2004,Jawilan,Kabupaten,Serang,Banten
902,42177,Parakan,36.04.26.2007,Jawilan,Kabupaten,Serang,Banten
903,42177,Pasirbuyut,36.04.26.2005,Jawilan,Kabupaten,Serang,Banten
904,15133,Alam Jaya,36.71.02.1006,Jatiuwung,Kota,Tangerang,Banten
905,15137,Gandasari,36.71.02.1004,Jatiuwung,Kota,Tangerang,Banten
906,15136,Jatake,36.71.02.1002,Jatiuwung,Kota,Tangerang,Banten
907,15134,Keroncong,36.71.02.1001,Jatiuwung,Kota,Tangerang,Banten
908,15136,Manis Jaya,36.71.02.1005,Jatiuwung,Kota,Tangerang,Banten
909,15135,Pasir Jaya,36.71.02.1003,Jatiuwung,Kota,Tangerang,Banten
910,15720,Ancol Pasir,36.03.04.2009,Jambe,Kabupaten,Tangerang,Banten
911,15720,Daru,36.03.04.2005,Jambe,Kabupaten,Tangerang,Banten
912,15720,Jambe,36.03.04.2002,Jambe,Kabupaten,Tangerang,Banten
913,15720,Kutruk,36.03.04.2006,Jambe,Kabupaten,Tangerang,Banten
914,15720,Mekarsari,36.03.04.2008,Jambe,Kabupaten,Tangerang,Banten
915,15720,Pasir Barat,36.03.04.2010,Jambe,Kabupaten,Tangerang,Banten
916,15720,Ranca Buaya (Rancabuaya),36.03.04.2007,Jambe,Kabupaten,Tangerang,Banten
917,15720,Sukamanah (Suka Manah),36.03.04.2001,Jambe,Kabupaten,Tangerang,Banten
918,15720,Taban,36.03.04.2004,Jambe,Kabupaten,Tangerang,Banten
919,15720,Tipar Raya (Tipar Jaya / Tiparraya),36.03.04.2003,Jambe,Kabupaten,Tangerang,Banten
920,42160,Ciherang,36.04.33.2002,Gunungsari (Gunung Sari),Kabupaten,Serang,Banten
921,42160,Curug Sulanjana,36.04.33.2007,Gunungsari (Gunung Sari),Kabupaten,Serang,Banten
922,42160,Gunungsari,36.04.33.2001,Gunungsari (Gunung Sari),Kabupaten,Serang,Banten
923,42160,Kadu Agung,36.04.33.2005,Gunungsari (Gunung Sari),Kabupaten,Serang,Banten
924,42160,Luwuk,36.04.33.2006,Gunungsari (Gunung Sari),Kabupaten,Serang,Banten
925,42160,Sukalaba,36.04.33.2004,Gunungsari (Gunung Sari),Kabupaten,Serang,Banten
926,42160,Tamiang,36.04.33.2003,Gunungsari (Gunung Sari),Kabupaten,Serang,Banten
927,42354,Bojongkoneng,36.02.08.2010,Gunungkencana (Gunung Kencana),Kabupaten,Lebak,Banten
928,42354,Bulakan,36.02.08.2008,Gunungkencana (Gunung Kencana),Kabupaten,Lebak,Banten
929,42354,Ciakar,36.02.08.2006,Gunungkencana (Gunung Kencana),Kabupaten,Lebak,Banten
930,42354,Cicaringin,36.02.08.2007,Gunungkencana (Gunung Kencana),Kabupaten,Lebak,Banten
931,42354,Ciginggang,36.02.08.2005,Gunungkencana (Gunung Kencana),Kabupaten,Lebak,Banten
932,42354,Cimanyangray,36.02.08.2002,Gunungkencana (Gunung Kencana),Kabupaten,Lebak,Banten
933,42354,Cisampang,36.02.08.2004,Gunungkencana (Gunung Kencana),Kabupaten,Lebak,Banten
934,42354,Gunungkencana (Gunung Kencana),36.02.08.2001,Gunungkencana (Gunung Kencana),Kabupaten,Lebak,Banten
935,42354,Gunungkendeng,36.02.08.2003,Gunungkencana (Gunung Kencana),Kabupaten,Lebak,Banten
936,42354,Keramatjaya/Kramatjaya,36.02.08.2011,Gunungkencana (Gunung Kencana),Kabupaten,Lebak,Banten
937,42354,Sukanegara,36.02.08.2009,Gunungkencana (Gunung Kencana),Kabupaten,Lebak,Banten
938,42354,Tanjungsari Indah,36.02.08.2012,Gunungkencana (Gunung Kencana),Kabupaten,Lebak,Banten
939,15620,Cibetok,36.03.32.2009,Gunung Kaler,Kabupaten,Tangerang,Banten
940,15620,Cipaeh,36.03.32.2005,Gunung Kaler,Kabupaten,Tangerang,Banten
941,15620,Gunung Kaler,36.03.32.2001,Gunung Kaler,Kabupaten,Tangerang,Banten
942,15620,Kandawati (Kanda Wati),36.03.32.2008,Gunung Kaler,Kabupaten,Tangerang,Banten
943,15620,Kedung,36.03.32.2004,Gunung Kaler,Kabupaten,Tangerang,Banten
944,15620,Onyam,36.03.32.2006,Gunung Kaler,Kabupaten,Tangerang,Banten
945,15620,Rancagede (Ranca Gede),36.03.32.2003,Gunung Kaler,Kabupaten,Tangerang,Banten
946,15620,Sidoko,36.03.32.2002,Gunung Kaler,Kabupaten,Tangerang,Banten
947,15620,Tamiang,36.03.32.2007,Gunung Kaler,Kabupaten,Tangerang,Banten
948,42438,Gerem,36.72.06.1004,Gerogol,Kota,Cilegon,Banten
949,42436,Grogol (Gerogol),36.72.06.1002,Gerogol,Kota,Cilegon,Banten
950,42436,Kotasari,36.72.06.1001,Gerogol,Kota,Cilegon,Banten
951,42436,Rawa Arum,36.72.06.1003,Gerogol,Kota,Cilegon,Banten
952,42381,Candi,36.02.23.2003,Curug bitung (Curugbitung),Kabupaten,Lebak,Banten
953,42381,Ciburuy,36.02.23.2007,Curug bitung (Curugbitung),Kabupaten,Lebak,Banten
954,42381,Cidadap,36.02.23.2009,Curug bitung (Curugbitung),Kabupaten,Lebak,Banten
955,42381,Cilayang,36.02.23.2006,Curug bitung (Curugbitung),Kabupaten,Lebak,Banten
956,42381,Cipining,36.02.23.2005,Curug bitung (Curugbitung),Kabupaten,Lebak,Banten
957,42381,Curugbitung,36.02.23.2002,Curug bitung (Curugbitung),Kabupaten,Lebak,Banten
958,42381,Guradog,36.02.23.2001,Curug bitung (Curugbitung),Kabupaten,Lebak,Banten
959,42381,Lebakasih (Lebakkasih),36.02.23.2010,Curug bitung (Curugbitung),Kabupaten,Lebak,Banten
960,42381,Mayak,36.02.23.2004,Curug bitung (Curugbitung),Kabupaten,Lebak,Banten
961,42381,Sekarwangi,36.02.23.2008,Curug bitung (Curugbitung),Kabupaten,Lebak,Banten
962,15810,Binong,36.03.17.1006,Curug,Kabupaten,Tangerang,Banten
963,42171,Cilaku,36.73.04.1005,Curug,Kota,Serang,Banten
964,42171,Cipete,36.73.04.1004,Curug,Kota,Serang,Banten
965,15810,Cukanggalih (Cukang Galih),36.03.17.2010,Curug,Kabupaten,Tangerang,Banten
966,42171,Curug,36.73.04.1001,Curug,Kota,Serang,Banten
967,15810,Curug Kulon,36.03.17.1001,Curug,Kabupaten,Tangerang,Banten
968,42171,Curug Manis (Curugmanis),36.73.04.1009,Curug,Kota,Serang,Banten
969,15810,Curug Wetan,36.03.17.2002,Curug,Kabupaten,Tangerang,Banten
970,15810,Kadu,36.03.17.2003,Curug,Kabupaten,Tangerang,Banten
971,15810,Kadu Jaya,36.03.17.2004,Curug,Kabupaten,Tangerang,Banten
972,42171,Kemanisan (Kamanisan),36.73.04.1003,Curug,Kota,Serang,Banten
973,42171,Pancalaksana,36.73.04.1006,Curug,Kota,Serang,Banten
974,15810,Sukabakti (Suka Bakti),36.03.17.1005,Curug,Kabupaten,Tangerang,Banten
975,42171,Sukajaya,36.73.04.1010,Curug,Kota,Serang,Banten
976,42171,Sukalaksana,36.73.04.1008,Curug,Kota,Serang,Banten
977,42171,Sukawana,36.73.04.1007,Curug,Kota,Serang,Banten
978,42171,Tinggar,36.73.04.1002,Curug,Kota,Serang,Banten
979,42441,Banjar Negara,36.72.04.1001,Ciwandan,Kota,Cilegon,Banten
980,42447,Gunung Sugih (Gunungsugih),36.72.04.1004,Ciwandan,Kota,Cilegon,Banten
981,42446,Kepuh,36.72.04.1005,Ciwandan,Kota,Cilegon,Banten
982,42445,Kubangsari,36.72.04.1003,Ciwandan,Kota,Cilegon,Banten
983,42446,Randakari,36.72.04.1006,Ciwandan,Kota,Cilegon,Banten
984,42445,Tegal Ratu (Tegalratu),36.72.04.1002,Ciwandan,Kota,Cilegon,Banten
985,42441,Citangkil,36.72.08.1007,Citangkil,Kota,Cilegon,Banten
986,42444,Dringo (Deringo),36.72.08.1002,Citangkil,Kota,Cilegon,Banten
987,42442,Kebonsari,36.72.08.1005,Citangkil,Kota,Cilegon,Banten
988,42442,Lebak Denok (Lebakdenok),36.72.08.1003,Citangkil,Kota,Cilegon,Banten
989,42443,Samangraya,36.72.08.1006,Citangkil,Kota,Cilegon,Banten
990,42441,Taman Baru (Tamanbaru),36.72.08.1004,Citangkil,Kota,Cilegon,Banten
991,42443,Warnasari,36.72.08.1001,Citangkil,Kota,Cilegon,Banten
992,15730,Bojong Loa (Bojongloa),36.03.05.2006,Cisoka,Kabupaten,Tangerang,Banten
993,15730,Carenang,36.03.05.2009,Cisoka,Kabupaten,Tangerang,Banten
994,15730,Caringin,36.03.05.2002,Cisoka,Kabupaten,Tangerang,Banten
995,15730,Cempaka,36.03.05.2008,Cisoka,Kabupaten,Tangerang,Banten
996,15730,Cibugel,36.03.05.2007,Cisoka,Kabupaten,Tangerang,Banten
997,15730,Cisoka,36.03.05.2001,Cisoka,Kabupaten,Tangerang,Banten
998,15730,Jeungjing (Jeung Jing),36.03.05.2017,Cisoka,Kabupaten,Tangerang,Banten
999,15730,Karang Harja (Karangharja),36.03.05.2014,Cisoka,Kabupaten,Tangerang,Banten
1000,15730,Selapajang,36.03.05.2003,Cisoka,Kabupaten,Tangerang,Banten
1001,15730,Sukatani,36.03.05.2004,Cisoka,Kabupaten,Tangerang,Banten
1002,15344,Cibogo,36.03.23.2011,Cisauk,Kabupaten,Tangerang,Banten
1003,15341,Cisauk,36.03.23.1001,Cisauk,Kabupaten,Tangerang,Banten
1004,15342,Dangdang,36.03.23.2009,Cisauk,Kabupaten,Tangerang,Banten
1005,15340,Mekar Wangi (Mekarwangi),36.03.23.2003,Cisauk,Kabupaten,Tangerang,Banten
1006,15345,Sampora,36.03.23.2006,Cisauk,Kabupaten,Tangerang,Banten
1007,15343,Suradita,36.03.23.2005,Cisauk,Kabupaten,Tangerang,Banten
1008,42273,Cibarani,36.01.23.2004,Cisata,Kabupaten,Pandeglang,Banten
1009,42273,Ciherangjaya,36.01.23.2008,Cisata,Kabupaten,Pandeglang,Banten
1010,42273,Cisereh,36.01.23.2005,Cisata,Kabupaten,Pandeglang,Banten
1011,42273,Kaduronyok,36.01.23.2003,Cisata,Kabupaten,Pandeglang,Banten
1012,42273,Kondangjaya,36.01.23.2007,Cisata,Kabupaten,Pandeglang,Banten
1013,42273,Kubangkondang,36.01.23.2006,Cisata,Kabupaten,Pandeglang,Banten
1014,42273,Palembang,36.01.23.2009,Cisata,Kabupaten,Pandeglang,Banten
1015,42273,Pasireurih,36.01.23.2002,Cisata,Kabupaten,Pandeglang,Banten
1016,42273,Rawasari,36.01.23.2001,Cisata,Kabupaten,Pandeglang,Banten
1017,42182,Beberan,36.04.09.2015,Ciruas,Kabupaten,Serang,Banten
1018,42182,Bumijaya,36.04.09.2009,Ciruas,Kabupaten,Serang,Banten
1019,42182,Cigelam,36.04.09.2012,Ciruas,Kabupaten,Serang,Banten
1020,42182,Ciruas,36.04.09.2001,Ciruas,Kabupaten,Serang,Banten
1021,42182,Citerep,36.04.09.2002,Ciruas,Kabupaten,Serang,Banten
1022,42182,Gosara,36.04.09.2006,Ciruas,Kabupaten,Serang,Banten
1023,42182,Kadikaran,36.04.09.2004,Ciruas,Kabupaten,Serang,Banten
1024,42182,Kaserangan,36.04.09.2016,Ciruas,Kabupaten,Serang,Banten
1025,42182,Kepandean,36.04.09.2005,Ciruas,Kabupaten,Serang,Banten
1026,42182,Pamong,36.04.09.2011,Ciruas,Kabupaten,Serang,Banten
1027,42182,Pelawad,36.04.09.2017,Ciruas,Kabupaten,Serang,Banten
1028,42182,Penggalang,36.04.09.2010,Ciruas,Kabupaten,Serang,Banten
1029,42182,Pulo,36.04.09.2003,Ciruas,Kabupaten,Serang,Banten
1030,42182,Ranjeng,36.04.09.2014,Ciruas,Kabupaten,Serang,Banten
1031,42182,Singamerta,36.04.09.2013,Ciruas,Kabupaten,Serang,Banten
1032,42365,Badur,36.02.27.2005,Cirinten,Kabupaten,Lebak,Banten
1033,42365,Cempaka,36.02.27.2008,Cirinten,Kabupaten,Lebak,Banten
1034,42365,Cibarani,36.02.27.2010,Cirinten,Kabupaten,Lebak,Banten
1035,42365,Cirinten,36.02.27.2002,Cirinten,Kabupaten,Lebak,Banten
1036,42365,Datarcae,36.02.27.2001,Cirinten,Kabupaten,Lebak,Banten
1037,42365,Kadudamas,36.02.27.2004,Cirinten,Kabupaten,Lebak,Banten
1038,42365,Karangnunggal,36.02.27.2003,Cirinten,Kabupaten,Lebak,Banten
1039,42365,Karoya,36.02.27.2009,Cirinten,Kabupaten,Lebak,Banten
1040,42365,Nanggerang (Nangerang),36.02.27.2007,Cirinten,Kabupaten,Lebak,Banten
1041,42365,Parakanlima,36.02.27.2006,Cirinten,Kabupaten,Lebak,Banten
1042,15412,Cempaka Putih,36.74.05.1001,Ciputat Timur,Kota,Tangerang Selatan,Banten
1043,15419,Cireundeu,36.74.05.1004,Ciputat Timur,Kota,Tangerang Selatan,Banten
1044,15419,Pisangan,36.74.05.1003,Ciputat Timur,Kota,Tangerang Selatan,Banten
1045,15412,Pondok Ranji,36.74.05.1002,Ciputat Timur,Kota,Tangerang Selatan,Banten
1046,15412,Rempoa,36.74.05.1005,Ciputat Timur,Kota,Tangerang Selatan,Banten
1047,15412,Rengas,36.74.05.1006,Ciputat Timur,Kota,Tangerang Selatan,Banten
1048,15411,Cipayung,36.74.04.1007,Ciputat,Kota,Tangerang Selatan,Banten
1049,15411,Ciputat,36.74.04.1003,Ciputat,Kota,Tangerang Selatan,Banten
1050,15414,Jombang,36.74.04.1006,Ciputat,Kota,Tangerang Selatan,Banten
1051,15414,Sarua (Serua),36.74.04.1002,Ciputat,Kota,Tangerang Selatan,Banten
1052,15413,Sawah Baru,36.74.04.1001,Ciputat,Kota,Tangerang Selatan,Banten
1053,15413,Sawah Lama,36.74.04.1004,Ciputat,Kota,Tangerang Selatan,Banten
1054,15414,Serua Indah (Sarua Indah),36.74.04.1005,Ciputat,Kota,Tangerang Selatan,Banten
1055,15148,Cipondoh,36.71.05.1001,Cipondoh,Kota,Tangerang,Banten
1056,15148,Cipondoh Indah,36.71.05.1003,Cipondoh,Kota,Tangerang,Banten
1057,15148,Cipondoh Makmur,36.71.05.1002,Cipondoh,Kota,Tangerang,Banten
1058,15146,Gondrong,36.71.05.1004,Cipondoh,Kota,Tangerang,Banten
1059,15146,Kenanga,36.71.05.1005,Cipondoh,Kota,Tangerang,Banten
1060,15147,Ketapang,36.71.05.1007,Cipondoh,Kota,Tangerang,Banten
1061,15147,Petir,36.71.05.1006,Cipondoh,Kota,Tangerang,Banten
1062,15141,Poris Plawad,36.71.05.1008,Cipondoh,Kota,Tangerang,Banten
1063,15141,Poris Plawad Indah,36.71.05.1010,Cipondoh,Kota,Tangerang,Banten
1064,15141,Poris Plawad Utara,36.71.05.1009,Cipondoh,Kota,Tangerang,Banten
1065,42122,Banjar Agung (Banjaragung),36.73.05.1004,Cipocok Jaya,Kota,Serang,Banten
1066,42123,Banjarsari,36.73.05.1005,Cipocok Jaya,Kota,Serang,Banten
1067,42121,Cipocok Jaya,36.73.05.1001,Cipocok Jaya,Kota,Serang,Banten
1068,42127,Dalung,36.73.05.1007,Cipocok Jaya,Kota,Serang,Banten
1069,42128,Gelam,36.73.05.1008,Cipocok Jaya,Kota,Serang,Banten
1070,42125,Karundang,36.73.05.1002,Cipocok Jaya,Kota,Serang,Banten
1071,42124,Panancangan,36.73.05.1003,Cipocok Jaya,Kota,Serang,Banten
1072,42126,Tembong,36.73.05.1006,Cipocok Jaya,Kota,Serang,Banten
1073,42272,Baturanjang,36.01.15.2002,Cipeucang,Kabupaten,Pandeglang,Banten
1074,42272,Cikadueun,36.01.15.2003,Cipeucang,Kabupaten,Pandeglang,Banten
1075,42272,Curugbarang,36.01.15.2007,Cipeucang,Kabupaten,Pandeglang,Banten
1076,42272,Kadugadung,36.01.15.2005,Cipeucang,Kabupaten,Pandeglang,Banten
1077,42272,Kalanggunung,36.01.15.2008,Cipeucang,Kabupaten,Pandeglang,Banten
1078,42272,Koncang,36.01.15.2004,Cipeucang,Kabupaten,Pandeglang,Banten
1079,42272,Palanyar,36.01.15.2001,Cipeucang,Kabupaten,Pandeglang,Banten
1080,42272,Parumasan,36.01.15.2006,Cipeucang,Kabupaten,Pandeglang,Banten
1081,42272,Pasireurih,36.01.15.2009,Cipeucang,Kabupaten,Pandeglang,Banten
1082,42272,Pasirmae,36.01.15.2010,Cipeucang,Kabupaten,Pandeglang,Banten
1083,42372,Bintangresmi,36.02.04.2005,Cipanas,Kabupaten,Lebak,Banten
1084,42372,Bintangsari,36.02.04.2015,Cipanas,Kabupaten,Lebak,Banten
1085,42372,Cipanas,36.02.04.2002,Cipanas,Kabupaten,Lebak,Banten
1086,42372,Giriharja,36.02.04.2009,Cipanas,Kabupaten,Lebak,Banten
1087,42372,Girilaya,36.02.04.2003,Cipanas,Kabupaten,Lebak,Banten
1088,42372,Harumsari,36.02.04.2020,Cipanas,Kabupaten,Lebak,Banten
1089,42372,Haurgajrug,36.02.04.2008,Cipanas,Kabupaten,Lebak,Banten
1090,42372,Jayapura,36.02.04.2013,Cipanas,Kabupaten,Lebak,Banten
1091,42372,Luhurjaya,36.02.04.2007,Cipanas,Kabupaten,Lebak,Banten
1092,42372,Malangsari,36.02.04.2004,Cipanas,Kabupaten,Lebak,Banten
1093,42372,Pasirhaur,36.02.04.2016,Cipanas,Kabupaten,Lebak,Banten
1094,42372,Sipayung,36.02.04.2014,Cipanas,Kabupaten,Lebak,Banten
1095,42372,Sukasari,36.02.04.2010,Cipanas,Kabupaten,Lebak,Banten
1096,42372,Talagahiang/Talagahiyang,36.02.04.2006,Cipanas,Kabupaten,Lebak,Banten
1097,42164,Cemplang,36.04.27.2008,Ciomas,Kabupaten,Serang,Banten
1098,42164,Cisitu,36.04.27.2009,Ciomas,Kabupaten,Serang,Banten
1099,42164,Citaman,36.04.27.2010,Ciomas,Kabupaten,Serang,Banten
1100,42164,Lebak,36.04.27.2003,Ciomas,Kabupaten,Serang,Banten
1101,42164,Panyaungan Jaya,36.04.27.2011,Ciomas,Kabupaten,Serang,Banten
1102,42164,Pondok Kaharu (Pondok Kahuru),36.04.27.2004,Ciomas,Kabupaten,Serang,Banten
1103,42164,Siketug,36.04.27.2002,Ciomas,Kabupaten,Serang,Banten
1104,42164,Sukabares,36.04.27.2005,Ciomas,Kabupaten,Serang,Banten
1105,42164,Sukadana,36.04.27.2007,Ciomas,Kabupaten,Serang,Banten
1106,42164,Sukarena,36.04.27.2006,Ciomas,Kabupaten,Serang,Banten
1107,42164,Ujungtebu,36.04.27.2001,Ciomas,Kabupaten,Serang,Banten
1108,42167,Bantar Wangi (Bantarwangi),36.04.31.2012,Cinangka,Kabupaten,Serang,Banten
1109,42167,Bantar Waru (Bantarwaru),36.04.31.2002,Cinangka,Kabupaten,Serang,Banten
1110,42167,Baros Jaya,36.04.31.2014,Cinangka,Kabupaten,Serang,Banten
1111,42167,Bulakan,36.04.31.2004,Cinangka,Kabupaten,Serang,Banten
1112,42167,Cikolelet,36.04.31.2009,Cinangka,Kabupaten,Serang,Banten
1113,42167,Cinangka,36.04.31.2001,Cinangka,Kabupaten,Serang,Banten
1114,42167,Kamasan,36.04.31.2011,Cinangka,Kabupaten,Serang,Banten
1115,42167,Karang Suraga,36.04.31.2005,Cinangka,Kabupaten,Serang,Banten
1116,42167,Kubang Baros,36.04.31.2007,Cinangka,Kabupaten,Serang,Banten
1117,42167,Mekarsari,36.04.31.2013,Cinangka,Kabupaten,Serang,Banten
1118,42167,Pasauran,36.04.31.2003,Cinangka,Kabupaten,Serang,Banten
1119,42167,Ranca Sanggal (Rancasanggal),36.04.31.2008,Cinangka,Kabupaten,Serang,Banten
1120,42167,Sindang Laya (Sindanglaya),36.04.31.2010,Cinangka,Kabupaten,Serang,Banten
1121,42167,Umbul Tanjung,36.04.31.2006,Cinangka,Kabupaten,Serang,Banten
1122,42361,Cimarga,36.02.11.2005,Cimarga,Kabupaten,Lebak,Banten
1123,42361,Girimukti,36.02.11.2014,Cimarga,Kabupaten,Lebak,Banten
1124,42361,Gununganten (Gunung Anten),36.02.11.2002,Cimarga,Kabupaten,Lebak,Banten
1125,42361,Intenjaya (Inten Jaya),36.02.11.2011,Cimarga,Kabupaten,Lebak,Banten
1126,42361,Jayamanik,36.02.11.2008,Cimarga,Kabupaten,Lebak,Banten
1127,42361,Jayasari,36.02.11.2013,Cimarga,Kabupaten,Lebak,Banten
1128,42361,Karyajaya (Karya Jaya),36.02.11.2006,Cimarga,Kabupaten,Lebak,Banten
1129,42361,Margajaya (Marga Jaya),36.02.11.2007,Cimarga,Kabupaten,Lebak,Banten
1130,42361,Margaluyu,36.02.11.2009,Cimarga,Kabupaten,Lebak,Banten
1131,42361,Margatirta,36.02.11.2010,Cimarga,Kabupaten,Lebak,Banten
1132,42361,Mekarjaya (Mekar Jaya),36.02.11.2012,Cimarga,Kabupaten,Lebak,Banten
1133,42361,Mekarmulya,36.02.11.2017,Cimarga,Kabupaten,Lebak,Banten
1134,42361,Sangiangjaya (Sangiang Jaya),36.02.11.2016,Cimarga,Kabupaten,Lebak,Banten
1135,42361,Sangkanmanik (Sangkan Manik),36.02.11.2015,Cimarga,Kabupaten,Lebak,Banten
1136,42361,Sarageni,36.02.11.2001,Cimarga,Kabupaten,Lebak,Banten
1137,42361,Sudamanik,36.02.11.2003,Cimarga,Kabupaten,Lebak,Banten
1138,42361,Tambak,36.02.11.2004,Cimarga,Kabupaten,Lebak,Banten
1139,42270,Batubantar,36.01.18.2002,Cimanuk,Kabupaten,Pandeglang,Banten
1140,42270,Cimanuk,36.01.18.2001,Cimanuk,Kabupaten,Pandeglang,Banten
1141,42270,Dalembalar,36.01.18.2005,Cimanuk,Kabupaten,Pandeglang,Banten
1142,42270,Gunungcupu,36.01.18.2015,Cimanuk,Kabupaten,Pandeglang,Banten
1143,42270,Gunungdatar,36.01.18.2010,Cimanuk,Kabupaten,Pandeglang,Banten
1144,42270,Kadubungbang,36.01.18.2003,Cimanuk,Kabupaten,Pandeglang,Banten
1145,42270,Kadudodol,36.01.18.2008,Cimanuk,Kabupaten,Pandeglang,Banten
1146,42270,Kadumadang,36.01.18.2006,Cimanuk,Kabupaten,Pandeglang,Banten
1147,42270,Kupahandap,36.01.18.2004,Cimanuk,Kabupaten,Pandeglang,Banten
1148,42270,Rocek,36.01.18.2007,Cimanuk,Kabupaten,Pandeglang,Banten
1149,42270,Sekong,36.01.18.2013,Cimanuk,Kabupaten,Pandeglang,Banten
1150,42284,Batuhideung,36.01.02.2004,Cimanggu,Kabupaten,Pandeglang,Banten
1151,42284,Cibadak,36.01.02.2002,Cimanggu,Kabupaten,Pandeglang,Banten
1152,42284,Ciburial,36.01.02.2006,Cimanggu,Kabupaten,Pandeglang,Banten
1153,42284,Cijaralang,36.01.02.2007,Cimanggu,Kabupaten,Pandeglang,Banten
1154,42284,Cimanggu,36.01.02.2008,Cimanggu,Kabupaten,Pandeglang,Banten
1155,42284,Kramatjaya,36.01.02.2012,Cimanggu,Kabupaten,Pandeglang,Banten
1156,42284,Mangkualam,36.01.02.2009,Cimanggu,Kabupaten,Pandeglang,Banten
1157,42284,Padasuka,36.01.02.2005,Cimanggu,Kabupaten,Pandeglang,Banten
1158,42284,Rancapinang,36.01.02.2001,Cimanggu,Kabupaten,Pandeglang,Banten
1159,42284,Tangkil Sari (Tangkilsari),36.01.02.2010,Cimanggu,Kabupaten,Pandeglang,Banten
1160,42284,Tugu,36.01.02.2003,Cimanggu,Kabupaten,Pandeglang,Banten
1161,42284,Waringin Kurung (Waringinkurung),36.01.02.2011,Cimanggu,Kabupaten,Pandeglang,Banten
1162,42398,Cibareno,36.02.20.2002,Cilograng,Kabupaten,Lebak,Banten
1163,42398,Cijengkol,36.02.20.2004,Cilograng,Kabupaten,Lebak,Banten
1164,42398,Cikamunding,36.02.20.2003,Cilograng,Kabupaten,Lebak,Banten
1165,42398,Cikatomas,36.02.20.2007,Cilograng,Kabupaten,Lebak,Banten
1166,42398,Cilograng,36.02.20.2001,Cilograng,Kabupaten,Lebak,Banten
1167,42398,Cireundeu,36.02.20.2009,Cilograng,Kabupaten,Lebak,Banten
1168,42398,Girimukti,36.02.20.2008,Cilograng,Kabupaten,Lebak,Banten
1169,42398,Gunungbatu,36.02.20.2010,Cilograng,Kabupaten,Lebak,Banten
1170,42398,Lebaktipar,36.02.20.2006,Cilograng,Kabupaten,Lebak,Banten
1171,42398,Pasirbungur,36.02.20.2005,Cilograng,Kabupaten,Lebak,Banten
1172,42353,Banjarsari,36.02.10.2012,Cileles,Kabupaten,Lebak,Banten
1173,42353,Cikareo,36.02.10.2004,Cileles,Kabupaten,Lebak,Banten
1174,42353,Cileles,36.02.10.2003,Cileles,Kabupaten,Lebak,Banten
1175,42353,Cipadang,36.02.10.2005,Cileles,Kabupaten,Lebak,Banten
1176,42353,Daroyon,36.02.10.2008,Cileles,Kabupaten,Lebak,Banten
1177,42353,Gumuruh,36.02.10.2006,Cileles,Kabupaten,Lebak,Banten
1178,42353,Kujangsari,36.02.10.2011,Cileles,Kabupaten,Lebak,Banten
1179,42353,Margamulya,36.02.10.2009,Cileles,Kabupaten,Lebak,Banten
1180,42353,Mekarjaya,36.02.10.2010,Cileles,Kabupaten,Lebak,Banten
1181,42353,Parungkujang,36.02.10.2002,Cileles,Kabupaten,Lebak,Banten
1182,42353,Pasindangan,36.02.10.2001,Cileles,Kabupaten,Lebak,Banten
1183,42353,Prabugantungan,36.02.10.2007,Cileles,Kabupaten,Lebak,Banten
1184,42419,Bagendung,36.72.02.1001,Cilegon,Kota,Cilegon,Banten
1185,42417,Bendungan,36.72.02.1003,Cilegon,Kota,Cilegon,Banten
1186,42415,Ciwaduk,36.72.02.1005,Cilegon,Kota,Cilegon,Banten
1187,42418,Ciwedus,36.72.02.1002,Cilegon,Kota,Cilegon,Banten
1188,42416,Ketileng,36.72.02.1004,Cilegon,Kota,Cilegon,Banten
1189,15153,Paninggilan,36.71.06.1001,Ciledug,Kota,Tangerang,Banten
1190,15153,Paninggilan Utara,36.71.06.1008,Ciledug,Kota,Tangerang,Banten
1191,15153,Parung Serab,36.71.06.1005,Ciledug,Kota,Tangerang,Banten
1192,15151,Sudimara Barat,36.71.06.1002,Ciledug,Kota,Tangerang,Banten
1193,15151,Sudimara Jaya,36.71.06.1006,Ciledug,Kota,Tangerang,Banten
1194,15151,Sudimara Selatan,36.71.06.1007,Ciledug,Kota,Tangerang,Banten
1195,15151,Sudimara Timur,36.71.06.1003,Ciledug,Kota,Tangerang,Banten
1196,15152,Tajur,36.71.06.1004,Ciledug,Kota,Tangerang,Banten
1197,15710,Bitung Jaya,36.03.18.2009,Cikupa,Kabupaten,Tangerang,Banten
1198,15710,Bojong,36.03.18.2014,Cikupa,Kabupaten,Tangerang,Banten
1199,15710,Budi Mulya,36.03.18.2013,Cikupa,Kabupaten,Tangerang,Banten
1200,15710,Bunder,36.03.18.1003,Cikupa,Kabupaten,Tangerang,Banten
1201,15710,Cibadak,36.03.18.2002,Cikupa,Kabupaten,Tangerang,Banten
1202,15710,Cikupa,36.03.18.2007,Cikupa,Kabupaten,Tangerang,Banten
1203,15710,Dukuh,36.03.18.2006,Cikupa,Kabupaten,Tangerang,Banten
1204,15710,Pasir Gadung,36.03.18.2010,Cikupa,Kabupaten,Tangerang,Banten
1205,15710,Pasir Jaya,36.03.18.2012,Cikupa,Kabupaten,Tangerang,Banten
1206,15710,Sukadamai (Suka Damai),36.03.18.2011,Cikupa,Kabupaten,Tangerang,Banten
1207,15710,Sukamulya (Suka Mulya),36.03.18.1001,Cikupa,Kabupaten,Tangerang,Banten
1208,15710,Sukanagara (Suka Nagara),36.03.18.2008,Cikupa,Kabupaten,Tangerang,Banten
1209,15710,Talaga,36.03.18.2004,Cikupa,Kabupaten,Tangerang,Banten
1210,15710,Talagasari (Talaga Sari),36.03.18.2005,Cikupa,Kabupaten,Tangerang,Banten
1211,42356,Anggalan,36.02.17.2001,Cikulur,Kabupaten,Lebak,Banten
1212,42356,Cigoong Selatan,36.02.17.2009,Cikulur,Kabupaten,Lebak,Banten
1213,42356,Cigoong Utara,36.02.17.2005,Cikulur,Kabupaten,Lebak,Banten
1214,42356,Cikulur,36.02.17.2007,Cikulur,Kabupaten,Lebak,Banten
1215,42356,Curugpanjang,36.02.17.2008,Cikulur,Kabupaten,Lebak,Banten
1216,42356,Muaradua,36.02.17.2006,Cikulur,Kabupaten,Lebak,Banten
1217,42356,Muncangkopong,36.02.17.2002,Cikulur,Kabupaten,Lebak,Banten
1218,42356,Parage,36.02.17.2011,Cikulur,Kabupaten,Lebak,Banten
1219,42356,Pasirgintung,36.02.17.2013,Cikulur,Kabupaten,Lebak,Banten
1220,42356,Sukadaya,36.02.17.2012,Cikulur,Kabupaten,Lebak,Banten
1221,42356,Sukaharja,36.02.17.2003,Cikulur,Kabupaten,Lebak,Banten
1222,42356,Sumurbandung,36.02.17.2010,Cikulur,Kabupaten,Lebak,Banten
1223,42356,Tamanjaya (Taman Jaya),36.02.17.2004,Cikulur,Kabupaten,Lebak,Banten
1224,42286,Cikadongdong,36.01.04.2008,Cikeusik,Kabupaten,Pandeglang,Banten
1225,42286,Cikeusik,36.01.04.2007,Cikeusik,Kabupaten,Pandeglang,Banten
1226,42286,Cikiruhwetan,36.01.04.2014,Cikeusik,Kabupaten,Pandeglang,Banten
1227,42286,Curugciung,36.01.04.2009,Cikeusik,Kabupaten,Pandeglang,Banten
1228,42286,Leuwibalang,36.01.04.2010,Cikeusik,Kabupaten,Pandeglang,Banten
1229,42286,Nanggala,36.01.04.2006,Cikeusik,Kabupaten,Pandeglang,Banten
1230,42286,Parungkokosan,36.01.04.2005,Cikeusik,Kabupaten,Pandeglang,Banten
1231,42286,Rancaseneng,36.01.04.2004,Cikeusik,Kabupaten,Pandeglang,Banten
1232,42286,Sukamulya,36.01.04.2012,Cikeusik,Kabupaten,Pandeglang,Banten
1233,42286,Sukaseneng,36.01.04.2011,Cikeusik,Kabupaten,Pandeglang,Banten
1234,42286,Sukawaris,36.01.04.2003,Cikeusik,Kabupaten,Pandeglang,Banten
1235,42286,Sumurbatu,36.01.04.2002,Cikeusik,Kabupaten,Pandeglang,Banten
1236,42286,Tanjungan,36.01.04.2001,Cikeusik,Kabupaten,Pandeglang,Banten
1237,42286,Umbulan,36.01.04.2013,Cikeusik,Kabupaten,Pandeglang,Banten
1238,42175,Bantar Panjang,36.04.23.2010,Cikeusal,Kabupaten,Serang,Banten
1239,42175,Cikeusal,36.04.23.2001,Cikeusal,Kabupaten,Serang,Banten
1240,42175,Cilayang,36.04.23.2005,Cikeusal,Kabupaten,Serang,Banten
1241,42175,Cilayang Guha,36.04.23.2017,Cikeusal,Kabupaten,Serang,Banten
1242,42175,Cimaung,36.04.23.2007,Cikeusal,Kabupaten,Serang,Banten
1243,42175,Dahu,36.04.23.2002,Cikeusal,Kabupaten,Serang,Banten
1244,42175,Gandayasa,36.04.23.2009,Cikeusal,Kabupaten,Serang,Banten
1245,42175,Harundang,36.04.23.2012,Cikeusal,Kabupaten,Serang,Banten
1246,42175,Katulisan,36.04.23.2003,Cikeusal,Kabupaten,Serang,Banten
1247,42175,Mongpok,36.04.23.2015,Cikeusal,Kabupaten,Serang,Banten
1248,42175,Panosogan,36.04.23.2014,Cikeusal,Kabupaten,Serang,Banten
1249,42175,Panyabrangan,36.04.23.2008,Cikeusal,Kabupaten,Serang,Banten
1250,42175,Sukamaju,36.04.23.2004,Cikeusal,Kabupaten,Serang,Banten
1251,42175,Sukamenak,36.04.23.2006,Cikeusal,Kabupaten,Serang,Banten
1252,42175,Sukaraja,36.04.23.2016,Cikeusal,Kabupaten,Serang,Banten
1253,42175,Sukarame,36.04.23.2013,Cikeusal,Kabupaten,Serang,Banten
1254,42175,Sukaratu,36.04.23.2011,Cikeusal,Kabupaten,Serang,Banten
1255,42271,Babakanlor,36.01.26.2005,Cikedal (Cikeudal),Kabupaten,Pandeglang,Banten
1256,42271,Bangkuyung,36.01.26.2010,Cikedal (Cikeudal),Kabupaten,Pandeglang,Banten
1257,42271,Cening,36.01.26.2009,Cikedal (Cikeudal),Kabupaten,Pandeglang,Banten
1258,42271,Cipicung,36.01.26.2003,Cikedal (Cikeudal),Kabupaten,Pandeglang,Banten
1259,42271,Dahu,36.01.26.2004,Cikedal (Cikeudal),Kabupaten,Pandeglang,Banten
1260,42271,Karyasari,36.01.26.2001,Cikedal (Cikeudal),Kabupaten,Pandeglang,Banten
1261,42271,Karyautama,36.01.26.2006,Cikedal (Cikeudal),Kabupaten,Pandeglang,Banten
1262,42271,Mekarjaya,36.01.26.2007,Cikedal (Cikeudal),Kabupaten,Pandeglang,Banten
1263,42271,Padahayu,36.01.26.2008,Cikedal (Cikeudal),Kabupaten,Pandeglang,Banten
1264,42271,Tegal,36.01.26.2002,Cikedal (Cikeudal),Kabupaten,Pandeglang,Banten
1265,42186,Bakung,36.04.15.2006,Cikande,Kabupaten,Serang,Banten
1266,42186,Cikande,36.04.15.2001,Cikande,Kabupaten,Serang,Banten
1267,42186,Cikande Permai,36.04.15.2013,Cikande,Kabupaten,Serang,Banten
1268,42186,Gembor Udik,36.04.15.2011,Cikande,Kabupaten,Serang,Banten
1269,42186,Julang,36.04.15.2007,Cikande,Kabupaten,Serang,Banten
1270,42186,Kamurang,36.04.15.2010,Cikande,Kabupaten,Serang,Banten
1271,42186,Koper,36.04.15.2005,Cikande,Kabupaten,Serang,Banten
1272,42186,Leuwi Limus (Leuwilimus),36.04.15.2002,Cikande,Kabupaten,Serang,Banten
1273,42186,Nambo Udik,36.04.15.2003,Cikande,Kabupaten,Serang,Banten
1274,42186,Parigi,36.04.15.2004,Cikande,Kabupaten,Serang,Banten
1275,42186,Situterate,36.04.15.2009,Cikande,Kabupaten,Serang,Banten
1276,42186,Songgomjaya (Songgom Jaya),36.04.15.2012,Cikande,Kabupaten,Serang,Banten
1277,42186,Sukatani,36.04.15.2008,Cikande,Kabupaten,Serang,Banten
1278,42397,Ciapus,36.02.16.2012,Cijaku,Kabupaten,Lebak,Banten
1279,42397,Cibeureum,36.02.16.2008,Cijaku,Kabupaten,Lebak,Banten
1280,42397,Cihujan,36.02.16.2014,Cijaku,Kabupaten,Lebak,Banten
1281,42397,Cijaku,36.02.16.2007,Cijaku,Kabupaten,Lebak,Banten
1282,42397,Cikaratuan,36.02.16.2018,Cijaku,Kabupaten,Lebak,Banten
1283,42397,Cimenga (Cimega),36.02.16.2015,Cijaku,Kabupaten,Lebak,Banten
1284,42397,Cipalabuh,36.02.16.2006,Cijaku,Kabupaten,Lebak,Banten
1285,42397,Kandangsapi,36.02.16.2013,Cijaku,Kabupaten,Lebak,Banten
1286,42397,Kapunduhan,36.02.16.2016,Cijaku,Kabupaten,Lebak,Banten
1287,42397,Mekarjaya,36.02.16.2004,Cijaku,Kabupaten,Lebak,Banten
1288,42397,Sukasenang,36.02.16.2017,Cijaku,Kabupaten,Lebak,Banten
1289,42392,Barunai,36.02.26.2009,Cihara,Kabupaten,Lebak,Banten
1290,42392,Cihara,36.02.26.2002,Cihara,Kabupaten,Lebak,Banten
1291,42392,Ciparahu,36.02.26.2003,Cihara,Kabupaten,Lebak,Banten
1292,42392,Citeupuseun (Citepuseun),36.02.26.2005,Cihara,Kabupaten,Lebak,Banten
1293,42392,Karangkamulyan,36.02.26.2008,Cihara,Kabupaten,Lebak,Banten
1294,42392,Lebakpeundeuy (Lebak Peundeuy),36.02.26.2006,Cihara,Kabupaten,Lebak,Banten
1295,42392,Mekarsari,36.02.26.2007,Cihara,Kabupaten,Lebak,Banten
1296,42392,Panyaungan,36.02.26.2001,Cihara,Kabupaten,Lebak,Banten
1297,42392,Pondokpanjang,36.02.26.2004,Cihara,Kabupaten,Lebak,Banten
1298,42282,Banyuasih,36.01.05.2007,Cigeulis,Kabupaten,Pandeglang,Banten
1299,42282,Cigeulis,36.01.05.2009,Cigeulis,Kabupaten,Pandeglang,Banten
1300,42282,Ciseureuheun,36.01.05.2006,Cigeulis,Kabupaten,Pandeglang,Banten
1301,42282,Karangbolong,36.01.05.2001,Cigeulis,Kabupaten,Pandeglang,Banten
1302,42282,Karyabuana,36.01.05.2004,Cigeulis,Kabupaten,Pandeglang,Banten
1303,42282,Katumbiri,36.01.05.2002,Cigeulis,Kabupaten,Pandeglang,Banten
1304,42282,Sinarjaya,36.01.05.2010,Cigeulis,Kabupaten,Pandeglang,Banten
1305,42282,Tarumanagara,36.01.05.2005,Cigeulis,Kabupaten,Pandeglang,Banten
1306,42282,Waringinjaya,36.01.05.2003,Cigeulis,Kabupaten,Pandeglang,Banten
1307,42395,Cibungur,36.02.28.2002,Cigemlong (Cigemblong),Kabupaten,Lebak,Banten
1308,42395,Cigemblong,36.02.28.2005,Cigemlong (Cigemblong),Kabupaten,Lebak,Banten
1309,42395,Cikadongdong,36.02.28.2006,Cigemlong (Cigemblong),Kabupaten,Lebak,Banten
1310,42395,Cikaret,36.02.28.2007,Cigemlong (Cigemblong),Kabupaten,Lebak,Banten
1311,42395,Cikate,36.02.28.2004,Cigemlong (Cigemblong),Kabupaten,Lebak,Banten
1312,42395,Mugijaya,36.02.28.2003,Cigemlong (Cigemblong),Kabupaten,Lebak,Banten
1313,42395,Peucangpari,36.02.28.2001,Cigemlong (Cigemblong),Kabupaten,Lebak,Banten
1314,42395,Wangunjaya,36.02.28.2008,Cigemlong (Cigemblong),Kabupaten,Lebak,Banten
1315,15138,Cibodas,36.71.09.1001,Cibodas,Kota,Tangerang,Banten
1316,15138,Cibodas Baru,36.71.09.1003,Cibodas,Kota,Tangerang,Banten
1317,15138,Cibodasari (Cibodas Sari),36.71.09.1002,Cibodas,Kota,Tangerang,Banten
1318,15134,Jatiuwung,36.71.09.1006,Cibodas,Kota,Tangerang,Banten
1319,15139,Panunggangan Barat,36.71.09.1004,Cibodas,Kota,Tangerang,Banten
1320,15138,Uwung Jaya,36.71.09.1005,Cibodas,Kota,Tangerang,Banten
1321,42287,Cikadu,36.01.27.2004,Cibitung,Kabupaten,Pandeglang,Banten
1322,42287,Cikalong,36.01.27.2009,Cibitung,Kabupaten,Pandeglang,Banten
1323,42287,Cikiruh,36.01.27.2003,Cibitung,Kabupaten,Pandeglang,Banten
1324,42287,Citeluk,36.01.27.2007,Cibitung,Kabupaten,Pandeglang,Banten
1325,42287,Kiarajangkung,36.01.27.2008,Cibitung,Kabupaten,Pandeglang,Banten
1326,42287,Kiarapayung,36.01.27.2005,Cibitung,Kabupaten,Pandeglang,Banten
1327,42287,Kutakarang,36.01.27.2006,Cibitung,Kabupaten,Pandeglang,Banten
1328,42287,Malangnengah,36.01.27.2010,Cibitung,Kabupaten,Pandeglang,Banten
1329,42287,Manglid,36.01.27.2002,Cibitung,Kabupaten,Pandeglang,Banten
1330,42287,Sindangkerta,36.01.27.2001,Cibitung,Kabupaten,Pandeglang,Banten
1331,42426,Bulakan,36.72.01.1003,Cibeber,Kota,Cilegon,Banten
1332,42423,Cibeber,36.72.01.1001,Cibeber,Kota,Cilegon,Banten
1333,42394,Cibeber,36.02.19.2001,Cibeber,Kabupaten,Lebak,Banten
1334,42394,Cihambali,36.02.19.2018,Cibeber,Kabupaten,Lebak,Banten
1335,42394,Ciherang,36.02.19.2023,Cibeber,Kabupaten,Lebak,Banten
1336,42394,Cikadu,36.02.19.2016,Cibeber,Kabupaten,Lebak,Banten
1337,42427,Cikerai,36.72.01.1004,Cibeber,Kota,Cilegon,Banten
1338,42394,Cikotok,36.02.19.2008,Cibeber,Kabupaten,Lebak,Banten
1339,42394,Cisungsang,36.02.19.2003,Cibeber,Kabupaten,Lebak,Banten
1340,42394,Citorek Barat,36.02.19.2019,Cibeber,Kabupaten,Lebak,Banten
1341,42394,Citorek Kidul (Ciusul),36.02.19.2015,Cibeber,Kabupaten,Lebak,Banten
1342,42394,Citorek Sabrang (Girimukti),36.02.19.2022,Cibeber,Kabupaten,Lebak,Banten
1343,42394,Citorek Tengah,36.02.19.2002,Cibeber,Kabupaten,Lebak,Banten
1344,42394,Citorek Timur (Ciparay),36.02.19.2010,Cibeber,Kabupaten,Lebak,Banten
1345,42394,Gunungwangun,36.02.19.2020,Cibeber,Kabupaten,Lebak,Banten
1346,42394,Hegarmanah,36.02.19.2013,Cibeber,Kabupaten,Lebak,Banten
1347,42424,Kalitimbang,36.72.01.1006,Cibeber,Kota,Cilegon,Banten
1348,42425,Karang Asem (Karangasem),36.72.01.1005,Cibeber,Kota,Cilegon,Banten
1349,42422,Kedaleman,36.72.01.1002,Cibeber,Kota,Cilegon,Banten
1350,42394,Kujangjaya,36.02.19.2004,Cibeber,Kabupaten,Lebak,Banten
1351,42394,Kujangsari,36.02.19.2005,Cibeber,Kabupaten,Lebak,Banten
1352,42394,Mekarsari,36.02.19.2007,Cibeber,Kabupaten,Lebak,Banten
1353,42394,Neglasari,36.02.19.2006,Cibeber,Kabupaten,Lebak,Banten
1354,42394,Sirnagalih (Sinargalih),36.02.19.2017,Cibeber,Kabupaten,Lebak,Banten
1355,42394,Situmulya,36.02.19.2014,Cibeber,Kabupaten,Lebak,Banten
1356,42394,Sukamulya,36.02.19.2009,Cibeber,Kabupaten,Lebak,Banten
1357,42394,Wanasari (Warnasari),36.02.19.2021,Cibeber,Kabupaten,Lebak,Banten
1358,42394,Warungbanten,36.02.19.2011,Cibeber,Kabupaten,Lebak,Banten
1359,42285,Cibaliung,36.01.03.2012,Cibaliung,Kabupaten,Pandeglang,Banten
1360,42285,Cibingbin,36.01.03.2008,Cibaliung,Kabupaten,Pandeglang,Banten
1361,42285,Cihanjuang,36.01.03.2015,Cibaliung,Kabupaten,Pandeglang,Banten
1362,42285,Curug,36.01.03.2007,Cibaliung,Kabupaten,Pandeglang,Banten
1363,42285,Mahendra,36.01.03.2011,Cibaliung,Kabupaten,Pandeglang,Banten
1364,42285,Mendung,36.01.03.2001,Cibaliung,Kabupaten,Pandeglang,Banten
1365,42285,Sorongan,36.01.03.2016,Cibaliung,Kabupaten,Pandeglang,Banten
1366,42285,Sudimanik,36.01.03.2006,Cibaliung,Kabupaten,Pandeglang,Banten
1367,42285,Sukajadi,36.01.03.2009,Cibaliung,Kabupaten,Pandeglang,Banten
1368,42357,Asem,36.02.18.2005,Cibadak,Kabupaten,Lebak,Banten
1369,42357,Asem Margaluyu,36.02.18.2014,Cibadak,Kabupaten,Lebak,Banten
1370,42357,Bojong Leles (Bojongleles),36.02.18.2011,Cibadak,Kabupaten,Lebak,Banten
1371,42357,Bojongcae,36.02.18.2008,Cibadak,Kabupaten,Lebak,Banten
1372,42357,Cibadak,36.02.18.2004,Cibadak,Kabupaten,Lebak,Banten
1373,42357,Cimenteng Jaya,36.02.18.2012,Cibadak,Kabupaten,Lebak,Banten
1374,42357,Cisangu,36.02.18.2006,Cibadak,Kabupaten,Lebak,Banten
1375,42357,Kaduagung Barat,36.02.18.2007,Cibadak,Kabupaten,Lebak,Banten
1376,42357,Kaduagung Tengah,36.02.18.2015,Cibadak,Kabupaten,Lebak,Banten
1377,42357,Kaduagung Timur,36.02.18.2002,Cibadak,Kabupaten,Lebak,Banten
1378,42357,Malabar,36.02.18.2009,Cibadak,Kabupaten,Lebak,Banten
1379,42357,Mekar Agung,36.02.18.2013,Cibadak,Kabupaten,Lebak,Banten
1380,42357,Panancangan,36.02.18.2003,Cibadak,Kabupaten,Lebak,Banten
1381,42357,Pasar Keong,36.02.18.2010,Cibadak,Kabupaten,Lebak,Banten
1382,42357,Tambakbaya,36.02.18.2001,Cibadak,Kabupaten,Lebak,Banten
1383,42264,Banjarmasin,36.01.28.2001,Carita,Kabupaten,Pandeglang,Banten
1384,42264,Carita,36.01.28.2002,Carita,Kabupaten,Pandeglang,Banten
1385,42264,Cinoyong,36.01.28.2005,Carita,Kabupaten,Pandeglang,Banten
1386,42264,Kawoyang,36.01.28.2008,Carita,Kabupaten,Pandeglang,Banten
1387,42264,Pejamben,36.01.28.2006,Carita,Kabupaten,Pandeglang,Banten
1388,42264,Sindanglaut,36.01.28.2010,Carita,Kabupaten,Pandeglang,Banten
1389,42264,Sukajadi,36.01.28.2007,Carita,Kabupaten,Pandeglang,Banten
1390,42264,Sukanegara (Sukanagara),36.01.28.2004,Carita,Kabupaten,Pandeglang,Banten
1391,42264,Sukarame,36.01.28.2003,Carita,Kabupaten,Pandeglang,Banten
1392,42264,Tembong,36.01.28.2009,Carita,Kabupaten,Pandeglang,Banten
1393,42195,Carenang,36.04.17.2001,Carenang (Cerenang),Kabupaten,Serang,Banten
1394,42195,Mandaya,36.04.17.2003,Carenang (Cerenang),Kabupaten,Serang,Banten
1395,42195,Mekarsari,36.04.17.2010,Carenang (Cerenang),Kabupaten,Serang,Banten
1396,42195,Pamanuk,36.04.17.2002,Carenang (Cerenang),Kabupaten,Serang,Banten
1397,42195,Panenjoan,36.04.17.2009,Carenang (Cerenang),Kabupaten,Serang,Banten
1398,42195,Ragasmasigit (Ragasmesigit),36.04.17.2006,Carenang (Cerenang),Kabupaten,Serang,Banten
1399,42195,Teras,36.04.17.2004,Carenang (Cerenang),Kabupaten,Serang,Banten
1400,42195,Walikukun,36.04.17.2007,Carenang (Cerenang),Kabupaten,Serang,Banten
1401,42251,Cadasari,36.01.22.2007,Cadasari,Kabupaten,Pandeglang,Banten
1402,42251,Ciinjuk,36.01.22.2008,Cadasari,Kabupaten,Pandeglang,Banten
1403,42251,Cikentrung,36.01.22.2010,Cadasari,Kabupaten,Pandeglang,Banten
1404,42251,Kaduela,36.01.22.2004,Cadasari,Kabupaten,Pandeglang,Banten
1405,42251,Kaduengang,36.01.22.2001,Cadasari,Kabupaten,Pandeglang,Banten
1406,42251,Kaungcaang,36.01.22.2009,Cadasari,Kabupaten,Pandeglang,Banten
1407,42251,Koranji,36.01.22.2005,Cadasari,Kabupaten,Pandeglang,Banten
1408,42251,Kurungdahu,36.01.22.2003,Cadasari,Kabupaten,Pandeglang,Banten
1409,42251,Pasirpeuteuy,36.01.22.2002,Cadasari,Kabupaten,Pandeglang,Banten
1410,42251,Tanagara,36.01.22.2013,Cadasari,Kabupaten,Pandeglang,Banten
1411,42251,Tapos,36.01.22.2006,Cadasari,Kabupaten,Pandeglang,Banten
1412,42363,Bojongmanik,36.02.07.2004,Bojongmanik,Kabupaten,Lebak,Banten
1413,42363,Cimayang,36.02.07.2009,Bojongmanik,Kabupaten,Lebak,Banten
1414,42363,Harjawana,36.02.07.2007,Bojongmanik,Kabupaten,Lebak,Banten
1415,42363,Kadurahayu,36.02.07.2008,Bojongmanik,Kabupaten,Lebak,Banten
1416,42363,Keboncau,36.02.07.2012,Bojongmanik,Kabupaten,Lebak,Banten
1417,42363,Mekar Rahayu,36.02.07.2016,Bojongmanik,Kabupaten,Lebak,Banten
1418,42363,Mekarmanik,36.02.07.2014,Bojongmanik,Kabupaten,Lebak,Banten
1419,42363,Parakanbeusi,36.02.07.2010,Bojongmanik,Kabupaten,Lebak,Banten
1420,42363,Pasirbitung,36.02.07.2017,Bojongmanik,Kabupaten,Lebak,Banten
1421,42274,Banyumas,36.01.10.2005,Bojong,Kabupaten,Pandeglang,Banten
1422,42274,Bojong,36.01.10.2004,Bojong,Kabupaten,Pandeglang,Banten
1423,42274,Cahayamekar,36.01.10.2008,Bojong,Kabupaten,Pandeglang,Banten
1424,42274,Cijakan,36.01.10.2002,Bojong,Kabupaten,Pandeglang,Banten
1425,42274,Citumenggung,36.01.10.2006,Bojong,Kabupaten,Pandeglang,Banten
1426,42274,Geredug,36.01.10.2003,Bojong,Kabupaten,Pandeglang,Banten
1427,42274,Manggungjaya,36.01.10.2007,Bojong,Kabupaten,Pandeglang,Banten
1428,42274,Mekarsari,36.01.10.2001,Bojong,Kabupaten,Pandeglang,Banten
1429,42454,Bojonegara,36.04.07.2001,Bojonegara,Kabupaten,Serang,Banten
1430,42454,Karang Kepuh (Karangkepuh),36.04.07.2004,Bojonegara,Kabupaten,Serang,Banten
1431,42454,Kertasana,36.04.07.2006,Bojonegara,Kabupaten,Serang,Banten
1432,42454,Lambangsari,36.04.07.2005,Bojonegara,Kabupaten,Serang,Banten
1433,42454,Mangkunegara,36.04.07.2002,Bojonegara,Kabupaten,Serang,Banten
1434,42454,Margagiri,36.04.07.2007,Bojonegara,Kabupaten,Serang,Banten
1435,42454,Mekar Jaya,36.04.07.2011,Bojonegara,Kabupaten,Serang,Banten
1436,42454,Pakuncen,36.04.07.2009,Bojonegara,Kabupaten,Serang,Banten
1437,42454,Pangarengan (Pengarengan),36.04.07.2010,Bojonegara,Kabupaten,Serang,Banten
1438,42454,Ukirsari,36.04.07.2008,Bojonegara,Kabupaten,Serang,Banten
1439,42454,Wanakarta,36.04.07.2003,Bojonegara,Kabupaten,Serang,Banten
1440,42196,Binuang,36.04.18.2001,Binuang,Kabupaten,Serang,Banten
1441,42196,Cakung,36.04.18.2002,Binuang,Kabupaten,Serang,Banten
1442,42196,Gembor,36.04.18.2004,Binuang,Kabupaten,Serang,Banten
1443,42196,Lamaran,36.04.18.2007,Binuang,Kabupaten,Serang,Banten
1444,42196,Renged,36.04.18.2003,Binuang,Kabupaten,Serang,Banten
1445,42196,Sukamampir,36.04.18.2006,Binuang,Kabupaten,Serang,Banten
1446,42196,Warakas,36.04.18.2005,Binuang,Kabupaten,Serang,Banten
1447,15123,Belendung,36.71.04.1001,Benda,Kota,Tangerang,Banten
1448,15125,Benda,36.71.04.1003,Benda,Kota,Tangerang,Banten
1449,15124,Jurumudi,36.71.04.1002,Benda,Kota,Tangerang,Banten
1450,15124,Jurumudi Baru,36.71.04.1005,Benda,Kota,Tangerang,Banten
1451,15126,Pajang,36.71.04.1004,Benda,Kota,Tangerang,Banten
1452,42393,Bayah Barat,36.02.03.2001,Bayah,Kabupaten,Lebak,Banten
1453,42393,Bayah Timur,36.02.03.2013,Bayah,Kabupaten,Lebak,Banten
1454,42393,Cidikit,36.02.03.2006,Bayah,Kabupaten,Lebak,Banten
1455,42393,Cimancak,36.02.03.2008,Bayah,Kabupaten,Lebak,Banten
1456,42393,Cisuren,36.02.03.2014,Bayah,Kabupaten,Lebak,Banten
1457,42393,Darmasari,36.02.03.2011,Bayah,Kabupaten,Lebak,Banten
1458,42393,Pamubulan,36.02.03.2018,Bayah,Kabupaten,Lebak,Banten
1459,42393,Pasirgombong,36.02.03.2016,Bayah,Kabupaten,Lebak,Banten
1460,42393,Sawarna,36.02.03.2002,Bayah,Kabupaten,Lebak,Banten
1461,42393,Sawarna Timur,36.02.03.2017,Bayah,Kabupaten,Lebak,Banten
1462,42393,Suwakan,36.02.03.2007,Bayah,Kabupaten,Lebak,Banten
1463,15122,Batuceper (Batu Ceper),36.71.03.1001,Batuceper,Kota,Tangerang,Banten
1464,15121,Batujaya (Batu Jaya),36.71.03.1002,Batuceper,Kota,Tangerang,Banten
1465,15121,Batusari (Batu Sari),36.71.03.1006,Batuceper,Kota,Tangerang,Banten
1466,15122,Kebon Besar,36.71.03.1005,Batuceper,Kota,Tangerang,Banten
1467,15122,Poris Gaga,36.71.03.1003,Batuceper,Kota,Tangerang,Banten
1468,15122,Poris Gaga Baru,36.71.03.1004,Batuceper,Kota,Tangerang,Banten
1469,15122,Poris Jaya,36.71.03.1007,Batuceper,Kota,Tangerang,Banten
1470,42173,Baros,36.04.22.2001,Baros,Kabupaten,Serang,Banten
1471,42173,Cisalam,36.04.22.2008,Baros,Kabupaten,Serang,Banten
1472,42173,Curugagung (Curug Agung),36.04.22.2011,Baros,Kabupaten,Serang,Banten
1473,42173,Padasuka,36.04.22.2012,Baros,Kabupaten,Serang,Banten
1474,42173,Panyirapan,36.04.22.2003,Baros,Kabupaten,Serang,Banten
1475,42173,Sidamukti,36.04.22.2004,Baros,Kabupaten,Serang,Banten
1476,42173,Sinarmukti,36.04.22.2013,Baros,Kabupaten,Serang,Banten
1477,42173,Sindangmandi,36.04.22.2007,Baros,Kabupaten,Serang,Banten
1478,42173,Suka Indah,36.04.22.2014,Baros,Kabupaten,Serang,Banten
1479,42173,Sukacai,36.04.22.2005,Baros,Kabupaten,Serang,Banten
1480,42173,Sukamanah,36.04.22.2009,Baros,Kabupaten,Serang,Banten
1481,42173,Sukamenak,36.04.22.2010,Baros,Kabupaten,Serang,Banten
1482,42173,Tamansari,36.04.22.2006,Baros,Kabupaten,Serang,Banten
1483,42173,Tejamari,36.04.22.2002,Baros,Kabupaten,Serang,Banten
1484,42355,Bendungan,36.02.09.2011,Banjarsari,Kabupaten,Lebak,Banten
1485,42355,Bojongjuruh,36.02.09.2002,Banjarsari,Kabupaten,Lebak,Banten
1486,42355,Cibaturkeusik,36.02.09.2007,Banjarsari,Kabupaten,Lebak,Banten
1487,42355,Cidahu,36.02.09.2016,Banjarsari,Kabupaten,Lebak,Banten
1488,42355,Cilegongilir (Cilegong Ilir),36.02.09.2005,Banjarsari,Kabupaten,Lebak,Banten
1489,42355,Ciruji,36.02.09.2017,Banjarsari,Kabupaten,Lebak,Banten
1490,42355,Cisampih,36.02.09.2013,Banjarsari,Kabupaten,Lebak,Banten
1491,42355,Gunungsari,36.02.09.2014,Banjarsari,Kabupaten,Lebak,Banten
1492,42355,Jalupanggirang (Jalupang Girang),36.02.09.2010,Banjarsari,Kabupaten,Lebak,Banten
1493,42355,Kaduhauk,36.02.09.2018,Banjarsari,Kabupaten,Lebak,Banten
1494,42355,Kerta,36.02.09.2001,Banjarsari,Kabupaten,Lebak,Banten
1495,42355,Kertaraharja,36.02.09.2012,Banjarsari,Kabupaten,Lebak,Banten
1496,42355,Kertarahayu,36.02.09.2021,Banjarsari,Kabupaten,Lebak,Banten
1497,42355,Keusik,36.02.09.2006,Banjarsari,Kabupaten,Lebak,Banten
1498,42355,Kumpay,36.02.09.2009,Banjarsari,Kabupaten,Lebak,Banten
1499,42355,Labanjaya,36.02.09.2019,Banjarsari,Kabupaten,Lebak,Banten
1500,42355,Lebakkeusik,36.02.09.2004,Banjarsari,Kabupaten,Lebak,Banten
1501,42355,Leuwiipuh,36.02.09.2003,Banjarsari,Kabupaten,Lebak,Banten
1502,42355,Tamansari,36.02.09.2015,Banjarsari,Kabupaten,Lebak,Banten
1503,42355,Umbuljaya,36.02.09.2020,Banjarsari,Kabupaten,Lebak,Banten
1504,42252,Bandung,36.01.20.2005,Banjar,Kabupaten,Pandeglang,Banten
1505,42252,Banjar,36.01.20.2007,Banjar,Kabupaten,Pandeglang,Banten
1506,42252,Cibeureum,36.01.20.2012,Banjar,Kabupaten,Pandeglang,Banten
1507,42252,Cibodas,36.01.20.2010,Banjar,Kabupaten,Pandeglang,Banten
1508,42252,Citalahab,36.01.20.2002,Banjar,Kabupaten,Pandeglang,Banten
1509,42252,Gunungputri,36.01.20.2008,Banjar,Kabupaten,Pandeglang,Banten
1510,42252,Kadubale,36.01.20.2011,Banjar,Kabupaten,Pandeglang,Banten
1511,42252,Kadulimus,36.01.20.2004,Banjar,Kabupaten,Pandeglang,Banten
1512,42252,Kadumaneuh,36.01.20.2013,Banjar,Kabupaten,Pandeglang,Banten
1513,42252,Mogana,36.01.20.2006,Banjar,Kabupaten,Pandeglang,Banten
1514,42252,Pasirawi,36.01.20.2014,Banjar,Kabupaten,Pandeglang,Banten
1515,42176,Babakan,36.04.34.2007,Bandung,Kabupaten,Serang,Banten
1516,42176,Bandung,36.04.34.2001,Bandung,Kabupaten,Serang,Banten
1517,42176,Blokang,36.04.34.2006,Bandung,Kabupaten,Serang,Banten
1518,42176,Malabar,36.04.34.2005,Bandung,Kabupaten,Serang,Banten
1519,42176,Mander,36.04.34.2002,Bandung,Kabupaten,Serang,Banten
1520,42176,Pangawinan,36.04.34.2004,Bandung,Kabupaten,Serang,Banten
1521,42176,Penamping (Panamping),36.04.34.2003,Bandung,Kabupaten,Serang,Banten
1522,42176,Pringwulung,36.04.34.2008,Bandung,Kabupaten,Serang,Banten
1523,15610,Balaraja,36.03.01.1001,Balaraja,Kabupaten,Tangerang,Banten
1524,15610,Cangkudu,36.03.01.2003,Balaraja,Kabupaten,Tangerang,Banten
1525,15610,Gembong,36.03.01.2011,Balaraja,Kabupaten,Tangerang,Banten
1526,15610,Saga,36.03.01.2014,Balaraja,Kabupaten,Tangerang,Banten
1527,15610,Sentul,36.03.01.2010,Balaraja,Kabupaten,Tangerang,Banten
1528,15610,Sentul Jaya,36.03.01.2016,Balaraja,Kabupaten,Tangerang,Banten
1529,15610,Sukamurni (Suka Murni),36.03.01.2013,Balaraja,Kabupaten,Tangerang,Banten
1530,15610,Talagasari,36.03.01.2005,Balaraja,Kabupaten,Tangerang,Banten
1531,15610,Tobat,36.03.01.2009,Balaraja,Kabupaten,Tangerang,Banten
1532,42166,Anyar,36.04.30.2001,Anyar,Kabupaten,Serang,Banten
1533,42166,Bandulu,36.04.30.2005,Anyar,Kabupaten,Serang,Banten
1534,42166,Banjarsari,36.04.30.2008,Anyar,Kabupaten,Serang,Banten
1535,42166,Bunihara,36.04.30.2006,Anyar,Kabupaten,Serang,Banten
1536,42166,Cikoneng,36.04.30.2003,Anyar,Kabupaten,Serang,Banten
1537,42166,Grogol Indah,36.04.30.2012,Anyar,Kabupaten,Serang,Banten
1538,42166,Kosambironyok (Kosambi Ronyok),36.04.30.2007,Anyar,Kabupaten,Serang,Banten
1539,42166,Mekarsari,36.04.30.2009,Anyar,Kabupaten,Serang,Banten
1540,42166,Sindang Mandi (Sindangmandi),36.04.30.2002,Anyar,Kabupaten,Serang,Banten
1541,42166,Sindangkarya,36.04.30.2010,Anyar,Kabupaten,Serang,Banten
1542,42166,Tambang Ayam,36.04.30.2011,Anyar,Kabupaten,Serang,Banten
1543,42166,Tanjung Manis (Tanjungmanis),36.04.30.2004,Anyar,Kabupaten,Serang,Banten
1544,42277,Angsana,36.01.07.2001,Angsana,Kabupaten,Pandeglang,Banten
1545,42277,Cikayas,36.01.07.2005,Angsana,Kabupaten,Pandeglang,Banten
1546,42277,Cipinang,36.01.07.2009,Angsana,Kabupaten,Pandeglang,Banten
1547,42277,Kadubadak,36.01.07.2007,Angsana,Kabupaten,Pandeglang,Banten
1548,42277,Karangsari,36.01.07.2004,Angsana,Kabupaten,Pandeglang,Banten
1549,42277,Kramatmanik,36.01.07.2010,Angsana,Kabupaten,Pandeglang,Banten
1550,42277,Padaherang,36.01.07.2002,Angsana,Kabupaten,Pandeglang,Banten
1551,42277,Padamulya,36.01.07.2003,Angsana,Kabupaten,Pandeglang,Banten
1552,42277,Sumurlaban,36.01.07.2006,Angsana,Kabupaten,Pandeglang,Banten