no,postal_code,urban,area_code,sub_district,dt2,city,province
1,38755,Dusun Baru Pelokan,17.06.11.2006,XIV Koto,Kabupaten,Muko Muko,Bengkulu
2,38755,Lubuk Sanai,17.06.11.2001,XIV Koto,Kabupaten,Muko Muko,Bengkulu
3,38755,Lubuk Sanai II,17.06.11.2007,XIV Koto,Kabupaten,Muko Muko,Bengkulu
4,38755,Lubuk Sanai III,17.06.11.2009,XIV Koto,Kabupaten,Muko Muko,Bengkulu
5,38755,Pauh Tarenja (Pauh Terenjah),17.06.11.2005,XIV Koto,Kabupaten,Muko Muko,Bengkulu
6,38755,Rawa Bangun,17.06.11.2003,XIV Koto,Kabupaten,Muko Muko,Bengkulu
7,38755,Rawa Mulya,17.06.11.2002,XIV Koto,Kabupaten,Muko Muko,Bengkulu
8,38755,Tanjung Mulya,17.06.11.2004,XIV Koto,Kabupaten,Muko Muko,Bengkulu
9,38757,Lalang Luas,17.06.12.2001,V Koto,Kabupaten,Muko Muko,Bengkulu
10,38757,Lubuk Cabau,17.06.12.2009,V Koto,Kabupaten,Muko Muko,Bengkulu
11,38757,Pondok Panjang,17.06.12.2003,V Koto,Kabupaten,Muko Muko,Bengkulu
12,38757,Pondok Tengah,17.06.12.2006,V Koto,Kabupaten,Muko Muko,Bengkulu
13,38757,Resno (Rasno),17.06.12.2002,V Koto,Kabupaten,Muko Muko,Bengkulu
14,38757,Sungai Lintang,17.06.12.2005,V Koto,Kabupaten,Muko Muko,Bengkulu
15,38757,Sungai Rengas,17.06.12.2010,V Koto,Kabupaten,Muko Muko,Bengkulu
16,38757,Talang Petai,17.06.12.2004,V Koto,Kabupaten,Muko Muko,Bengkulu
17,38757,Talang Sakti,17.06.12.2007,V Koto,Kabupaten,Muko Muko,Bengkulu
18,38757,Talang Sepakat,17.06.12.2008,V Koto,Kabupaten,Muko Muko,Bengkulu
19,39268,Embong,17.07.11.2001,Uram Jaya,Kabupaten,Lebong,Bengkulu
20,39268,Embong I,17.07.11.2002,Uram Jaya,Kabupaten,Lebong,Bengkulu
21,39268,Kota Agung,17.07.11.2004,Uram Jaya,Kabupaten,Lebong,Bengkulu
22,39268,Kota Baru,17.07.11.2003,Uram Jaya,Kabupaten,Lebong,Bengkulu
23,39268,Lemeu / Limau,17.07.11.2005,Uram Jaya,Kabupaten,Lebong,Bengkulu
24,39268,Pangkalan,17.07.11.2006,Uram Jaya,Kabupaten,Lebong,Bengkulu
25,39268,Tangua,17.07.11.2007,Uram Jaya,Kabupaten,Lebong,Bengkulu
26,38886,Air Keruh,17.05.13.2006,Ulu Talo,Kabupaten,Seluma,Bengkulu
27,38886,Banyu Kencana,17.05.13.2010,Ulu Talo,Kabupaten,Seluma,Bengkulu
28,38886,Giri Mulya,17.05.13.2013,Ulu Talo,Kabupaten,Seluma,Bengkulu
29,38886,Giri Nanto,17.05.13.2009,Ulu Talo,Kabupaten,Seluma,Bengkulu
30,38886,Hargo Binangun,17.05.13.2007,Ulu Talo,Kabupaten,Seluma,Bengkulu
31,38886,Mekar Jaya,17.05.13.2008,Ulu Talo,Kabupaten,Seluma,Bengkulu
32,38886,Muara Nibung,17.05.13.2011,Ulu Talo,Kabupaten,Seluma,Bengkulu
33,38886,Muara Simpur,17.05.13.2002,Ulu Talo,Kabupaten,Seluma,Bengkulu
34,38886,Pagar,17.05.13.2001,Ulu Talo,Kabupaten,Seluma,Bengkulu
35,38886,Pagar Agung,17.05.13.2003,Ulu Talo,Kabupaten,Seluma,Bengkulu
36,38886,Pagar Banyu,17.05.13.2004,Ulu Talo,Kabupaten,Seluma,Bengkulu
37,38886,Sipur/Simpur Ijang,17.05.13.2005,Ulu Talo,Kabupaten,Seluma,Bengkulu
38,38886,Tanjung Agung,17.05.13.2012,Ulu Talo,Kabupaten,Seluma,Bengkulu
39,38573,Air Tenam Dalam,17.01.09.2010,Ulu Manna,Kabupaten,Bengkulu Selatan,Bengkulu
40,38573,Bandar Agung,17.01.09.2003,Ulu Manna,Kabupaten,Bengkulu Selatan,Bengkulu
41,38573,Batu Kuning,17.01.09.2002,Ulu Manna,Kabupaten,Bengkulu Selatan,Bengkulu
42,38573,Batu Panco,17.01.09.2001,Ulu Manna,Kabupaten,Bengkulu Selatan,Bengkulu
43,38573,Kayu Ajaran,17.01.09.2009,Ulu Manna,Kabupaten,Bengkulu Selatan,Bengkulu
44,38573,Keban Jati,17.01.09.2007,Ulu Manna,Kabupaten,Bengkulu Selatan,Bengkulu
45,38573,Lubuk Tapi,17.01.09.2008,Ulu Manna,Kabupaten,Bengkulu Selatan,Bengkulu
46,38573,Merambung,17.01.09.2004,Ulu Manna,Kabupaten,Bengkulu Selatan,Bengkulu
47,38573,Simpang Pino,17.01.09.2005,Ulu Manna,Kabupaten,Bengkulu Selatan,Bengkulu
48,38573,Talang Tinggi,17.01.09.2006,Ulu Manna,Kabupaten,Bengkulu Selatan,Bengkulu
49,38364,Air Lelangi,17.03.23.2001,Ulok Kupai,Kabupaten,Bengkulu Utara,Bengkulu
50,38364,Bangun Karya,17.03.23.2008,Ulok Kupai,Kabupaten,Bengkulu Utara,Bengkulu
51,38364,Bukit Berlian,17.03.23.2002,Ulok Kupai,Kabupaten,Bengkulu Utara,Bengkulu
52,38364,Bukit Sari,17.03.23.2004,Ulok Kupai,Kabupaten,Bengkulu Utara,Bengkulu
53,38364,Pagardin (Pagar Din),17.03.23.2005,Ulok Kupai,Kabupaten,Bengkulu Utara,Bengkulu
54,38364,Pondok Bakil,17.03.23.2009,Ulok Kupai,Kabupaten,Bengkulu Utara,Bengkulu
55,38364,Talang Berantai,17.03.23.2010,Ulok Kupai,Kabupaten,Bengkulu Utara,Bengkulu
56,38364,Tanjung Dalam,17.03.23.2003,Ulok Kupai,Kabupaten,Bengkulu Utara,Bengkulu
57,38364,Tanjung Harapan,17.03.23.2006,Ulok Kupai,Kabupaten,Bengkulu Utara,Bengkulu
58,38364,Tanjung Sari,17.03.23.2007,Ulok Kupai,Kabupaten,Bengkulu Utara,Bengkulu
59,39370,Air Hitam,17.08.02.2023,Ujan Mas,Kabupaten,Kepahiang,Bengkulu
60,39370,Bumi Sari,17.08.02.2009,Ujan Mas,Kabupaten,Kepahiang,Bengkulu
61,39370,Cugung Lalang,17.08.02.2016,Ujan Mas,Kabupaten,Kepahiang,Bengkulu
62,39370,Daspeta (Daspetah),17.08.02.2001,Ujan Mas,Kabupaten,Kepahiang,Bengkulu
63,39370,Daspetah II,17.08.02.2024,Ujan Mas,Kabupaten,Kepahiang,Bengkulu
64,39370,Meranti Jaya,17.08.02.2021,Ujan Mas,Kabupaten,Kepahiang,Bengkulu
65,39370,Pekalongan,17.08.02.2008,Ujan Mas,Kabupaten,Kepahiang,Bengkulu
66,39370,Pungguk Meranti,17.08.02.2019,Ujan Mas,Kabupaten,Kepahiang,Bengkulu
67,39370,Pungguk Meringang,17.08.02.2020,Ujan Mas,Kabupaten,Kepahiang,Bengkulu
68,39370,Suro Bali,17.08.02.2018,Ujan Mas,Kabupaten,Kepahiang,Bengkulu
69,39370,Suro Baru,17.08.02.2007,Ujan Mas,Kabupaten,Kepahiang,Bengkulu
70,39370,Suro Ilir,17.08.02.2005,Ujan Mas,Kabupaten,Kepahiang,Bengkulu
71,39370,Suro Lembak,17.08.02.2003,Ujan Mas,Kabupaten,Kepahiang,Bengkulu
72,39370,Suro Muncar,17.08.02.2006,Ujan Mas,Kabupaten,Kepahiang,Bengkulu
73,39370,Tanjung Alam,17.08.02.2004,Ujan Mas,Kabupaten,Kepahiang,Bengkulu
74,39370,Ujan Mas Atas,17.08.02.1002,Ujan Mas,Kabupaten,Kepahiang,Bengkulu
75,39370,Ujan Mas Bawah,17.08.02.2017,Ujan Mas,Kabupaten,Kepahiang,Bengkulu
76,39266,Gunung Alam,17.07.09.2004,Tubei (Pelabai),Kabupaten,Lebong,Bengkulu
77,39266,Kota Baru Santan,17.07.09.2006,Tubei (Pelabai),Kabupaten,Lebong,Bengkulu
78,39266,Pelabai,17.07.09.2008,Tubei (Pelabai),Kabupaten,Lebong,Bengkulu
79,39266,Sukau Datang,17.07.09.2002,Tubei (Pelabai),Kabupaten,Lebong,Bengkulu
80,39266,Sukau Datang I,17.07.09.2003,Tubei (Pelabai),Kabupaten,Lebong,Bengkulu
81,39266,Tabeak Blau II,17.07.09.2005,Tubei (Pelabai),Kabupaten,Lebong,Bengkulu
82,39266,Tanjung Agung,17.07.09.1001,Tubei (Pelabai),Kabupaten,Lebong,Bengkulu
83,39266,Tik Teleu,17.07.09.2007,Tubei (Pelabai),Kabupaten,Lebong,Bengkulu
84,39260,Ajai Siang,17.07.06.2004,Topos,Kabupaten,Lebong,Bengkulu
85,39260,Suka Negeri,17.07.06.2003,Topos,Kabupaten,Lebong,Bengkulu
86,39260,Talang Baru I,17.07.06.2007,Topos,Kabupaten,Lebong,Bengkulu
87,39260,Talang Baru II,17.07.06.2008,Topos,Kabupaten,Lebong,Bengkulu
88,39260,Talang Donok,17.07.06.2005,Topos,Kabupaten,Lebong,Bengkulu
89,39260,Talang Donok I,17.07.06.2006,Topos,Kabupaten,Lebong,Bengkulu
90,39260,Tik Sirong,17.07.06.2002,Topos,Kabupaten,Lebong,Bengkulu
91,39260,Topos,17.07.06.1001,Topos,Kabupaten,Lebong,Bengkulu
92,38968,Babat,17.04.12.2006,Tetap (Muara Tetap),Kabupaten,Kaur,Bengkulu
93,38968,Cucupan,17.04.12.2003,Tetap (Muara Tetap),Kabupaten,Kaur,Bengkulu
94,38968,Kasuk Baru,17.04.12.2010,Tetap (Muara Tetap),Kabupaten,Kaur,Bengkulu
95,38968,Kepahyang,17.04.12.2007,Tetap (Muara Tetap),Kabupaten,Kaur,Bengkulu
96,38968,Muara Tetap,17.04.12.2009,Tetap (Muara Tetap),Kabupaten,Kaur,Bengkulu
97,38968,Padang Binjai,17.04.12.2011,Tetap (Muara Tetap),Kabupaten,Kaur,Bengkulu
98,38968,Pagar Dewa,17.04.12.2004,Tetap (Muara Tetap),Kabupaten,Kaur,Bengkulu
99,38968,Suka Banjar,17.04.12.2001,Tetap (Muara Tetap),Kabupaten,Kaur,Bengkulu
100,38968,Suka Raja,17.04.12.2012,Tetap (Muara Tetap),Kabupaten,Kaur,Bengkulu
101,38968,Tanjung Agung,17.04.12.2005,Tetap (Muara Tetap),Kabupaten,Kaur,Bengkulu
102,38968,Tanjung Bunga,17.04.12.2002,Tetap (Muara Tetap),Kabupaten,Kaur,Bengkulu
103,38968,Tanjung Dalam,17.04.12.2008,Tetap (Muara Tetap),Kabupaten,Kaur,Bengkulu
104,38758,Karang Jaya,17.06.03.2026,Teras Terunjam,Kabupaten,Muko Muko,Bengkulu
105,38758,Mekar Jaya,17.06.03.2027,Teras Terunjam,Kabupaten,Muko Muko,Bengkulu
106,38758,Pondok Kopi,17.06.03.2009,Teras Terunjam,Kabupaten,Muko Muko,Bengkulu
107,38758,Setia Budi,17.06.03.2013,Teras Terunjam,Kabupaten,Muko Muko,Bengkulu
108,38758,Talang Kuning,17.06.03.2024,Teras Terunjam,Kabupaten,Muko Muko,Bengkulu
109,38758,Teras Terunjam,17.06.03.2008,Teras Terunjam,Kabupaten,Muko Muko,Bengkulu
110,38758,Teruntung,17.06.03.2025,Teras Terunjam,Kabupaten,Muko Muko,Bengkulu
111,38758,Tunggal Jaya,17.06.03.2014,Teras Terunjam,Kabupaten,Muko Muko,Bengkulu
112,38760,Bandar Jaya,17.06.08.2005,Teramang Jaya,Kabupaten,Muko Muko,Bengkulu
113,38760,Batu Ejung,17.06.08.2012,Teramang Jaya,Kabupaten,Muko Muko,Bengkulu
114,38760,Brangan Mulya,17.06.08.2007,Teramang Jaya,Kabupaten,Muko Muko,Bengkulu
115,38760,Bunga Tanjung,17.06.08.2004,Teramang Jaya,Kabupaten,Muko Muko,Bengkulu
116,38760,Lubuk Selandak,17.06.08.2009,Teramang Jaya,Kabupaten,Muko Muko,Bengkulu
117,38760,Mandi Angin Jaya,17.06.08.2011,Teramang Jaya,Kabupaten,Muko Muko,Bengkulu
118,38760,Nelan Indah,17.06.08.2010,Teramang Jaya,Kabupaten,Muko Muko,Bengkulu
119,38760,Nenggalo,17.06.08.2002,Teramang Jaya,Kabupaten,Muko Muko,Bengkulu
120,38760,Pasar Bantal,17.06.08.2001,Teramang Jaya,Kabupaten,Muko Muko,Bengkulu
121,38760,Pernyah,17.06.08.2013,Teramang Jaya,Kabupaten,Muko Muko,Bengkulu
122,38760,Pondok Baru,17.06.08.2003,Teramang Jaya,Kabupaten,Muko Muko,Bengkulu
123,38760,Sido Makmur,17.06.08.2008,Teramang Jaya,Kabupaten,Muko Muko,Bengkulu
124,38760,Teramang Jaya,17.06.08.2006,Teramang Jaya,Kabupaten,Muko Muko,Bengkulu
125,38118,Bajak (Kampung Teleng),17.71.03.1008,Teluk Segara,Kota,Bengkulu,Bengkulu
126,38114,Berkas,17.71.03.1001,Teluk Segara,Kota,Bengkulu,Bengkulu
127,38119,Jitra (Pasar Jitra),17.71.03.1003,Teluk Segara,Kota,Bengkulu,Bengkulu
128,38119,Kampung Bali,17.71.03.1019,Teluk Segara,Kota,Bengkulu,Bengkulu
129,38116,Kebun Keling,17.71.03.1011,Teluk Segara,Kota,Bengkulu,Bengkulu
130,38117,Kebun Roos/Ros,17.71.03.1005,Teluk Segara,Kota,Bengkulu,Bengkulu
131,38119,Malabero/Malabro,17.71.03.1014,Teluk Segara,Kota,Bengkulu,Bengkulu
132,38114,Pasar Baru,17.71.03.1002,Teluk Segara,Kota,Bengkulu,Bengkulu
133,38115,Pasar Melintang,17.71.03.1004,Teluk Segara,Kota,Bengkulu,Bengkulu
134,38115,Pintu Batu,17.71.03.1018,Teluk Segara,Kota,Bengkulu,Bengkulu
135,38117,Pondok Besi,17.71.03.1010,Teluk Segara,Kota,Bengkulu,Bengkulu
136,38113,Sumur Meleleh,17.71.03.1013,Teluk Segara,Kota,Bengkulu,Bengkulu
137,38118,Tengah Padang,17.71.03.1007,Teluk Segara,Kota,Bengkulu,Bengkulu
138,39373,Karang Tengah,17.08.03.2014,Tebat Karai,Kabupaten,Kepahiang,Bengkulu
139,39373,Nanti Agung,17.08.03.2012,Tebat Karai,Kabupaten,Kepahiang,Bengkulu
140,39373,Penanjung Panjang,17.08.03.2011,Tebat Karai,Kabupaten,Kepahiang,Bengkulu
141,39373,Penanjung Panjang Atas,17.08.03.2023,Tebat Karai,Kabupaten,Kepahiang,Bengkulu
142,39373,Peraduan Binjai,17.08.03.2010,Tebat Karai,Kabupaten,Kepahiang,Bengkulu
143,39373,Sinar Gunung,17.08.03.2021,Tebat Karai,Kabupaten,Kepahiang,Bengkulu
144,39373,Taba Air Pauh,17.08.03.2013,Tebat Karai,Kabupaten,Kepahiang,Bengkulu
145,39373,Taba Saling,17.08.03.2022,Tebat Karai,Kabupaten,Kepahiang,Bengkulu
146,39373,Taba Santing (Tabasating),17.08.03.2006,Tebat Karai,Kabupaten,Kepahiang,Bengkulu
147,39373,Talang Karet,17.08.03.2009,Tebat Karai,Kabupaten,Kepahiang,Bengkulu
148,39373,Tapak Gedung,17.08.03.2019,Tebat Karai,Kabupaten,Kepahiang,Bengkulu
149,39373,Tebat Karai,17.08.03.1008,Tebat Karai,Kabupaten,Kepahiang,Bengkulu
150,39373,Tebing Penyamun,17.08.03.2020,Tebat Karai,Kabupaten,Kepahiang,Bengkulu
151,39373,Tertik,17.08.03.2007,Tebat Karai,Kabupaten,Kepahiang,Bengkulu
152,38955,Aur Ringit,17.04.02.2004,Tanjung Kemuning,Kabupaten,Kaur,Bengkulu
153,38955,Beriang Tinggi,17.04.02.2013,Tanjung Kemuning,Kabupaten,Kaur,Bengkulu
154,38955,Padang Kedondong,17.04.02.2018,Tanjung Kemuning,Kabupaten,Kaur,Bengkulu
155,38955,Padang Leban,17.04.02.2012,Tanjung Kemuning,Kabupaten,Kaur,Bengkulu
156,38955,Padang Tinggi,17.04.02.2020,Tanjung Kemuning,Kabupaten,Kaur,Bengkulu
157,38955,Pelajaran (Pelajaran I),17.04.02.2008,Tanjung Kemuning,Kabupaten,Kaur,Bengkulu
158,38955,Pelajaran II,17.04.02.2015,Tanjung Kemuning,Kabupaten,Kaur,Bengkulu
159,38955,Selika (Selika I),17.04.02.2010,Tanjung Kemuning,Kabupaten,Kaur,Bengkulu
160,38955,Selika II,17.04.02.2016,Tanjung Kemuning,Kabupaten,Kaur,Bengkulu
161,38955,Selika III,17.04.02.2025,Tanjung Kemuning,Kabupaten,Kaur,Bengkulu
162,38955,Sulauwangi (Sula Wangi),17.04.02.2017,Tanjung Kemuning,Kabupaten,Kaur,Bengkulu
163,38955,Tanjung Aur,17.04.02.2003,Tanjung Kemuning,Kabupaten,Kaur,Bengkulu
164,38955,Tanjung Aur II,17.04.02.2023,Tanjung Kemuning,Kabupaten,Kaur,Bengkulu
165,38955,Tanjung Bulan,17.04.02.2014,Tanjung Kemuning,Kabupaten,Kaur,Bengkulu
166,38955,Tanjung Iman,17.04.02.2011,Tanjung Kemuning,Kabupaten,Kaur,Bengkulu
167,38955,Tanjung Iman II,17.04.02.2024,Tanjung Kemuning,Kabupaten,Kaur,Bengkulu
168,38955,Tanjung Kemuning,17.04.02.2009,Tanjung Kemuning,Kabupaten,Kaur,Bengkulu
169,38955,Tanjung Kemuning II,17.04.02.2021,Tanjung Kemuning,Kabupaten,Kaur,Bengkulu
170,38955,Tanjung Kemuning III,17.04.02.2022,Tanjung Kemuning,Kabupaten,Kaur,Bengkulu
171,38955,Tinggi Ari,17.04.02.2002,Tanjung Kemuning,Kabupaten,Kaur,Bengkulu
172,38576,Alun Dua,17.03.22.2003,Tanjung Agung Palik,Kabupaten,Bengkulu Utara,Bengkulu
173,38576,Ketapi,17.03.22.2004,Tanjung Agung Palik,Kabupaten,Bengkulu Utara,Bengkulu
174,38576,Lubuk Gading,17.03.22.2008,Tanjung Agung Palik,Kabupaten,Bengkulu Utara,Bengkulu
175,38576,Lubuk Pendam,17.03.22.2002,Tanjung Agung Palik,Kabupaten,Bengkulu Utara,Bengkulu
176,38576,Lubuk Semantung (Lubuk Sematung),17.03.22.2005,Tanjung Agung Palik,Kabupaten,Bengkulu Utara,Bengkulu
177,38576,Padang Sepan,17.03.22.2010,Tanjung Agung Palik,Kabupaten,Bengkulu Utara,Bengkulu
178,38576,Sawang Lebar,17.03.22.2006,Tanjung Agung Palik,Kabupaten,Bengkulu Utara,Bengkulu
179,38576,Sawang Lebar Ilir,17.03.22.2007,Tanjung Agung Palik,Kabupaten,Bengkulu Utara,Bengkulu
180,38576,Sengkuang,17.03.22.2001,Tanjung Agung Palik,Kabupaten,Bengkulu Utara,Bengkulu
181,38576,Tanjung Agung,17.03.22.2009,Tanjung Agung Palik,Kabupaten,Bengkulu Utara,Bengkulu
182,38888,Bakal Dalam,17.05.12.2006,Talo Kecil,Kabupaten,Seluma,Bengkulu
183,38888,Batu Balai,17.05.12.2011,Talo Kecil,Kabupaten,Seluma,Bengkulu
184,38888,Lubuk Lagan,17.05.12.2007,Talo Kecil,Kabupaten,Seluma,Bengkulu
185,38888,Napalan,17.05.12.2004,Talo Kecil,Kabupaten,Seluma,Bengkulu
186,38888,Pering Baru,17.05.12.2001,Talo Kecil,Kabupaten,Seluma,Bengkulu
187,38888,Suka Bulan,17.05.12.2009,Talo Kecil,Kabupaten,Seluma,Bengkulu
188,38888,Suka Merindu,17.05.12.2003,Talo Kecil,Kabupaten,Seluma,Bengkulu
189,38888,Sungai Petai,17.05.12.2008,Talo Kecil,Kabupaten,Seluma,Bengkulu
190,38888,Taba,17.05.12.2005,Talo Kecil,Kabupaten,Seluma,Bengkulu
191,38888,Talang Padang,17.05.12.2002,Talo Kecil,Kabupaten,Seluma,Bengkulu
192,38888,Tebat Sibun,17.05.12.2010,Talo Kecil,Kabupaten,Seluma,Bengkulu
193,38874,Air Payangan,17.05.03.2005,Talo,Kabupaten,Seluma,Bengkulu
194,38874,Air Teras,17.05.03.2035,Talo,Kabupaten,Seluma,Bengkulu
195,38874,Batu Tugu,17.05.03.2012,Talo,Kabupaten,Seluma,Bengkulu
196,38874,Bunut Tinggi,17.05.03.2034,Talo,Kabupaten,Seluma,Bengkulu
197,38874,Durian Bubur,17.05.03.2016,Talo,Kabupaten,Seluma,Bengkulu
198,38874,Harapan Mulya,17.05.03.2046,Talo,Kabupaten,Seluma,Bengkulu
199,38874,Kampai,17.05.03.2013,Talo,Kabupaten,Seluma,Bengkulu
200,38874,Kembang Seri,17.05.03.2019,Talo,Kabupaten,Seluma,Bengkulu
201,38874,Lubuk Gadis,17.05.03.2036,Talo,Kabupaten,Seluma,Bengkulu
202,38874,Lubuk Gio,17.05.03.2018,Talo,Kabupaten,Seluma,Bengkulu
203,38874,Lubuk Ngantungan,17.05.03.2015,Talo,Kabupaten,Seluma,Bengkulu
204,38874,Masmambang,17.05.03.1014,Talo,Kabupaten,Seluma,Bengkulu
205,38874,Muara Danau,17.05.03.2017,Talo,Kabupaten,Seluma,Bengkulu
206,38874,Napal Melintang,17.05.03.2002,Talo,Kabupaten,Seluma,Bengkulu
207,38874,Serambi Gunung,17.05.03.2003,Talo,Kabupaten,Seluma,Bengkulu
208,38874,Simpang Tiga Pagar Gasing,17.05.03.2045,Talo,Kabupaten,Seluma,Bengkulu
209,38385,Air Putih,17.09.02.2017,Talang Empat,Kabupaten,Bengkulu Tengah,Bengkulu
210,38385,Air Sebakul,17.09.02.2001,Talang Empat,Kabupaten,Bengkulu Tengah,Bengkulu
211,38385,Jayakarta (Jaya Karta),17.09.02.2007,Talang Empat,Kabupaten,Bengkulu Tengah,Bengkulu
212,38385,Jum'at (Jumat),17.09.02.2014,Talang Empat,Kabupaten,Bengkulu Tengah,Bengkulu
213,38385,Kembang Seri,17.09.02.2005,Talang Empat,Kabupaten,Bengkulu Tengah,Bengkulu
214,38385,Nakau,17.09.02.2008,Talang Empat,Kabupaten,Bengkulu Tengah,Bengkulu
215,38385,Padang Ulak Tanjung (Padang UlakTanjung),17.09.02.2015,Talang Empat,Kabupaten,Bengkulu Tengah,Bengkulu
216,38385,Pulau Panggung,17.09.02.2009,Talang Empat,Kabupaten,Bengkulu Tengah,Bengkulu
217,38385,Taba Pasema (Pasmah),17.09.02.2004,Talang Empat,Kabupaten,Bengkulu Tengah,Bengkulu
218,38385,Tengah Padang,17.09.02.2006,Talang Empat,Kabupaten,Bengkulu Tengah,Bengkulu
219,38388,Bajak I,17.09.06.2023,Taba Penanjung,Kabupaten,Bengkulu Tengah,Bengkulu
220,38388,Datar Lebar,17.09.06.2012,Taba Penanjung,Kabupaten,Bengkulu Tengah,Bengkulu
221,38388,Karang Tengah,17.09.06.2004,Taba Penanjung,Kabupaten,Bengkulu Tengah,Bengkulu
222,38388,Lubuk Sini,17.09.06.2005,Taba Penanjung,Kabupaten,Bengkulu Tengah,Bengkulu
223,38388,Penum,17.09.06.2013,Taba Penanjung,Kabupaten,Bengkulu Tengah,Bengkulu
224,38388,Rindu Hati,17.09.06.2010,Taba Penanjung,Kabupaten,Bengkulu Tengah,Bengkulu
225,38388,Sukarami (Suka Rami),17.09.06.2003,Taba Penanjung,Kabupaten,Bengkulu Tengah,Bengkulu
226,38388,Surau,17.09.06.2009,Taba Penanjung,Kabupaten,Bengkulu Tengah,Bengkulu
227,38388,Taba Baru,17.09.06.2024,Taba Penanjung,Kabupaten,Bengkulu Tengah,Bengkulu
228,38388,Taba Penanjung,17.09.06.1007,Taba Penanjung,Kabupaten,Bengkulu Tengah,Bengkulu
229,38388,Taba Teret,17.09.06.2008,Taba Penanjung,Kabupaten,Bengkulu Tengah,Bengkulu
230,38388,Tanjung Heran,17.09.06.2011,Taba Penanjung,Kabupaten,Bengkulu Tengah,Bengkulu
231,38388,Tanjung Raman,17.09.06.2002,Taba Penanjung,Kabupaten,Bengkulu Tengah,Bengkulu
232,38119,Kampung Kelawi/Klawi,17.71.08.1001,Sungai Serut,Kota,Bengkulu,Bengkulu
233,38119,Pasar Bengkulu,17.71.08.1007,Sungai Serut,Kota,Bengkulu,Bengkulu
234,38119,Semarang,17.71.08.1003,Sungai Serut,Kota,Bengkulu,Bengkulu
235,38119,Sukamerindu (Suka Merindu),17.71.08.1002,Sungai Serut,Kota,Bengkulu,Bengkulu
236,38119,Surabaya,17.71.08.1006,Sungai Serut,Kota,Bengkulu,Bengkulu
237,38119,Tanjung Agung,17.71.08.1004,Sungai Serut,Kota,Bengkulu,Bengkulu
238,38119,Tanjung Jaya,17.71.08.1005,Sungai Serut,Kota,Bengkulu,Bengkulu
239,38761,Banjar Sari,17.06.15.2009,Sungai Rumbai,Kabupaten,Muko Muko,Bengkulu
240,38761,Gading Jaya,17.06.15.2008,Sungai Rumbai,Kabupaten,Muko Muko,Bengkulu
241,38761,Gajah Mati,17.06.15.2003,Sungai Rumbai,Kabupaten,Muko Muko,Bengkulu
242,38761,Mekar Sari,17.06.15.2004,Sungai Rumbai,Kabupaten,Muko Muko,Bengkulu
243,38761,Padang Gading,17.06.15.2002,Sungai Rumbai,Kabupaten,Muko Muko,Bengkulu
244,38761,Retak Mudik,17.06.15.2001,Sungai Rumbai,Kabupaten,Muko Muko,Bengkulu
245,38761,Sido Dadi (Sidodadi),17.06.15.2005,Sungai Rumbai,Kabupaten,Muko Muko,Bengkulu
246,38761,Sumber Makmur,17.06.15.2006,Sungai Rumbai,Kabupaten,Muko Muko,Bengkulu
247,38761,Talang Gading,17.06.15.2007,Sungai Rumbai,Kabupaten,Muko Muko,Bengkulu
248,38877,Air Kemuning,17.05.01.2043,Sukaraja,Kabupaten,Seluma,Bengkulu
249,38877,Air Petai,17.05.01.2045,Sukaraja,Kabupaten,Seluma,Bengkulu
250,38877,Babatan,17.05.01.1001,Sukaraja,Kabupaten,Seluma,Bengkulu
251,38877,Bukit Peninjauan I,17.05.01.2011,Sukaraja,Kabupaten,Seluma,Bengkulu
252,38877,Bukit Peninjauan II,17.05.01.2030,Sukaraja,Kabupaten,Seluma,Bengkulu
253,38877,Cahaya Negeri,17.05.01.2029,Sukaraja,Kabupaten,Seluma,Bengkulu
254,38877,Jenggalu,17.05.01.2028,Sukaraja,Kabupaten,Seluma,Bengkulu
255,38877,Kayu Arang,17.05.01.2027,Sukaraja,Kabupaten,Seluma,Bengkulu
256,38877,Kuti Agung,17.05.01.2034,Sukaraja,Kabupaten,Seluma,Bengkulu
257,38877,Lubuk Sahung,17.05.01.2003,Sukaraja,Kabupaten,Seluma,Bengkulu
258,38877,Niur,17.05.01.2002,Sukaraja,Kabupaten,Seluma,Bengkulu
259,38877,Padang Kuas,17.05.01.2033,Sukaraja,Kabupaten,Seluma,Bengkulu
260,38877,Padang Pelawi,17.05.01.2026,Sukaraja,Kabupaten,Seluma,Bengkulu
261,38877,Riak Siabun,17.05.01.2032,Sukaraja,Kabupaten,Seluma,Bengkulu
262,38877,Riak Siabun I,17.05.01.2035,Sukaraja,Kabupaten,Seluma,Bengkulu
263,38877,Sari Mulyo,17.05.01.2039,Sukaraja,Kabupaten,Seluma,Bengkulu
264,38877,Sido Luhur,17.05.01.2036,Sukaraja,Kabupaten,Seluma,Bengkulu
265,38877,Sido Sari,17.05.01.2038,Sukaraja,Kabupaten,Seluma,Bengkulu
266,38877,Sukaraja,17.05.01.1025,Sukaraja,Kabupaten,Seluma,Bengkulu
267,38877,Sumber Arung/Arum,17.05.01.2037,Sukaraja,Kabupaten,Seluma,Bengkulu
268,38877,Sumber Makmur,17.05.01.2044,Sukaraja,Kabupaten,Seluma,Bengkulu
269,38229,Dusun Besar,17.71.09.1003,Singaran Pati,Kota,Bengkulu,Bengkulu
270,38224,Jembatan Kecil,17.71.09.1002,Singaran Pati,Kota,Bengkulu,Bengkulu
271,38221,Lingkar Timur,17.71.09.1006,Singaran Pati,Kota,Bengkulu,Bengkulu
272,38221,Padang Nangka,17.71.09.1004,Singaran Pati,Kota,Bengkulu,Bengkulu
273,38226,Panorama,17.71.09.1001,Singaran Pati,Kota,Bengkulu,Bengkulu
274,38221,Timur Indah,17.71.09.1005,Singaran Pati,Kota,Bengkulu,Bengkulu
275,39155,Air Dingin,17.02.08.2009,Sindang Kelingi,Kabupaten,Rejang Lebong,Bengkulu
276,39155,Belitar Muka,17.02.08.2003,Sindang Kelingi,Kabupaten,Rejang Lebong,Bengkulu
277,39155,Belitar Seberang,17.02.08.2011,Sindang Kelingi,Kabupaten,Rejang Lebong,Bengkulu
278,39155,Beringin Tiga,17.02.08.1006,Sindang Kelingi,Kabupaten,Rejang Lebong,Bengkulu
279,39155,Cahaya Negeri,17.02.08.2013,Sindang Kelingi,Kabupaten,Rejang Lebong,Bengkulu
280,39155,Kayu Manis,17.02.08.2005,Sindang Kelingi,Kabupaten,Rejang Lebong,Bengkulu
281,39155,Mojorejo,17.02.08.2015,Sindang Kelingi,Kabupaten,Rejang Lebong,Bengkulu
282,39155,Pelalo,17.02.08.2004,Sindang Kelingi,Kabupaten,Rejang Lebong,Bengkulu
283,39155,Sindang Jati,17.02.08.2002,Sindang Kelingi,Kabupaten,Rejang Lebong,Bengkulu
284,39155,Sindang Jaya,17.02.08.2001,Sindang Kelingi,Kabupaten,Rejang Lebong,Bengkulu
285,39155,Talang Lahat,17.02.08.2016,Sindang Kelingi,Kabupaten,Rejang Lebong,Bengkulu
286,39155,Tanjung Aur,17.02.08.2014,Sindang Kelingi,Kabupaten,Rejang Lebong,Bengkulu
287,39154,Air Rusa,17.02.22.2002,Sindang Dataran (Sindang Daratan),Kabupaten,Rejang Lebong,Bengkulu
288,39154,Bengko,17.02.22.2003,Sindang Dataran (Sindang Daratan),Kabupaten,Rejang Lebong,Bengkulu
289,39154,IV Suko Menanti (IV / Empat Suku Menanti),17.02.22.2001,Sindang Dataran (Sindang Daratan),Kabupaten,Rejang Lebong,Bengkulu
290,39154,Sinar Gunung,17.02.22.2004,Sindang Dataran (Sindang Daratan),Kabupaten,Rejang Lebong,Bengkulu
291,39154,Talang Belitar,17.02.22.2006,Sindang Dataran (Sindang Daratan),Kabupaten,Rejang Lebong,Bengkulu
292,39154,Warung Pojok,17.02.22.2005,Sindang Dataran (Sindang Daratan),Kabupaten,Rejang Lebong,Bengkulu
293,39181,Air Nau,17.02.21.2009,Sindang Beliti Ulu,Kabupaten,Rejang Lebong,Bengkulu
294,39181,Apur,17.02.21.2001,Sindang Beliti Ulu,Kabupaten,Rejang Lebong,Bengkulu
295,39181,Jabi,17.02.21.2007,Sindang Beliti Ulu,Kabupaten,Rejang Lebong,Bengkulu
296,39181,Karang Pinang,17.02.21.2004,Sindang Beliti Ulu,Kabupaten,Rejang Lebong,Bengkulu
297,39181,Lawang Agung,17.02.21.2002,Sindang Beliti Ulu,Kabupaten,Rejang Lebong,Bengkulu
298,39181,Lubuk Alai,17.02.21.2003,Sindang Beliti Ulu,Kabupaten,Rejang Lebong,Bengkulu
299,39181,Pengambang,17.02.21.2006,Sindang Beliti Ulu,Kabupaten,Rejang Lebong,Bengkulu
300,39181,Tanjung Agung,17.02.21.2005,Sindang Beliti Ulu,Kabupaten,Rejang Lebong,Bengkulu
301,39181,Tanjung Herang (Tanjung Heran),17.02.21.2008,Sindang Beliti Ulu,Kabupaten,Rejang Lebong,Bengkulu
302,39184,Balai Buntar/Butar,17.02.23.2003,Sindang Beliti Ilir,Kabupaten,Rejang Lebong,Bengkulu
303,39184,Lubuk Belimbing I,17.02.23.2005,Sindang Beliti Ilir,Kabupaten,Rejang Lebong,Bengkulu
304,39184,Lubuk Belimbing II,17.02.23.2006,Sindang Beliti Ilir,Kabupaten,Rejang Lebong,Bengkulu
305,39184,Lubuk Bingin Baru,17.02.23.2007,Sindang Beliti Ilir,Kabupaten,Rejang Lebong,Bengkulu
306,39184,Lubuk Tanjung/Tunjung,17.02.23.2004,Sindang Beliti Ilir,Kabupaten,Rejang Lebong,Bengkulu
307,39184,Merantau,17.02.23.2001,Sindang Beliti Ilir,Kabupaten,Rejang Lebong,Bengkulu
308,39184,Periang,17.02.23.2002,Sindang Beliti Ilir,Kabupaten,Rejang Lebong,Bengkulu
309,39184,Sari Pulau,17.02.23.2008,Sindang Beliti Ilir,Kabupaten,Rejang Lebong,Bengkulu
310,39184,Suka karya (Sukakarya),17.02.23.2010,Sindang Beliti Ilir,Kabupaten,Rejang Lebong,Bengkulu
311,39184,Suka Merindu,17.02.23.2009,Sindang Beliti Ilir,Kabupaten,Rejang Lebong,Bengkulu
312,38385,Bukit,17.09.11.2010,Semidang Lagan,Kabupaten,Bengkulu Tengah,Bengkulu
313,38382,Gajah Mati,17.09.11.2004,Semidang Lagan,Kabupaten,Bengkulu Tengah,Bengkulu
314,38382,Karang Nanding,17.09.11.2002,Semidang Lagan,Kabupaten,Bengkulu Tengah,Bengkulu
315,38388,Kota Niur,17.09.11.2011,Semidang Lagan,Kabupaten,Bengkulu Tengah,Bengkulu
316,38385,Lagan,17.09.11.2009,Semidang Lagan,Kabupaten,Bengkulu Tengah,Bengkulu
317,38385,Lagan Bungin,17.09.11.2006,Semidang Lagan,Kabupaten,Bengkulu Tengah,Bengkulu
318,38382,Padang Siring,17.09.11.2005,Semidang Lagan,Kabupaten,Bengkulu Tengah,Bengkulu
319,38382,Pagar Gunung,17.09.11.2001,Semidang Lagan,Kabupaten,Bengkulu Tengah,Bengkulu
320,38385,Pagar Jati,17.09.11.2007,Semidang Lagan,Kabupaten,Bengkulu Tengah,Bengkulu
321,38382,Semidang,17.09.11.2003,Semidang Lagan,Kabupaten,Bengkulu Tengah,Bengkulu
322,38385,Taba Lagan,17.09.11.2008,Semidang Lagan,Kabupaten,Bengkulu Tengah,Bengkulu
323,38967,Awat Mata,17.04.08.2008,Semidang Gumay / Gumai,Kabupaten,Kaur,Bengkulu
324,38967,Bunga Melur,17.04.08.2001,Semidang Gumay / Gumai,Kabupaten,Kaur,Bengkulu
325,38967,Cahaya Batin,17.04.08.2007,Semidang Gumay / Gumai,Kabupaten,Kaur,Bengkulu
326,38967,Gunung Tiga,17.04.08.2004,Semidang Gumay / Gumai,Kabupaten,Kaur,Bengkulu
327,38967,Gunung Tiga II,17.04.08.2011,Semidang Gumay / Gumai,Kabupaten,Kaur,Bengkulu
328,38967,Karang Dapo,17.04.08.2002,Semidang Gumay / Gumai,Kabupaten,Kaur,Bengkulu
329,38967,Lubuk Gung,17.04.08.2003,Semidang Gumay / Gumai,Kabupaten,Kaur,Bengkulu
330,38967,Masria Baru,17.04.08.2013,Semidang Gumay / Gumai,Kabupaten,Kaur,Bengkulu
331,38967,Mentiring,17.04.08.2006,Semidang Gumay / Gumai,Kabupaten,Kaur,Bengkulu
332,38967,Nusuk,17.04.08.2009,Semidang Gumay / Gumai,Kabupaten,Kaur,Bengkulu
333,38967,Padang Panjang,17.04.08.2012,Semidang Gumay / Gumai,Kabupaten,Kaur,Bengkulu
334,38967,Suka Merindu,17.04.08.2005,Semidang Gumay / Gumai,Kabupaten,Kaur,Bengkulu
335,38967,Tanjung Harapan,17.04.08.2010,Semidang Gumay / Gumai,Kabupaten,Kaur,Bengkulu
336,38875,Gelombang,17.05.05.2002,Semidang Alas Maras,Kabupaten,Seluma,Bengkulu
337,38875,Genting Juar,17.05.05.2019,Semidang Alas Maras,Kabupaten,Seluma,Bengkulu
338,38875,Gunung Bantan,17.05.05.2014,Semidang Alas Maras,Kabupaten,Seluma,Bengkulu
339,38875,Gunung Kembang,17.05.05.2013,Semidang Alas Maras,Kabupaten,Seluma,Bengkulu
340,38875,Jambat Akar,17.05.05.2012,Semidang Alas Maras,Kabupaten,Seluma,Bengkulu
341,38875,Karang Anyar,17.05.05.2006,Semidang Alas Maras,Kabupaten,Seluma,Bengkulu
342,38875,Karang Dapo,17.05.05.2026,Semidang Alas Maras,Kabupaten,Seluma,Bengkulu
343,38875,Kembang Mumpo,17.05.05.1005,Semidang Alas Maras,Kabupaten,Seluma,Bengkulu
344,38875,Ketapang Baru,17.05.05.2008,Semidang Alas Maras,Kabupaten,Seluma,Bengkulu
345,38875,Lubuk Betung,17.05.05.2003,Semidang Alas Maras,Kabupaten,Seluma,Bengkulu
346,38875,Maras Bantan,17.05.05.2025,Semidang Alas Maras,Kabupaten,Seluma,Bengkulu
347,38875,Maras Tengah,17.05.05.2015,Semidang Alas Maras,Kabupaten,Seluma,Bengkulu
348,38875,Muara Maras,17.05.05.2020,Semidang Alas Maras,Kabupaten,Seluma,Bengkulu
349,38875,Muara Timput,17.05.05.2022,Semidang Alas Maras,Kabupaten,Seluma,Bengkulu
350,38875,Padang Bakung,17.05.05.2011,Semidang Alas Maras,Kabupaten,Seluma,Bengkulu
351,38875,Padang Kelapa,17.05.05.2016,Semidang Alas Maras,Kabupaten,Seluma,Bengkulu
352,38875,Padang Peri,17.05.05.2004,Semidang Alas Maras,Kabupaten,Seluma,Bengkulu
353,38875,Pematang Riding,17.05.05.2017,Semidang Alas Maras,Kabupaten,Seluma,Bengkulu
354,38875,Rimbo Besak,17.05.05.2021,Semidang Alas Maras,Kabupaten,Seluma,Bengkulu
355,38875,Sendawar,17.05.05.2001,Semidang Alas Maras,Kabupaten,Seluma,Bengkulu
356,38875,Serian Bandung,17.05.05.2023,Semidang Alas Maras,Kabupaten,Seluma,Bengkulu
357,38875,Talang Alai,17.05.05.2010,Semidang Alas Maras,Kabupaten,Seluma,Bengkulu
358,38875,Talang Beringin,17.05.05.2018,Semidang Alas Maras,Kabupaten,Seluma,Bengkulu
359,38875,Talang Kemang,17.05.05.2024,Semidang Alas Maras,Kabupaten,Seluma,Bengkulu
360,38875,Tedunan,17.05.05.2009,Semidang Alas Maras,Kabupaten,Seluma,Bengkulu
361,38875,Ujung Padang,17.05.05.2007,Semidang Alas Maras,Kabupaten,Seluma,Bengkulu
362,38873,Air Melancar,17.05.04.2012,Semidang Alas,Kabupaten,Seluma,Bengkulu
363,38873,Bandung Agung,17.05.04.2002,Semidang Alas,Kabupaten,Seluma,Bengkulu
364,38873,Cugung Langu,17.05.04.2010,Semidang Alas,Kabupaten,Seluma,Bengkulu
365,38873,Gunung Megang,17.05.04.2022,Semidang Alas,Kabupaten,Seluma,Bengkulu
366,38873,Gunung Mesir,17.05.04.2016,Semidang Alas,Kabupaten,Seluma,Bengkulu
367,38873,Kayu Elang,17.05.04.2017,Semidang Alas,Kabupaten,Seluma,Bengkulu
368,38873,Kemang Manis,17.05.04.2021,Semidang Alas,Kabupaten,Seluma,Bengkulu
369,38873,Maras Jauh,17.05.04.2001,Semidang Alas,Kabupaten,Seluma,Bengkulu
370,38873,Mekar Sari Mukti,17.05.04.2020,Semidang Alas,Kabupaten,Seluma,Bengkulu
371,38873,Muara Dua,17.05.04.2013,Semidang Alas,Kabupaten,Seluma,Bengkulu
372,38873,Nanjungan,17.05.04.2004,Semidang Alas,Kabupaten,Seluma,Bengkulu
373,38873,Nanti Agung,17.05.04.2014,Semidang Alas,Kabupaten,Seluma,Bengkulu
374,38873,Napalan,17.05.04.2007,Semidang Alas,Kabupaten,Seluma,Bengkulu
375,38873,Padang Serunaian,17.05.04.2018,Semidang Alas,Kabupaten,Seluma,Bengkulu
376,38873,Pajar Bulan,17.05.04.1005,Semidang Alas,Kabupaten,Seluma,Bengkulu
377,38873,Petai Kayu,17.05.04.2006,Semidang Alas,Kabupaten,Seluma,Bengkulu
378,38873,Pinju Layang,17.05.04.2003,Semidang Alas,Kabupaten,Seluma,Bengkulu
379,38873,Rantau Panjang,17.05.04.2011,Semidang Alas,Kabupaten,Seluma,Bengkulu
380,38873,Renah Gajah Mati I (Renah Gajah Mati 1),17.05.04.2008,Semidang Alas,Kabupaten,Seluma,Bengkulu
381,38873,Renah Gajah Mati II,17.05.04.2009,Semidang Alas,Kabupaten,Seluma,Bengkulu
382,38873,Suban,17.05.04.2024,Semidang Alas,Kabupaten,Seluma,Bengkulu
383,38873,Talang Durian,17.05.04.2015,Semidang Alas,Kabupaten,Seluma,Bengkulu
384,38873,Tebat/Teba Gunung,17.05.04.2019,Semidang Alas,Kabupaten,Seluma,Bengkulu
385,38873,Telatan,17.05.04.2023,Semidang Alas,Kabupaten,Seluma,Bengkulu
386,39153,Air Duku,17.02.11.1004,Selupu Rejang,Kabupaten,Rejang Lebong,Bengkulu
387,39153,Air Meles Atas,17.02.11.2002,Selupu Rejang,Kabupaten,Rejang Lebong,Bengkulu
388,39153,Air Putih Kali Bandung,17.02.11.2001,Selupu Rejang,Kabupaten,Rejang Lebong,Bengkulu
389,39153,Cawang Baru,17.02.11.1006,Selupu Rejang,Kabupaten,Rejang Lebong,Bengkulu
390,39153,Cawang Lama,17.02.11.2007,Selupu Rejang,Kabupaten,Rejang Lebong,Bengkulu
391,39153,Kali Padang,17.02.11.2014,Selupu Rejang,Kabupaten,Rejang Lebong,Bengkulu
392,39153,Kampung Baru,17.02.11.2013,Selupu Rejang,Kabupaten,Rejang Lebong,Bengkulu
393,39153,Karang Jaya,17.02.11.2011,Selupu Rejang,Kabupaten,Rejang Lebong,Bengkulu
394,39153,Kayu Manis,17.02.11.2012,Selupu Rejang,Kabupaten,Rejang Lebong,Bengkulu
395,39153,Sambirejo,17.02.11.2003,Selupu Rejang,Kabupaten,Rejang Lebong,Bengkulu
396,39153,Simpang Nangka,17.02.11.1008,Selupu Rejang,Kabupaten,Rejang Lebong,Bengkulu
397,39153,Suban Ayam,17.02.11.2005,Selupu Rejang,Kabupaten,Rejang Lebong,Bengkulu
398,39153,Sumber Bening,17.02.11.2010,Selupu Rejang,Kabupaten,Rejang Lebong,Bengkulu
399,39153,Sumber Urip,17.02.11.2009,Selupu Rejang,Kabupaten,Rejang Lebong,Bengkulu
400,38884,Lubuk Resam,17.05.10.2008,Seluma Utara,Kabupaten,Seluma,Bengkulu
401,38884,Pandan,17.05.10.2004,Seluma Utara,Kabupaten,Seluma,Bengkulu
402,38884,Puguk,17.05.10.1003,Seluma Utara,Kabupaten,Seluma,Bengkulu
403,38884,Sekalak,17.05.10.2007,Seluma Utara,Kabupaten,Seluma,Bengkulu
404,38884,Selingsingan,17.05.10.2005,Seluma Utara,Kabupaten,Seluma,Bengkulu
405,38884,Simpang,17.05.10.2006,Seluma Utara,Kabupaten,Seluma,Bengkulu
406,38884,Sinar Pagi,17.05.10.2009,Seluma Utara,Kabupaten,Seluma,Bengkulu
407,38884,Talang Beringin,17.05.10.2002,Seluma Utara,Kabupaten,Seluma,Bengkulu
408,38884,Talang Empat,17.05.10.2010,Seluma Utara,Kabupaten,Seluma,Bengkulu
409,38884,Talang Rami,17.05.10.2001,Seluma Utara,Kabupaten,Seluma,Bengkulu
410,38885,Bunga Mas,17.05.09.1006,Seluma Timur,Kabupaten,Seluma,Bengkulu
411,38885,Kota Agung,17.05.09.2003,Seluma Timur,Kabupaten,Seluma,Bengkulu
412,38885,Kunduran,17.05.09.2002,Seluma Timur,Kabupaten,Seluma,Bengkulu
413,38885,Rawa Sari (Rawasari),17.05.09.2008,Seluma Timur,Kabupaten,Seluma,Bengkulu
414,38885,Selebar,17.05.09.1004,Seluma Timur,Kabupaten,Seluma,Bengkulu
415,38885,Sembayat,17.05.09.1005,Seluma Timur,Kabupaten,Seluma,Bengkulu
416,38885,Talang Sali,17.05.09.2001,Seluma Timur,Kabupaten,Seluma,Bengkulu
417,38885,Tenangan,17.05.09.2007,Seluma Timur,Kabupaten,Seluma,Bengkulu
418,38878,Padang Genting,17.05.11.2005,Seluma Selatan,Kabupaten,Seluma,Bengkulu
419,38878,Padang Merbau,17.05.11.2012,Seluma Selatan,Kabupaten,Seluma,Bengkulu
420,38878,Padang Rambun,17.05.11.1010,Seluma Selatan,Kabupaten,Seluma,Bengkulu
421,38878,Pasar Seluma,17.05.11.2004,Seluma Selatan,Kabupaten,Seluma,Bengkulu
422,38878,Rimbo Kedui,17.05.11.1008,Seluma Selatan,Kabupaten,Seluma,Bengkulu
423,38878,Sengkuang,17.05.11.2006,Seluma Selatan,Kabupaten,Seluma,Bengkulu
424,38878,Sido Mulyo,17.05.11.1011,Seluma Selatan,Kabupaten,Seluma,Bengkulu
425,38878,Sukarami (Suka Rami),17.05.11.2001,Seluma Selatan,Kabupaten,Seluma,Bengkulu
426,38878,Tangga Batu,17.05.11.2007,Seluma Selatan,Kabupaten,Seluma,Bengkulu
427,38878,Tanjung Seluai,17.05.11.2009,Seluma Selatan,Kabupaten,Seluma,Bengkulu
428,38878,Tanjung Seru,17.05.11.2002,Seluma Selatan,Kabupaten,Seluma,Bengkulu
429,38878,Tanjungan,17.05.11.2003,Seluma Selatan,Kabupaten,Seluma,Bengkulu
430,38883,Air Latak,17.05.08.2002,Seluma Barat,Kabupaten,Seluma,Bengkulu
431,38883,Lubuk Lagan,17.05.08.2007,Seluma Barat,Kabupaten,Seluma,Bengkulu
432,38883,Lunjuk,17.05.08.2006,Seluma Barat,Kabupaten,Seluma,Bengkulu
433,38883,Pagar Agung,17.05.08.2004,Seluma Barat,Kabupaten,Seluma,Bengkulu
434,38883,Purbosari,17.05.08.2008,Seluma Barat,Kabupaten,Seluma,Bengkulu
435,38883,Sengkuang Jaya,17.05.08.2009,Seluma Barat,Kabupaten,Seluma,Bengkulu
436,38883,Talang Perapat,17.05.08.2003,Seluma Barat,Kabupaten,Seluma,Bengkulu
437,38883,Talang Tinggi,17.05.08.2005,Seluma Barat,Kabupaten,Seluma,Bengkulu
438,38883,Tanjung Agung,17.05.08.2001,Seluma Barat,Kabupaten,Seluma,Bengkulu
439,38876,Dusun Baru,17.05.02.1013,Seluma,Kabupaten,Seluma,Bengkulu
440,38876,Lubuk Kebur,17.05.02.1009,Seluma,Kabupaten,Seluma,Bengkulu
441,38876,Lubuk Lintang,17.05.02.1011,Seluma,Kabupaten,Seluma,Bengkulu
442,38876,Napal,17.05.02.1024,Seluma,Kabupaten,Seluma,Bengkulu
443,38876,Pasar Tais,17.05.02.1010,Seluma,Kabupaten,Seluma,Bengkulu
444,38876,Talang Dantuk,17.05.02.1014,Seluma,Kabupaten,Seluma,Bengkulu
445,38876,Talang Saling,17.05.02.1012,Seluma,Kabupaten,Seluma,Bengkulu
446,38214,Betungan,17.71.01.1005,Selebar,Kota,Bengkulu,Bengkulu
447,38216,Bumu Ayu (Bumi Ayu),17.71.01.1004,Selebar,Kota,Bengkulu,Bengkulu
448,38211,Pagar Dewa,17.71.01.1001,Selebar,Kota,Bengkulu,Bengkulu
449,38213,Pekan Sabtu,17.71.01.1003,Selebar,Kota,Bengkulu,Bengkulu
450,38216,Sukarami,17.71.01.1002,Selebar,Kota,Bengkulu,Bengkulu
451,38216,Sumur Dewa,17.71.01.1006,Selebar,Kota,Bengkulu,Bengkulu
452,38769,Aur Cina,17.06.09.2009,Selagan Raya,Kabupaten,Muko Muko,Bengkulu
453,38769,Lubuk Bangko,17.06.09.2007,Selagan Raya,Kabupaten,Muko Muko,Bengkulu
454,38769,Lubuk Sahung,17.06.09.2002,Selagan Raya,Kabupaten,Muko Muko,Bengkulu
455,38769,Pondok Baru,17.06.09.2005,Selagan Raya,Kabupaten,Muko Muko,Bengkulu
456,38769,Sungai Gading,17.06.09.2004,Selagan Raya,Kabupaten,Muko Muko,Bengkulu
457,38769,Sungai Ipuh,17.06.09.2001,Selagan Raya,Kabupaten,Muko Muko,Bengkulu
458,38769,Sungai Ipuh Dua,17.06.09.2012,Selagan Raya,Kabupaten,Muko Muko,Bengkulu
459,38769,Sungai Ipuh Satu,17.06.09.2011,Selagan Raya,Kabupaten,Muko Muko,Bengkulu
460,38769,Sungai Jerinjing,17.06.09.2006,Selagan Raya,Kabupaten,Muko Muko,Bengkulu
461,38769,Surian Bungkal,17.06.09.2003,Selagan Raya,Kabupaten,Muko Muko,Bengkulu
462,38769,Talang Buai,17.06.09.2008,Selagan Raya,Kabupaten,Muko Muko,Bengkulu
463,38769,Talang Medan,17.06.09.2010,Selagan Raya,Kabupaten,Muko Muko,Bengkulu
464,38552,Babatan Ilir,17.01.02.2007,Seginim,Kabupaten,Bengkulu Selatan,Bengkulu
465,38552,Babatan Ulu,17.01.02.2008,Seginim,Kabupaten,Bengkulu Selatan,Bengkulu
466,38552,Banding Agung,17.01.02.2020,Seginim,Kabupaten,Bengkulu Selatan,Bengkulu
467,38552,Darat Sawah (Darat Sawah Ilir / Hilir),17.01.02.2005,Seginim,Kabupaten,Bengkulu Selatan,Bengkulu
468,38552,Darat Sawah Ulu (Hulu),17.01.02.2029,Seginim,Kabupaten,Bengkulu Selatan,Bengkulu
469,38552,Durian Seginim,17.01.02.2018,Seginim,Kabupaten,Bengkulu Selatan,Bengkulu
470,38552,Dusun Baru,17.01.02.2031,Seginim,Kabupaten,Bengkulu Selatan,Bengkulu
471,38552,Dusun Tengah,17.01.02.2022,Seginim,Kabupaten,Bengkulu Selatan,Bengkulu
472,38552,Gunung Ayu (Gunung Ayu II),17.01.02.2011,Seginim,Kabupaten,Bengkulu Selatan,Bengkulu
473,38552,Kota Agung,17.01.02.2006,Seginim,Kabupaten,Bengkulu Selatan,Bengkulu
474,38552,Kota Bumi Baru,17.01.02.2015,Seginim,Kabupaten,Bengkulu Selatan,Bengkulu
475,38552,Muara Danau,17.01.02.2009,Seginim,Kabupaten,Bengkulu Selatan,Bengkulu
476,38552,Muara Payang,17.01.02.2017,Seginim,Kabupaten,Bengkulu Selatan,Bengkulu
477,38552,Muara Pulutan,17.01.02.2014,Seginim,Kabupaten,Bengkulu Selatan,Bengkulu
478,38552,Padang Lebar,17.01.02.2001,Seginim,Kabupaten,Bengkulu Selatan,Bengkulu
479,38552,Padang Siring,17.01.02.2023,Seginim,Kabupaten,Bengkulu Selatan,Bengkulu
480,38552,Pajar Bulan,17.01.02.2021,Seginim,Kabupaten,Bengkulu Selatan,Bengkulu
481,38552,Pasar Baru,17.01.02.1024,Seginim,Kabupaten,Bengkulu Selatan,Bengkulu
482,38552,Sindang Bulan,17.01.02.2016,Seginim,Kabupaten,Bengkulu Selatan,Bengkulu
483,38552,Sukaraja,17.01.02.2002,Seginim,Kabupaten,Bengkulu Selatan,Bengkulu
484,38552,Tanjung Agung,17.01.02.2030,Seginim,Kabupaten,Bengkulu Selatan,Bengkulu
485,38552,Tanjung Menang,17.01.02.2004,Seginim,Kabupaten,Bengkulu Selatan,Bengkulu
486,39377,Air Pesi,17.08.07.2010,Seberang Musi,Kabupaten,Kepahiang,Bengkulu
487,39377,Air Selimang,17.08.07.2002,Seberang Musi,Kabupaten,Kepahiang,Bengkulu
488,39377,Bayung,17.08.07.2012,Seberang Musi,Kabupaten,Kepahiang,Bengkulu
489,39377,Benuang Galing,17.08.07.2001,Seberang Musi,Kabupaten,Kepahiang,Bengkulu
490,39377,Cirebon Baru (Cirbon Baru),17.08.07.2008,Seberang Musi,Kabupaten,Kepahiang,Bengkulu
491,39377,Kandang,17.08.07.2007,Seberang Musi,Kabupaten,Kepahiang,Bengkulu
492,39377,Lubuk Saung,17.08.07.2006,Seberang Musi,Kabupaten,Kepahiang,Bengkulu
493,39377,Sungai Jernih,17.08.07.2013,Seberang Musi,Kabupaten,Kepahiang,Bengkulu
494,39377,Taba Padang,17.08.07.2005,Seberang Musi,Kabupaten,Kepahiang,Bengkulu
495,39377,Talang Babatan,17.08.07.2011,Seberang Musi,Kabupaten,Kepahiang,Bengkulu
496,39377,Talang Gelompok,17.08.07.2009,Seberang Musi,Kabupaten,Kepahiang,Bengkulu
497,39377,Tebat Laut,17.08.07.2003,Seberang Musi,Kabupaten,Kepahiang,Bengkulu
498,39377,Temedak/Temdak,17.08.07.2004,Seberang Musi,Kabupaten,Kepahiang,Bengkulu
499,39261,Bajok,17.07.05.2013,Rimbo Pengadang,Kabupaten,Lebong,Bengkulu
500,39261,Bioa Sengok,17.07.05.2010,Rimbo Pengadang,Kabupaten,Lebong,Bengkulu
501,39261,Rimbo Pengadang,17.07.05.1002,Rimbo Pengadang,Kabupaten,Lebong,Bengkulu
502,39261,Talang Ratau,17.07.05.2009,Rimbo Pengadang,Kabupaten,Lebong,Bengkulu
503,39261,Teluk Dien,17.07.05.2012,Rimbo Pengadang,Kabupaten,Lebong,Bengkulu
504,39261,Tik Kuto,17.07.05.2011,Rimbo Pengadang,Kabupaten,Lebong,Bengkulu
505,38222,Anggut Atas,17.71.07.1006,Ratu Samban,Kota,Bengkulu,Bengkulu
506,38223,Anggut Bawah,17.71.07.1005,Ratu Samban,Kota,Bengkulu,Bengkulu
507,38222,Anggut Dalam,17.71.07.1007,Ratu Samban,Kota,Bengkulu,Bengkulu
508,38221,Belakang Pondok,17.71.07.1003,Ratu Samban,Kota,Bengkulu,Bengkulu
509,38221,Kebun Dahri,17.71.07.1002,Ratu Samban,Kota,Bengkulu,Bengkulu
510,38222,Kebun Geran (Gerand),17.71.07.1008,Ratu Samban,Kota,Bengkulu,Bengkulu
511,38227,Padang Jati,17.71.07.1001,Ratu Samban,Kota,Bengkulu,Bengkulu
512,38221,Pengantungan (Penggantungan),17.71.07.1009,Ratu Samban,Kota,Bengkulu,Bengkulu
513,38223,Penurunan,17.71.07.1004,Ratu Samban,Kota,Bengkulu,Bengkulu
514,38223,Kebun Beler,17.71.06.1004,Ratu Agung,Kota,Bengkulu,Bengkulu
515,38223,Kebun Kenanga,17.71.06.1005,Ratu Agung,Kota,Bengkulu,Bengkulu
516,38227,Kebun Tebeng,17.71.06.1001,Ratu Agung,Kota,Bengkulu,Bengkulu
517,38223,Lempuing,17.71.06.1008,Ratu Agung,Kota,Bengkulu,Bengkulu
518,38224,Nusa Indah,17.71.06.1003,Ratu Agung,Kota,Bengkulu,Bengkulu
519,38228,Sawah Lebar,17.71.06.1006,Ratu Agung,Kota,Bengkulu,Bengkulu
520,38223,Sawah Lebar Baru,17.71.06.1007,Ratu Agung,Kota,Bengkulu,Bengkulu
521,38224,Tanah Patah,17.71.06.1002,Ratu Agung,Kota,Bengkulu,Bengkulu
522,38326,Air Muring,17.03.14.2013,Putri Hijau,Kabupaten,Bengkulu Utara,Bengkulu
523,38326,Air Pandan,17.03.14.2014,Putri Hijau,Kabupaten,Bengkulu Utara,Bengkulu
524,38326,Air Petai,17.03.14.2017,Putri Hijau,Kabupaten,Bengkulu Utara,Bengkulu
525,38326,Cipta Mulya,17.03.14.2015,Putri Hijau,Kabupaten,Bengkulu Utara,Bengkulu
526,38326,Karang Pulau,17.03.14.2019,Putri Hijau,Kabupaten,Bengkulu Utara,Bengkulu
527,38326,Karang Tengah,17.03.14.2018,Putri Hijau,Kabupaten,Bengkulu Utara,Bengkulu
528,38326,Kota Bani (Pasar Baru Kota Bani),17.03.14.2009,Putri Hijau,Kabupaten,Bengkulu Utara,Bengkulu
529,38326,Pasar Sebelat,17.03.14.2008,Putri Hijau,Kabupaten,Bengkulu Utara,Bengkulu
530,38326,Talang Arah,17.03.14.2007,Putri Hijau,Kabupaten,Bengkulu Utara,Bengkulu
531,38766,Air Berau,17.06.04.2006,Pondok Suguh,Kabupaten,Muko Muko,Bengkulu
532,38766,Air Bikuk,17.06.04.2001,Pondok Suguh,Kabupaten,Muko Muko,Bengkulu
533,38766,Air Hitam,17.06.04.2010,Pondok Suguh,Kabupaten,Muko Muko,Bengkulu
534,38766,Bumi Mekar Jaya,17.06.04.2022,Pondok Suguh,Kabupaten,Muko Muko,Bengkulu
535,38766,Karya Mulya,17.06.04.2030,Pondok Suguh,Kabupaten,Muko Muko,Bengkulu
536,38766,Lubuk Bento,17.06.04.2027,Pondok Suguh,Kabupaten,Muko Muko,Bengkulu
537,38766,Pondok Kandang,17.06.04.2014,Pondok Suguh,Kabupaten,Muko Muko,Bengkulu
538,38766,Pondok Suguh,17.06.04.2005,Pondok Suguh,Kabupaten,Muko Muko,Bengkulu
539,38766,Sinar Laut,17.06.04.2029,Pondok Suguh,Kabupaten,Muko Muko,Bengkulu
540,38766,Teluk Bakung,17.06.04.2031,Pondok Suguh,Kabupaten,Muko Muko,Bengkulu
541,38766,Tunggang (Dusun Tunggang),17.06.04.2004,Pondok Suguh,Kabupaten,Muko Muko,Bengkulu
542,38375,Batu Raja,17.09.09.2002,Pondok Kubang,Kabupaten,Bengkulu Tengah,Bengkulu
543,38375,Dusun Anyar,17.09.09.2003,Pondok Kubang,Kabupaten,Bengkulu Tengah,Bengkulu
544,38376,Dusun Baru I,17.09.09.2009,Pondok Kubang,Kabupaten,Bengkulu Tengah,Bengkulu
545,38376,Harapan Makmur,17.09.09.2010,Pondok Kubang,Kabupaten,Bengkulu Tengah,Bengkulu
546,38375,Linggar Galing,17.09.09.2008,Pondok Kubang,Kabupaten,Bengkulu Tengah,Bengkulu
547,38377,Margo Mulyo (Margo Mulya),17.09.09.2011,Pondok Kubang,Kabupaten,Bengkulu Tengah,Bengkulu
548,38375,Paku Haji,17.09.09.2006,Pondok Kubang,Kabupaten,Bengkulu Tengah,Bengkulu
549,38375,Pondok Kubang,17.09.09.2001,Pondok Kubang,Kabupaten,Bengkulu Tengah,Bengkulu
550,38378,Taba Jambu,17.09.09.2012,Pondok Kubang,Kabupaten,Bengkulu Tengah,Bengkulu
551,38375,Talang Tengah I (Talang Tengah),17.09.09.2005,Pondok Kubang,Kabupaten,Bengkulu Tengah,Bengkulu
552,38378,Tanjung Dalam,17.09.09.2004,Pondok Kubang,Kabupaten,Bengkulu Tengah,Bengkulu
553,38375,Tanjung terdana,17.09.09.2007,Pondok Kubang,Kabupaten,Bengkulu Tengah,Bengkulu
554,38371,Abu Sakim,17.09.03.2024,Pondok Kelapa,Kabupaten,Bengkulu Tengah,Bengkulu
555,38371,Bintang Selatan,17.09.03.2023,Pondok Kelapa,Kabupaten,Bengkulu Tengah,Bengkulu
556,38371,Harapan (Desa Harapan),17.09.03.2025,Pondok Kelapa,Kabupaten,Bengkulu Tengah,Bengkulu
557,38371,Kembang Ayun,17.09.03.2020,Pondok Kelapa,Kabupaten,Bengkulu Tengah,Bengkulu
558,38371,Padang Betuah,17.09.03.2015,Pondok Kelapa,Kabupaten,Bengkulu Tengah,Bengkulu
559,38371,Pagar Dewa,17.09.03.2019,Pondok Kelapa,Kabupaten,Bengkulu Tengah,Bengkulu
560,38371,Panca Mukti,17.09.03.2021,Pondok Kelapa,Kabupaten,Bengkulu Tengah,Bengkulu
561,38371,Pasar Pedati,17.09.03.2012,Pondok Kelapa,Kabupaten,Bengkulu Tengah,Bengkulu
562,38371,Pekik Nyaring,17.09.03.2011,Pondok Kelapa,Kabupaten,Bengkulu Tengah,Bengkulu
563,38371,Pondok Kelapa,17.09.03.2014,Pondok Kelapa,Kabupaten,Bengkulu Tengah,Bengkulu
564,38371,Sidodadi,17.09.03.2017,Pondok Kelapa,Kabupaten,Bengkulu Tengah,Bengkulu
565,38371,Sidoreja (Sidorejo/Siderejo),17.09.03.2016,Pondok Kelapa,Kabupaten,Bengkulu Tengah,Bengkulu
566,38371,Sri Kuncoro,17.09.03.2022,Pondok Kelapa,Kabupaten,Bengkulu Tengah,Bengkulu
567,38371,Srikaton,17.09.03.2010,Pondok Kelapa,Kabupaten,Bengkulu Tengah,Bengkulu
568,38371,Sunda Kelapa,17.09.03.2013,Pondok Kelapa,Kabupaten,Bengkulu Tengah,Bengkulu
569,38371,Talang Buseng / Boseng,17.09.03.2018,Pondok Kelapa,Kabupaten,Bengkulu Tengah,Bengkulu
570,38371,Talang Pauh,17.09.03.2009,Pondok Kelapa,Kabupaten,Bengkulu Tengah,Bengkulu
571,38572,Air Kemang,17.01.06.2002,Pino Raya (Pinoraya),Kabupaten,Bengkulu Selatan,Bengkulu
572,38572,Bandung Ayu,17.01.06.2008,Pino Raya (Pinoraya),Kabupaten,Bengkulu Selatan,Bengkulu
573,38572,Cinto Mandi,17.01.06.2013,Pino Raya (Pinoraya),Kabupaten,Bengkulu Selatan,Bengkulu
574,38572,Karang Cayo,17.01.06.2015,Pino Raya (Pinoraya),Kabupaten,Bengkulu Selatan,Bengkulu
575,38572,Kemang Manis,17.01.06.2018,Pino Raya (Pinoraya),Kabupaten,Bengkulu Selatan,Bengkulu
576,38572,Kembang Seri,17.01.06.2014,Pino Raya (Pinoraya),Kabupaten,Bengkulu Selatan,Bengkulu
577,38572,Nanjungan,17.01.06.2017,Pino Raya (Pinoraya),Kabupaten,Bengkulu Selatan,Bengkulu
578,38572,Napal Melintang,17.01.06.2009,Pino Raya (Pinoraya),Kabupaten,Bengkulu Selatan,Bengkulu
579,38572,Padang Beriang,17.01.06.2019,Pino Raya (Pinoraya),Kabupaten,Bengkulu Selatan,Bengkulu
580,38572,Padang Serasan,17.01.06.2020,Pino Raya (Pinoraya),Kabupaten,Bengkulu Selatan,Bengkulu
581,38572,Pagar Gading,17.01.06.2012,Pino Raya (Pinoraya),Kabupaten,Bengkulu Selatan,Bengkulu
582,38572,Pasar Pino,17.01.06.2003,Pino Raya (Pinoraya),Kabupaten,Bengkulu Selatan,Bengkulu
583,38572,Selali (Selali I),17.01.06.2001,Pino Raya (Pinoraya),Kabupaten,Bengkulu Selatan,Bengkulu
584,38572,Serang Bulan,17.01.06.2010,Pino Raya (Pinoraya),Kabupaten,Bengkulu Selatan,Bengkulu
585,38572,Suka Bandung,17.01.06.2011,Pino Raya (Pinoraya),Kabupaten,Bengkulu Selatan,Bengkulu
586,38572,Talang Padang,17.01.06.2005,Pino Raya (Pinoraya),Kabupaten,Bengkulu Selatan,Bengkulu
587,38572,Tanggo Raso,17.01.06.2004,Pino Raya (Pinoraya),Kabupaten,Bengkulu Selatan,Bengkulu
588,38572,Tanjung Aur II (Tanjung Aur),17.01.06.2016,Pino Raya (Pinoraya),Kabupaten,Bengkulu Selatan,Bengkulu
589,38572,Telaga Dalam,17.01.06.2021,Pino Raya (Pinoraya),Kabupaten,Bengkulu Selatan,Bengkulu
590,38572,Tungkal I,17.01.06.2006,Pino Raya (Pinoraya),Kabupaten,Bengkulu Selatan,Bengkulu
591,38572,Tungkal II,17.01.06.2007,Pino Raya (Pinoraya),Kabupaten,Bengkulu Selatan,Bengkulu
592,38570,Air Umban,17.01.03.2019,Pino,Kabupaten,Bengkulu Selatan,Bengkulu
593,38570,Anggut,17.01.03.2002,Pino,Kabupaten,Bengkulu Selatan,Bengkulu
594,38570,Batu Bandung,17.01.03.2015,Pino,Kabupaten,Bengkulu Selatan,Bengkulu
595,38570,Beringin Datar,17.01.03.2025,Pino,Kabupaten,Bengkulu Selatan,Bengkulu
596,38570,Ganjuh,17.01.03.2021,Pino,Kabupaten,Bengkulu Selatan,Bengkulu
597,38570,Gedung Agung,17.01.03.2005,Pino,Kabupaten,Bengkulu Selatan,Bengkulu
598,38570,Kota Bumi,17.01.03.2017,Pino,Kabupaten,Bengkulu Selatan,Bengkulu
599,38570,Masat,17.01.03.1018,Pino,Kabupaten,Bengkulu Selatan,Bengkulu
600,38570,Padang Lebar,17.01.03.2004,Pino,Kabupaten,Bengkulu Selatan,Bengkulu
601,38570,Padang Mumpo,17.01.03.2024,Pino,Kabupaten,Bengkulu Selatan,Bengkulu
602,38570,Padang Tambak,17.01.03.2023,Pino,Kabupaten,Bengkulu Selatan,Bengkulu
603,38570,Puding,17.01.03.2022,Pino,Kabupaten,Bengkulu Selatan,Bengkulu
604,38570,Sebilo,17.01.03.2020,Pino,Kabupaten,Bengkulu Selatan,Bengkulu
605,38570,Tanjung Aur I,17.01.03.2001,Pino,Kabupaten,Bengkulu Selatan,Bengkulu
606,38570,Tanjung Eran,17.01.03.2003,Pino,Kabupaten,Bengkulu Selatan,Bengkulu
607,38570,Ulak Lebar,17.01.03.2016,Pino,Kabupaten,Bengkulu Selatan,Bengkulu
608,38362,Air Sebayur,17.03.24.2001,Pinang Raya,Kabupaten,Bengkulu Utara,Bengkulu
609,38362,Air Sekamanak,17.03.24.2002,Pinang Raya,Kabupaten,Bengkulu Utara,Bengkulu
610,38362,Air Simpang,17.03.24.2003,Pinang Raya,Kabupaten,Bengkulu Utara,Bengkulu
611,38362,Bukit Harapan,17.03.24.2009,Pinang Raya,Kabupaten,Bengkulu Utara,Bengkulu
612,38362,Bukit Makmur,17.03.24.2004,Pinang Raya,Kabupaten,Bengkulu Utara,Bengkulu
613,38362,Bumi Harjo,17.03.24.2006,Pinang Raya,Kabupaten,Bengkulu Utara,Bengkulu
614,38362,Gunung Payung,17.03.24.2008,Pinang Raya,Kabupaten,Bengkulu Utara,Bengkulu
615,38362,Marga Bhakti (Marga Bakti),17.03.24.2005,Pinang Raya,Kabupaten,Bengkulu Utara,Bengkulu
616,38362,Sumber Mulya,17.03.24.2007,Pinang Raya,Kabupaten,Bengkulu Utara,Bengkulu
617,38362,Tanjung Muara,17.03.24.2010,Pinang Raya,Kabupaten,Bengkulu Utara,Bengkulu
618,39269,Air Kopras,17.07.12.2005,Pinang Belapis,Kabupaten,Lebong,Bengkulu
619,39269,Bioa Putiak,17.07.12.2006,Pinang Belapis,Kabupaten,Lebong,Bengkulu
620,39269,Ketenong I,17.07.12.2001,Pinang Belapis,Kabupaten,Lebong,Bengkulu
621,39269,Ketenong II,17.07.12.2002,Pinang Belapis,Kabupaten,Lebong,Bengkulu
622,39269,Ketenong Jaya,17.07.12.2003,Pinang Belapis,Kabupaten,Lebong,Bengkulu
623,39269,Sebelat,17.07.12.2007,Pinang Belapis,Kabupaten,Lebong,Bengkulu
624,39269,Sungai Lisai,17.07.12.2008,Pinang Belapis,Kabupaten,Lebong,Bengkulu
625,39269,Tambang Saweak (Tambang Sawah),17.07.12.2004,Pinang Belapis,Kabupaten,Lebong,Bengkulu
626,38768,Bukit Makmur,17.06.10.2005,Penarik,Kabupaten,Muko Muko,Bengkulu
627,38768,Bumi Mulya,17.06.10.2003,Penarik,Kabupaten,Muko Muko,Bengkulu
628,38768,Lubuk Mukti,17.06.10.2002,Penarik,Kabupaten,Muko Muko,Bengkulu
629,38768,Maju Makmur,17.06.10.2008,Penarik,Kabupaten,Muko Muko,Bengkulu
630,38768,Marga Mukti,17.06.10.2014,Penarik,Kabupaten,Muko Muko,Bengkulu
631,38768,Marga Mulya Sakti,17.06.10.2010,Penarik,Kabupaten,Muko Muko,Bengkulu
632,38768,Mekar Mulya,17.06.10.2012,Penarik,Kabupaten,Muko Muko,Bengkulu
633,38768,Penarik,17.06.10.2001,Penarik,Kabupaten,Muko Muko,Bengkulu
634,38768,Sendang Mulyo,17.06.10.2009,Penarik,Kabupaten,Muko Muko,Bengkulu
635,38768,Sido Dadi,17.06.10.2007,Penarik,Kabupaten,Muko Muko,Bengkulu
636,38768,Sido Mulyo (Sido Mulya),17.06.10.2013,Penarik,Kabupaten,Muko Muko,Bengkulu
637,38768,Suka Maju,17.06.10.2004,Penarik,Kabupaten,Muko Muko,Bengkulu
638,38768,Sumber Mulya,17.06.10.2006,Penarik,Kabupaten,Muko Muko,Bengkulu
639,38768,Wonosobo,17.06.10.2011,Penarik,Kabupaten,Muko Muko,Bengkulu
640,38370,Air Kotok,17.09.04.2015,Pematang Tiga,Kabupaten,Bengkulu Tengah,Bengkulu
641,38370,Aturan Mumpo,17.09.04.2002,Pematang Tiga,Kabupaten,Bengkulu Tengah,Bengkulu
642,38370,Aturan Mumpo II,17.09.04.2022,Pematang Tiga,Kabupaten,Bengkulu Tengah,Bengkulu
643,38370,Batu Bariang / Beriang,17.09.04.2016,Pematang Tiga,Kabupaten,Bengkulu Tengah,Bengkulu
644,38370,Genting Dabuk,17.09.04.2023,Pematang Tiga,Kabupaten,Bengkulu Tengah,Bengkulu
645,38370,Kebun Lebar,17.09.04.2019,Pematang Tiga,Kabupaten,Bengkulu Tengah,Bengkulu
646,38370,Kota Titik,17.09.04.2004,Pematang Tiga,Kabupaten,Bengkulu Tengah,Bengkulu
647,38370,Pematang Tiga,17.09.04.2017,Pematang Tiga,Kabupaten,Bengkulu Tengah,Bengkulu
648,38370,Pematang Tiga Lama,17.09.04.2021,Pematang Tiga,Kabupaten,Bengkulu Tengah,Bengkulu
649,38370,Senabah / Senaban,17.09.04.2007,Pematang Tiga,Kabupaten,Bengkulu Tengah,Bengkulu
650,38370,Talang Tengah II,17.09.04.2003,Pematang Tiga,Kabupaten,Bengkulu Tengah,Bengkulu
651,38370,Tanjung Kepayang / Kepahyang,17.09.04.2020,Pematang Tiga,Kabupaten,Bengkulu Tengah,Bengkulu
652,38370,Tiambang,17.09.04.2018,Pematang Tiga,Kabupaten,Bengkulu Tengah,Bengkulu
653,38518,Batu Kuning,17.01.11.2001,Pasar Manna,Kabupaten,Bengkulu Selatan,Bengkulu
654,38513,Batu Lambang,17.01.11.2002,Pasar Manna,Kabupaten,Bengkulu Selatan,Bengkulu
655,38514,Belakang Gedung,17.01.11.1005,Pasar Manna,Kabupaten,Bengkulu Selatan,Bengkulu
656,38517,Gunung Mesir,17.01.11.1006,Pasar Manna,Kabupaten,Bengkulu Selatan,Bengkulu
657,38516,Ketapang Besar,17.01.11.1008,Pasar Manna,Kabupaten,Bengkulu Selatan,Bengkulu
658,38517,Padang Sialang,17.01.11.1007,Pasar Manna,Kabupaten,Bengkulu Selatan,Bengkulu
659,38515,Pasar Bawah,17.01.11.1009,Pasar Manna,Kabupaten,Bengkulu Selatan,Bengkulu
660,38518,Pasar Mulia,17.01.11.1004,Pasar Manna,Kabupaten,Bengkulu Selatan,Bengkulu
661,38518,Tanjung Mulia,17.01.11.1003,Pasar Manna,Kabupaten,Bengkulu Selatan,Bengkulu
662,38381,Arga Indah I,17.09.05.2018,Pagar Jati,Kabupaten,Bengkulu Tengah,Bengkulu
663,38381,Datar Penokot / Penokat,17.09.05.2013,Pagar Jati,Kabupaten,Bengkulu Tengah,Bengkulu
664,38381,Karang Are,17.09.05.2012,Pagar Jati,Kabupaten,Bengkulu Tengah,Bengkulu
665,38381,Keroya,17.09.05.2022,Pagar Jati,Kabupaten,Bengkulu Tengah,Bengkulu
666,38381,Kerta Pati,17.09.05.2009,Pagar Jati,Kabupaten,Bengkulu Tengah,Bengkulu
667,38381,Kerta Pati Mudik,17.09.05.2023,Pagar Jati,Kabupaten,Bengkulu Tengah,Bengkulu
668,38381,Layang Lekat,17.09.05.2014,Pagar Jati,Kabupaten,Bengkulu Tengah,Bengkulu
669,38381,Pagar Jati,17.09.05.2010,Pagar Jati,Kabupaten,Bengkulu Tengah,Bengkulu
670,38381,Rena Jaya,17.09.05.2024,Pagar Jati,Kabupaten,Bengkulu Tengah,Bengkulu
671,38381,Rena Kandis,17.09.05.2017,Pagar Jati,Kabupaten,Bengkulu Tengah,Bengkulu
672,38381,Taba Renah / Rena,17.09.05.2008,Pagar Jati,Kabupaten,Bengkulu Tengah,Bengkulu
673,38381,Talang Curup,17.09.05.2016,Pagar Jati,Kabupaten,Bengkulu Tengah,Bengkulu
674,38381,Temiang,17.09.05.2006,Pagar Jati,Kabupaten,Bengkulu Tengah,Bengkulu
675,38381,Tumbuk,17.09.05.2015,Pagar Jati,Kabupaten,Bengkulu Tengah,Bengkulu
676,39180,Air Kati,17.02.07.2027,Padang Ulak Tanding,Kabupaten,Rejang Lebong,Bengkulu
677,39180,Belumai I,17.02.07.2009,Padang Ulak Tanding,Kabupaten,Rejang Lebong,Bengkulu
678,39180,Belumai II,17.02.07.2008,Padang Ulak Tanding,Kabupaten,Rejang Lebong,Bengkulu
679,39180,Bukit Batu,17.02.07.2028,Padang Ulak Tanding,Kabupaten,Rejang Lebong,Bengkulu
680,39180,Guru Agung,17.02.07.2007,Padang Ulak Tanding,Kabupaten,Rejang Lebong,Bengkulu
681,39180,Karang Baru,17.02.07.2001,Padang Ulak Tanding,Kabupaten,Rejang Lebong,Bengkulu
682,39180,Kasie Kasubun,17.02.07.2026,Padang Ulak Tanding,Kabupaten,Rejang Lebong,Bengkulu
683,39180,Muara Telita,17.02.07.2013,Padang Ulak Tanding,Kabupaten,Rejang Lebong,Bengkulu
684,39180,Pasar Padang Ulak Tanding,17.02.07.1011,Padang Ulak Tanding,Kabupaten,Rejang Lebong,Bengkulu
685,39180,Taba Tinggi,17.02.07.2021,Padang Ulak Tanding,Kabupaten,Rejang Lebong,Bengkulu
686,39180,Taktoi,17.02.07.2025,Padang Ulak Tanding,Kabupaten,Rejang Lebong,Bengkulu
687,39180,Tanjung Sanai I,17.02.07.2012,Padang Ulak Tanding,Kabupaten,Rejang Lebong,Bengkulu
688,39180,Tanjung Sanai II,17.02.07.2022,Padang Ulak Tanding,Kabupaten,Rejang Lebong,Bengkulu
689,39180,Ujan Panas,17.02.07.2014,Padang Ulak Tanding,Kabupaten,Rejang Lebong,Bengkulu
690,39180,Ulak Tanding,17.02.07.2010,Padang Ulak Tanding,Kabupaten,Rejang Lebong,Bengkulu
691,38657,Arga Mulya,17.03.09.2006,Padang Jaya,Kabupaten,Bengkulu Utara,Bengkulu
692,38657,Lubuk Banyau,17.03.09.2001,Padang Jaya,Kabupaten,Bengkulu Utara,Bengkulu
693,38657,Marga Jaya,17.03.09.2008,Padang Jaya,Kabupaten,Bengkulu Utara,Bengkulu
694,38657,Marga Sakti,17.03.09.2003,Padang Jaya,Kabupaten,Bengkulu Utara,Bengkulu
695,38657,Padang Jaya,17.03.09.2005,Padang Jaya,Kabupaten,Bengkulu Utara,Bengkulu
696,38657,Sido Luhur,17.03.09.2011,Padang Jaya,Kabupaten,Bengkulu Utara,Bengkulu
697,38657,Sido Mukti,17.03.09.2007,Padang Jaya,Kabupaten,Bengkulu Utara,Bengkulu
698,38657,Talang Tua/Tuo,17.03.09.2002,Padang Jaya,Kabupaten,Bengkulu Utara,Bengkulu
699,38657,Tambak Rejo,17.03.09.2010,Padang Jaya,Kabupaten,Bengkulu Utara,Bengkulu
700,38657,Tanah Hitam,17.03.09.2009,Padang Jaya,Kabupaten,Bengkulu Utara,Bengkulu
701,38657,Tanah Tinggi,17.03.09.2012,Padang Jaya,Kabupaten,Bengkulu Utara,Bengkulu
702,38657,Tanjung Harapan,17.03.09.2004,Padang Jaya,Kabupaten,Bengkulu Utara,Bengkulu
703,38959,Bungin Tambun (Bungin Tambun I),17.04.15.2002,Padang Guci Hulu,Kabupaten,Kaur,Bengkulu
704,38959,Bungin Tambun II,17.04.15.2003,Padang Guci Hulu,Kabupaten,Kaur,Bengkulu
705,38959,Bungin Tambun III,17.04.15.2004,Padang Guci Hulu,Kabupaten,Kaur,Bengkulu
706,38959,Coko Betung,17.04.15.2009,Padang Guci Hulu,Kabupaten,Kaur,Bengkulu
707,38959,Jati Mulyo,17.04.15.2011,Padang Guci Hulu,Kabupaten,Kaur,Bengkulu
708,38959,Manau IX (Manau Sembilan I),17.04.15.2005,Padang Guci Hulu,Kabupaten,Kaur,Bengkulu
709,38959,Manau IX Dua (Manau Sembilan II),17.04.15.2006,Padang Guci Hulu,Kabupaten,Kaur,Bengkulu
710,38959,Marga Mulyo,17.04.15.2010,Padang Guci Hulu,Kabupaten,Kaur,Bengkulu
711,38959,Naga Rantai,17.04.15.2001,Padang Guci Hulu,Kabupaten,Kaur,Bengkulu
712,38959,Pagar Alam,17.04.15.2007,Padang Guci Hulu,Kabupaten,Kaur,Bengkulu
713,38959,Pagar Gunung,17.04.15.2008,Padang Guci Hulu,Kabupaten,Kaur,Bengkulu
714,38958,Air Kering,17.04.14.2005,Padang Guci Hilir,Kabupaten,Kaur,Bengkulu
715,38958,Air Kering II,17.04.14.2009,Padang Guci Hilir,Kabupaten,Kaur,Bengkulu
716,38958,Gunung Kaya,17.04.14.2006,Padang Guci Hilir,Kabupaten,Kaur,Bengkulu
717,38958,Pulau Panggung,17.04.14.2001,Padang Guci Hilir,Kabupaten,Kaur,Bengkulu
718,38958,Talang Besar,17.04.14.2002,Padang Guci Hilir,Kabupaten,Kaur,Bengkulu
719,38958,Talang Jawi I,17.04.14.2003,Padang Guci Hilir,Kabupaten,Kaur,Bengkulu
720,38958,Talang Jawi II,17.04.14.2004,Padang Guci Hilir,Kabupaten,Kaur,Bengkulu
721,38958,Talang Padang,17.04.14.2008,Padang Guci Hilir,Kabupaten,Kaur,Bengkulu
722,38958,Ulak Agung,17.04.14.2007,Padang Guci Hilir,Kabupaten,Kaur,Bengkulu
723,38964,Air Batang,17.04.07.2017,Nasal,Kabupaten,Kaur,Bengkulu
724,38964,Air Palawan,17.04.07.2008,Nasal,Kabupaten,Kaur,Bengkulu
725,38964,Batu Lungun,17.04.07.2010,Nasal,Kabupaten,Kaur,Bengkulu
726,38964,Bukit Indah,17.04.07.2013,Nasal,Kabupaten,Kaur,Bengkulu
727,38964,Gedung Menung,17.04.07.2002,Nasal,Kabupaten,Kaur,Bengkulu
728,38964,Merpas,17.04.07.2005,Nasal,Kabupaten,Kaur,Bengkulu
729,38964,Muara Dua,17.04.07.2001,Nasal,Kabupaten,Kaur,Bengkulu
730,38964,Pasar Baru,17.04.07.2015,Nasal,Kabupaten,Kaur,Bengkulu
731,38964,Pasar Jum'at (Pasar Jumat),17.04.07.2019,Nasal,Kabupaten,Kaur,Bengkulu
732,38964,Sinar Banten,17.04.07.2018,Nasal,Kabupaten,Kaur,Bengkulu
733,38964,Suka Jaya,17.04.07.2014,Nasal,Kabupaten,Kaur,Bengkulu
734,38964,Suku Tiga,17.04.07.2012,Nasal,Kabupaten,Kaur,Bengkulu
735,38964,Sumber Harapan,17.04.07.2011,Nasal,Kabupaten,Kaur,Bengkulu
736,38964,Tanjung Betuah,17.04.07.2007,Nasal,Kabupaten,Kaur,Bengkulu
737,38964,Tebing Rambutan,17.04.07.2009,Nasal,Kabupaten,Kaur,Bengkulu
738,38964,Tri Jaya,17.04.07.2016,Nasal,Kabupaten,Kaur,Bengkulu
739,38964,Ulak Pandan,17.04.07.2003,Nasal,Kabupaten,Kaur,Bengkulu
740,38363,Air Tenang,17.03.13.2006,Napal Putih,Kabupaten,Bengkulu Utara,Bengkulu
741,38363,Gembung Raya,17.03.13.2019,Napal Putih,Kabupaten,Bengkulu Utara,Bengkulu
742,38363,Jabi (Dusun Jabi),17.03.13.2004,Napal Putih,Kabupaten,Bengkulu Utara,Bengkulu
743,38363,Kinal Jaya,17.03.13.2020,Napal Putih,Kabupaten,Bengkulu Utara,Bengkulu
744,38363,Lebong Tandai,17.03.13.2016,Napal Putih,Kabupaten,Bengkulu Utara,Bengkulu
745,38363,Muara Santan,17.03.13.2009,Napal Putih,Kabupaten,Bengkulu Utara,Bengkulu
746,38363,Napal Putih,17.03.13.2005,Napal Putih,Kabupaten,Bengkulu Utara,Bengkulu
747,38363,Tanjung Alai,17.03.13.2003,Napal Putih,Kabupaten,Bengkulu Utara,Bengkulu
748,38363,Tanjung Kemayan (Kemenyan),17.03.13.2008,Napal Putih,Kabupaten,Bengkulu Utara,Bengkulu
749,38363,Teluk Anggung,17.03.13.2007,Napal Putih,Kabupaten,Bengkulu Utara,Bengkulu
750,38966,Bukit Makmur,17.04.11.2007,Muara Sahung,Kabupaten,Kaur,Bengkulu
751,38966,Cinta Makmur,17.04.11.2006,Muara Sahung,Kabupaten,Kaur,Bengkulu
752,38966,Muara Sahung,17.04.11.2001,Muara Sahung,Kabupaten,Kaur,Bengkulu
753,38966,Sumber Makmur,17.04.11.2004,Muara Sahung,Kabupaten,Kaur,Bengkulu
754,38966,Tri Tunggal Bakti (Tri Tunggal Bhakti),17.04.11.2002,Muara Sahung,Kabupaten,Kaur,Bengkulu
755,38966,Ulak Bandung,17.04.11.2005,Muara Sahung,Kabupaten,Kaur,Bengkulu
756,38966,Ulak Lebar,17.04.11.2003,Muara Sahung,Kabupaten,Kaur,Bengkulu
757,39375,Batu Bandung,17.08.08.2003,Muara Kemumu,Kabupaten,Kepahiang,Bengkulu
758,39375,Batu Kalung,17.08.08.2002,Muara Kemumu,Kabupaten,Kepahiang,Bengkulu
759,39375,Limbur Baru,17.08.08.2001,Muara Kemumu,Kabupaten,Kepahiang,Bengkulu
760,39375,Renah Kurung,17.08.08.2007,Muara Kemumu,Kabupaten,Kepahiang,Bengkulu
761,39375,Sosokan Baru,17.08.08.2004,Muara Kemumu,Kabupaten,Kepahiang,Bengkulu
762,39375,Sosokan Taba (Sosokan Tabah),17.08.08.2005,Muara Kemumu,Kabupaten,Kepahiang,Bengkulu
763,39375,Talang Tige,17.08.08.2006,Muara Kemumu,Kabupaten,Kepahiang,Bengkulu
764,39375,Warung Pojok,17.08.08.2008,Muara Kemumu,Kabupaten,Kepahiang,Bengkulu
765,38126,Bentiring,17.71.04.1002,Muara Bangka Hulu,Kota,Bengkulu,Bengkulu
766,38121,Bentiring Permai,17.71.04.1006,Muara Bangka Hulu,Kota,Bengkulu,Bengkulu
767,38121,Beringin Raya,17.71.04.1005,Muara Bangka Hulu,Kota,Bengkulu,Bengkulu
768,38122,Kandang Limun,17.71.04.1001,Muara Bangka Hulu,Kota,Bengkulu,Bengkulu
769,38125,Pematang Gubernur,17.71.04.1003,Muara Bangka Hulu,Kota,Bengkulu,Bengkulu
770,38121,Rawa Makmur,17.71.04.1004,Muara Bangka Hulu,Kota,Bengkulu,Bengkulu
771,38121,Rawa Makmur Permai,17.71.04.1007,Muara Bangka Hulu,Kota,Bengkulu,Bengkulu
772,38383,Arga Indah II,17.09.08.2006,Merigi Sakti,Kabupaten,Bengkulu Tengah,Bengkulu
773,38383,Bajak Tiga (Bajak III),17.09.08.2002,Merigi Sakti,Kabupaten,Bengkulu Tengah,Bengkulu
774,38383,Curup,17.09.08.2007,Merigi Sakti,Kabupaten,Bengkulu Tengah,Bengkulu
775,38383,Durian Lebar,17.09.08.2011,Merigi Sakti,Kabupaten,Bengkulu Tengah,Bengkulu
776,38383,Karang Panggung,17.09.08.2008,Merigi Sakti,Kabupaten,Bengkulu Tengah,Bengkulu
777,38383,Komering,17.09.08.2001,Merigi Sakti,Kabupaten,Bengkulu Tengah,Bengkulu
778,38383,Lubuk Pendam,17.09.08.2009,Merigi Sakti,Kabupaten,Bengkulu Tengah,Bengkulu
779,38383,Lubuk Puar,17.09.08.2010,Merigi Sakti,Kabupaten,Bengkulu Tengah,Bengkulu
780,38383,Pagar Agung,17.09.08.2012,Merigi Sakti,Kabupaten,Bengkulu Tengah,Bengkulu
781,38383,Pagar Besi,17.09.08.2015,Merigi Sakti,Kabupaten,Bengkulu Tengah,Bengkulu
782,38383,Pungguk Jaya,17.09.08.2013,Merigi Sakti,Kabupaten,Bengkulu Tengah,Bengkulu
783,38383,Punjung,17.09.08.2004,Merigi Sakti,Kabupaten,Bengkulu Tengah,Bengkulu
784,38383,Rajab Besi / Rajak Besi,17.09.08.2003,Merigi Sakti,Kabupaten,Bengkulu Tengah,Bengkulu
785,38383,Susup,17.09.08.2005,Merigi Sakti,Kabupaten,Bengkulu Tengah,Bengkulu
786,38383,Taba Gemantung (Taba Gematung),17.09.08.2014,Merigi Sakti,Kabupaten,Bengkulu Tengah,Bengkulu
787,38386,Bajak II (Bajak I),17.09.07.2010,Merigi Kelindang,Kabupaten,Bengkulu Tengah,Bengkulu
788,38386,Jambu,17.09.07.2001,Merigi Kelindang,Kabupaten,Bengkulu Tengah,Bengkulu
789,38386,Kelindang,17.09.07.2009,Merigi Kelindang,Kabupaten,Bengkulu Tengah,Bengkulu
790,38386,Kelindang Atas,17.09.07.2013,Merigi Kelindang,Kabupaten,Bengkulu Tengah,Bengkulu
791,38386,Lubuk Unen,17.09.07.2005,Merigi Kelindang,Kabupaten,Bengkulu Tengah,Bengkulu
792,38386,Lubuk Unen Baru,17.09.07.2011,Merigi Kelindang,Kabupaten,Bengkulu Tengah,Bengkulu
793,38386,Padang Kedeper,17.09.07.2012,Merigi Kelindang,Kabupaten,Bengkulu Tengah,Bengkulu
794,38386,Penembang,17.09.07.2002,Merigi Kelindang,Kabupaten,Bengkulu Tengah,Bengkulu
795,38386,Pungguk Beringin,17.09.07.2007,Merigi Kelindang,Kabupaten,Bengkulu Tengah,Bengkulu
796,38386,Pungguk Ketupak (Pungguk Ketupat),17.09.07.2006,Merigi Kelindang,Kabupaten,Bengkulu Tengah,Bengkulu
797,38386,Taba Durian Sebakul,17.09.07.2004,Merigi Kelindang,Kabupaten,Bengkulu Tengah,Bengkulu
798,38386,Talang Ambung / Lambung,17.09.07.2003,Merigi Kelindang,Kabupaten,Bengkulu Tengah,Bengkulu
799,38386,Ulak Lebar,17.09.07.2008,Merigi Kelindang,Kabupaten,Bengkulu Tengah,Bengkulu
800,39371,Batu Ampar,17.08.05.2007,Merigi,Kabupaten,Kepahiang,Bengkulu
801,39371,Bukit Barisan,17.08.05.2006,Merigi,Kabupaten,Kepahiang,Bengkulu
802,39371,Durian Depun,17.08.05.1002,Merigi,Kabupaten,Kepahiang,Bengkulu
803,39371,Lubuk Penyamun,17.08.05.2004,Merigi,Kabupaten,Kepahiang,Bengkulu
804,39371,Pulo Geto (Pulogeto),17.08.05.2001,Merigi,Kabupaten,Kepahiang,Bengkulu
805,39371,Pulo Geto Baru,17.08.05.2008,Merigi,Kabupaten,Kepahiang,Bengkulu
806,39371,Simpang Kota Bingin,17.08.05.2005,Merigi,Kabupaten,Kepahiang,Bengkulu
807,39371,Taba Mulan,17.08.05.2003,Merigi,Kabupaten,Kepahiang,Bengkulu
808,38325,Air Putih,17.03.25.2001,Marga Sakti Sebelat (Marga Sakti),Kabupaten,Bengkulu Utara,Bengkulu
809,38325,Karya Bakti,17.03.25.2008,Marga Sakti Sebelat (Marga Sakti),Kabupaten,Bengkulu Utara,Bengkulu
810,38325,Karya Jaya,17.03.25.2009,Marga Sakti Sebelat (Marga Sakti),Kabupaten,Bengkulu Utara,Bengkulu
811,38325,Karya Pelita,17.03.25.2003,Marga Sakti Sebelat (Marga Sakti),Kabupaten,Bengkulu Utara,Bengkulu
812,38325,Suka Baru,17.03.25.2005,Marga Sakti Sebelat (Marga Sakti),Kabupaten,Bengkulu Utara,Bengkulu
813,38325,Suka Maju,17.03.25.2004,Marga Sakti Sebelat (Marga Sakti),Kabupaten,Bengkulu Utara,Bengkulu
814,38325,Suka Makmur,17.03.25.2002,Marga Sakti Sebelat (Marga Sakti),Kabupaten,Bengkulu Utara,Bengkulu
815,38325,Suka Medan,17.03.25.2007,Marga Sakti Sebelat (Marga Sakti),Kabupaten,Bengkulu Utara,Bengkulu
816,38325,Suka Merindu,17.03.25.2006,Marga Sakti Sebelat (Marga Sakti),Kabupaten,Bengkulu Utara,Bengkulu
817,38325,Suka Negara,17.03.25.2010,Marga Sakti Sebelat (Marga Sakti),Kabupaten,Bengkulu Utara,Bengkulu
818,38511,Gunung Kembang,17.01.04.2033,Manna,Kabupaten,Bengkulu Selatan,Bengkulu
819,38511,Gunung Sakti,17.01.04.2025,Manna,Kabupaten,Bengkulu Selatan,Bengkulu
820,38511,Jeranglah Rendah,17.01.04.2026,Manna,Kabupaten,Bengkulu Selatan,Bengkulu
821,38511,Jeranglah Tinggi,17.01.04.2027,Manna,Kabupaten,Bengkulu Selatan,Bengkulu
822,38511,Kayu Kunyit,17.01.04.1022,Manna,Kabupaten,Bengkulu Selatan,Bengkulu
823,38511,Kembang Ayun,17.01.04.2028,Manna,Kabupaten,Bengkulu Selatan,Bengkulu
824,38511,Ketaping,17.01.04.2019,Manna,Kabupaten,Bengkulu Selatan,Bengkulu
825,38511,Kota Padang,17.01.04.2023,Manna,Kabupaten,Bengkulu Selatan,Bengkulu
826,38511,Lubuk Sirih Ilir,17.01.04.2021,Manna,Kabupaten,Bengkulu Selatan,Bengkulu
827,38511,Lubuk Sirih Ulu,17.01.04.2020,Manna,Kabupaten,Bengkulu Selatan,Bengkulu
828,38511,Manggul,17.01.04.2017,Manna,Kabupaten,Bengkulu Selatan,Bengkulu
829,38511,Mela'o (Melao),17.01.04.2024,Manna,Kabupaten,Bengkulu Selatan,Bengkulu
830,38511,Padang Manis,17.01.04.2031,Manna,Kabupaten,Bengkulu Selatan,Bengkulu
831,38511,Padang Pandan,17.01.04.2032,Manna,Kabupaten,Bengkulu Selatan,Bengkulu
832,38511,Tambangan,17.01.04.2029,Manna,Kabupaten,Bengkulu Selatan,Bengkulu
833,38511,Tanjung Besar,17.01.04.2016,Manna,Kabupaten,Bengkulu Selatan,Bengkulu
834,38511,Tanjung Raman,17.01.04.2001,Manna,Kabupaten,Bengkulu Selatan,Bengkulu
835,38511,Terulung,17.01.04.2018,Manna,Kabupaten,Bengkulu Selatan,Bengkulu
836,38762,Air Merah,17.06.06.2007,Malin Deman,Kabupaten,Muko Muko,Bengkulu
837,38762,Gajah Makmur,17.06.06.2004,Malin Deman,Kabupaten,Muko Muko,Bengkulu
838,38762,Lubuk Talang,17.06.06.2003,Malin Deman,Kabupaten,Muko Muko,Bengkulu
839,38762,Semambang Makmur (Semambung),17.06.06.2005,Malin Deman,Kabupaten,Muko Muko,Bengkulu
840,38762,Serami Baru,17.06.06.2002,Malin Deman,Kabupaten,Muko Muko,Bengkulu
841,38762,Talang Arah,17.06.06.2001,Malin Deman,Kabupaten,Muko Muko,Bengkulu
842,38762,Talang Baru,17.06.06.2006,Malin Deman,Kabupaten,Muko Muko,Bengkulu
843,38965,Air Jelatang,17.04.06.2017,Maje,Kabupaten,Kaur,Bengkulu
844,38965,Air Long,17.04.06.2002,Maje,Kabupaten,Kaur,Bengkulu
845,38965,Arga Mulya,17.04.06.2016,Maje,Kabupaten,Kaur,Bengkulu
846,38965,Bakal Makmur,17.04.06.2013,Maje,Kabupaten,Kaur,Bengkulu
847,38965,Benteng Harapan,17.04.06.2012,Maje,Kabupaten,Kaur,Bengkulu
848,38965,Kedataran,17.04.06.2007,Maje,Kabupaten,Kaur,Bengkulu
849,38965,Linau,17.04.06.2003,Maje,Kabupaten,Kaur,Bengkulu
850,38965,Muara Jaya,17.04.06.2014,Maje,Kabupaten,Kaur,Bengkulu
851,38965,Parda Suka,17.04.06.2001,Maje,Kabupaten,Kaur,Bengkulu
852,38965,Penyandingan,17.04.06.2009,Maje,Kabupaten,Kaur,Bengkulu
853,38965,Sinar Mulya,17.04.06.2021,Maje,Kabupaten,Kaur,Bengkulu
854,38965,Suka Menanti,17.04.06.2010,Maje,Kabupaten,Kaur,Bengkulu
855,38965,Sumber Harapan,17.04.06.2019,Maje,Kabupaten,Kaur,Bengkulu
856,38965,Tanjung Agung,17.04.06.2015,Maje,Kabupaten,Kaur,Bengkulu
857,38965,Tanjung Aur,17.04.06.2008,Maje,Kabupaten,Kaur,Bengkulu
858,38965,Tanjung Baru,17.04.06.2005,Maje,Kabupaten,Kaur,Bengkulu
859,38965,Tanjung Beringin,17.04.06.2020,Maje,Kabupaten,Kaur,Bengkulu
860,38965,Tanjung Ganti,17.04.06.2006,Maje,Kabupaten,Kaur,Bengkulu
861,38965,Way Hawang,17.04.06.2004,Maje,Kabupaten,Kaur,Bengkulu
862,38957,Aur Gading,17.04.13.2009,Lungkang Kule,Kabupaten,Kaur,Bengkulu
863,38957,Datar Lebar,17.04.13.2001,Lungkang Kule,Kabupaten,Kaur,Bengkulu
864,38957,Datar Lebar II,17.04.13.2008,Lungkang Kule,Kabupaten,Kaur,Bengkulu
865,38957,Lawang Agung,17.04.13.2005,Lungkang Kule,Kabupaten,Kaur,Bengkulu
866,38957,Senak (Senak Perda),17.04.13.2007,Lungkang Kule,Kabupaten,Kaur,Bengkulu
867,38957,Sinar Bulan,17.04.13.2003,Lungkang Kule,Kabupaten,Kaur,Bengkulu
868,38957,Sukananti (Suka Nanti),17.04.13.2004,Lungkang Kule,Kabupaten,Kaur,Bengkulu
869,38957,Tanjung Bunian,17.04.13.2002,Lungkang Kule,Kabupaten,Kaur,Bengkulu
870,38957,Tanjung Kurung,17.04.13.2006,Lungkang Kule,Kabupaten,Kaur,Bengkulu
871,38882,Arang Sapat,17.05.07.2007,Lubuk Sandi,Kabupaten,Seluma,Bengkulu
872,38882,Cawang,17.05.07.2006,Lubuk Sandi,Kabupaten,Seluma,Bengkulu
873,38882,Dusun Tengah,17.05.07.2008,Lubuk Sandi,Kabupaten,Seluma,Bengkulu
874,38882,Gunung Agung,17.05.07.2005,Lubuk Sandi,Kabupaten,Seluma,Bengkulu
875,38882,Lubuk Terentang,17.05.07.2014,Lubuk Sandi,Kabupaten,Seluma,Bengkulu
876,38882,Napal Jungur,17.05.07.2010,Lubuk Sandi,Kabupaten,Seluma,Bengkulu
877,38882,Padang Capo Ilir,17.05.07.2002,Lubuk Sandi,Kabupaten,Seluma,Bengkulu
878,38882,Padang Capo Ulu,17.05.07.2003,Lubuk Sandi,Kabupaten,Seluma,Bengkulu
879,38882,Renah/Rena Panjang,17.05.07.2012,Lubuk Sandi,Kabupaten,Seluma,Bengkulu
880,38882,Sakaian,17.05.07.2013,Lubuk Sandi,Kabupaten,Seluma,Bengkulu
881,38882,Talang Giring,17.05.07.2001,Lubuk Sandi,Kabupaten,Seluma,Bengkulu
882,38882,Talang Kebun,17.05.07.2004,Lubuk Sandi,Kabupaten,Seluma,Bengkulu
883,38882,Tanjung Kuaw,17.05.07.2009,Lubuk Sandi,Kabupaten,Seluma,Bengkulu
884,38882,Tumbu'an (Tumbuan),17.05.07.2011,Lubuk Sandi,Kabupaten,Seluma,Bengkulu
885,38756,Arah Tiga,17.06.01.2007,Lubuk Pinang,Kabupaten,Muko Muko,Bengkulu
886,38756,Lubuk Gedang,17.06.01.2008,Lubuk Pinang,Kabupaten,Muko Muko,Bengkulu
887,38756,Lubuk Pinang,17.06.01.2006,Lubuk Pinang,Kabupaten,Muko Muko,Bengkulu
888,38756,Ranah Karya,17.06.01.2018,Lubuk Pinang,Kabupaten,Muko Muko,Bengkulu
889,38756,Suka Pindah,17.06.01.2005,Lubuk Pinang,Kabupaten,Muko Muko,Bengkulu
890,38756,Sumber Makmur,17.06.01.2013,Lubuk Pinang,Kabupaten,Muko Muko,Bengkulu
891,38756,Tanjung Alai,17.06.01.2009,Lubuk Pinang,Kabupaten,Muko Muko,Bengkulu
892,38960,Bangun Jiwa,17.04.10.2001,Luas,Kabupaten,Kaur,Bengkulu
893,38960,Benua Ratu,17.04.10.2008,Luas,Kabupaten,Kaur,Bengkulu
894,38960,Cahaya Negeri/Negri,17.04.10.2002,Luas,Kabupaten,Kaur,Bengkulu
895,38960,Durian Besar,17.04.10.2005,Luas,Kabupaten,Kaur,Bengkulu
896,38960,Ganda Suli (Gindo Suli),17.04.10.2004,Luas,Kabupaten,Kaur,Bengkulu
897,38960,Kepahyang,17.04.10.2010,Luas,Kabupaten,Kaur,Bengkulu
898,38960,Padang Jati,17.04.10.2003,Luas,Kabupaten,Kaur,Bengkulu
899,38960,Pulau Panggung (Pulang Panggung),17.04.10.2011,Luas,Kabupaten,Kaur,Bengkulu
900,38960,Serdang Indah,17.04.10.2012,Luas,Kabupaten,Kaur,Bengkulu
901,38960,Tanjung Beringin,17.04.10.2006,Luas,Kabupaten,Kaur,Bengkulu
902,38960,Tuguk (Puguk),17.04.10.2009,Luas,Kabupaten,Kaur,Bengkulu
903,38960,Umbul,17.04.10.2007,Luas,Kabupaten,Kaur,Bengkulu
904,39259,Gandung,17.07.01.2002,Lebong Utara,Kabupaten,Lebong,Bengkulu
905,39259,Gandung Baru,17.07.01.2033,Lebong Utara,Kabupaten,Lebong,Bengkulu
906,39259,Kampung Dalam,17.07.01.2023,Lebong Utara,Kabupaten,Lebong,Bengkulu
907,39259,Kampung Jawa,17.07.01.1004,Lebong Utara,Kabupaten,Lebong,Bengkulu
908,39259,Kampung Muara Aman,17.07.01.2024,Lebong Utara,Kabupaten,Lebong,Bengkulu
909,39259,Ladang Palembang,17.07.01.2022,Lebong Utara,Kabupaten,Lebong,Bengkulu
910,39259,Lebong Tambang,17.07.01.2016,Lebong Utara,Kabupaten,Lebong,Bengkulu
911,39259,Lokasari,17.07.01.2028,Lebong Utara,Kabupaten,Lebong,Bengkulu
912,39259,Nangai Amen,17.07.01.2014,Lebong Utara,Kabupaten,Lebong,Bengkulu
913,39259,Pasar Muara Aman,17.07.01.1006,Lebong Utara,Kabupaten,Lebong,Bengkulu
914,39259,Talang Ulu,17.07.01.2007,Lebong Utara,Kabupaten,Lebong,Bengkulu
915,39259,Tunggang,17.07.01.2005,Lebong Utara,Kabupaten,Lebong,Bengkulu
916,39263,Danau Liang,17.07.03.2016,Lebong Tengah,Kabupaten,Lebong,Bengkulu
917,39263,Embong Panjang,17.07.03.1005,Lebong Tengah,Kabupaten,Lebong,Bengkulu
918,39263,Karang Anyar,17.07.03.2009,Lebong Tengah,Kabupaten,Lebong,Bengkulu
919,39263,Pagar Agung,17.07.03.2008,Lebong Tengah,Kabupaten,Lebong,Bengkulu
920,39263,Semelako Atas,17.07.03.2015,Lebong Tengah,Kabupaten,Lebong,Bengkulu
921,39263,Semelako I,17.07.03.2007,Lebong Tengah,Kabupaten,Lebong,Bengkulu
922,39263,Semelako II,17.07.03.2013,Lebong Tengah,Kabupaten,Lebong,Bengkulu
923,39263,Semelako III,17.07.03.2014,Lebong Tengah,Kabupaten,Lebong,Bengkulu
924,39263,Suka Damai,17.07.03.2020,Lebong Tengah,Kabupaten,Lebong,Bengkulu
925,39263,Tanjung Bungai I,17.07.03.2006,Lebong Tengah,Kabupaten,Lebong,Bengkulu
926,39263,Tanjung Bungai II,17.07.03.2023,Lebong Tengah,Kabupaten,Lebong,Bengkulu
927,39258,Kutai Donok,17.07.04.2001,Lebong Selatan,Kabupaten,Lebong,Bengkulu
928,39258,Manai Blau,17.07.04.2019,Lebong Selatan,Kabupaten,Lebong,Bengkulu
929,39258,Mangkurajo,17.07.04.2016,Lebong Selatan,Kabupaten,Lebong,Bengkulu
930,39258,Mubai,17.07.04.1004,Lebong Selatan,Kabupaten,Lebong,Bengkulu
931,39258,Suka Sari,17.07.04.2014,Lebong Selatan,Kabupaten,Lebong,Bengkulu
932,39258,Taba Anyar,17.07.04.1003,Lebong Selatan,Kabupaten,Lebong,Bengkulu
933,39258,Tes,17.07.04.1002,Lebong Selatan,Kabupaten,Lebong,Bengkulu
934,39258,Tik Jeniak,17.07.04.2018,Lebong Selatan,Kabupaten,Lebong,Bengkulu
935,39258,Turan Lalang,17.07.04.1005,Lebong Selatan,Kabupaten,Lebong,Bengkulu
936,39258,Turan Tiging,17.07.04.2013,Lebong Selatan,Kabupaten,Lebong,Bengkulu
937,39267,Lemeu Pit,17.07.08.2006,Lebong Sakti,Kabupaten,Lebong,Bengkulu
938,39267,Magelang Baru,17.07.08.2005,Lebong Sakti,Kabupaten,Lebong,Bengkulu
939,39267,Muning Agung,17.07.08.2002,Lebong Sakti,Kabupaten,Lebong,Bengkulu
940,39267,Suka Bumi,17.07.08.2009,Lebong Sakti,Kabupaten,Lebong,Bengkulu
941,39267,Tabeak Dipoa,17.07.08.2008,Lebong Sakti,Kabupaten,Lebong,Bengkulu
942,39267,Tabeak Kauk,17.07.08.2007,Lebong Sakti,Kabupaten,Lebong,Bengkulu
943,39267,Ujung Tanjung I (satu),17.07.08.2001,Lebong Sakti,Kabupaten,Lebong,Bengkulu
944,39267,Ujung Tanjung II (dua),17.07.08.2003,Lebong Sakti,Kabupaten,Lebong,Bengkulu
945,39267,Ujung Tanjung III (tiga),17.07.08.2004,Lebong Sakti,Kabupaten,Lebong,Bengkulu
946,39265,Blau,17.07.02.2012,Lebong Atas,Kabupaten,Lebong,Bengkulu
947,39265,Daneo / Daneu / Danau,17.07.02.2008,Lebong Atas,Kabupaten,Lebong,Bengkulu
948,39265,Sukau Kayo (Suka Kayo),17.07.02.2001,Lebong Atas,Kabupaten,Lebong,Bengkulu
949,39265,Tabeak Blau,17.07.02.2005,Lebong Atas,Kabupaten,Lebong,Bengkulu
950,39265,Tabeak Blau I,17.07.02.2006,Lebong Atas,Kabupaten,Lebong,Bengkulu
951,39265,Tik Tebing (Atas Tebing),17.07.02.2004,Lebong Atas,Kabupaten,Lebong,Bengkulu
952,38654,Air Padang,17.03.10.2009,Lais,Kabupaten,Bengkulu Utara,Bengkulu
953,38654,Datar Lebar,17.03.10.2008,Lais,Kabupaten,Bengkulu Utara,Bengkulu
954,38654,Durian Daun,17.03.10.2011,Lais,Kabupaten,Bengkulu Utara,Bengkulu
955,38654,Dusun Rajo/Raja,17.03.10.2012,Lais,Kabupaten,Bengkulu Utara,Bengkulu
956,38654,Jagobayo (Jago Bayo),17.03.10.2015,Lais,Kabupaten,Bengkulu Utara,Bengkulu
957,38654,Kalbang,17.03.10.2021,Lais,Kabupaten,Bengkulu Utara,Bengkulu
958,38654,Lubuk Gedang,17.03.10.2018,Lais,Kabupaten,Bengkulu Utara,Bengkulu
959,38654,Lubuk Lesung,17.03.10.2013,Lais,Kabupaten,Bengkulu Utara,Bengkulu
960,38654,Pal 30 (Pal Tiga Puluh),17.03.10.2014,Lais,Kabupaten,Bengkulu Utara,Bengkulu
961,38654,Pasar Lais,17.03.10.1010,Lais,Kabupaten,Bengkulu Utara,Bengkulu
962,38654,Suka Langu,17.03.10.2019,Lais,Kabupaten,Bengkulu Utara,Bengkulu
963,38654,Taba Baru,17.03.10.2020,Lais,Kabupaten,Bengkulu Utara,Bengkulu
964,38654,Talang Rasau,17.03.10.2017,Lais,Kabupaten,Bengkulu Utara,Bengkulu
965,39183,Bedeng SS,17.02.06.1015,Kota Padang,Kabupaten,Rejang Lebong,Bengkulu
966,39183,Derati,17.02.06.2001,Kota Padang,Kabupaten,Rejang Lebong,Bengkulu
967,39183,Durian Mas,17.02.06.2006,Kota Padang,Kabupaten,Rejang Lebong,Bengkulu
968,39183,Dusun Baru,17.02.06.1016,Kota Padang,Kabupaten,Rejang Lebong,Bengkulu
969,39183,Kota Padang,17.02.06.1004,Kota Padang,Kabupaten,Rejang Lebong,Bengkulu
970,39183,Kota Padang Baru,17.02.06.2018,Kota Padang,Kabupaten,Rejang Lebong,Bengkulu
971,39183,Lubuk Mumpo,17.02.06.2005,Kota Padang,Kabupaten,Rejang Lebong,Bengkulu
972,39183,Suka Rami,17.02.06.2003,Kota Padang,Kabupaten,Rejang Lebong,Bengkulu
973,39183,Taba Anyar,17.02.06.2002,Kota Padang,Kabupaten,Rejang Lebong,Bengkulu
974,39183,Tanjung Gelang,17.02.06.2020,Kota Padang,Kabupaten,Rejang Lebong,Bengkulu
975,38712,Bandar Ratu,17.06.02.1018,Kota Mukomuko (Mukomuko Utara),Kabupaten,Muko Muko,Bengkulu
976,38715,Koto Jaya,17.06.02.1017,Kota Mukomuko (Mukomuko Utara),Kabupaten,Muko Muko,Bengkulu
977,38711,Pasar Mukomuko,17.06.02.1009,Kota Mukomuko (Mukomuko Utara),Kabupaten,Muko Muko,Bengkulu
978,38716,Pasar Sebelah,17.06.02.2007,Kota Mukomuko (Mukomuko Utara),Kabupaten,Muko Muko,Bengkulu
979,38713,Pondok Batu,17.06.02.2010,Kota Mukomuko (Mukomuko Utara),Kabupaten,Muko Muko,Bengkulu
980,38717,Selagan Jaya,17.06.02.2012,Kota Mukomuko (Mukomuko Utara),Kabupaten,Muko Muko,Bengkulu
981,38718,Tanah Harapan,17.06.02.2019,Kota Mukomuko (Mukomuko Utara),Kabupaten,Muko Muko,Bengkulu
982,38719,Tanah Rekah,17.06.02.2011,Kota Mukomuko (Mukomuko Utara),Kabupaten,Muko Muko,Bengkulu
983,38714,Ujung Padang,17.06.02.2008,Kota Mukomuko (Mukomuko Utara),Kabupaten,Muko Muko,Bengkulu
984,38511,Gelombang (Gelumbang),17.01.05.2006,Kota Manna,Kabupaten,Bengkulu Selatan,Bengkulu
985,38513,Gunung Ayu (Gunung Ayu I),17.01.05.1009,Kota Manna,Kabupaten,Bengkulu Selatan,Bengkulu
986,38513,Ibul,17.01.05.1019,Kota Manna,Kabupaten,Bengkulu Selatan,Bengkulu
987,38511,Kampung Baru,17.01.05.1016,Kota Manna,Kabupaten,Bengkulu Selatan,Bengkulu
988,38513,Kota Medan,17.01.05.1010,Kota Manna,Kabupaten,Bengkulu Selatan,Bengkulu
989,38511,Padang Berangin,17.01.05.2018,Kota Manna,Kabupaten,Bengkulu Selatan,Bengkulu
990,38511,Padang Kapuk,17.01.05.1020,Kota Manna,Kabupaten,Bengkulu Selatan,Bengkulu
991,38511,Padang Niur,17.01.05.2004,Kota Manna,Kabupaten,Bengkulu Selatan,Bengkulu
992,38513,Pagar Dewa,17.01.05.2001,Kota Manna,Kabupaten,Bengkulu Selatan,Bengkulu
993,38512,Pasar Baru,17.01.05.1017,Kota Manna,Kabupaten,Bengkulu Selatan,Bengkulu
994,38511,Tebat Kubu,17.01.05.2005,Kota Manna,Kabupaten,Bengkulu Selatan,Bengkulu
995,38617,Datar Ruyung,17.03.07.2010,Kota Arga Makmur,Kabupaten,Bengkulu Utara,Bengkulu
996,38611,Gunung Agung,17.03.07.2012,Kota Arga Makmur,Kabupaten,Bengkulu Utara,Bengkulu
997,38611,Gunung Alam,17.03.07.1027,Kota Arga Makmur,Kabupaten,Bengkulu Utara,Bengkulu
998,38611,Gunung Selam / Selan,17.03.07.2009,Kota Arga Makmur,Kabupaten,Bengkulu Utara,Bengkulu
999,38611,Karang Anyar I (Karang Anyar),17.03.07.2015,Kota Arga Makmur,Kabupaten,Bengkulu Utara,Bengkulu
1000,38611,Karang Anyar II (Karang Anyar Ilir),17.03.07.2022,Kota Arga Makmur,Kabupaten,Bengkulu Utara,Bengkulu
1001,38619,Karang Suci,17.03.07.2004,Kota Arga Makmur,Kabupaten,Bengkulu Utara,Bengkulu
1002,38611,Kuro Tidur,17.03.07.2003,Kota Arga Makmur,Kabupaten,Bengkulu Utara,Bengkulu
1003,38618,Lubuk Saung/Sahung,17.03.07.2002,Kota Arga Makmur,Kabupaten,Bengkulu Utara,Bengkulu
1004,38612,Purwodadi,17.03.07.1026,Kota Arga Makmur,Kabupaten,Bengkulu Utara,Bengkulu
1005,38614,Rama Agung,17.03.07.2005,Kota Arga Makmur,Kabupaten,Bengkulu Utara,Bengkulu
1006,38611,Senali,17.03.07.2011,Kota Arga Makmur,Kabupaten,Bengkulu Utara,Bengkulu
1007,38611,Sido Urip,17.03.07.2014,Kota Arga Makmur,Kabupaten,Bengkulu Utara,Bengkulu
1008,38611,Taba Tembilang,17.03.07.2016,Kota Arga Makmur,Kabupaten,Bengkulu Utara,Bengkulu
1009,38611,Talang Denau,17.03.07.2008,Kota Arga Makmur,Kabupaten,Bengkulu Utara,Bengkulu
1010,38617,Tanjung Raman,17.03.07.2001,Kota Arga Makmur,Kabupaten,Bengkulu Utara,Bengkulu
1011,38962,Gedung Wani,17.04.01.2001,Kinal,Kabupaten,Kaur,Bengkulu
1012,38962,Geramat,17.04.01.2003,Kinal,Kabupaten,Kaur,Bengkulu
1013,38962,Gunung Megang,17.04.01.2010,Kinal,Kabupaten,Kaur,Bengkulu
1014,38962,Gunung Terang,17.04.01.2008,Kinal,Kabupaten,Kaur,Bengkulu
1015,38962,Jawi,17.04.01.2021,Kinal,Kabupaten,Kaur,Bengkulu
1016,38962,Papahan,17.04.01.2022,Kinal,Kabupaten,Kaur,Bengkulu
1017,38962,Penandingan,17.04.01.2002,Kinal,Kabupaten,Kaur,Bengkulu
1018,38962,Pengurung,17.04.01.2006,Kinal,Kabupaten,Kaur,Bengkulu
1019,38962,Pinang Jawa,17.04.01.2007,Kinal,Kabupaten,Kaur,Bengkulu
1020,38962,Pinang Jawa II,17.04.01.2023,Kinal,Kabupaten,Kaur,Bengkulu
1021,38962,Talang Berangin (Talang Beringin),17.04.01.2020,Kinal,Kabupaten,Kaur,Bengkulu
1022,38962,Talang Padang,17.04.01.2009,Kinal,Kabupaten,Kaur,Bengkulu
1023,38962,Tanjung Alam,17.04.01.2004,Kinal,Kabupaten,Kaur,Bengkulu
1024,38962,Tanjung Baru,17.04.01.2005,Kinal,Kabupaten,Kaur,Bengkulu
1025,38361,Bukit Indah,17.03.12.2020,Ketahun,Kabupaten,Bengkulu Utara,Bengkulu
1026,38361,Bukit Tinggi,17.03.12.2021,Ketahun,Kabupaten,Bengkulu Utara,Bengkulu
1027,38361,Dusun Raja,17.03.12.2005,Ketahun,Kabupaten,Bengkulu Utara,Bengkulu
1028,38361,Fajar Baru,17.03.12.2013,Ketahun,Kabupaten,Bengkulu Utara,Bengkulu
1029,38361,Giri Kencana,17.03.12.2003,Ketahun,Kabupaten,Bengkulu Utara,Bengkulu
1030,38361,Kualalangi (Kuala Langi/Lelangi),17.03.12.2004,Ketahun,Kabupaten,Bengkulu Utara,Bengkulu
1031,38361,Lubuk Mindai,17.03.12.2012,Ketahun,Kabupaten,Bengkulu Utara,Bengkulu
1032,38361,Melati Harjo,17.03.12.2019,Ketahun,Kabupaten,Bengkulu Utara,Bengkulu
1033,38361,Pasar Ketahun,17.03.12.2002,Ketahun,Kabupaten,Bengkulu Utara,Bengkulu
1034,38361,Talang Baru,17.03.12.2014,Ketahun,Kabupaten,Bengkulu Utara,Bengkulu
1035,38361,Urai,17.03.12.2001,Ketahun,Kabupaten,Bengkulu Utara,Bengkulu
1036,38379,Aur Gading,17.03.06.2012,Kerkap,Kabupaten,Bengkulu Utara,Bengkulu
1037,38379,Banyumas,17.03.06.2004,Kerkap,Kabupaten,Bengkulu Utara,Bengkulu
1038,38379,Banyumas Baru,17.03.06.2031,Kerkap,Kabupaten,Bengkulu Utara,Bengkulu
1039,38379,Kedu Baru,17.03.06.2024,Kerkap,Kabupaten,Bengkulu Utara,Bengkulu
1040,38379,Lubuk Durian,17.03.06.1009,Kerkap,Kabupaten,Bengkulu Utara,Bengkulu
1041,38379,Lubuk Jale,17.03.06.2010,Kerkap,Kabupaten,Bengkulu Utara,Bengkulu
1042,38379,Magelang,17.03.06.2027,Kerkap,Kabupaten,Bengkulu Utara,Bengkulu
1043,38379,Penyangkak,17.03.06.2029,Kerkap,Kabupaten,Bengkulu Utara,Bengkulu
1044,38379,Perbo,17.03.06.2008,Kerkap,Kabupaten,Bengkulu Utara,Bengkulu
1045,38379,Salam Harjo,17.03.06.2005,Kerkap,Kabupaten,Bengkulu Utara,Bengkulu
1046,38379,Serumbung,17.03.06.2026,Kerkap,Kabupaten,Bengkulu Utara,Bengkulu
1047,38379,Simpang Ketenong,17.03.06.2011,Kerkap,Kabupaten,Bengkulu Utara,Bengkulu
1048,38379,Talang Curup,17.03.06.2003,Kerkap,Kabupaten,Bengkulu Utara,Bengkulu
1049,38379,Talang Jambu,17.03.06.2001,Kerkap,Kabupaten,Bengkulu Utara,Bengkulu
1050,38379,Talang Pasak,17.03.06.2007,Kerkap,Kabupaten,Bengkulu Utara,Bengkulu
1051,38379,Tanjung Putus,17.03.06.2028,Kerkap,Kabupaten,Bengkulu Utara,Bengkulu
1052,38379,Tebat Pacur,17.03.06.2002,Kerkap,Kabupaten,Bengkulu Utara,Bengkulu
1053,38379,Yogja Baru (Jogya Baru),17.03.06.2006,Kerkap,Kabupaten,Bengkulu Utara,Bengkulu
1054,39372,Bogor Baru,17.08.04.2028,Kepahiang,Kabupaten,Kepahiang,Bengkulu
1055,39372,Imigrasi Permu,17.08.04.2007,Kepahiang,Kabupaten,Kepahiang,Bengkulu
1056,39372,Kampung Bogor,17.08.04.2010,Kepahiang,Kabupaten,Kepahiang,Bengkulu
1057,39372,Kampung Pensiunan,17.08.04.1025,Kepahiang,Kabupaten,Kepahiang,Bengkulu
1058,39372,Karang Anyar,17.08.04.2013,Kepahiang,Kabupaten,Kepahiang,Bengkulu
1059,39372,Karang Endah,17.08.04.2008,Kepahiang,Kabupaten,Kepahiang,Bengkulu
1060,39372,Kelilik,17.08.04.2001,Kepahiang,Kabupaten,Kepahiang,Bengkulu
1061,39372,Kelobak,17.08.04.2016,Kepahiang,Kabupaten,Kepahiang,Bengkulu
1062,39372,Kepahiang (Dusun Kepahingan),17.08.04.1011,Kepahiang,Kabupaten,Kepahiang,Bengkulu
1063,39372,Kuto Rejo (Kuterejo),17.08.04.2012,Kepahiang,Kabupaten,Kepahiang,Bengkulu
1064,39372,Padang Lekat,17.08.04.1027,Kepahiang,Kabupaten,Kepahiang,Bengkulu
1065,39372,Pagar Gunung,17.08.04.2017,Kepahiang,Kabupaten,Kepahiang,Bengkulu
1066,39372,Pasar Kepahiangan (Pasar Kepahiang),17.08.04.1004,Kepahiang,Kabupaten,Kepahiang,Bengkulu
1067,39372,Pasar Sejantung,17.08.04.1026,Kepahiang,Kabupaten,Kepahiang,Bengkulu
1068,39372,Pasar Ujung,17.08.04.1005,Kepahiang,Kabupaten,Kepahiang,Bengkulu
1069,39372,Pelangkian,17.08.04.2015,Kepahiang,Kabupaten,Kepahiang,Bengkulu
1070,39372,Pensiunan,17.08.04.1003,Kepahiang,Kabupaten,Kepahiang,Bengkulu
1071,39372,Permu,17.08.04.2006,Kepahiang,Kabupaten,Kepahiang,Bengkulu
1072,39372,Permu bawah,17.08.04.2029,Kepahiang,Kabupaten,Kepahiang,Bengkulu
1073,39372,Sukamerindu,17.08.04.2023,Kepahiang,Kabupaten,Kepahiang,Bengkulu
1074,39372,Taba Tebelet,17.08.04.2014,Kepahiang,Kabupaten,Kepahiang,Bengkulu
1075,39372,Tebat Monok,17.08.04.2002,Kepahiang,Kabupaten,Kepahiang,Bengkulu
1076,39372,Weskust (Westkust),17.08.04.2009,Kepahiang,Kabupaten,Kepahiang,Bengkulu
1077,38954,Darat Sawah,17.04.09.2007,Kelam Tengah,Kabupaten,Kaur,Bengkulu
1078,38954,Pagar Dewa,17.04.09.2011,Kelam Tengah,Kabupaten,Kaur,Bengkulu
1079,38954,Penantian,17.04.09.2009,Kelam Tengah,Kabupaten,Kaur,Bengkulu
1080,38954,Rigangan I,17.04.09.2003,Kelam Tengah,Kabupaten,Kaur,Bengkulu
1081,38954,Rigangan II,17.04.09.2004,Kelam Tengah,Kabupaten,Kaur,Bengkulu
1082,38954,Rigangan III,17.04.09.2005,Kelam Tengah,Kabupaten,Kaur,Bengkulu
1083,38954,Siring Agung,17.04.09.2008,Kelam Tengah,Kabupaten,Kaur,Bengkulu
1084,38954,Suka Rami II,17.04.09.2013,Kelam Tengah,Kabupaten,Kaur,Bengkulu
1085,38954,Sukarami,17.04.09.2006,Kelam Tengah,Kabupaten,Kaur,Bengkulu
1086,38954,Talang Marap,17.04.09.2012,Kelam Tengah,Kabupaten,Kaur,Bengkulu
1087,38954,Talang Tais,17.04.09.2010,Kelam Tengah,Kabupaten,Kaur,Bengkulu
1088,38954,Tanjung Ganti I,17.04.09.2001,Kelam Tengah,Kabupaten,Kaur,Bengkulu
1089,38954,Tanjung Ganti II,17.04.09.2002,Kelam Tengah,Kabupaten,Kaur,Bengkulu
1090,38554,Air Sulau,17.01.07.2011,Kedurang Ilir,Kabupaten,Bengkulu Selatan,Bengkulu
1091,38554,Betungan,17.01.07.2002,Kedurang Ilir,Kabupaten,Bengkulu Selatan,Bengkulu
1092,38554,Karang Caya,17.01.07.2001,Kedurang Ilir,Kabupaten,Bengkulu Selatan,Bengkulu
1093,38554,Limus,17.01.07.2008,Kedurang Ilir,Kabupaten,Bengkulu Selatan,Bengkulu
1094,38554,Lubuk Ladung,17.01.07.2010,Kedurang Ilir,Kabupaten,Bengkulu Selatan,Bengkulu
1095,38554,Nanjungan,17.01.07.2004,Kedurang Ilir,Kabupaten,Bengkulu Selatan,Bengkulu
1096,38554,Padang Bindu,17.01.07.2006,Kedurang Ilir,Kabupaten,Bengkulu Selatan,Bengkulu
1097,38554,Pagar Banyu,17.01.07.2003,Kedurang Ilir,Kabupaten,Bengkulu Selatan,Bengkulu
1098,38554,Penindaian,17.01.07.2007,Kedurang Ilir,Kabupaten,Bengkulu Selatan,Bengkulu
1099,38554,Suka Jaya,17.01.07.2012,Kedurang Ilir,Kabupaten,Bengkulu Selatan,Bengkulu
1100,38554,Suka Rami (Sukarami I),17.01.07.2005,Kedurang Ilir,Kabupaten,Bengkulu Selatan,Bengkulu
1101,38554,Sukaraja (Suka Raja),17.01.07.2009,Kedurang Ilir,Kabupaten,Bengkulu Selatan,Bengkulu
1102,38553,Batu Ampar,17.01.01.2001,Kedurang,Kabupaten,Bengkulu Selatan,Bengkulu
1103,38553,Bumi Agung,17.01.01.2003,Kedurang,Kabupaten,Bengkulu Selatan,Bengkulu
1104,38553,Durian Sebatang,17.01.01.2014,Kedurang,Kabupaten,Bengkulu Selatan,Bengkulu
1105,38553,Karang Agung,17.01.01.2028,Kedurang,Kabupaten,Bengkulu Selatan,Bengkulu
1106,38553,Keban Agung I,17.01.01.2005,Kedurang,Kabupaten,Bengkulu Selatan,Bengkulu
1107,38553,Keban Agung II,17.01.01.2006,Kedurang,Kabupaten,Bengkulu Selatan,Bengkulu
1108,38553,Keban Agung III,17.01.01.2009,Kedurang,Kabupaten,Bengkulu Selatan,Bengkulu
1109,38553,Lawang Agung,17.01.01.2015,Kedurang,Kabupaten,Bengkulu Selatan,Bengkulu
1110,38553,Lubuk Resam,17.01.01.2029,Kedurang,Kabupaten,Bengkulu Selatan,Bengkulu
1111,38553,Muara Tiga,17.01.01.2011,Kedurang,Kabupaten,Bengkulu Selatan,Bengkulu
1112,38553,Muara Tiga Ilir,17.01.01.2030,Kedurang,Kabupaten,Bengkulu Selatan,Bengkulu
1113,38553,Nanti Agung,17.01.01.2027,Kedurang,Kabupaten,Bengkulu Selatan,Bengkulu
1114,38553,Pajar Bulan,17.01.01.2013,Kedurang,Kabupaten,Bengkulu Selatan,Bengkulu
1115,38553,Palak Siring,17.01.01.2004,Kedurang,Kabupaten,Bengkulu Selatan,Bengkulu
1116,38553,Rantau Sialang,17.01.01.2002,Kedurang,Kabupaten,Bengkulu Selatan,Bengkulu
1117,38553,Suka Nanti (Tanjung Nanti / Sukananti),17.01.01.2010,Kedurang,Kabupaten,Bengkulu Selatan,Bengkulu
1118,38553,Tanjung Alam,17.01.01.2007,Kedurang,Kabupaten,Bengkulu Selatan,Bengkulu
1119,38553,Tanjung Besar,17.01.01.2012,Kedurang,Kabupaten,Bengkulu Selatan,Bengkulu
1120,38553,Tanjung Negara,17.01.01.2008,Kedurang,Kabupaten,Bengkulu Selatan,Bengkulu
1121,39376,Air Sempiang,17.08.06.2006,Kebawetan,Kabupaten,Kepahiang,Bengkulu
1122,39376,Babakan Bogor,17.08.06.2008,Kebawetan,Kabupaten,Kepahiang,Bengkulu
1123,39376,Bandung Baru,17.08.06.2001,Kebawetan,Kabupaten,Kepahiang,Bengkulu
1124,39376,Bandung Jaya,17.08.06.2015,Kebawetan,Kabupaten,Kepahiang,Bengkulu
1125,39376,Barat Wetan,17.08.06.2009,Kebawetan,Kabupaten,Kepahiang,Bengkulu
1126,39376,Bukit Sari,17.08.06.2002,Kebawetan,Kabupaten,Kepahiang,Bengkulu
1127,39376,Kabawetan/Tangsi Baru,17.08.06.1005,Kebawetan,Kabupaten,Kepahiang,Bengkulu
1128,39376,Mekar Sari,17.08.06.2012,Kebawetan,Kabupaten,Kepahiang,Bengkulu
1129,39376,Pematang Donok,17.08.06.2010,Kebawetan,Kabupaten,Kepahiang,Bengkulu
1130,39376,Sido Makmur,17.08.06.2013,Kebawetan,Kabupaten,Kepahiang,Bengkulu
1131,39376,Sido Rejo,17.08.06.2014,Kebawetan,Kabupaten,Kepahiang,Bengkulu
1132,39376,Suka Sari (Sukasari),17.08.06.2004,Kebawetan,Kabupaten,Kepahiang,Bengkulu
1133,39376,Sumber Sari,17.08.06.2011,Kebawetan,Kabupaten,Kepahiang,Bengkulu
1134,39376,Tangsi Duren,17.08.06.2007,Kebawetan,Kabupaten,Kepahiang,Bengkulu
1135,39376,Tugu Rejo (Tugurejo),17.08.06.2003,Kebawetan,Kabupaten,Kepahiang,Bengkulu
1136,38956,Bandu Agung,17.04.03.2021,Kaur Utara,Kabupaten,Kaur,Bengkulu
1137,38956,Coko Enau,17.04.03.2028,Kaur Utara,Kabupaten,Kaur,Bengkulu
1138,38956,Gunung Agung,17.04.03.2009,Kaur Utara,Kabupaten,Kaur,Bengkulu
1139,38956,Guru Agung,17.04.03.2006,Kaur Utara,Kabupaten,Kaur,Bengkulu
1140,38956,Guru Agung II,17.04.03.2031,Kaur Utara,Kabupaten,Kaur,Bengkulu
1141,38956,Padang Manis,17.04.03.2003,Kaur Utara,Kabupaten,Kaur,Bengkulu
1142,38956,Pancur Negara,17.04.03.2029,Kaur Utara,Kabupaten,Kaur,Bengkulu
1143,38956,Perugaian (Perugian),17.04.03.2030,Kaur Utara,Kabupaten,Kaur,Bengkulu
1144,38956,Simpang Tiga,17.04.03.1010,Kaur Utara,Kabupaten,Kaur,Bengkulu
1145,38956,Tanjung Betung (Tanjung Betung I),17.04.03.2001,Kaur Utara,Kabupaten,Kaur,Bengkulu
1146,38956,Tanjung Betung II,17.04.03.2027,Kaur Utara,Kabupaten,Kaur,Bengkulu
1147,38961,Kemang Manis,17.04.04.2004,Kaur Tengah,Kabupaten,Kaur,Bengkulu
1148,38961,Padang Baru,17.04.04.2009,Kaur Tengah,Kabupaten,Kaur,Bengkulu
1149,38961,Padang Hangat,17.04.04.2003,Kaur Tengah,Kabupaten,Kaur,Bengkulu
1150,38961,Pajar Bulan,17.04.04.2002,Kaur Tengah,Kabupaten,Kaur,Bengkulu
1151,38961,Penyandingan,17.04.04.2005,Kaur Tengah,Kabupaten,Kaur,Bengkulu
1152,38961,Sinar Jaya,17.04.04.2006,Kaur Tengah,Kabupaten,Kaur,Bengkulu
1153,38961,Sukarami,17.04.04.2001,Kaur Tengah,Kabupaten,Kaur,Bengkulu
1154,38961,Tanjung Iman,17.04.04.1007,Kaur Tengah,Kabupaten,Kaur,Bengkulu
1155,38961,Tanjung Pandan,17.04.04.2008,Kaur Tengah,Kabupaten,Kaur,Bengkulu
1156,38963,Air Dingin,17.04.05.2011,Kaur Selatan,Kabupaten,Kaur,Bengkulu
1157,38963,Bandar Bintuhan,17.04.05.1013,Kaur Selatan,Kabupaten,Kaur,Bengkulu
1158,38963,Gedung Sako,17.04.05.2015,Kaur Selatan,Kabupaten,Kaur,Bengkulu
1159,38963,Gedung Sako II,17.04.05.2029,Kaur Selatan,Kabupaten,Kaur,Bengkulu
1160,38963,Jembatan Dua,17.04.05.2016,Kaur Selatan,Kabupaten,Kaur,Bengkulu
1161,38963,Kepala Pasar,17.04.05.2024,Kaur Selatan,Kabupaten,Kaur,Bengkulu
1162,38963,Padang Genting,17.04.05.2028,Kaur Selatan,Kabupaten,Kaur,Bengkulu
1163,38963,Padang Petron,17.04.05.2025,Kaur Selatan,Kabupaten,Kaur,Bengkulu
1164,38963,Pahlawan Ratu,17.04.05.2022,Kaur Selatan,Kabupaten,Kaur,Bengkulu
1165,38963,Pasar Baru,17.04.05.2012,Kaur Selatan,Kabupaten,Kaur,Bengkulu
1166,38963,Pasar Lama,17.04.05.2014,Kaur Selatan,Kabupaten,Kaur,Bengkulu
1167,38963,Pasar Saoh,17.04.05.2023,Kaur Selatan,Kabupaten,Kaur,Bengkulu
1168,38963,Pengubaian,17.04.05.2021,Kaur Selatan,Kabupaten,Kaur,Bengkulu
1169,38963,Sawah Jangkung,17.04.05.2026,Kaur Selatan,Kabupaten,Kaur,Bengkulu
1170,38963,Sekunyit,17.04.05.2009,Kaur Selatan,Kabupaten,Kaur,Bengkulu
1171,38963,Selasih,17.04.05.2027,Kaur Selatan,Kabupaten,Kaur,Bengkulu
1172,38963,Sinar Pagi,17.04.05.2030,Kaur Selatan,Kabupaten,Kaur,Bengkulu
1173,38963,Suka Bandung,17.04.05.2010,Kaur Selatan,Kabupaten,Kaur,Bengkulu
1174,38963,Tanjung Besar,17.04.05.2017,Kaur Selatan,Kabupaten,Kaur,Bengkulu
1175,38382,Durian Demang,17.09.01.2004,Karang Tinggi,Kabupaten,Bengkulu Tengah,Bengkulu
1176,38382,Dusun Baru II,17.09.01.2007,Karang Tinggi,Kabupaten,Bengkulu Tengah,Bengkulu
1177,38382,Kancing,17.09.01.2011,Karang Tinggi,Kabupaten,Bengkulu Tengah,Bengkulu
1178,38382,Karang Tinggi,17.09.01.2009,Karang Tinggi,Kabupaten,Bengkulu Tengah,Bengkulu
1179,38382,Padang Tambak,17.09.01.2003,Karang Tinggi,Kabupaten,Bengkulu Tengah,Bengkulu
1180,38382,Penanding,17.09.01.2008,Karang Tinggi,Kabupaten,Bengkulu Tengah,Bengkulu
1181,38382,Plaju (Pelajau),17.09.01.2005,Karang Tinggi,Kabupaten,Bengkulu Tengah,Bengkulu
1182,38382,Rena Lebar,17.09.01.2010,Karang Tinggi,Kabupaten,Bengkulu Tengah,Bengkulu
1183,38382,Rena Semanek,17.09.01.2015,Karang Tinggi,Kabupaten,Bengkulu Tengah,Bengkulu
1184,38382,Taba Mutung,17.09.01.2013,Karang Tinggi,Kabupaten,Bengkulu Tengah,Bengkulu
1185,38382,Taba Terunjam,17.09.01.2001,Karang Tinggi,Kabupaten,Bengkulu Tengah,Bengkulu
1186,38382,Talang Empat,17.09.01.2002,Karang Tinggi,Kabupaten,Bengkulu Tengah,Bengkulu
1187,38382,Ujung Karang,17.09.01.2012,Karang Tinggi,Kabupaten,Bengkulu Tengah,Bengkulu
1188,38216,Kandang,17.71.05.1001,Kampung Melayu,Kota,Bengkulu,Bengkulu
1189,38215,Kandang Mas,17.71.05.1002,Kampung Melayu,Kota,Bengkulu,Bengkulu
1190,38215,Muara Dua,17.71.05.1006,Kampung Melayu,Kota,Bengkulu,Bengkulu
1191,38215,Padang Serai,17.71.05.1005,Kampung Melayu,Kota,Bengkulu,Bengkulu
1192,38215,Sumber Jaya,17.71.05.1004,Kampung Melayu,Kota,Bengkulu,Bengkulu
1193,38215,Teluk Sepang,17.71.05.1003,Kampung Melayu,Kota,Bengkulu,Bengkulu
1194,38763,Air Buluh,17.06.05.2004,Ipuh (Muko Muko Selatan),Kabupaten,Muko Muko,Bengkulu
1195,38763,Manunggal Jaya,17.06.05.2023,Ipuh (Muko Muko Selatan),Kabupaten,Muko Muko,Bengkulu
1196,38763,Medan Jaya,17.06.05.2007,Ipuh (Muko Muko Selatan),Kabupaten,Muko Muko,Bengkulu
1197,38763,Mundam Marap,17.06.05.2035,Ipuh (Muko Muko Selatan),Kabupaten,Muko Muko,Bengkulu
1198,38763,Pasar Baru,17.06.05.2033,Ipuh (Muko Muko Selatan),Kabupaten,Muko Muko,Bengkulu
1199,38763,Pasar Ipuh,17.06.05.2006,Ipuh (Muko Muko Selatan),Kabupaten,Muko Muko,Bengkulu
1200,38763,Pulau Baru,17.06.05.2005,Ipuh (Muko Muko Selatan),Kabupaten,Muko Muko,Bengkulu
1201,38763,Pulau Makmur,17.06.05.2034,Ipuh (Muko Muko Selatan),Kabupaten,Muko Muko,Bengkulu
1202,38763,Pulau Payung (Pulai Payung),17.06.05.2028,Ipuh (Muko Muko Selatan),Kabupaten,Muko Muko,Bengkulu
1203,38763,Retak Ilir (Retak Hilir),17.06.05.2014,Ipuh (Muko Muko Selatan),Kabupaten,Muko Muko,Bengkulu
1204,38763,Semundam,17.06.05.2009,Ipuh (Muko Muko Selatan),Kabupaten,Muko Muko,Bengkulu
1205,38763,Sibak (Dusun Sibak),17.06.05.2008,Ipuh (Muko Muko Selatan),Kabupaten,Muko Muko,Bengkulu
1206,38763,Tanjung Harapan,17.06.05.2015,Ipuh (Muko Muko Selatan),Kabupaten,Muko Muko,Bengkulu
1207,38763,Tanjung Jaya,17.06.05.2017,Ipuh (Muko Muko Selatan),Kabupaten,Muko Muko,Bengkulu
1208,38763,Tanjung Medan,17.06.05.2029,Ipuh (Muko Muko Selatan),Kabupaten,Muko Muko,Bengkulu
1209,38763,Tirta Mulya,17.06.05.2030,Ipuh (Muko Muko Selatan),Kabupaten,Muko Muko,Bengkulu
1210,38887,Dusun Baru,17.05.14.2002,Ilir Talo,Kabupaten,Seluma,Bengkulu
1211,38887,Margo Sari,17.05.14.2014,Ilir Talo,Kabupaten,Seluma,Bengkulu
1212,38887,Mekar Sari,17.05.14.2015,Ilir Talo,Kabupaten,Seluma,Bengkulu
1213,38887,Nanti Agung,17.05.14.2006,Ilir Talo,Kabupaten,Seluma,Bengkulu
1214,38887,Padang Batu,17.05.14.2012,Ilir Talo,Kabupaten,Seluma,Bengkulu
1215,38887,Padang Cekur,17.05.14.2011,Ilir Talo,Kabupaten,Seluma,Bengkulu
1216,38887,Paluah Terap,17.05.14.2013,Ilir Talo,Kabupaten,Seluma,Bengkulu
1217,38887,Pasar Talo,17.05.14.2001,Ilir Talo,Kabupaten,Seluma,Bengkulu
1218,38887,Penago Baru,17.05.14.2005,Ilir Talo,Kabupaten,Seluma,Bengkulu
1219,38887,Penago I,17.05.14.2008,Ilir Talo,Kabupaten,Seluma,Bengkulu
1220,38887,Penago II,17.05.14.2009,Ilir Talo,Kabupaten,Seluma,Bengkulu
1221,38887,Rawah Indah (Rawa Indah),17.05.14.2010,Ilir Talo,Kabupaten,Seluma,Bengkulu
1222,38887,Talang Kabu,17.05.14.2003,Ilir Talo,Kabupaten,Seluma,Bengkulu
1223,38887,Talang Panjang,17.05.14.2007,Ilir Talo,Kabupaten,Seluma,Bengkulu
1224,38887,Tanah Abang,17.05.14.2004,Ilir Talo,Kabupaten,Seluma,Bengkulu
1225,38374,Air Ba'us I (Air Baus I),17.03.19.2010,Hulu Palik,Kabupaten,Bengkulu Utara,Bengkulu
1226,38374,Air Ba'us II (Air Baus II),17.03.19.2011,Hulu Palik,Kabupaten,Bengkulu Utara,Bengkulu
1227,38374,Air Banai,17.03.19.2005,Hulu Palik,Kabupaten,Bengkulu Utara,Bengkulu
1228,38374,Batu Layang,17.03.19.2008,Hulu Palik,Kabupaten,Bengkulu Utara,Bengkulu
1229,38374,Batu Raja Kol,17.03.19.2007,Hulu Palik,Kabupaten,Bengkulu Utara,Bengkulu
1230,38374,Batu Raja Rejang,17.03.19.2006,Hulu Palik,Kabupaten,Bengkulu Utara,Bengkulu
1231,38374,Batu Roto,17.03.19.2009,Hulu Palik,Kabupaten,Bengkulu Utara,Bengkulu
1232,38374,Kota Lekat (Kota Lekat Ilir),17.03.19.2001,Hulu Palik,Kabupaten,Bengkulu Utara,Bengkulu
1233,38374,Kota Lekat Mudik,17.03.19.2015,Hulu Palik,Kabupaten,Bengkulu Utara,Bengkulu
1234,38374,Padang Bendar,17.03.19.2002,Hulu Palik,Kabupaten,Bengkulu Utara,Bengkulu
1235,38374,Pematang Balam (Pematang Dalam),17.03.19.2012,Hulu Palik,Kabupaten,Bengkulu Utara,Bengkulu
1236,38374,Sumber Rejo (Sumberejo),17.03.19.2014,Hulu Palik,Kabupaten,Bengkulu Utara,Bengkulu
1237,38374,Taba Padang Kol,17.03.19.2004,Hulu Palik,Kabupaten,Bengkulu Utara,Bengkulu
1238,38374,Taba Padang Rejang,17.03.19.2003,Hulu Palik,Kabupaten,Bengkulu Utara,Bengkulu
1239,38374,Talang Rendah,17.03.19.2013,Hulu Palik,Kabupaten,Bengkulu Utara,Bengkulu
1240,38655,Giri Mulya,17.03.08.2004,Giri Mulia (Giri Mulya),Kabupaten,Bengkulu Utara,Bengkulu
1241,38655,Rena Jaya,17.03.08.2005,Giri Mulia (Giri Mulya),Kabupaten,Bengkulu Utara,Bengkulu
1242,38655,Suka Makmur (Sukamakmur),17.03.08.2002,Giri Mulia (Giri Mulya),Kabupaten,Bengkulu Utara,Bengkulu
1243,38655,Suka Mulya,17.03.08.2006,Giri Mulia (Giri Mulya),Kabupaten,Bengkulu Utara,Bengkulu
1244,38655,Tanjung Anom,17.03.08.2001,Giri Mulia (Giri Mulya),Kabupaten,Bengkulu Utara,Bengkulu
1245,38655,Wono Harjo (Wonoharjo),17.03.08.2003,Giri Mulia (Giri Mulya),Kabupaten,Bengkulu Utara,Bengkulu
1246,38221,Cempaka Permai,17.71.02.1027,Gading Cempaka,Kota,Bengkulu,Bengkulu
1247,38225,Jalan Gedang,17.71.02.1002,Gading Cempaka,Kota,Bengkulu,Bengkulu
1248,38221,Lingkar Barat,17.71.02.1024,Gading Cempaka,Kota,Bengkulu,Bengkulu
1249,38225,Padang Harapan,17.71.02.1001,Gading Cempaka,Kota,Bengkulu,Bengkulu
1250,38229,Sidomulyo (Sido Mulyo),17.71.02.1021,Gading Cempaka,Kota,Bengkulu,Bengkulu
1251,38387,Apoho,17.03.01.2006,Enggano,Kabupaten,Bengkulu Utara,Bengkulu
1252,38387,Banjar Sari,17.03.01.2001,Enggano,Kabupaten,Bengkulu Utara,Bengkulu
1253,38387,Kaana,17.03.01.2004,Enggano,Kabupaten,Bengkulu Utara,Bengkulu
1254,38387,Kahyapu (Khayapu),17.03.01.2005,Enggano,Kabupaten,Bengkulu Utara,Bengkulu
1255,38387,Malakoni,17.03.01.2003,Enggano,Kabupaten,Bengkulu Utara,Bengkulu
1256,38387,Meok,17.03.01.2002,Enggano,Kabupaten,Bengkulu Utara,Bengkulu
1257,39125,Batu Dewa,17.02.16.2003,Curup Utara,Kabupaten,Rejang Lebong,Bengkulu
1258,39125,Batu Panco,17.02.16.2005,Curup Utara,Kabupaten,Rejang Lebong,Bengkulu
1259,39119,Dusun Curup,17.02.16.1001,Curup Utara,Kabupaten,Rejang Lebong,Bengkulu
1260,39125,Dusun Sawah,17.02.16.2006,Curup Utara,Kabupaten,Rejang Lebong,Bengkulu
1261,39125,Kota Pagu,17.02.16.2013,Curup Utara,Kabupaten,Rejang Lebong,Bengkulu
1262,39125,Lubuk Kembang,17.02.16.2007,Curup Utara,Kabupaten,Rejang Lebong,Bengkulu
1263,39125,Pahlawan (Desa Pahlawan),17.02.16.2010,Curup Utara,Kabupaten,Rejang Lebong,Bengkulu
1264,39125,Perbo,17.02.16.2004,Curup Utara,Kabupaten,Rejang Lebong,Bengkulu
1265,39125,Seguring,17.02.16.2014,Curup Utara,Kabupaten,Rejang Lebong,Bengkulu
1266,39125,Suka Datang,17.02.16.2008,Curup Utara,Kabupaten,Rejang Lebong,Bengkulu
1267,39125,Tabarenah,17.02.16.2009,Curup Utara,Kabupaten,Rejang Lebong,Bengkulu
1268,39125,Tanjung Beringin,17.02.16.2012,Curup Utara,Kabupaten,Rejang Lebong,Bengkulu
1269,39125,Tasik Malaya (Tasikmalaya),17.02.16.2011,Curup Utara,Kabupaten,Rejang Lebong,Bengkulu
1270,39123,Tunas Harapan,17.02.16.1002,Curup Utara,Kabupaten,Rejang Lebong,Bengkulu
1271,39115,Air Meles Bawah,17.02.17.2007,Curup Timur,Kabupaten,Rejang Lebong,Bengkulu
1272,39125,Duku Ilir,17.02.17.2006,Curup Timur,Kabupaten,Rejang Lebong,Bengkulu
1273,39125,Duku Ulu,17.02.17.2005,Curup Timur,Kabupaten,Rejang Lebong,Bengkulu
1274,39125,Kampung Delima,17.02.17.2008,Curup Timur,Kabupaten,Rejang Lebong,Bengkulu
1275,39116,Karang Anyar,17.02.17.1003,Curup Timur,Kabupaten,Rejang Lebong,Bengkulu
1276,39125,Kesambe Baru,17.02.17.1002,Curup Timur,Kabupaten,Rejang Lebong,Bengkulu
1277,39125,Kesambe Lama,17.02.17.2009,Curup Timur,Kabupaten,Rejang Lebong,Bengkulu
1278,39121,Sukaraja,17.02.17.1001,Curup Timur,Kabupaten,Rejang Lebong,Bengkulu
1279,39125,Talang Ulu,17.02.17.1004,Curup Timur,Kabupaten,Rejang Lebong,Bengkulu
1280,39125,Air Bang,17.02.19.1006,Curup Tengah,Kabupaten,Rejang Lebong,Bengkulu
1281,39125,Air Merah,17.02.19.2010,Curup Tengah,Kabupaten,Rejang Lebong,Bengkulu
1282,39125,Banyu Mas (Banyumas),17.02.19.1009,Curup Tengah,Kabupaten,Rejang Lebong,Bengkulu
1283,39125,Batu Galing,17.02.19.1008,Curup Tengah,Kabupaten,Rejang Lebong,Bengkulu
1284,39115,Kampung Jawa,17.02.19.1005,Curup Tengah,Kabupaten,Rejang Lebong,Bengkulu
1285,39116,Kepala Siring,17.02.19.1001,Curup Tengah,Kabupaten,Rejang Lebong,Bengkulu
1286,39115,Pelabuhan Baru,17.02.19.1007,Curup Tengah,Kabupaten,Rejang Lebong,Bengkulu
1287,39119,Sidorejo/Siderejo,17.02.19.1004,Curup Tengah,Kabupaten,Rejang Lebong,Bengkulu
1288,39113,Talang Rimbo Baru,17.02.19.1002,Curup Tengah,Kabupaten,Rejang Lebong,Bengkulu
1289,39114,Talang Rimbo Lama,17.02.19.1003,Curup Tengah,Kabupaten,Rejang Lebong,Bengkulu
1290,39125,Air Lanang,17.02.18.2011,Curup Selatan,Kabupaten,Rejang Lebong,Bengkulu
1291,39112,Air Putih Baru,17.02.18.1001,Curup Selatan,Kabupaten,Rejang Lebong,Bengkulu
1292,39125,Lubuk Ubar,17.02.18.2007,Curup Selatan,Kabupaten,Rejang Lebong,Bengkulu
1293,39125,Pungguk Lalang,17.02.18.2008,Curup Selatan,Kabupaten,Rejang Lebong,Bengkulu
1294,39125,Rimbo Recap,17.02.18.2003,Curup Selatan,Kabupaten,Rejang Lebong,Bengkulu
1295,39125,Suka Marga,17.02.18.2006,Curup Selatan,Kabupaten,Rejang Lebong,Bengkulu
1296,39125,Tanjung Dalam,17.02.18.2010,Curup Selatan,Kabupaten,Rejang Lebong,Bengkulu
1297,39125,Teladan (Desa Teladan),17.02.18.2005,Curup Selatan,Kabupaten,Rejang Lebong,Bengkulu
1298,39124,Tempel Rejo,17.02.18.1002,Curup Selatan,Kabupaten,Rejang Lebong,Bengkulu
1299,39125,Turan Baru,17.02.18.2009,Curup Selatan,Kabupaten,Rejang Lebong,Bengkulu
1300,39125,Watas Marga,17.02.18.2004,Curup Selatan,Kabupaten,Rejang Lebong,Bengkulu
1301,39125,Adirejo,17.02.09.1023,Curup,Kabupaten,Rejang Lebong,Bengkulu
1302,39112,Air Putih Lama,17.02.09.1013,Curup,Kabupaten,Rejang Lebong,Bengkulu
1303,39111,Air Rambai,17.02.09.1025,Curup,Kabupaten,Rejang Lebong,Bengkulu
1304,39112,Dwi Tunggal,17.02.09.1012,Curup,Kabupaten,Rejang Lebong,Bengkulu
1305,39117,Jalan Baru,17.02.09.1031,Curup,Kabupaten,Rejang Lebong,Bengkulu
1306,39113,Pasar Baru,17.02.09.1026,Curup,Kabupaten,Rejang Lebong,Bengkulu
1307,39117,Pasar Tengah,17.02.09.1027,Curup,Kabupaten,Rejang Lebong,Bengkulu
1308,39118,Talang Benih,17.02.09.1033,Curup,Kabupaten,Rejang Lebong,Bengkulu
1309,39125,Timbul Rejo,17.02.09.1047,Curup,Kabupaten,Rejang Lebong,Bengkulu
1310,38511,Gindo Suli (Gindosuli),17.01.10.2003,Bunga Mas,Kabupaten,Bengkulu Selatan,Bengkulu
1311,38511,Gunung Kayo,17.01.10.2002,Bunga Mas,Kabupaten,Bengkulu Selatan,Bengkulu
1312,38511,Kuripan,17.01.10.2005,Bunga Mas,Kabupaten,Bengkulu Selatan,Bengkulu
1313,38511,Padang Burnai,17.01.10.2010,Bunga Mas,Kabupaten,Bengkulu Selatan,Bengkulu
1314,38511,Padang Jawi,17.01.10.2008,Bunga Mas,Kabupaten,Bengkulu Selatan,Bengkulu
1315,38511,Padang Nibung,17.01.10.2006,Bunga Mas,Kabupaten,Bengkulu Selatan,Bengkulu
1316,38511,Talang Indah,17.01.10.2004,Bunga Mas,Kabupaten,Bengkulu Selatan,Bengkulu
1317,38511,Tanjung Aur,17.01.10.2009,Bunga Mas,Kabupaten,Bengkulu Selatan,Bengkulu
1318,38511,Tanjung Tebat,17.01.10.2007,Bunga Mas,Kabupaten,Bengkulu Selatan,Bengkulu
1319,38511,Tumbak Tebing (Tumbuk Tebing),17.01.10.2001,Bunga Mas,Kabupaten,Bengkulu Selatan,Bengkulu
1320,39262,Bukit Nibung,17.07.07.2002,Bingin Kuning,Kabupaten,Lebong,Bengkulu
1321,39262,Bungin,17.07.07.2009,Bingin Kuning,Kabupaten,Lebong,Bengkulu
1322,39262,Karang Dapo Atas,17.07.07.2001,Bingin Kuning,Kabupaten,Lebong,Bengkulu
1323,39262,Karang Dapo Bawah,17.07.07.2003,Bingin Kuning,Kabupaten,Lebong,Bengkulu
1324,39262,Pelabuhan Talang Liak (Pelabuhan Talang Leak),17.07.07.2006,Bingin Kuning,Kabupaten,Lebong,Bengkulu
1325,39262,Pungguk Pedaro,17.07.07.2004,Bingin Kuning,Kabupaten,Lebong,Bengkulu
1326,39262,Talang Kerinci,17.07.07.2005,Bingin Kuning,Kabupaten,Lebong,Bengkulu
1327,39262,Talang Liak I (Talang Leak I),17.07.07.2007,Bingin Kuning,Kabupaten,Lebong,Bengkulu
1328,39262,Talang Liak II (Talang Leak II),17.07.07.2008,Bingin Kuning,Kabupaten,Lebong,Bengkulu
1329,39182,Air Apo,17.02.20.2005,Binduriang,Kabupaten,Rejang Lebong,Bengkulu
1330,39182,Kampung Jeruk,17.02.20.2002,Binduriang,Kabupaten,Rejang Lebong,Bengkulu
1331,39182,Kepala Curup,17.02.20.2001,Binduriang,Kabupaten,Rejang Lebong,Bengkulu
1332,39182,Simpang Beliti,17.02.20.2003,Binduriang,Kabupaten,Rejang Lebong,Bengkulu
1333,39182,Taba Padang,17.02.20.2004,Binduriang,Kabupaten,Rejang Lebong,Bengkulu
1334,39151,Air Bening,17.02.24.2010,Bermani Ulu Raya,Kabupaten,Rejang Lebong,Bengkulu
1335,39151,Babakan Baru,17.02.24.2008,Bermani Ulu Raya,Kabupaten,Rejang Lebong,Bengkulu
1336,39151,Bandung Marga,17.02.24.2002,Bermani Ulu Raya,Kabupaten,Rejang Lebong,Bengkulu
1337,39151,Bangun Jaya,17.02.24.2007,Bermani Ulu Raya,Kabupaten,Rejang Lebong,Bengkulu
1338,39151,Dataran Tapus,17.02.24.2001,Bermani Ulu Raya,Kabupaten,Rejang Lebong,Bengkulu
1339,39151,Pal Seratus/100,17.02.24.2003,Bermani Ulu Raya,Kabupaten,Rejang Lebong,Bengkulu
1340,39151,Pal VII/Tujuh,17.02.24.2004,Bermani Ulu Raya,Kabupaten,Rejang Lebong,Bengkulu
1341,39151,Pal VIII/Delapan,17.02.24.2005,Bermani Ulu Raya,Kabupaten,Rejang Lebong,Bengkulu
1342,39151,Sumberejo Transad (Sumber Rejo Transad),17.02.24.2009,Bermani Ulu Raya,Kabupaten,Rejang Lebong,Bengkulu
1343,39151,Tebat Tenong Luar,17.02.24.2006,Bermani Ulu Raya,Kabupaten,Rejang Lebong,Bengkulu
1344,39152,Air Mundu,17.02.10.2001,Bermani Ulu,Kabupaten,Rejang Lebong,Bengkulu
1345,39152,Air Pikat,17.02.10.2020,Bermani Ulu,Kabupaten,Rejang Lebong,Bengkulu
1346,39152,Baru Manis,17.02.10.2003,Bermani Ulu,Kabupaten,Rejang Lebong,Bengkulu
1347,39152,Kampung Melayu,17.02.10.2012,Bermani Ulu,Kabupaten,Rejang Lebong,Bengkulu
1348,39152,Kampung Sajad,17.02.10.2015,Bermani Ulu,Kabupaten,Rejang Lebong,Bengkulu
1349,39152,Pagar Gunung,17.02.10.2017,Bermani Ulu,Kabupaten,Rejang Lebong,Bengkulu
1350,39152,Purwodadi,17.02.10.2019,Bermani Ulu,Kabupaten,Rejang Lebong,Bengkulu
1351,39152,Selamat Sudiarjo,17.02.10.2018,Bermani Ulu,Kabupaten,Rejang Lebong,Bengkulu
1352,39152,Sentral Baru,17.02.10.2013,Bermani Ulu,Kabupaten,Rejang Lebong,Bengkulu
1353,39152,Suka Rami,17.02.10.2016,Bermani Ulu,Kabupaten,Rejang Lebong,Bengkulu
1354,39152,Tebat Pulau,17.02.10.2021,Bermani Ulu,Kabupaten,Rejang Lebong,Bengkulu
1355,39152,Tebat Tenong Dalam,17.02.10.2002,Bermani Ulu,Kabupaten,Rejang Lebong,Bengkulu
1356,39374,Air Raman,17.08.01.2025,Bermani Ilir,Kabupaten,Kepahiang,Bengkulu
1357,39374,Batu Belarik,17.08.01.2016,Bermani Ilir,Kabupaten,Kepahiang,Bengkulu
1358,39374,Bukit Menyan,17.08.01.2011,Bermani Ilir,Kabupaten,Kepahiang,Bengkulu
1359,39374,Cinta Mandi Baru,17.08.01.2029,Bermani Ilir,Kabupaten,Kepahiang,Bengkulu
1360,39374,Cinto Mandi (Cinta Mandi),17.08.01.2008,Bermani Ilir,Kabupaten,Kepahiang,Bengkulu
1361,39374,Embong Ijuk,17.08.01.2004,Bermani Ilir,Kabupaten,Kepahiang,Bengkulu
1362,39374,Embong Sido,17.08.01.2017,Bermani Ilir,Kabupaten,Kepahiang,Bengkulu
1363,39374,Gunung Agung,17.08.01.2005,Bermani Ilir,Kabupaten,Kepahiang,Bengkulu
1364,39374,Keban Agung,17.08.01.1007,Bermani Ilir,Kabupaten,Kepahiang,Bengkulu
1365,39374,Kembang Seri,17.08.01.2002,Bermani Ilir,Kabupaten,Kepahiang,Bengkulu
1366,39374,Kota Agung,17.08.01.2001,Bermani Ilir,Kabupaten,Kepahiang,Bengkulu
1367,39374,Langgar Jaya,17.08.01.2028,Bermani Ilir,Kabupaten,Kepahiang,Bengkulu
1368,39374,Limbur Lama (Lembur Lama),17.08.01.2009,Bermani Ilir,Kabupaten,Kepahiang,Bengkulu
1369,39374,Muara Langkap,17.08.01.2024,Bermani Ilir,Kabupaten,Kepahiang,Bengkulu
1370,39374,Pagar Agung,17.08.01.2003,Bermani Ilir,Kabupaten,Kepahiang,Bengkulu
1371,39374,Sosokan Cinta Mandi,17.08.01.2023,Bermani Ilir,Kabupaten,Kepahiang,Bengkulu
1372,39374,Taba Baru,17.08.01.2010,Bermani Ilir,Kabupaten,Kepahiang,Bengkulu
1373,39374,Talang Pito,17.08.01.2006,Bermani Ilir,Kabupaten,Kepahiang,Bengkulu
1374,39374,Talang Sawah,17.08.01.2022,Bermani Ilir,Kabupaten,Kepahiang,Bengkulu
1375,38656,Air Lakok (Airlakok),17.03.11.2003,Batik Nau,Kabupaten,Bengkulu Utara,Bengkulu
1376,38656,Air Mangayau (Air Menganyau),17.03.11.2015,Batik Nau,Kabupaten,Bengkulu Utara,Bengkulu
1377,38656,Batik Nau,17.03.11.2006,Batik Nau,Kabupaten,Bengkulu Utara,Bengkulu
1378,38656,Bintunan,17.03.11.2004,Batik Nau,Kabupaten,Bengkulu Utara,Bengkulu
1379,38656,Durian Amparan,17.03.11.2008,Batik Nau,Kabupaten,Bengkulu Utara,Bengkulu
1380,38656,Pagar Ruyung,17.03.11.2007,Batik Nau,Kabupaten,Bengkulu Utara,Bengkulu
1381,38656,Peninjau (Maninjau),17.03.11.2014,Batik Nau,Kabupaten,Bengkulu Utara,Bengkulu
1382,38656,Samban Jaya,17.03.11.2013,Batik Nau,Kabupaten,Bengkulu Utara,Bengkulu
1383,38656,Seberang Tunggal,17.03.11.2011,Batik Nau,Kabupaten,Bengkulu Utara,Bengkulu
1384,38656,Sekiau,17.03.11.2012,Batik Nau,Kabupaten,Bengkulu Utara,Bengkulu
1385,38656,Selolong,17.03.11.2002,Batik Nau,Kabupaten,Bengkulu Utara,Bengkulu
1386,38656,Serangai,17.03.11.2001,Batik Nau,Kabupaten,Bengkulu Utara,Bengkulu
1387,38656,Suka Marga (Sukamarga),17.03.11.2005,Batik Nau,Kabupaten,Bengkulu Utara,Bengkulu
1388,38656,Taba Kulintang (Taba Kelintang),17.03.11.2009,Batik Nau,Kabupaten,Bengkulu Utara,Bengkulu
1389,38656,Ulak Tanding,17.03.11.2010,Batik Nau,Kabupaten,Bengkulu Utara,Bengkulu
1390,38372,Air Napal,17.09.10.2008,Bang Haji,Kabupaten,Bengkulu Tengah,Bengkulu
1391,38372,Bang Haji,17.09.10.2011,Bang Haji,Kabupaten,Bengkulu Tengah,Bengkulu
1392,38372,Genting,17.09.10.2009,Bang Haji,Kabupaten,Bengkulu Tengah,Bengkulu
1393,38372,Lubuk Langkap,17.09.10.2007,Bang Haji,Kabupaten,Bengkulu Tengah,Bengkulu
1394,38372,Padang Berunai,17.09.10.2006,Bang Haji,Kabupaten,Bengkulu Tengah,Bengkulu
1395,38372,Sekayun,17.09.10.2001,Bang Haji,Kabupaten,Bengkulu Tengah,Bengkulu
1396,38372,Sekayun Hilir / Ilir,17.09.10.2003,Bang Haji,Kabupaten,Bengkulu Tengah,Bengkulu
1397,38372,Sekayun Mudik,17.09.10.2002,Bang Haji,Kabupaten,Bengkulu Tengah,Bengkulu
1398,38372,Sungkai Berayun,17.09.10.2012,Bang Haji,Kabupaten,Bengkulu Tengah,Bengkulu
1399,38372,Taba Tengah,17.09.10.2005,Bang Haji,Kabupaten,Bengkulu Tengah,Bengkulu
1400,38372,Talang Donok,17.09.10.2004,Bang Haji,Kabupaten,Bengkulu Tengah,Bengkulu
1401,38372,Talang Panjang,17.09.10.2010,Bang Haji,Kabupaten,Bengkulu Tengah,Bengkulu
1402,38611,Air Merah,17.03.21.2011,Arma Jaya,Kabupaten,Bengkulu Utara,Bengkulu
1403,38611,Gardu,17.03.21.2007,Arma Jaya,Kabupaten,Bengkulu Utara,Bengkulu
1404,38611,Gunung Besar,17.03.21.2012,Arma Jaya,Kabupaten,Bengkulu Utara,Bengkulu
1405,38611,Kalai Duai,17.03.21.2009,Arma Jaya,Kabupaten,Bengkulu Utara,Bengkulu
1406,38611,Kali,17.03.21.2008,Arma Jaya,Kabupaten,Bengkulu Utara,Bengkulu
1407,38611,Kemumu,17.03.21.1001,Arma Jaya,Kabupaten,Bengkulu Utara,Bengkulu
1408,38611,Pagar Banyu,17.03.21.2006,Arma Jaya,Kabupaten,Bengkulu Utara,Bengkulu
1409,38611,Pagar Ruyung,17.03.21.2010,Arma Jaya,Kabupaten,Bengkulu Utara,Bengkulu
1410,38611,Pematang Sapang,17.03.21.2005,Arma Jaya,Kabupaten,Bengkulu Utara,Bengkulu
1411,38611,Sidodadi,17.03.21.2003,Arma Jaya,Kabupaten,Bengkulu Utara,Bengkulu
1412,38611,Sumber Agung,17.03.21.2004,Arma Jaya,Kabupaten,Bengkulu Utara,Bengkulu
1413,38611,Tebing Kaning,17.03.21.2002,Arma Jaya,Kabupaten,Bengkulu Utara,Bengkulu
1414,39264,Amen,17.07.10.1009,Amen,Kabupaten,Lebong,Bengkulu
1415,39264,Garut,17.07.10.2008,Amen,Kabupaten,Lebong,Bengkulu
1416,39264,Nangai Tayau,17.07.10.2001,Amen,Kabupaten,Lebong,Bengkulu
1417,39264,Nangai Tayau I,17.07.10.2002,Amen,Kabupaten,Lebong,Bengkulu
1418,39264,Pyang Mbik (Paya Embik),17.07.10.2003,Amen,Kabupaten,Lebong,Bengkulu
1419,39264,Selebar Jaya,17.07.10.2007,Amen,Kabupaten,Lebong,Bengkulu
1420,39264,Sukau Mergo (Suka Marga),17.07.10.2004,Amen,Kabupaten,Lebong,Bengkulu
1421,39264,Sukau Rajo (Sukaraja),17.07.10.2005,Amen,Kabupaten,Lebong,Bengkulu
1422,39264,Sungai Gerong,17.07.10.2010,Amen,Kabupaten,Lebong,Bengkulu
1423,39264,Talang Bunut,17.07.10.2006,Amen,Kabupaten,Lebong,Bengkulu
1424,38764,Air Rami,17.06.07.2002,Air Rami,Kabupaten,Muko Muko,Bengkulu
1425,38764,Arga Jaya,17.06.07.2001,Air Rami,Kabupaten,Muko Muko,Bengkulu
1426,38764,Bukit Harapan,17.06.07.2009,Air Rami,Kabupaten,Muko Muko,Bengkulu
1427,38764,Bukit Mulya,17.06.07.2012,Air Rami,Kabupaten,Muko Muko,Bengkulu
1428,38764,Cinta Asih,17.06.07.2011,Air Rami,Kabupaten,Muko Muko,Bengkulu
1429,38764,Dusun Pulau,17.06.07.2008,Air Rami,Kabupaten,Muko Muko,Bengkulu
1430,38764,Makmur Jaya,17.06.07.2005,Air Rami,Kabupaten,Muko Muko,Bengkulu
1431,38764,Marga Mulia,17.06.07.2006,Air Rami,Kabupaten,Muko Muko,Bengkulu
1432,38764,Mekar Jaya,17.06.07.2007,Air Rami,Kabupaten,Muko Muko,Bengkulu
1433,38764,Rami Mulya (Rami Mulia),17.06.07.2003,Air Rami,Kabupaten,Muko Muko,Bengkulu
1434,38764,Talang Rio,17.06.07.2004,Air Rami,Kabupaten,Muko Muko,Bengkulu
1435,38764,Tirta Kencana,17.06.07.2010,Air Rami,Kabupaten,Muko Muko,Bengkulu
1436,38881,Air Periukan,17.05.06.2005,Air Periukan,Kabupaten,Seluma,Bengkulu
1437,38881,Dermayu,17.05.06.1006,Air Periukan,Kabupaten,Seluma,Bengkulu
1438,38881,Keban Agung,17.05.06.2007,Air Periukan,Kabupaten,Seluma,Bengkulu
1439,38881,Kungkai Baru,17.05.06.2010,Air Periukan,Kabupaten,Seluma,Bengkulu
1440,38881,Lawang Agung,17.05.06.2012,Air Periukan,Kabupaten,Seluma,Bengkulu
1441,38881,Lokasi Baru,17.05.06.2016,Air Periukan,Kabupaten,Seluma,Bengkulu
1442,38881,Lubuk Gilang,17.05.06.2015,Air Periukan,Kabupaten,Seluma,Bengkulu
1443,38881,Padang Pelasan,17.05.06.2004,Air Periukan,Kabupaten,Seluma,Bengkulu
1444,38881,Pasar Ngalam,17.05.06.2008,Air Periukan,Kabupaten,Seluma,Bengkulu
1445,38881,Sukamaju (Suka Maju),17.05.06.2001,Air Periukan,Kabupaten,Seluma,Bengkulu
1446,38881,Sukasari,17.05.06.2009,Air Periukan,Kabupaten,Seluma,Bengkulu
1447,38881,Taba Lubuk Puding,17.05.06.2013,Air Periukan,Kabupaten,Seluma,Bengkulu
1448,38881,Talang Alai,17.05.06.2002,Air Periukan,Kabupaten,Seluma,Bengkulu
1449,38881,Talang Benuang,17.05.06.2003,Air Periukan,Kabupaten,Seluma,Bengkulu
1450,38881,Talang Sebaris,17.05.06.2014,Air Periukan,Kabupaten,Seluma,Bengkulu
1451,38881,Tawang Rejo,17.05.06.2011,Air Periukan,Kabupaten,Seluma,Bengkulu
1452,38653,Balam,17.03.20.2004,Air Padang,Kabupaten,Bengkulu Utara,Bengkulu
1453,38653,Kembang Manis,17.03.20.2002,Air Padang,Kabupaten,Bengkulu Utara,Bengkulu
1454,38653,Lubuk Mumpo,17.03.20.2008,Air Padang,Kabupaten,Bengkulu Utara,Bengkulu
1455,38653,Mesigit,17.03.20.2006,Air Padang,Kabupaten,Bengkulu Utara,Bengkulu
1456,38653,Padang Kala,17.03.20.2001,Air Padang,Kabupaten,Bengkulu Utara,Bengkulu
1457,38653,Retes,17.03.20.2007,Air Padang,Kabupaten,Bengkulu Utara,Bengkulu
1458,38653,Suka Rami (Sukarami),17.03.20.2005,Air Padang,Kabupaten,Bengkulu Utara,Bengkulu
1459,38653,Talang Ulu,17.03.20.2009,Air Padang,Kabupaten,Bengkulu Utara,Bengkulu
1460,38653,Tanjung Aur,17.03.20.2010,Air Padang,Kabupaten,Bengkulu Utara,Bengkulu
1461,38653,Teluk Ajang,17.03.20.2003,Air Padang,Kabupaten,Bengkulu Utara,Bengkulu
1462,38571,Keban Jati,17.01.08.2001,Air Nipis,Kabupaten,Bengkulu Selatan,Bengkulu
1463,38571,Maras,17.01.08.2010,Air Nipis,Kabupaten,Bengkulu Selatan,Bengkulu
1464,38571,Palak Bengkerung,17.01.08.2005,Air Nipis,Kabupaten,Bengkulu Selatan,Bengkulu
1465,38571,Penandingan,17.01.08.2008,Air Nipis,Kabupaten,Bengkulu Selatan,Bengkulu
1466,38571,Pino Baru,17.01.08.2007,Air Nipis,Kabupaten,Bengkulu Selatan,Bengkulu
1467,38571,Suka Bandung,17.01.08.2009,Air Nipis,Kabupaten,Bengkulu Selatan,Bengkulu
1468,38571,Suka Negeri,17.01.08.2003,Air Nipis,Kabupaten,Bengkulu Selatan,Bengkulu
1469,38571,Sukamaju (Suka Maju),17.01.08.2006,Air Nipis,Kabupaten,Bengkulu Selatan,Bengkulu
1470,38571,Sukarami,17.01.08.2004,Air Nipis,Kabupaten,Bengkulu Selatan,Bengkulu
1471,38571,Tanjung Beringin,17.01.08.2002,Air Nipis,Kabupaten,Bengkulu Selatan,Bengkulu
1472,38373,Air Napal,17.03.16.2005,Air Napal,Kabupaten,Bengkulu Utara,Bengkulu
1473,38373,Lubuk Tanjung,17.03.16.2009,Air Napal,Kabupaten,Bengkulu Utara,Bengkulu
1474,38373,Pasar Bembah (Pasar Bemba),17.03.16.2001,Air Napal,Kabupaten,Bengkulu Utara,Bengkulu
1475,38373,Pasar Kerkap,17.03.16.2003,Air Napal,Kabupaten,Bengkulu Utara,Bengkulu
1476,38373,Pasar Palik,17.03.16.2014,Air Napal,Kabupaten,Bengkulu Utara,Bengkulu
1477,38373,Pasar Tebat,17.03.16.2008,Air Napal,Kabupaten,Bengkulu Utara,Bengkulu
1478,38373,Pukur (Dusun Pukur),17.03.16.2011,Air Napal,Kabupaten,Bengkulu Utara,Bengkulu
1479,38373,Selubuk,17.03.16.2007,Air Napal,Kabupaten,Bengkulu Utara,Bengkulu
1480,38373,Talang Jarang,17.03.16.2016,Air Napal,Kabupaten,Bengkulu Utara,Bengkulu
1481,38373,Talang Kering,17.03.16.2006,Air Napal,Kabupaten,Bengkulu Utara,Bengkulu
1482,38373,Tebing Kandang,17.03.16.2015,Air Napal,Kabupaten,Bengkulu Utara,Bengkulu
1483,38373,Tepi Laut (Tepian Laut),17.03.16.2002,Air Napal,Kabupaten,Bengkulu Utara,Bengkulu
1484,38767,Agung Jaya,17.06.13.2004,Air Majunto,Kabupaten,Muko Muko,Bengkulu
1485,38767,Kota Praja,17.06.13.2006,Air Majunto,Kabupaten,Muko Muko,Bengkulu
1486,38767,Manjunto Jaya,17.06.13.2002,Air Majunto,Kabupaten,Muko Muko,Bengkulu
1487,38767,Pondok Makmur,17.06.13.2001,Air Majunto,Kabupaten,Muko Muko,Bengkulu
1488,38767,Sido Makmur,17.06.13.2008,Air Majunto,Kabupaten,Muko Muko,Bengkulu
1489,38767,Sinar Jaya,17.06.13.2007,Air Majunto,Kabupaten,Muko Muko,Bengkulu
1490,38767,Tirta Makmur,17.06.13.2003,Air Majunto,Kabupaten,Muko Muko,Bengkulu
1491,38767,Tirta Mulya,17.06.13.2005,Air Majunto,Kabupaten,Muko Muko,Bengkulu
1492,38765,Air Dikit,17.06.14.2002,Air Dikit,Kabupaten,Muko Muko,Bengkulu
1493,38765,Air Kasai,17.06.14.2007,Air Dikit,Kabupaten,Muko Muko,Bengkulu
1494,38765,Dusun Baru V Koto,17.06.14.2001,Air Dikit,Kabupaten,Muko Muko,Bengkulu
1495,38765,Pondok Lunang,17.06.14.2003,Air Dikit,Kabupaten,Muko Muko,Bengkulu
1496,38765,Sari Bulan,17.06.14.2004,Air Dikit,Kabupaten,Muko Muko,Bengkulu
1497,38765,Sari Makmur,17.06.14.2005,Air Dikit,Kabupaten,Muko Muko,Bengkulu
1498,38765,Sumber Sari,17.06.14.2006,Air Dikit,Kabupaten,Muko Muko,Bengkulu
1499,38575,Curup (Dusun Curup),17.03.15.2016,Air Besi,Kabupaten,Bengkulu Utara,Bengkulu
1500,38575,Datar Mancang (Datar Macang),17.03.15.2005,Air Besi,Kabupaten,Bengkulu Utara,Bengkulu
1501,38575,Genting Perangkap,17.03.15.2003,Air Besi,Kabupaten,Bengkulu Utara,Bengkulu
1502,38575,Kertapati,17.03.15.2010,Air Besi,Kabupaten,Bengkulu Utara,Bengkulu
1503,38575,Kota Agung,17.03.15.2008,Air Besi,Kabupaten,Bengkulu Utara,Bengkulu
1504,38575,Lubuk Balam,17.03.15.2004,Air Besi,Kabupaten,Bengkulu Utara,Bengkulu
1505,38575,Penyangkak,17.03.15.2017,Air Besi,Kabupaten,Bengkulu Utara,Bengkulu
1506,38575,Sungai Pura,17.03.15.2015,Air Besi,Kabupaten,Bengkulu Utara,Bengkulu
1507,38575,Talang Ginting,17.03.15.2014,Air Besi,Kabupaten,Bengkulu Utara,Bengkulu
1508,38575,Talang Lembak,17.03.15.2009,Air Besi,Kabupaten,Bengkulu Utara,Bengkulu
1509,38575,Talang Pungguk,17.03.15.2011,Air Besi,Kabupaten,Bengkulu Utara,Bengkulu
1510,38575,Talang Renah,17.03.15.2007,Air Besi,Kabupaten,Bengkulu Utara,Bengkulu
1511,38575,Tanjung Genting,17.03.15.2006,Air Besi,Kabupaten,Bengkulu Utara,Bengkulu
1512,38575,Tanjung Karet,17.03.15.2013,Air Besi,Kabupaten,Bengkulu Utara,Bengkulu
1513,38575,Teluk Baru Ginting (Talang Baru Ginting),17.03.15.2012,Air Besi,Kabupaten,Bengkulu Utara,Bengkulu