no,postal_code,urban,area_code,sub_district,dt2,city,province
1,96262,Bongo II (Bongo Dua),75.02.02.2002,Wonosari,Kabupaten,Boalemo,Gorontalo
2,96262,Bongo III (Bongo Tiga),75.02.02.2003,Wonosari,Kabupaten,Boalemo,Gorontalo
3,96262,Dimito,75.02.02.2010,Wonosari,Kabupaten,Boalemo,Gorontalo
4,96262,Dulohupa,75.02.02.2014,Wonosari,Kabupaten,Boalemo,Gorontalo
5,96262,Harapan,75.02.02.2001,Wonosari,Kabupaten,Boalemo,Gorontalo
6,96262,Jatimulya,75.02.02.2007,Wonosari,Kabupaten,Boalemo,Gorontalo
7,96262,Mekarjaya (Mekar Jaya),75.02.02.2004,Wonosari,Kabupaten,Boalemo,Gorontalo
8,96262,Pangeya,75.02.02.2006,Wonosari,Kabupaten,Boalemo,Gorontalo
9,96262,Raharja,75.02.02.2012,Wonosari,Kabupaten,Boalemo,Gorontalo
10,96262,Sari Tani,75.02.02.2009,Wonosari,Kabupaten,Boalemo,Gorontalo
11,96262,Suka Mulya (Sukamulya),75.02.02.2008,Wonosari,Kabupaten,Boalemo,Gorontalo
12,96262,Sukamaju,75.02.02.2005,Wonosari,Kabupaten,Boalemo,Gorontalo
13,96262,Tanjung Harapan,75.02.02.2011,Wonosari,Kabupaten,Boalemo,Gorontalo
14,96262,Trirukun (Tri Rukun),75.02.02.2013,Wonosari,Kabupaten,Boalemo,Gorontalo
15,96465,Bohusami,75.04.11.2003,Wanggarasi,Kabupaten,Pahuwato,Gorontalo
16,96465,Bukit Harapan,75.04.11.2002,Wanggarasi,Kabupaten,Pahuwato,Gorontalo
17,96465,Lembah Permai (Lembah Malango II),75.04.11.2004,Wanggarasi,Kabupaten,Pahuwato,Gorontalo
18,96469,Limbula,75.04.11.2005,Wanggarasi,Kabupaten,Pahuwato,Gorontalo
19,96469,Tuweya,75.04.11.2007,Wanggarasi,Kabupaten,Pahuwato,Gorontalo
20,96465,Wanggarasi (Wonggarasi Timur),75.04.11.2001,Wanggarasi,Kabupaten,Pahuwato,Gorontalo
21,96469,Yipilo,75.04.11.2006,Wanggarasi,Kabupaten,Pahuwato,Gorontalo
22,96512,Bubode,75.05.07.2004,Tomilito (Tomolito),Kabupaten,Gorontalo Utara,Gorontalo
23,96512,Bulango Raya,75.05.07.2008,Tomilito (Tomolito),Kabupaten,Gorontalo Utara,Gorontalo
24,96512,Dambalo,75.05.07.2001,Tomilito (Tomolito),Kabupaten,Gorontalo Utara,Gorontalo
25,96512,Huidu Melito,75.05.07.2007,Tomilito (Tomolito),Kabupaten,Gorontalo Utara,Gorontalo
26,96512,Jembatan Merah,75.05.07.2003,Tomilito (Tomolito),Kabupaten,Gorontalo Utara,Gorontalo
27,96512,Leyao,75.05.07.2005,Tomilito (Tomolito),Kabupaten,Gorontalo Utara,Gorontalo
28,96512,Milango,75.05.07.2002,Tomilito (Tomolito),Kabupaten,Gorontalo Utara,Gorontalo
29,96512,Molantadu,75.05.07.2006,Tomilito (Tomolito),Kabupaten,Gorontalo Utara,Gorontalo
30,96512,Mutiara Laut,75.05.07.2010,Tomilito (Tomolito),Kabupaten,Gorontalo Utara,Gorontalo
31,96512,Tanjung Karang,75.05.07.2009,Tomilito (Tomolito),Kabupaten,Gorontalo Utara,Gorontalo
32,96524,Cempaka Putih,75.05.05.2011,Tolinggula,Kabupaten,Gorontalo Utara,Gorontalo
33,96524,Ilomangga,75.05.05.2017,Tolinggula,Kabupaten,Gorontalo Utara,Gorontalo
34,96524,Ilotunggulo,75.05.05.2018,Tolinggula,Kabupaten,Gorontalo Utara,Gorontalo
35,96524,Limbato,75.05.05.2006,Tolinggula,Kabupaten,Gorontalo Utara,Gorontalo
36,96524,Molangga,75.05.05.2008,Tolinggula,Kabupaten,Gorontalo Utara,Gorontalo
37,96524,Papulangi (Papualangi),75.05.05.2007,Tolinggula,Kabupaten,Gorontalo Utara,Gorontalo
38,96524,Tolinggula Pantai,75.05.05.2002,Tolinggula,Kabupaten,Gorontalo Utara,Gorontalo
39,96524,Tolinggula Tengah,75.05.05.2001,Tolinggula,Kabupaten,Gorontalo Utara,Gorontalo
40,96524,Tolinggula Ulu,75.05.05.2003,Tolinggula,Kabupaten,Gorontalo Utara,Gorontalo
41,96524,Tolite Jaya,75.05.05.2014,Tolinggula,Kabupaten,Gorontalo Utara,Gorontalo
42,96222,Bina Jaya,75.01.13.2008,Tolangohula,Kabupaten,Gorontalo,Gorontalo
43,96222,Gandaria,75.01.13.2016,Tolangohula,Kabupaten,Gorontalo,Gorontalo
44,96222,Gandasari,75.01.13.2003,Tolangohula,Kabupaten,Gorontalo,Gorontalo
45,96222,Himalaya,75.01.13.2019,Tolangohula,Kabupaten,Gorontalo,Gorontalo
46,96222,Lakeya,75.01.13.2002,Tolangohula,Kabupaten,Gorontalo,Gorontalo
47,96222,Makmur Abadi,75.01.13.2015,Tolangohula,Kabupaten,Gorontalo,Gorontalo
48,96222,Margomulya (Margomulyo),75.01.13.2014,Tolangohula,Kabupaten,Gorontalo,Gorontalo
49,96222,Molohu,75.01.13.2004,Tolangohula,Kabupaten,Gorontalo,Gorontalo
50,96222,Ombulo Tango,75.01.13.2017,Tolangohula,Kabupaten,Gorontalo,Gorontalo
51,96222,Polohungo,75.01.13.2007,Tolangohula,Kabupaten,Gorontalo,Gorontalo
52,96222,Sidoharjo (Sidoarjo),75.01.13.2010,Tolangohula,Kabupaten,Gorontalo,Gorontalo
53,96222,Sukamakmur,75.01.13.2001,Tolangohula,Kabupaten,Gorontalo,Gorontalo
54,96222,Sukamakmur Utara,75.01.13.2013,Tolangohula,Kabupaten,Gorontalo,Gorontalo
55,96222,Tamaila,75.01.13.2009,Tolangohula,Kabupaten,Gorontalo,Gorontalo
56,96222,Tamalia Utara,75.01.13.2018,Tolangohula,Kabupaten,Gorontalo,Gorontalo
57,96554,Berlian,75.03.06.2014,Tilongkabila,Kabupaten,Bone Bolango,Gorontalo
58,96554,Bongohulawa (Bongohulowa),75.03.06.2013,Tilongkabila,Kabupaten,Bone Bolango,Gorontalo
59,96554,Bongoime,75.03.06.2001,Tilongkabila,Kabupaten,Bone Bolango,Gorontalo
60,96554,Bongopini,75.03.06.2002,Tilongkabila,Kabupaten,Bone Bolango,Gorontalo
61,96554,Butu,75.03.06.2010,Tilongkabila,Kabupaten,Bone Bolango,Gorontalo
62,96554,Iloheluma,75.03.06.2008,Tilongkabila,Kabupaten,Bone Bolango,Gorontalo
63,96554,Lonuo,75.03.06.2006,Tilongkabila,Kabupaten,Bone Bolango,Gorontalo
64,96554,Motilango (Mootilango),75.03.06.2009,Tilongkabila,Kabupaten,Bone Bolango,Gorontalo
65,96554,Moutong,75.03.06.2004,Tilongkabila,Kabupaten,Bone Bolango,Gorontalo
66,96554,Permata,75.03.06.2011,Tilongkabila,Kabupaten,Bone Bolango,Gorontalo
67,96554,Tamboo,75.03.06.2007,Tilongkabila,Kabupaten,Bone Bolango,Gorontalo
68,96554,Toto Utara,75.03.06.2003,Tilongkabila,Kabupaten,Bone Bolango,Gorontalo
69,96554,Tunggulo,75.03.06.2005,Tilongkabila,Kabupaten,Bone Bolango,Gorontalo
70,96554,Tunggulo Selatan,75.03.06.2012,Tilongkabila,Kabupaten,Bone Bolango,Gorontalo
71,96182,Dulomo,75.01.18.2002,Tilango,Kabupaten,Gorontalo,Gorontalo
72,96182,Ilotidea (Ilotideaa),75.01.18.2005,Tilango,Kabupaten,Gorontalo,Gorontalo
73,96182,Lauwonu,75.01.18.2006,Tilango,Kabupaten,Gorontalo,Gorontalo
74,96182,Tabumela,75.01.18.2004,Tilango,Kabupaten,Gorontalo,Gorontalo
75,96182,Tenggela,75.01.18.2007,Tilango,Kabupaten,Gorontalo,Gorontalo
76,96182,Tilote,75.01.18.2003,Tilango,Kabupaten,Gorontalo,Gorontalo
77,96182,Tinelo,75.01.18.2008,Tilango,Kabupaten,Gorontalo,Gorontalo
78,96182,Tualango,75.01.18.2001,Tilango,Kabupaten,Gorontalo,Gorontalo
79,96263,Ayuhulalo,75.02.04.2003,Tilamuta,Kabupaten,Boalemo,Gorontalo
80,96263,Bajo,75.02.04.2008,Tilamuta,Kabupaten,Boalemo,Gorontalo
81,96263,Hungayonaa,75.02.04.2004,Tilamuta,Kabupaten,Boalemo,Gorontalo
82,96263,Lahumbo,75.02.04.2010,Tilamuta,Kabupaten,Boalemo,Gorontalo
83,96263,Lamu,75.02.04.2011,Tilamuta,Kabupaten,Boalemo,Gorontalo
84,96263,Limbato,75.02.04.2001,Tilamuta,Kabupaten,Boalemo,Gorontalo
85,96263,Modelomo,75.02.04.2005,Tilamuta,Kabupaten,Boalemo,Gorontalo
86,96263,Mohungo,75.02.04.2009,Tilamuta,Kabupaten,Boalemo,Gorontalo
87,96263,Pentadu Barat,75.02.04.2006,Tilamuta,Kabupaten,Boalemo,Gorontalo
88,96263,Pentadu Timur,75.02.04.2007,Tilamuta,Kabupaten,Boalemo,Gorontalo
89,96263,Piloliyanga,75.02.04.2002,Tilamuta,Kabupaten,Boalemo,Gorontalo
90,96263,Tenilo,75.02.04.2018,Tilamuta,Kabupaten,Boalemo,Gorontalo
91,96231,Balahu,75.01.04.2014,Tibawa,Kabupaten,Gorontalo,Gorontalo
92,96231,Botumoputi,75.01.04.2015,Tibawa,Kabupaten,Gorontalo,Gorontalo
93,96231,Buhu,75.01.04.2007,Tibawa,Kabupaten,Gorontalo,Gorontalo
94,96231,Datahu,75.01.04.2003,Tibawa,Kabupaten,Gorontalo,Gorontalo
95,96231,Dunggala,75.01.04.2008,Tibawa,Kabupaten,Gorontalo,Gorontalo
96,96231,Ilomata,75.01.04.2011,Tibawa,Kabupaten,Gorontalo,Gorontalo
97,96231,Iloponu,75.01.04.2010,Tibawa,Kabupaten,Gorontalo,Gorontalo
98,96231,Isimu Raya,75.01.04.2013,Tibawa,Kabupaten,Gorontalo,Gorontalo
99,96231,Isimu Selatan,75.01.04.2002,Tibawa,Kabupaten,Gorontalo,Gorontalo
100,96231,Isimu Utara,75.01.04.2001,Tibawa,Kabupaten,Gorontalo,Gorontalo
101,96231,Labanu,75.01.04.2005,Tibawa,Kabupaten,Gorontalo,Gorontalo
102,96231,Molowahu,75.01.04.2009,Tibawa,Kabupaten,Gorontalo,Gorontalo
103,96231,Motilango,75.01.04.2012,Tibawa,Kabupaten,Gorontalo,Gorontalo
104,96231,Reksonegoro,75.01.04.2006,Tibawa,Kabupaten,Gorontalo,Gorontalo
105,96231,Tolotio,75.01.04.2004,Tibawa,Kabupaten,Gorontalo,Gorontalo
106,96231,Ulobua,75.01.04.2016,Tibawa,Kabupaten,Gorontalo,Gorontalo
107,96183,Dulamayo Utara,75.01.10.2001,Telaga Biru,Kabupaten,Gorontalo,Gorontalo
108,96183,Dumati,75.01.10.2010,Telaga Biru,Kabupaten,Gorontalo,Gorontalo
109,96183,Lupoyo,75.01.10.2007,Telaga Biru,Kabupaten,Gorontalo,Gorontalo
110,96183,Modelidu (Modellidu),75.01.10.2011,Telaga Biru,Kabupaten,Gorontalo,Gorontalo
111,96183,Pantungo,75.01.10.2006,Telaga Biru,Kabupaten,Gorontalo,Gorontalo
112,96183,Pentadio Barat,75.01.10.2009,Telaga Biru,Kabupaten,Gorontalo,Gorontalo
113,96183,Pentadio Timur,75.01.10.2008,Telaga Biru,Kabupaten,Gorontalo,Gorontalo
114,96183,Talumelito,75.01.10.2004,Telaga Biru,Kabupaten,Gorontalo,Gorontalo
115,96183,Tapaluluo,75.01.10.2014,Telaga Biru,Kabupaten,Gorontalo,Gorontalo
116,96183,Timuato,75.01.10.2013,Telaga Biru,Kabupaten,Gorontalo,Gorontalo
117,96183,Tinelo,75.01.10.2012,Telaga Biru,Kabupaten,Gorontalo,Gorontalo
118,96183,Tonala,75.01.10.2015,Telaga Biru,Kabupaten,Gorontalo,Gorontalo
119,96183,Tuladenggi,75.01.10.2005,Telaga Biru,Kabupaten,Gorontalo,Gorontalo
120,96183,Ulapato A,75.01.10.2002,Telaga Biru,Kabupaten,Gorontalo,Gorontalo
121,96183,Ulapato B,75.01.10.2003,Telaga Biru,Kabupaten,Gorontalo,Gorontalo
122,96181,Bulila,75.01.02.2011,Telaga,Kabupaten,Gorontalo,Gorontalo
123,96181,Dulamayo Barat,75.01.02.2019,Telaga,Kabupaten,Gorontalo,Gorontalo
124,96181,Dulamayo Selatan,75.01.02.2018,Telaga,Kabupaten,Gorontalo,Gorontalo
125,96181,Dulohupa,75.01.02.2020,Telaga,Kabupaten,Gorontalo,Gorontalo
126,96181,Hulawa,75.01.02.2016,Telaga,Kabupaten,Gorontalo,Gorontalo
127,96181,Luhu,75.01.02.2015,Telaga,Kabupaten,Gorontalo,Gorontalo
128,96181,Mongolato,75.01.02.2014,Telaga,Kabupaten,Gorontalo,Gorontalo
129,96181,Pilohayanga,75.01.02.2017,Telaga,Kabupaten,Gorontalo,Gorontalo
130,96181,Pilohayanga Barat,75.01.02.2021,Telaga,Kabupaten,Gorontalo,Gorontalo
131,96545,Dunggala,75.03.01.2006,Tapa,Kabupaten,Bone Bolango,Gorontalo
132,96545,Keramat,75.03.01.2028,Tapa,Kabupaten,Bone Bolango,Gorontalo
133,96545,Langge,75.03.01.2007,Tapa,Kabupaten,Bone Bolango,Gorontalo
134,96545,Meranti,75.03.01.2029,Tapa,Kabupaten,Bone Bolango,Gorontalo
135,96545,Talulobutu,75.03.01.2005,Tapa,Kabupaten,Bone Bolango,Gorontalo
136,96545,Talulobutu Selatan,75.03.01.2027,Tapa,Kabupaten,Bone Bolango,Gorontalo
137,96545,Talumopatu,75.03.01.2004,Tapa,Kabupaten,Bone Bolango,Gorontalo
138,96464,Kalimas,75.04.07.2004,Taluditi (Taluduti),Kabupaten,Pahuwato,Gorontalo
139,96464,Makarti Jaya,75.04.07.2003,Taluditi (Taluduti),Kabupaten,Pahuwato,Gorontalo
140,96464,Malango,75.04.07.2005,Taluditi (Taluduti),Kabupaten,Pahuwato,Gorontalo
141,96464,Marisa IV,75.04.07.2006,Taluditi (Taluduti),Kabupaten,Pahuwato,Gorontalo
142,96464,Pancakarsa I (Panca Karsa I),75.04.07.2001,Taluditi (Taluduti),Kabupaten,Pahuwato,Gorontalo
143,96464,Pancakarsa II (Panca Karsa II),75.04.07.2002,Taluditi (Taluduti),Kabupaten,Pahuwato,Gorontalo
144,96464,Tirto Asri,75.04.07.2007,Taluditi (Taluduti),Kabupaten,Pahuwato,Gorontalo
145,96184,Buhu,75.01.22.2002,Talaga Jaya (Telaga Jaya),Kabupaten,Gorontalo,Gorontalo
146,96184,Bulota,75.01.22.2005,Talaga Jaya (Telaga Jaya),Kabupaten,Gorontalo,Gorontalo
147,96184,Bunggalo,75.01.22.2004,Talaga Jaya (Telaga Jaya),Kabupaten,Gorontalo,Gorontalo
148,96184,Hutadaa,75.01.22.2001,Talaga Jaya (Telaga Jaya),Kabupaten,Gorontalo,Gorontalo
149,96184,Luwoo,75.01.22.2003,Talaga Jaya (Telaga Jaya),Kabupaten,Gorontalo,Gorontalo
150,96242,Ilomangga,75.01.19.2005,Tabongo,Kabupaten,Gorontalo,Gorontalo
151,96242,Limehe Barat,75.01.19.2003,Tabongo,Kabupaten,Gorontalo,Gorontalo
152,96242,Limehe Timur,75.01.19.2004,Tabongo,Kabupaten,Gorontalo,Gorontalo
153,96242,Limehu,75.01.19.2009,Tabongo,Kabupaten,Gorontalo,Gorontalo
154,96242,Moahudu,75.01.19.2007,Tabongo,Kabupaten,Gorontalo,Gorontalo
155,96242,Motinelo,75.01.19.2006,Tabongo,Kabupaten,Gorontalo,Gorontalo
156,96242,Tabongo Barat,75.01.19.2002,Tabongo,Kabupaten,Gorontalo,Gorontalo
157,96242,Tabongo Timur,75.01.19.2001,Tabongo,Kabupaten,Gorontalo,Gorontalo
158,96242,Teratai,75.01.19.2008,Tabongo,Kabupaten,Gorontalo,Gorontalo
159,96565,Dumbaya Bulan (Dumbayabulan),75.03.11.2003,Suwawa Timur,Kabupaten,Bone Bolango,Gorontalo
160,96565,Panggulo,75.03.11.2008,Suwawa Timur,Kabupaten,Bone Bolango,Gorontalo
161,96565,Pangi,75.03.11.2010,Suwawa Timur,Kabupaten,Bone Bolango,Gorontalo
162,96565,Poduwoma (Poduoma),75.03.11.2007,Suwawa Timur,Kabupaten,Bone Bolango,Gorontalo
163,96565,Tilangobula,75.03.11.2005,Suwawa Timur,Kabupaten,Bone Bolango,Gorontalo
164,96565,Tinemba,75.03.11.2011,Suwawa Timur,Kabupaten,Bone Bolango,Gorontalo
165,96565,Tulabolo,75.03.11.2001,Suwawa Timur,Kabupaten,Bone Bolango,Gorontalo
166,96565,Tulabolo Barat,75.03.11.2009,Suwawa Timur,Kabupaten,Bone Bolango,Gorontalo
167,96565,Tulabolo Timur,75.03.11.2004,Suwawa Timur,Kabupaten,Bone Bolango,Gorontalo
168,96564,Alale (Alele),75.03.13.2005,Suwawa Tengah,Kabupaten,Bone Bolango,Gorontalo
169,96564,Duano,75.03.13.2003,Suwawa Tengah,Kabupaten,Bone Bolango,Gorontalo
170,96564,Lombongo,75.03.13.2002,Suwawa Tengah,Kabupaten,Bone Bolango,Gorontalo
171,96564,Lompotoo,75.03.13.2001,Suwawa Tengah,Kabupaten,Bone Bolango,Gorontalo
172,96564,Tapadaa,75.03.13.2006,Suwawa Tengah,Kabupaten,Bone Bolango,Gorontalo
173,96564,Tolomato,75.03.13.2004,Suwawa Tengah,Kabupaten,Bone Bolango,Gorontalo
174,96563,Bondaraya (Bonda Raya),75.03.12.2008,Suwawa Selatan,Kabupaten,Bone Bolango,Gorontalo
175,96563,Bondawuna,75.03.12.2005,Suwawa Selatan,Kabupaten,Bone Bolango,Gorontalo
176,96563,Bonedaa,75.03.12.2004,Suwawa Selatan,Kabupaten,Bone Bolango,Gorontalo
177,96563,Bulontala,75.03.12.2001,Suwawa Selatan,Kabupaten,Bone Bolango,Gorontalo
178,96563,Bulontala Timur,75.03.12.2006,Suwawa Selatan,Kabupaten,Bone Bolango,Gorontalo
179,96563,Libungo,75.03.12.2002,Suwawa Selatan,Kabupaten,Bone Bolango,Gorontalo
180,96563,Molintogupo,75.03.12.2003,Suwawa Selatan,Kabupaten,Bone Bolango,Gorontalo
181,96563,Pancuran,75.03.12.2007,Suwawa Selatan,Kabupaten,Bone Bolango,Gorontalo
182,96562,Boludawa,75.03.03.2012,Suwawa,Kabupaten,Bone Bolango,Gorontalo
183,96562,Bube,75.03.03.2013,Suwawa,Kabupaten,Bone Bolango,Gorontalo
184,96562,Bube Baru,75.03.03.2023,Suwawa,Kabupaten,Bone Bolango,Gorontalo
185,96562,Bubeya,75.03.03.2022,Suwawa,Kabupaten,Bone Bolango,Gorontalo
186,96562,Helumo,75.03.03.2028,Suwawa,Kabupaten,Bone Bolango,Gorontalo
187,96562,Huluduotamo,75.03.03.2014,Suwawa,Kabupaten,Bone Bolango,Gorontalo
188,96562,Tinelo,75.03.03.2021,Suwawa,Kabupaten,Bone Bolango,Gorontalo
189,96562,Tingkohubu,75.03.03.2011,Suwawa,Kabupaten,Bone Bolango,Gorontalo
190,96562,Tingkohubu Timur,75.03.03.2027,Suwawa,Kabupaten,Bone Bolango,Gorontalo
191,96562,Ulanta,75.03.03.2020,Suwawa,Kabupaten,Bone Bolango,Gorontalo
192,96515,Bubalango,75.05.11.2008,Sumalata Timur,Kabupaten,Gorontalo Utara,Gorontalo
193,96515,Buladu,75.05.11.2005,Sumalata Timur,Kabupaten,Gorontalo Utara,Gorontalo
194,96515,Buluwatu,75.05.11.2002,Sumalata Timur,Kabupaten,Gorontalo Utara,Gorontalo
195,96515,Deme Dua (Deme II),75.05.11.2004,Sumalata Timur,Kabupaten,Gorontalo Utara,Gorontalo
196,96515,Deme Satu (Deme I),75.05.11.2001,Sumalata Timur,Kabupaten,Gorontalo Utara,Gorontalo
197,96515,Dulukapa,75.05.11.2003,Sumalata Timur,Kabupaten,Gorontalo Utara,Gorontalo
198,96515,Hulawa,75.05.11.2006,Sumalata Timur,Kabupaten,Gorontalo Utara,Gorontalo
199,96515,Koluwoka,75.05.11.2010,Sumalata Timur,Kabupaten,Gorontalo Utara,Gorontalo
200,96515,Motiheluma (Motihelumo),75.05.11.2009,Sumalata Timur,Kabupaten,Gorontalo Utara,Gorontalo
201,96515,Wubudu,75.05.11.2007,Sumalata Timur,Kabupaten,Gorontalo Utara,Gorontalo
202,96514,Buloila,75.05.04.2007,Sumalata,Kabupaten,Gorontalo Utara,Gorontalo
203,96514,Bulontiyo Barat (Bulontio Barat),75.05.04.2002,Sumalata,Kabupaten,Gorontalo Utara,Gorontalo
204,96514,Bulontiyo Timur (Bulontio Timur),75.05.04.2001,Sumalata,Kabupaten,Gorontalo Utara,Gorontalo
205,96514,Hutakalo,75.05.04.2020,Sumalata,Kabupaten,Gorontalo Utara,Gorontalo
206,96514,Kasia,75.05.04.2009,Sumalata,Kabupaten,Gorontalo Utara,Gorontalo
207,96514,Kikia,75.05.04.2010,Sumalata,Kabupaten,Gorontalo Utara,Gorontalo
208,96514,Lelato,75.05.04.2014,Sumalata,Kabupaten,Gorontalo Utara,Gorontalo
209,96514,Mebongo,75.05.04.2013,Sumalata,Kabupaten,Gorontalo Utara,Gorontalo
210,96514,Pulohenti,75.05.04.2016,Sumalata,Kabupaten,Gorontalo Utara,Gorontalo
211,96514,Puncak Mandiri,75.05.04.2019,Sumalata,Kabupaten,Gorontalo Utara,Gorontalo
212,96514,Tumba,75.05.04.2012,Sumalata,Kabupaten,Gorontalo Utara,Gorontalo
213,96124,Bulotadaa Barat,75.71.07.1003,Sipatana,Kota,Gorontalo,Gorontalo
214,96121,Bulotadaa Timur,75.71.07.1004,Sipatana,Kota,Gorontalo,Gorontalo
215,96126,Molosifat U (Molosipat U),75.71.07.1005,Sipatana,Kota,Gorontalo,Gorontalo
216,96126,Tanggikiki,75.71.07.1001,Sipatana,Kota,Gorontalo,Gorontalo
217,96125,Tapa,75.71.07.1002,Sipatana,Kota,Gorontalo,Gorontalo
218,96469,Ayula,75.04.03.2013,Randangan,Kabupaten,Pahuwato,Gorontalo
219,96469,Banuroja,75.04.03.2015,Randangan,Kabupaten,Pahuwato,Gorontalo
220,96469,Huyula,75.04.03.2009,Randangan,Kabupaten,Pahuwato,Gorontalo
221,96469,Imbodu,75.04.03.2002,Randangan,Kabupaten,Pahuwato,Gorontalo
222,96469,Manunggal Karya,75.04.03.2003,Randangan,Kabupaten,Pahuwato,Gorontalo
223,96469,Motolohu,75.04.03.2001,Randangan,Kabupaten,Pahuwato,Gorontalo
224,96469,Motolohu Selatan,75.04.03.2017,Randangan,Kabupaten,Pahuwato,Gorontalo
225,96469,Omayuwa,75.04.03.2012,Randangan,Kabupaten,Pahuwato,Gorontalo
226,96469,Patuhu,75.04.03.2014,Randangan,Kabupaten,Pahuwato,Gorontalo
227,96469,Pelambane (Pelambane Perda),75.04.03.2016,Randangan,Kabupaten,Pahuwato,Gorontalo
228,96469,Sarimurni (Sari Murni),75.04.03.2008,Randangan,Kabupaten,Pahuwato,Gorontalo
229,96469,Sidorukun,75.04.03.2004,Randangan,Kabupaten,Pahuwato,Gorontalo
230,96469,Sidowonge (Siduwonge),75.04.03.2018,Randangan,Kabupaten,Pahuwato,Gorontalo
231,96161,Ayumolingo,75.01.16.2010,Pulubala,Kabupaten,Gorontalo,Gorontalo
232,96162,Bakti,75.01.16.2004,Pulubala,Kabupaten,Gorontalo,Gorontalo
233,96163,Bukit Aren,75.01.16.2011,Pulubala,Kabupaten,Gorontalo,Gorontalo
234,96164,Molalahu,75.01.16.2006,Pulubala,Kabupaten,Gorontalo,Gorontalo
235,96165,Molamahu,75.01.16.2003,Pulubala,Kabupaten,Gorontalo,Gorontalo
236,96166,Mulyonegoro,75.01.16.2007,Pulubala,Kabupaten,Gorontalo,Gorontalo
237,96167,Pongongaila,75.01.16.2001,Pulubala,Kabupaten,Gorontalo,Gorontalo
238,96168,Pulubala,75.01.16.2002,Pulubala,Kabupaten,Gorontalo,Gorontalo
239,96169,Puncak,75.01.16.2008,Pulubala,Kabupaten,Gorontalo,Gorontalo
240,96171,Toyidito (Toydito),75.01.16.2009,Pulubala,Kabupaten,Gorontalo,Gorontalo
241,96172,Tridharma (Tridarma),75.01.16.2005,Pulubala,Kabupaten,Gorontalo,Gorontalo
242,96367,Bunto,75.04.12.2005,Popayato Timur,Kabupaten,Pahuwato,Gorontalo
243,96367,Kelapa Lima,75.04.12.2007,Popayato Timur,Kabupaten,Pahuwato,Gorontalo
244,96367,Londoun (Londuun),75.04.12.2002,Popayato Timur,Kabupaten,Pahuwato,Gorontalo
245,96367,Maleo,75.04.12.2006,Popayato Timur,Kabupaten,Pahuwato,Gorontalo
246,96367,Marisa,75.04.12.2003,Popayato Timur,Kabupaten,Pahuwato,Gorontalo
247,96367,Milangodaa,75.04.12.2001,Popayato Timur,Kabupaten,Pahuwato,Gorontalo
248,96367,Tahele,75.04.12.2004,Popayato Timur,Kabupaten,Pahuwato,Gorontalo
249,96467,Butungale,75.04.13.2005,Popayato Barat,Kabupaten,Pahuwato,Gorontalo
250,96467,Dudewulo,75.04.13.2001,Popayato Barat,Kabupaten,Pahuwato,Gorontalo
251,96467,Molosifat (Molosipat),75.04.13.2004,Popayato Barat,Kabupaten,Pahuwato,Gorontalo
252,96467,Molosifat Utara (Molosipat Utara),75.04.13.2007,Popayato Barat,Kabupaten,Pahuwato,Gorontalo
253,96467,Padengo,75.04.13.2003,Popayato Barat,Kabupaten,Pahuwato,Gorontalo
254,96467,Persatuan,75.04.13.2006,Popayato Barat,Kabupaten,Pahuwato,Gorontalo
255,96467,Tunas Jaya,75.04.13.2002,Popayato Barat,Kabupaten,Pahuwato,Gorontalo
256,96466,Bukit Tingki,75.04.01.2015,Popayato,Kabupaten,Pahuwato,Gorontalo
257,96466,Bumi Bahari,75.04.01.2020,Popayato,Kabupaten,Pahuwato,Gorontalo
258,96466,Dambalo,75.04.01.2018,Popayato,Kabupaten,Pahuwato,Gorontalo
259,96466,Popayato,75.04.01.2004,Popayato,Kabupaten,Pahuwato,Gorontalo
260,96466,Telaga,75.04.01.2008,Popayato,Kabupaten,Pahuwato,Gorontalo
261,96466,Telaga Biru,75.04.01.2019,Popayato,Kabupaten,Pahuwato,Gorontalo
262,96466,Torosiaje,75.04.01.2012,Popayato,Kabupaten,Pahuwato,Gorontalo
263,96466,Torosiaje Jaya,75.04.01.2003,Popayato,Kabupaten,Pahuwato,Gorontalo
264,96466,Trikora,75.04.01.2017,Popayato,Kabupaten,Pahuwato,Gorontalo
265,96466,Tunas Harapan,75.04.01.2016,Popayato,Kabupaten,Pahuwato,Gorontalo
266,96517,Malambe,75.05.08.2002,Ponelo Kepulauan,Kabupaten,Gorontalo Utara,Gorontalo
267,96517,Otiola,75.05.08.2003,Ponelo Kepulauan,Kabupaten,Gorontalo Utara,Gorontalo
268,96517,Ponelo,75.05.08.2001,Ponelo Kepulauan,Kabupaten,Gorontalo Utara,Gorontalo
269,96517,Tihengo,75.05.08.2004,Ponelo Kepulauan,Kabupaten,Gorontalo Utara,Gorontalo
270,96561,Bangio,75.03.18.2002,Pinogu,Kabupaten,Bone Bolango,Gorontalo
271,96561,Dataran Hijau,75.03.18.2003,Pinogu,Kabupaten,Bone Bolango,Gorontalo
272,96561,Pinogu,75.03.18.2001,Pinogu,Kabupaten,Bone Bolango,Gorontalo
273,96561,Pinogu Permai,75.03.18.2004,Pinogu,Kabupaten,Bone Bolango,Gorontalo
274,96561,Tilonggibila,75.03.18.2005,Pinogu,Kabupaten,Bone Bolango,Gorontalo
275,96366,Balayo,75.04.06.2002,Patilanggio,Kabupaten,Pahuwato,Gorontalo
276,96366,Dudepo,75.04.06.2006,Patilanggio,Kabupaten,Pahuwato,Gorontalo
277,96366,Dulomo,75.04.06.2005,Patilanggio,Kabupaten,Pahuwato,Gorontalo
278,96366,Iloheluma (Ilo Heluma),75.04.06.2001,Patilanggio,Kabupaten,Pahuwato,Gorontalo
279,96366,Manawa,75.04.06.2004,Patilanggio,Kabupaten,Pahuwato,Gorontalo
280,96366,Suka Makmur,75.04.06.2003,Patilanggio,Kabupaten,Pahuwato,Gorontalo
281,96261,Apitalawu (Apitalawo),75.02.07.2005,Paguyaman Pantai,Kabupaten,Boalemo,Gorontalo
282,96261,Bangga,75.02.07.2006,Paguyaman Pantai,Kabupaten,Boalemo,Gorontalo
283,96261,Bubaa,75.02.07.2001,Paguyaman Pantai,Kabupaten,Boalemo,Gorontalo
284,96261,Bukit Karya,75.02.07.2004,Paguyaman Pantai,Kabupaten,Boalemo,Gorontalo
285,96261,Limbatihu,75.02.07.2003,Paguyaman Pantai,Kabupaten,Boalemo,Gorontalo
286,96261,Lito,75.02.07.2002,Paguyaman Pantai,Kabupaten,Boalemo,Gorontalo
287,96261,Olibu,75.02.07.2008,Paguyaman Pantai,Kabupaten,Boalemo,Gorontalo
288,96261,Towayu,75.02.07.2007,Paguyaman Pantai,Kabupaten,Boalemo,Gorontalo
289,96260,Balate Jaya,75.02.01.2025,Paguyaman,Kabupaten,Boalemo,Gorontalo
290,96260,Batu Kramat,75.02.01.2020,Paguyaman,Kabupaten,Boalemo,Gorontalo
291,96260,Bongo IV,75.02.01.2005,Paguyaman,Kabupaten,Boalemo,Gorontalo
292,96260,Bongo Nol,75.02.01.2004,Paguyaman,Kabupaten,Boalemo,Gorontalo
293,96260,Bongo Tua,75.02.01.2011,Paguyaman,Kabupaten,Boalemo,Gorontalo
294,96260,Bualo,75.02.01.2021,Paguyaman,Kabupaten,Boalemo,Gorontalo
295,96260,Diloato,75.02.01.2027,Paguyaman,Kabupaten,Boalemo,Gorontalo
296,96260,Girisa,75.02.01.2019,Paguyaman,Kabupaten,Boalemo,Gorontalo
297,96260,Hulawa,75.02.01.2024,Paguyaman,Kabupaten,Boalemo,Gorontalo
298,96260,Huwongo,75.02.01.2015,Paguyaman,Kabupaten,Boalemo,Gorontalo
299,96260,Karya Murni,75.02.01.2016,Paguyaman,Kabupaten,Boalemo,Gorontalo
300,96260,Kuala Lumpur (Kualalumpur),75.02.01.2012,Paguyaman,Kabupaten,Boalemo,Gorontalo
301,96260,Molombulahe,75.02.01.2006,Paguyaman,Kabupaten,Boalemo,Gorontalo
302,96260,Mustika,75.02.01.2013,Paguyaman,Kabupaten,Boalemo,Gorontalo
303,96260,Mutiara,75.02.01.2007,Paguyaman,Kabupaten,Boalemo,Gorontalo
304,96260,Permata,75.02.01.2023,Paguyaman,Kabupaten,Boalemo,Gorontalo
305,96260,Rejonegoro,75.02.01.2026,Paguyaman,Kabupaten,Boalemo,Gorontalo
306,96260,Saripi,75.02.01.2008,Paguyaman,Kabupaten,Boalemo,Gorontalo
307,96260,Sosial,75.02.01.2022,Paguyaman,Kabupaten,Boalemo,Gorontalo
308,96260,Tangkobu,75.02.01.2010,Paguyaman,Kabupaten,Boalemo,Gorontalo
309,96260,Tenilo,75.02.01.2014,Paguyaman,Kabupaten,Boalemo,Gorontalo
310,96260,Wonggahu,75.02.01.2009,Paguyaman,Kabupaten,Boalemo,Gorontalo
311,96362,Buhu Jaya,75.04.05.2014,Paguat,Kabupaten,Pahuwato,Gorontalo
312,96362,Bumbulan,75.04.05.2010,Paguat,Kabupaten,Pahuwato,Gorontalo
313,96362,Bunuyo,75.04.05.2004,Paguat,Kabupaten,Pahuwato,Gorontalo
314,96362,Kemiri (Kamiri),75.04.05.2015,Paguat,Kabupaten,Pahuwato,Gorontalo
315,96362,Libuo,75.04.05.1001,Paguat,Kabupaten,Pahuwato,Gorontalo
316,96362,Maleo,75.04.05.2012,Paguat,Kabupaten,Pahuwato,Gorontalo
317,96362,Molamahu,75.04.05.2013,Paguat,Kabupaten,Pahuwato,Gorontalo
318,96362,Pentadu,75.04.05.1002,Paguat,Kabupaten,Pahuwato,Gorontalo
319,96362,Siduan,75.04.05.1003,Paguat,Kabupaten,Pahuwato,Gorontalo
320,96362,Sipayo,75.04.05.2005,Paguat,Kabupaten,Pahuwato,Gorontalo
321,96362,Soginti,75.04.05.2006,Paguat,Kabupaten,Pahuwato,Gorontalo
322,96150,Helumo,75.01.14.2002,Mootilango,Kabupaten,Gorontalo,Gorontalo
323,96151,Huyula,75.01.14.2010,Mootilango,Kabupaten,Gorontalo,Gorontalo
324,96152,Karyamukti (Karya Mukti),75.01.14.2005,Mootilango,Kabupaten,Gorontalo,Gorontalo
325,96153,Paris,75.01.14.2001,Mootilango,Kabupaten,Gorontalo,Gorontalo
326,96154,Payu,75.01.14.2008,Mootilango,Kabupaten,Gorontalo,Gorontalo
327,96155,Pilomonu,75.01.14.2003,Mootilango,Kabupaten,Gorontalo,Gorontalo
328,96156,Satria,75.01.14.2004,Mootilango,Kabupaten,Gorontalo,Gorontalo
329,96157,Sidomukti (Sido Mukti),75.01.14.2007,Mootilango,Kabupaten,Gorontalo,Gorontalo
330,96158,Sukamaju (Suka Maju),75.01.14.2009,Mootilango,Kabupaten,Gorontalo,Gorontalo
331,96159,Talumopatu,75.01.14.2006,Mootilango,Kabupaten,Gorontalo,Gorontalo
332,96526,Dunu,75.05.09.2004,Monano,Kabupaten,Gorontalo Utara,Gorontalo
333,96526,Garapia,75.05.09.2005,Monano,Kabupaten,Gorontalo Utara,Gorontalo
334,96526,Mokonowu,75.05.09.2008,Monano,Kabupaten,Gorontalo Utara,Gorontalo
335,96526,Monano,75.05.09.2001,Monano,Kabupaten,Gorontalo Utara,Gorontalo
336,96526,Monas,75.05.09.2003,Monano,Kabupaten,Gorontalo Utara,Gorontalo
337,96526,Pilohulata,75.05.09.2007,Monano,Kabupaten,Gorontalo Utara,Gorontalo
338,96526,Sogu,75.05.09.2006,Monano,Kabupaten,Gorontalo Utara,Gorontalo
339,96526,Tolitehuyu,75.05.09.2009,Monano,Kabupaten,Gorontalo Utara,Gorontalo
340,96526,Tudi,75.05.09.2002,Monano,Kabupaten,Gorontalo Utara,Gorontalo
341,96526,Zuriyati,75.05.09.2010,Monano,Kabupaten,Gorontalo Utara,Gorontalo
342,96365,Batubilotahu (Batubilotahu Indah),75.04.04.2015,Marisa,Kabupaten,Pahuwato,Gorontalo
343,96365,Bulangita,75.04.04.2018,Marisa,Kabupaten,Pahuwato,Gorontalo
344,96365,Marisa Selatan,75.04.04.2003,Marisa,Kabupaten,Pahuwato,Gorontalo
345,96365,Marisa Utara,75.04.04.2004,Marisa,Kabupaten,Pahuwato,Gorontalo
346,96365,Palopo,75.04.04.2016,Marisa,Kabupaten,Pahuwato,Gorontalo
347,96365,Pohuwato,75.04.04.2008,Marisa,Kabupaten,Pahuwato,Gorontalo
348,96365,Pohuwato Timur,75.04.04.2017,Marisa,Kabupaten,Pahuwato,Gorontalo
349,96365,Teratai,75.04.04.2007,Marisa,Kabupaten,Pahuwato,Gorontalo
350,96265,Bendungan,75.02.05.2004,Mananggu,Kabupaten,Boalemo,Gorontalo
351,96265,Buti,75.02.05.2006,Mananggu,Kabupaten,Boalemo,Gorontalo
352,96265,Kaaruyan,75.02.05.2002,Mananggu,Kabupaten,Boalemo,Gorontalo
353,96265,Kramat (Keramat),75.02.05.2008,Mananggu,Kabupaten,Boalemo,Gorontalo
354,96265,Mananggu,75.02.05.2005,Mananggu,Kabupaten,Boalemo,Gorontalo
355,96265,Pontolo,75.02.05.2007,Mananggu,Kabupaten,Boalemo,Gorontalo
356,96265,Salilama,75.02.05.2003,Mananggu,Kabupaten,Boalemo,Gorontalo
357,96265,Tabulo,75.02.05.2001,Mananggu,Kabupaten,Boalemo,Gorontalo
358,96265,Tabulo Selatan,75.02.05.2009,Mananggu,Kabupaten,Boalemo,Gorontalo
359,96215,Daenaa,75.01.17.2004,Limboto Barat,Kabupaten,Gorontalo,Gorontalo
360,96216,Haya-Haya (Hayahaya),75.01.17.2009,Limboto Barat,Kabupaten,Gorontalo,Gorontalo
361,96215,Huidu,75.01.17.2002,Limboto Barat,Kabupaten,Gorontalo,Gorontalo
362,96216,Huidu Utara,75.01.17.2010,Limboto Barat,Kabupaten,Gorontalo,Gorontalo
363,96216,Hutabohu,75.01.17.2007,Limboto Barat,Kabupaten,Gorontalo,Gorontalo
364,96215,Ombulo,75.01.17.2003,Limboto Barat,Kabupaten,Gorontalo,Gorontalo
365,96216,Padengo,75.01.17.2008,Limboto Barat,Kabupaten,Gorontalo,Gorontalo
366,96215,Pone,75.01.17.2001,Limboto Barat,Kabupaten,Gorontalo,Gorontalo
367,96217,Tunggulo,75.01.17.2006,Limboto Barat,Kabupaten,Gorontalo,Gorontalo
368,96216,Yosonegoro (Yoosonegoro),75.01.17.2005,Limboto Barat,Kabupaten,Gorontalo,Gorontalo
369,96212,Biyonga,75.01.01.1009,Limboto,Kabupaten,Gorontalo,Gorontalo
370,96218,Bolihuangga,75.01.01.1004,Limboto,Kabupaten,Gorontalo,Gorontalo
371,96214,Bongohulawa,75.01.01.1010,Limboto,Kabupaten,Gorontalo,Gorontalo
372,96213,Bulota,75.01.01.1011,Limboto,Kabupaten,Gorontalo,Gorontalo
373,96213,Dutulanaa,75.01.01.1007,Limboto,Kabupaten,Gorontalo,Gorontalo
374,96212,Hepuhulawa,75.01.01.1005,Limboto,Kabupaten,Gorontalo,Gorontalo
375,96219,Hunggaluwa,75.01.01.1003,Limboto,Kabupaten,Gorontalo,Gorontalo
376,96213,Hutuo,75.01.01.1006,Limboto,Kabupaten,Gorontalo,Gorontalo
377,96211,Kayubulan,75.01.01.1001,Limboto,Kabupaten,Gorontalo,Gorontalo
378,96214,Kayumerah,75.01.01.1002,Limboto,Kabupaten,Gorontalo,Gorontalo
379,96211,Malahu,75.01.01.1012,Limboto,Kabupaten,Gorontalo,Gorontalo
380,96212,Polohungo,75.01.01.1014,Limboto,Kabupaten,Gorontalo,Gorontalo
381,96218,Tenilo,75.01.01.1008,Limboto,Kabupaten,Gorontalo,Gorontalo
382,96214,Tilihuwa (Tilihua),75.01.01.1013,Limboto,Kabupaten,Gorontalo,Gorontalo
383,96468,Babalonge,75.04.02.2012,Lemito,Kabupaten,Pahuwato,Gorontalo
384,96468,Kenari,75.04.02.2009,Lemito,Kabupaten,Pahuwato,Gorontalo
385,96468,Lemito,75.04.02.2001,Lemito,Kabupaten,Pahuwato,Gorontalo
386,96468,Lemito Utara,75.04.02.2008,Lemito,Kabupaten,Pahuwato,Gorontalo
387,96468,Lomuli,75.04.02.2004,Lemito,Kabupaten,Pahuwato,Gorontalo
388,96468,Suka Damai,75.04.02.2011,Lemito,Kabupaten,Pahuwato,Gorontalo
389,96468,Wonggarasi Barat,75.04.02.2002,Lemito,Kabupaten,Pahuwato,Gorontalo
390,96468,Wonggarasi Tengah,75.04.02.2010,Lemito,Kabupaten,Pahuwato,Gorontalo
391,96518,Alata Karya,75.05.02.2021,Kwandang,Kabupaten,Gorontalo Utara,Gorontalo
392,96518,Botungobungo,75.05.02.2025,Kwandang,Kabupaten,Gorontalo Utara,Gorontalo
393,96518,Botuwombata,75.05.02.2024,Kwandang,Kabupaten,Gorontalo Utara,Gorontalo
394,96518,Bualemo,75.05.02.2011,Kwandang,Kabupaten,Gorontalo Utara,Gorontalo
395,96518,Bulalo,75.05.02.2013,Kwandang,Kabupaten,Gorontalo Utara,Gorontalo
396,96518,Cisadane,75.05.02.2023,Kwandang,Kabupaten,Gorontalo Utara,Gorontalo
397,96518,Katialada,75.05.02.2017,Kwandang,Kabupaten,Gorontalo Utara,Gorontalo
398,96518,Leboto,75.05.02.2003,Kwandang,Kabupaten,Gorontalo Utara,Gorontalo
399,96518,Masuru,75.05.02.2032,Kwandang,Kabupaten,Gorontalo Utara,Gorontalo
400,96518,Molingkapoto (Molinggapoto),75.05.02.2002,Kwandang,Kabupaten,Gorontalo Utara,Gorontalo
401,96518,Molingkapoto Selatan,75.05.02.2026,Kwandang,Kabupaten,Gorontalo Utara,Gorontalo
402,96518,Moluo,75.05.02.2006,Kwandang,Kabupaten,Gorontalo Utara,Gorontalo
403,96518,Mootinelo,75.05.02.2010,Kwandang,Kabupaten,Gorontalo Utara,Gorontalo
404,96518,Ombulodata,75.05.02.2019,Kwandang,Kabupaten,Gorontalo Utara,Gorontalo
405,96518,Pontolo,75.05.02.2001,Kwandang,Kabupaten,Gorontalo Utara,Gorontalo
406,96518,Pontolo Atas,75.05.02.2030,Kwandang,Kabupaten,Gorontalo Utara,Gorontalo
407,96518,Posso,75.05.02.2004,Kwandang,Kabupaten,Gorontalo Utara,Gorontalo
408,96518,Titidu,75.05.02.2005,Kwandang,Kabupaten,Gorontalo Utara,Gorontalo
409,96121,Dembe II,75.71.03.1003,Kota Utara,Kota,Gorontalo,Gorontalo
410,96121,Dembe Jaya,75.71.03.1015,Kota Utara,Kota,Gorontalo,Gorontalo
411,96123,Dulomo Selatan,75.71.03.1010,Kota Utara,Kota,Gorontalo,Gorontalo
412,96123,Dulomo Utara,75.71.03.1014,Kota Utara,Kota,Gorontalo,Gorontalo
413,96122,Wongkaditi Barat,75.71.03.1005,Kota Utara,Kota,Gorontalo,Gorontalo
414,96122,Wongkaditi Timur,75.71.03.1004,Kota Utara,Kota,Gorontalo,Gorontalo
415,96114,Heledulaa Selatan,75.71.05.1004,Kota Timur,Kota,Gorontalo,Gorontalo
416,96119,Heledulaa Utara,75.71.05.1003,Kota Timur,Kota,Gorontalo,Gorontalo
417,96112,Ipilo,75.71.05.1005,Kota Timur,Kota,Gorontalo,Gorontalo
418,96113,Moodu,75.71.05.1008,Kota Timur,Kota,Gorontalo,Gorontalo
419,96113,Padebuolo,75.71.05.1009,Kota Timur,Kota,Gorontalo,Gorontalo
420,96113,Tamalate,75.71.05.1011,Kota Timur,Kota,Gorontalo,Gorontalo
421,96128,Dulalowo,75.71.06.1002,Kota Tengah,Kota,Gorontalo,Gorontalo
422,96128,Dulalowo Timur,75.71.06.1006,Kota Tengah,Kota,Gorontalo,Gorontalo
423,96129,Liluwo,75.71.06.1003,Kota Tengah,Kota,Gorontalo,Gorontalo
424,96129,Paguyaman,75.71.06.1005,Kota Tengah,Kota,Gorontalo,Gorontalo
425,96127,Pulubala,75.71.06.1004,Kota Tengah,Kota,Gorontalo,Gorontalo
426,96128,Wumialo,75.71.06.1001,Kota Tengah,Kota,Gorontalo,Gorontalo
427,96111,Biawao,75.71.02.1010,Kota Selatan,Kota,Gorontalo,Gorontalo
428,96111,Biawu,75.71.02.1012,Kota Selatan,Kota,Gorontalo,Gorontalo
429,96115,Limba B,75.71.02.1013,Kota Selatan,Kota,Gorontalo,Gorontalo
430,96115,Limba U Dua (Limba U II),75.71.02.1020,Kota Selatan,Kota,Gorontalo,Gorontalo
431,96115,Limba U Satu (Limba U I),75.71.02.1019,Kota Selatan,Kota,Gorontalo,Gorontalo
432,96136,Buladu,75.71.01.1008,Kota Barat,Kota,Gorontalo,Gorontalo
433,96133,Buliide,75.71.01.1004,Kota Barat,Kota,Gorontalo,Gorontalo
434,96131,Dembe I,75.71.01.1001,Kota Barat,Kota,Gorontalo,Gorontalo
435,96131,Lekobalo,75.71.01.1002,Kota Barat,Kota,Gorontalo,Gorontalo
436,96134,Molosifat W (Molosipat W),75.71.01.1006,Kota Barat,Kota,Gorontalo,Gorontalo
437,96132,Pilolodaa,75.71.01.1003,Kota Barat,Kota,Gorontalo,Gorontalo
438,96133,Tenilo,75.71.01.1005,Kota Barat,Kota,Gorontalo,Gorontalo
439,96553,Biluango,75.03.08.2007,Kabila Bone,Kabupaten,Bone Bolango,Gorontalo
440,96553,Bintalahe,75.03.08.2009,Kabila Bone,Kabupaten,Bone Bolango,Gorontalo
441,96553,Botubarani,75.03.08.2008,Kabila Bone,Kabupaten,Bone Bolango,Gorontalo
442,96553,Botutonuo (Botutonua),75.03.08.2005,Kabila Bone,Kabupaten,Bone Bolango,Gorontalo
443,96553,Huangobotu,75.03.08.2001,Kabila Bone,Kabupaten,Bone Bolango,Gorontalo
444,96553,Modelomo,75.03.08.2006,Kabila Bone,Kabupaten,Bone Bolango,Gorontalo
445,96553,Molotabu (Molutabu),75.03.08.2002,Kabila Bone,Kabupaten,Bone Bolango,Gorontalo
446,96553,Olele,75.03.08.2004,Kabila Bone,Kabupaten,Bone Bolango,Gorontalo
447,96553,Oluhuta,75.03.08.2003,Kabila Bone,Kabupaten,Bone Bolango,Gorontalo
448,96552,Dutohe,75.03.02.2006,Kabila,Kabupaten,Bone Bolango,Gorontalo
449,96552,Dutohe Barat,75.03.02.2029,Kabila,Kabupaten,Bone Bolango,Gorontalo
450,96552,Olohuta (Oluhuta),75.03.02.1009,Kabila,Kabupaten,Bone Bolango,Gorontalo
451,96552,Olohuta Utara (Oluhuta Utara),75.03.02.1028,Kabila,Kabupaten,Bone Bolango,Gorontalo
452,96552,Padengo,75.03.02.1008,Kabila,Kabupaten,Bone Bolango,Gorontalo
453,96552,Pauwo,75.03.02.1011,Kabila,Kabupaten,Bone Bolango,Gorontalo
454,96552,Poowo,75.03.02.2013,Kabila,Kabupaten,Bone Bolango,Gorontalo
455,96552,Poowo Barat,75.03.02.2026,Kabila,Kabupaten,Bone Bolango,Gorontalo
456,96552,Talango,75.03.02.2024,Kabila,Kabupaten,Bone Bolango,Gorontalo
457,96552,Tanggilingo,75.03.02.2007,Kabila,Kabupaten,Bone Bolango,Gorontalo
458,96552,Toto Selatan,75.03.02.2012,Kabila,Kabupaten,Bone Bolango,Gorontalo
459,96552,Tumbihe,75.03.02.1010,Kabila,Kabupaten,Bone Bolango,Gorontalo
460,96116,Donggala,75.71.09.1004,Hulonthalangi,Kota,Gorontalo,Gorontalo
461,96117,Pohe,75.71.09.1002,Hulonthalangi,Kota,Gorontalo,Gorontalo
462,96111,Siendeng,75.71.09.1005,Hulonthalangi,Kota,Gorontalo,Gorontalo
463,96111,Tanjung Kramat,75.71.09.1001,Hulonthalangi,Kota,Gorontalo,Gorontalo
464,96117,Tenda,75.71.09.1003,Hulonthalangi,Kota,Gorontalo,Gorontalo
465,96513,Bohusami,75.05.06.2011,Gentuma Raya,Kabupaten,Gorontalo Utara,Gorontalo
466,96513,Dumolodo,75.05.06.2002,Gentuma Raya,Kabupaten,Gorontalo Utara,Gorontalo
467,96513,Durian,75.05.06.2010,Gentuma Raya,Kabupaten,Gorontalo Utara,Gorontalo
468,96513,Gentuma,75.05.06.2001,Gentuma Raya,Kabupaten,Gorontalo Utara,Gorontalo
469,96513,Ipilo,75.05.06.2004,Gentuma Raya,Kabupaten,Gorontalo Utara,Gorontalo
470,96513,Ketapang,75.05.06.2008,Gentuma Raya,Kabupaten,Gorontalo Utara,Gorontalo
471,96513,Langke,75.05.06.2005,Gentuma Raya,Kabupaten,Gorontalo Utara,Gorontalo
472,96513,Molonggota,75.05.06.2003,Gentuma Raya,Kabupaten,Gorontalo Utara,Gorontalo
473,96513,Motomingo,75.05.06.2009,Gentuma Raya,Kabupaten,Gorontalo Utara,Gorontalo
474,96513,Nanati Jaya,75.05.06.2007,Gentuma Raya,Kabupaten,Gorontalo Utara,Gorontalo
475,96513,Pasalae,75.05.06.2006,Gentuma Raya,Kabupaten,Gorontalo Utara,Gorontalo
476,96138,Huangobotu,75.71.04.1001,Dungingi,Kota,Gorontalo,Gorontalo
477,96135,Libuo,75.71.04.1002,Dungingi,Kota,Gorontalo,Gorontalo
478,96139,Tomulabutao,75.71.04.1003,Dungingi,Kota,Gorontalo,Gorontalo
479,96139,Tomulabutao Selatan,75.71.04.1005,Dungingi,Kota,Gorontalo,Gorontalo
480,96137,Tuladengi (Tuladenggi),75.71.04.1004,Dungingi,Kota,Gorontalo,Gorontalo
481,96241,Ambara,75.01.24.2004,Dungaliyo,Kabupaten,Gorontalo,Gorontalo
482,96241,Ayuhula,75.01.24.2007,Dungaliyo,Kabupaten,Gorontalo,Gorontalo
483,96241,Bongomeme,75.01.24.2005,Dungaliyo,Kabupaten,Gorontalo,Gorontalo
484,96241,Botubulowe (Botubu lowe),75.01.24.2009,Dungaliyo,Kabupaten,Gorontalo,Gorontalo
485,96241,Dungaliyo,75.01.24.2003,Dungaliyo,Kabupaten,Gorontalo,Gorontalo
486,96241,Duwanga,75.01.24.2006,Dungaliyo,Kabupaten,Gorontalo,Gorontalo
487,96241,Kaliyoso,75.01.24.2002,Dungaliyo,Kabupaten,Gorontalo,Gorontalo
488,96241,Momala,75.01.24.2010,Dungaliyo,Kabupaten,Gorontalo,Gorontalo
489,96241,Pangadaa,75.01.24.2008,Dungaliyo,Kabupaten,Gorontalo,Gorontalo
490,96241,Pilolalenga,75.01.24.2001,Dungaliyo,Kabupaten,Gorontalo,Gorontalo
491,96118,Botu,75.71.08.1004,Dumbo Raya,Kota,Gorontalo,Gorontalo
492,96112,Bugis,75.71.08.1005,Dumbo Raya,Kota,Gorontalo,Gorontalo
493,96119,Leato Selatan,75.71.08.1002,Dumbo Raya,Kota,Gorontalo,Gorontalo
494,96119,Leato Utara,75.71.08.1001,Dumbo Raya,Kota,Gorontalo,Gorontalo
495,96118,Talumolo,75.71.08.1003,Dumbo Raya,Kota,Gorontalo,Gorontalo
496,96267,Dulupi,75.02.03.2001,Dulupi,Kabupaten,Boalemo,Gorontalo
497,96267,Kotaraja,75.02.03.2003,Dulupi,Kabupaten,Boalemo,Gorontalo
498,96267,Pangi,75.02.03.2005,Dulupi,Kabupaten,Boalemo,Gorontalo
499,96267,Polohungo,75.02.03.2004,Dulupi,Kabupaten,Boalemo,Gorontalo
500,96267,Tabongo,75.02.03.2002,Dulupi,Kabupaten,Boalemo,Gorontalo
501,96267,Tanah Putih,75.02.03.2007,Dulupi,Kabupaten,Boalemo,Gorontalo
502,96267,Tangga Barito,75.02.03.2008,Dulupi,Kabupaten,Boalemo,Gorontalo
503,96267,Tangga Jaya,75.02.03.2006,Dulupi,Kabupaten,Boalemo,Gorontalo
504,96364,Bulili,75.04.10.2001,Duhiadaa,Kabupaten,Pahuwato,Gorontalo
505,96364,Buntulia Barat,75.04.10.2002,Duhiadaa,Kabupaten,Pahuwato,Gorontalo
506,96364,Buntulia Jaya,75.04.10.2006,Duhiadaa,Kabupaten,Pahuwato,Gorontalo
507,96364,Buntulia Selatan,75.04.10.2003,Duhiadaa,Kabupaten,Pahuwato,Gorontalo
508,96364,Duhiadaa,75.04.10.2004,Duhiadaa,Kabupaten,Pahuwato,Gorontalo
509,96364,Mekar Jaya,75.04.10.2005,Duhiadaa,Kabupaten,Pahuwato,Gorontalo
510,96364,Mootilango,75.04.10.2008,Duhiadaa,Kabupaten,Pahuwato,Gorontalo
511,96364,Padengo (Padeng),75.04.10.2007,Duhiadaa,Kabupaten,Pahuwato,Gorontalo
512,96361,Hutamoputi (Huta Moputi),75.04.08.2005,Dengilo,Kabupaten,Pahuwato,Gorontalo
513,96361,Karangetan (Karangetang),75.04.08.2003,Dengilo,Kabupaten,Pahuwato,Gorontalo
514,96361,Karya Baru,75.04.08.2002,Dengilo,Kabupaten,Pahuwato,Gorontalo
515,96361,Padengo,75.04.08.2004,Dengilo,Kabupaten,Pahuwato,Gorontalo
516,96361,Popaya,75.04.08.2001,Dengilo,Kabupaten,Pahuwato,Gorontalo
517,96363,Buntulia Tengah,75.04.09.2005,Buntulia,Kabupaten,Pahuwato,Gorontalo
518,96363,Buntulia Utara,75.04.09.2004,Buntulia,Kabupaten,Pahuwato,Gorontalo
519,96363,Hulawa,75.04.09.2001,Buntulia,Kabupaten,Pahuwato,Gorontalo
520,96363,Karya Indah,75.04.09.2002,Buntulia,Kabupaten,Pahuwato,Gorontalo
521,96363,Sipatana,75.04.09.2007,Buntulia,Kabupaten,Pahuwato,Gorontalo
522,96363,Taluduyunu,75.04.09.2003,Buntulia,Kabupaten,Pahuwato,Gorontalo
523,96363,Taluduyunu Utara,75.04.09.2006,Buntulia,Kabupaten,Pahuwato,Gorontalo
524,96574,Bukit Hijau,75.03.17.2005,Bulawa,Kabupaten,Bone Bolango,Gorontalo
525,96574,Dunggilata,75.03.17.2007,Bulawa,Kabupaten,Bone Bolango,Gorontalo
526,96574,Kaidundu,75.03.17.2004,Bulawa,Kabupaten,Bone Bolango,Gorontalo
527,96574,Kaidundu Barat,75.03.17.2002,Bulawa,Kabupaten,Bone Bolango,Gorontalo
528,96574,Mamungaa,75.03.17.2001,Bulawa,Kabupaten,Bone Bolango,Gorontalo
529,96574,Mamungaa Timur,75.03.17.2006,Bulawa,Kabupaten,Bone Bolango,Gorontalo
530,96574,Mopuya,75.03.17.2003,Bulawa,Kabupaten,Bone Bolango,Gorontalo
531,96574,Patoa,75.03.17.2009,Bulawa,Kabupaten,Bone Bolango,Gorontalo
532,96574,Pinomotiga,75.03.17.2008,Bulawa,Kabupaten,Bone Bolango,Gorontalo
533,96544,Bandungan,75.03.05.2002,Bulango Utara,Kabupaten,Bone Bolango,Gorontalo
534,96544,Boidu,75.03.05.2001,Bulango Utara,Kabupaten,Bone Bolango,Gorontalo
535,96544,Bunuo,75.03.05.2015,Bulango Utara,Kabupaten,Bone Bolango,Gorontalo
536,96544,Kopi,75.03.05.2010,Bulango Utara,Kabupaten,Bone Bolango,Gorontalo
537,96544,Lomaya,75.03.05.2011,Bulango Utara,Kabupaten,Bone Bolango,Gorontalo
538,96544,Longalo,75.03.05.2004,Bulango Utara,Kabupaten,Bone Bolango,Gorontalo
539,96544,Suka Damai,75.03.05.2012,Bulango Utara,Kabupaten,Bone Bolango,Gorontalo
540,96544,Tuloa,75.03.05.2009,Bulango Utara,Kabupaten,Bone Bolango,Gorontalo
541,96544,Tupa,75.03.05.2003,Bulango Utara,Kabupaten,Bone Bolango,Gorontalo
542,96543,Ilomata,75.03.14.2005,Bulango Ulu,Kabupaten,Bone Bolango,Gorontalo
543,96543,Mongiilo,75.03.14.2001,Bulango Ulu,Kabupaten,Bone Bolango,Gorontalo
544,96543,Mongiilo Utara,75.03.14.2003,Bulango Ulu,Kabupaten,Bone Bolango,Gorontalo
545,96543,Owata,75.03.14.2002,Bulango Ulu,Kabupaten,Bone Bolango,Gorontalo
546,96543,Pilolaheya,75.03.14.2004,Bulango Ulu,Kabupaten,Bone Bolango,Gorontalo
547,96543,Suka Makmur,75.03.14.2006,Bulango Ulu,Kabupaten,Bone Bolango,Gorontalo
548,96542,Bulotalangi,75.03.16.2001,Bulango Timur,Kabupaten,Bone Bolango,Gorontalo
549,96542,Bulotalangi Barat,75.03.16.2005,Bulango Timur,Kabupaten,Bone Bolango,Gorontalo
550,96542,Bulotalangi Timur,75.03.16.2004,Bulango Timur,Kabupaten,Bone Bolango,Gorontalo
551,96542,Popodu,75.03.16.2003,Bulango Timur,Kabupaten,Bone Bolango,Gorontalo
552,96542,Toluwaya (Tuloa),75.03.16.2002,Bulango Timur,Kabupaten,Bone Bolango,Gorontalo
553,96541,Ayula Selatan,75.03.15.2001,Bulango Selatan,Kabupaten,Bone Bolango,Gorontalo
554,96541,Ayula Tilango,75.03.15.2006,Bulango Selatan,Kabupaten,Bone Bolango,Gorontalo
555,96541,Ayula Timur,75.03.15.2007,Bulango Selatan,Kabupaten,Bone Bolango,Gorontalo
556,96541,Ayula Utara,75.03.15.2003,Bulango Selatan,Kabupaten,Bone Bolango,Gorontalo
557,96541,Huntu Barat (Mekar Jaya),75.03.15.2011,Bulango Selatan,Kabupaten,Bone Bolango,Gorontalo
558,96541,Huntu Selatan,75.03.15.2004,Bulango Selatan,Kabupaten,Bone Bolango,Gorontalo
559,96541,Huntu Utara,75.03.15.2002,Bulango Selatan,Kabupaten,Bone Bolango,Gorontalo
560,96541,Lamahu,75.03.15.2008,Bulango Selatan,Kabupaten,Bone Bolango,Gorontalo
561,96541,Sejahtera,75.03.15.2010,Bulango Selatan,Kabupaten,Bone Bolango,Gorontalo
562,96541,Tinelo Ayula,75.03.15.2009,Bulango Selatan,Kabupaten,Bone Bolango,Gorontalo
563,96551,Buata,75.03.07.2004,Botupingge (Botu Pingge),Kabupaten,Bone Bolango,Gorontalo
564,96551,Luwohu,75.03.07.2003,Botupingge (Botu Pingge),Kabupaten,Bone Bolango,Gorontalo
565,96551,Panggula Barat (Panggulo Barat),75.03.07.2007,Botupingge (Botu Pingge),Kabupaten,Bone Bolango,Gorontalo
566,96551,Panggulo,75.03.07.2002,Botupingge (Botu Pingge),Kabupaten,Bone Bolango,Gorontalo
567,96551,Sukma,75.03.07.2009,Botupingge (Botu Pingge),Kabupaten,Bone Bolango,Gorontalo
568,96551,Tanah Putih,75.03.07.2006,Botupingge (Botu Pingge),Kabupaten,Bone Bolango,Gorontalo
569,96551,Timbuolo,75.03.07.2001,Botupingge (Botu Pingge),Kabupaten,Bone Bolango,Gorontalo
570,96551,Timbuolo Tengah,75.03.07.2008,Botupingge (Botu Pingge),Kabupaten,Bone Bolango,Gorontalo
571,96551,Timbuolo Timur,75.03.07.2005,Botupingge (Botu Pingge),Kabupaten,Bone Bolango,Gorontalo
572,96264,Bolihutuo,75.02.06.2007,Botumoito (Botumoita),Kabupaten,Boalemo,Gorontalo
573,96264,Botumoito,75.02.06.2006,Botumoito (Botumoita),Kabupaten,Boalemo,Gorontalo
574,96264,Dulangea (Dulangeya),75.02.06.2009,Botumoito (Botumoita),Kabupaten,Boalemo,Gorontalo
575,96264,Hutamonu,75.02.06.2002,Botumoito (Botumoita),Kabupaten,Boalemo,Gorontalo
576,96264,Patoameme,75.02.06.2003,Botumoito (Botumoita),Kabupaten,Boalemo,Gorontalo
577,96264,Potanga,75.02.06.2005,Botumoito (Botumoita),Kabupaten,Boalemo,Gorontalo
578,96264,Rumbia,75.02.06.2008,Botumoito (Botumoita),Kabupaten,Boalemo,Gorontalo
579,96264,Tapadaa,75.02.06.2004,Botumoito (Botumoita),Kabupaten,Boalemo,Gorontalo
580,96264,Tutulo,75.02.06.2001,Botumoito (Botumoita),Kabupaten,Boalemo,Gorontalo
581,96246,Batulayar,75.01.11.2013,Bongomeme,Kabupaten,Gorontalo,Gorontalo
582,96246,Batuloreng (Batu Loreng),75.01.11.2014,Bongomeme,Kabupaten,Gorontalo,Gorontalo
583,96246,Bongohulawa,75.01.11.2015,Bongomeme,Kabupaten,Gorontalo,Gorontalo
584,96246,Dulamayo,75.01.11.2001,Bongomeme,Kabupaten,Gorontalo,Gorontalo
585,96246,Huntulo Hulawa (Huntu Lo Hulawa),75.01.11.2018,Bongomeme,Kabupaten,Gorontalo,Gorontalo
586,96246,Kayumerah,75.01.11.2025,Bongomeme,Kabupaten,Gorontalo,Gorontalo
587,96246,Liyodu,75.01.11.2023,Bongomeme,Kabupaten,Gorontalo,Gorontalo
588,96246,Liyoto,75.01.11.2024,Bongomeme,Kabupaten,Gorontalo,Gorontalo
589,96246,Molanihu,75.01.11.2010,Bongomeme,Kabupaten,Gorontalo,Gorontalo
590,96246,Molas,75.01.11.2012,Bongomeme,Kabupaten,Gorontalo,Gorontalo
591,96246,Molopatodu,75.01.11.2011,Bongomeme,Kabupaten,Gorontalo,Gorontalo
592,96246,Otopade,75.01.11.2016,Bongomeme,Kabupaten,Gorontalo,Gorontalo
593,96246,Owalanga,75.01.11.2022,Bongomeme,Kabupaten,Gorontalo,Gorontalo
594,96246,Tohupo,75.01.11.2009,Bongomeme,Kabupaten,Gorontalo,Gorontalo
595,96246,Upomela,75.01.11.2008,Bongomeme,Kabupaten,Gorontalo,Gorontalo
596,96573,Batu Hijau,75.03.04.2029,Bonepantai,Kabupaten,Bone Bolango,Gorontalo
597,96573,Bilungala,75.03.04.2004,Bonepantai,Kabupaten,Bone Bolango,Gorontalo
598,96573,Bilungala Utara,75.03.04.2025,Bonepantai,Kabupaten,Bone Bolango,Gorontalo
599,96573,Kemiri,75.03.04.2032,Bonepantai,Kabupaten,Bone Bolango,Gorontalo
600,96573,Lembah Hijau,75.03.04.2028,Bonepantai,Kabupaten,Bone Bolango,Gorontalo
601,96573,Ombulo Hijau,75.03.04.2031,Bonepantai,Kabupaten,Bone Bolango,Gorontalo
602,96573,Pelita Hijau,75.03.04.2033,Bonepantai,Kabupaten,Bone Bolango,Gorontalo
603,96573,Tamboo,75.03.04.2003,Bonepantai,Kabupaten,Bone Bolango,Gorontalo
604,96573,Tihu,75.03.04.2026,Bonepantai,Kabupaten,Bone Bolango,Gorontalo
605,96573,Tolotio,75.03.04.2008,Bonepantai,Kabupaten,Bone Bolango,Gorontalo
606,96573,Tongo,75.03.04.2012,Bonepantai,Kabupaten,Bone Bolango,Gorontalo
607,96573,Tunas Jaya,75.03.04.2027,Bonepantai,Kabupaten,Bone Bolango,Gorontalo
608,96573,Uabanga,75.03.04.2005,Bonepantai,Kabupaten,Bone Bolango,Gorontalo
609,96572,Alo,75.03.10.2011,Bone Raya,Kabupaten,Bone Bolango,Gorontalo
610,96572,Bunga,75.03.10.2014,Bone Raya,Kabupaten,Bone Bolango,Gorontalo
611,96572,Inomata,75.03.10.2001,Bone Raya,Kabupaten,Bone Bolango,Gorontalo
612,96572,Laut Biru,75.03.10.2012,Bone Raya,Kabupaten,Bone Bolango,Gorontalo
613,96572,Moopuya (Moopiya / Mopuya),75.03.10.2010,Bone Raya,Kabupaten,Bone Bolango,Gorontalo
614,96572,Mootawa,75.03.10.2015,Bone Raya,Kabupaten,Bone Bolango,Gorontalo
615,96572,Mootayu,75.03.10.2004,Bone Raya,Kabupaten,Bone Bolango,Gorontalo
616,96572,Mootinelo,75.03.10.2006,Bone Raya,Kabupaten,Bone Bolango,Gorontalo
617,96572,Pelita Jaya,75.03.10.2009,Bone Raya,Kabupaten,Bone Bolango,Gorontalo
618,96572,Tumbulilato (Tombulilato),75.03.10.2003,Bone Raya,Kabupaten,Bone Bolango,Gorontalo
619,96571,Bilonlantunga (Bilolantuna),75.03.09.2004,Bone,Kabupaten,Bone Bolango,Gorontalo
620,96571,Cendana Putih,75.03.09.2012,Bone,Kabupaten,Bone Bolango,Gorontalo
621,96571,Ilohuuwa,75.03.09.2010,Bone,Kabupaten,Bone Bolango,Gorontalo
622,96571,Inogaluma,75.03.09.2005,Bone,Kabupaten,Bone Bolango,Gorontalo
623,96571,Masiaga,75.03.09.2009,Bone,Kabupaten,Bone Bolango,Gorontalo
624,96571,Molamahu,75.03.09.2008,Bone,Kabupaten,Bone Bolango,Gorontalo
625,96571,Monano,75.03.09.2006,Bone,Kabupaten,Bone Bolango,Gorontalo
626,96571,Moodulio,75.03.09.2003,Bone,Kabupaten,Bone Bolango,Gorontalo
627,96571,Muara Bone,75.03.09.2011,Bone,Kabupaten,Bone Bolango,Gorontalo
628,96571,Permata,75.03.09.2014,Bone,Kabupaten,Bone Bolango,Gorontalo
629,96571,Sogitia,75.03.09.2002,Bone,Kabupaten,Bone Bolango,Gorontalo
630,96571,Taludaa,75.03.09.2001,Bone,Kabupaten,Bone Bolango,Gorontalo
631,96571,Tumbuh Mekar,75.03.09.2007,Bone,Kabupaten,Bone Bolango,Gorontalo
632,96571,Waluhu,75.03.09.2013,Bone,Kabupaten,Bone Bolango,Gorontalo
633,96235,Bandung Rejo,75.01.09.2015,Boliyohuto (Boliohuto),Kabupaten,Gorontalo,Gorontalo
634,96235,Bongongoayu (Bongongayu),75.01.09.2020,Boliyohuto (Boliohuto),Kabupaten,Gorontalo,Gorontalo
635,96235,Diloniyohu,75.01.09.2006,Boliyohuto (Boliohuto),Kabupaten,Gorontalo,Gorontalo
636,96235,Dulohupa,75.01.09.2018,Boliyohuto (Boliohuto),Kabupaten,Gorontalo,Gorontalo
637,96235,Iloheluma,75.01.09.2012,Boliyohuto (Boliohuto),Kabupaten,Gorontalo,Gorontalo
638,96235,Monggolito,75.01.09.2014,Boliyohuto (Boliohuto),Kabupaten,Gorontalo,Gorontalo
639,96235,Motoduto,75.01.09.2011,Boliyohuto (Boliohuto),Kabupaten,Gorontalo,Gorontalo
640,96235,Parungi,75.01.09.2004,Boliyohuto (Boliohuto),Kabupaten,Gorontalo,Gorontalo
641,96235,Potanga,75.01.09.2010,Boliyohuto (Boliohuto),Kabupaten,Gorontalo,Gorontalo
642,96235,Sidodadi,75.01.09.2007,Boliyohuto (Boliohuto),Kabupaten,Gorontalo,Gorontalo
643,96235,Sidomulya Selatan (Sidomulyo Selatan),75.01.09.2019,Boliyohuto (Boliohuto),Kabupaten,Gorontalo,Gorontalo
644,96235,Sidomulyo,75.01.09.2001,Boliyohuto (Boliohuto),Kabupaten,Gorontalo,Gorontalo
645,96235,Tolite,75.01.09.2021,Boliyohuto (Boliohuto),Kabupaten,Gorontalo,Gorontalo
646,96245,Biluhu Barat,75.01.20.2001,Biluhu,Kabupaten,Gorontalo,Gorontalo
647,96245,Biluhu Tengah,75.01.20.2003,Biluhu,Kabupaten,Gorontalo,Gorontalo
648,96245,Botu Boluo (Botubolu'o / Botuboluo),75.01.20.2007,Biluhu,Kabupaten,Gorontalo,Gorontalo
649,96245,Huwongo,75.01.20.2005,Biluhu,Kabupaten,Gorontalo,Gorontalo
650,96245,Lobuto,75.01.20.2002,Biluhu,Kabupaten,Gorontalo,Gorontalo
651,96245,Lobuto Timur,75.01.20.2006,Biluhu,Kabupaten,Gorontalo,Gorontalo
652,96245,Luluo,75.01.20.2004,Biluhu,Kabupaten,Gorontalo,Gorontalo
653,96245,Olimeyala,75.01.20.2008,Biluhu,Kabupaten,Gorontalo,Gorontalo
654,96234,Bilato,75.01.23.2002,Bilato,Kabupaten,Gorontalo,Gorontalo
655,96234,Bumela,75.01.23.2007,Bilato,Kabupaten,Gorontalo,Gorontalo
656,96234,Ilomata,75.01.23.2003,Bilato,Kabupaten,Gorontalo,Gorontalo
657,96234,Juriya,75.01.23.2005,Bilato,Kabupaten,Gorontalo,Gorontalo
658,96234,Lamahu,75.01.23.2008,Bilato,Kabupaten,Gorontalo,Gorontalo
659,96234,Musyawarah,75.01.23.2009,Bilato,Kabupaten,Gorontalo,Gorontalo
660,96234,Pelehu,75.01.23.2006,Bilato,Kabupaten,Gorontalo,Gorontalo
661,96234,Suka Damai,75.01.23.2010,Bilato,Kabupaten,Gorontalo,Gorontalo
662,96234,Taula'a (Taulaa),75.01.23.2004,Bilato,Kabupaten,Gorontalo,Gorontalo
663,96234,Totopo,75.01.23.2001,Bilato,Kabupaten,Gorontalo,Gorontalo
664,96523,Biawu (Biau),75.05.10.2001,Biau,Kabupaten,Gorontalo Utara,Gorontalo
665,96523,Bohulo,75.05.10.2010,Biau,Kabupaten,Gorontalo Utara,Gorontalo
666,96523,Bualo,75.05.10.2008,Biau,Kabupaten,Gorontalo Utara,Gorontalo
667,96523,Didingga,75.05.10.2007,Biau,Kabupaten,Gorontalo Utara,Gorontalo
668,96523,Luhuto,75.05.10.2003,Biau,Kabupaten,Gorontalo Utara,Gorontalo
669,96523,Omuto,75.05.10.2002,Biau,Kabupaten,Gorontalo Utara,Gorontalo
670,96523,Potanga (Potango),75.05.10.2009,Biau,Kabupaten,Gorontalo Utara,Gorontalo
671,96523,Sembihinga (Sembihingan),75.05.10.2006,Biau,Kabupaten,Gorontalo Utara,Gorontalo
672,96523,Topi,75.05.10.2005,Biau,Kabupaten,Gorontalo Utara,Gorontalo
673,96523,Windu,75.05.10.2004,Biau,Kabupaten,Gorontalo Utara,Gorontalo
674,96244,Biluhu Timur,75.01.05.2005,Batudaa Pantai,Kabupaten,Gorontalo,Gorontalo
675,96244,Bongo,75.01.05.2007,Batudaa Pantai,Kabupaten,Gorontalo,Gorontalo
676,96244,Buhudaa,75.01.05.2014,Batudaa Pantai,Kabupaten,Gorontalo,Gorontalo
677,96244,Kayubulan,75.01.05.2006,Batudaa Pantai,Kabupaten,Gorontalo,Gorontalo
678,96244,Lamu,75.01.05.2009,Batudaa Pantai,Kabupaten,Gorontalo,Gorontalo
679,96244,Langgula,75.01.05.2015,Batudaa Pantai,Kabupaten,Gorontalo,Gorontalo
680,96244,Lopo,75.01.05.2008,Batudaa Pantai,Kabupaten,Gorontalo,Gorontalo
681,96244,Olimoo'o (Olimoo),75.01.05.2012,Batudaa Pantai,Kabupaten,Gorontalo,Gorontalo
682,96244,Tontayuo,75.01.05.2004,Batudaa Pantai,Kabupaten,Gorontalo,Gorontalo
683,96243,Barakati,75.01.03.2012,Batudaa,Kabupaten,Gorontalo,Gorontalo
684,96243,Bua,75.01.03.2002,Batudaa,Kabupaten,Gorontalo,Gorontalo
685,96243,Dunggala,75.01.03.2014,Batudaa,Kabupaten,Gorontalo,Gorontalo
686,96243,Huntu,75.01.03.2003,Batudaa,Kabupaten,Gorontalo,Gorontalo
687,96243,Ilohungayo,75.01.03.2013,Batudaa,Kabupaten,Gorontalo,Gorontalo
688,96243,Iluta,75.01.03.2001,Batudaa,Kabupaten,Gorontalo,Gorontalo
689,96243,Payunga,75.01.03.2004,Batudaa,Kabupaten,Gorontalo,Gorontalo
690,96243,Pilobuhuta,75.01.03.2015,Batudaa,Kabupaten,Gorontalo,Gorontalo
691,96516,Bintana,75.05.01.2004,Atinggola,Kabupaten,Gorontalo Utara,Gorontalo
692,96516,Buata,75.05.01.2005,Atinggola,Kabupaten,Gorontalo Utara,Gorontalo
693,96516,Iloheluma,75.05.01.2013,Atinggola,Kabupaten,Gorontalo Utara,Gorontalo
694,96516,Imana,75.05.01.2003,Atinggola,Kabupaten,Gorontalo Utara,Gorontalo
695,96516,Inomata (Ilomata),75.05.01.2011,Atinggola,Kabupaten,Gorontalo Utara,Gorontalo
696,96516,Kotajin (Kota Jin),75.05.01.2008,Atinggola,Kabupaten,Gorontalo Utara,Gorontalo
697,96516,Kotajin Utara,75.05.01.2018,Atinggola,Kabupaten,Gorontalo Utara,Gorontalo
698,96516,Monggupo,75.05.01.2007,Atinggola,Kabupaten,Gorontalo Utara,Gorontalo
699,96516,Oluhuta,75.05.01.2019,Atinggola,Kabupaten,Gorontalo Utara,Gorontalo
700,96516,Pinontoyonga,75.05.01.2006,Atinggola,Kabupaten,Gorontalo Utara,Gorontalo
701,96516,Posono,75.05.01.2015,Atinggola,Kabupaten,Gorontalo Utara,Gorontalo
702,96516,Sigaso,75.05.01.2016,Atinggola,Kabupaten,Gorontalo Utara,Gorontalo
703,96516,Tombulilato,75.05.01.2017,Atinggola,Kabupaten,Gorontalo Utara,Gorontalo
704,96516,Wapalo,75.05.01.2014,Atinggola,Kabupaten,Gorontalo Utara,Gorontalo
705,96221,Bihe,75.01.21.2010,Asparaga,Kabupaten,Gorontalo,Gorontalo
706,96221,Bontula (Bontulo),75.01.21.2009,Asparaga,Kabupaten,Gorontalo,Gorontalo
707,96221,Bululi,75.01.21.2001,Asparaga,Kabupaten,Gorontalo,Gorontalo
708,96221,Karya Baru,75.01.21.2008,Asparaga,Kabupaten,Gorontalo,Gorontalo
709,96221,Karya Indah,75.01.21.2004,Asparaga,Kabupaten,Gorontalo,Gorontalo
710,96221,Mohiyolo,75.01.21.2002,Asparaga,Kabupaten,Gorontalo,Gorontalo
711,96221,Olimohulo,75.01.21.2007,Asparaga,Kabupaten,Gorontalo,Gorontalo
712,96221,Pangahu,75.01.21.2003,Asparaga,Kabupaten,Gorontalo,Gorontalo
713,96221,Prima,75.01.21.2005,Asparaga,Kabupaten,Gorontalo,Gorontalo
714,96221,Tiohu,75.01.21.2006,Asparaga,Kabupaten,Gorontalo,Gorontalo
715,96525,Datahu,75.05.03.2025,Anggrek,Kabupaten,Gorontalo Utara,Gorontalo
716,96525,Dudepo,75.05.03.2008,Anggrek,Kabupaten,Gorontalo Utara,Gorontalo
717,96525,Heluma (Helumo),75.05.03.2024,Anggrek,Kabupaten,Gorontalo Utara,Gorontalo
718,96525,Hiyalooile,75.05.03.2013,Anggrek,Kabupaten,Gorontalo Utara,Gorontalo
719,96525,Ibarat,75.05.03.2014,Anggrek,Kabupaten,Gorontalo Utara,Gorontalo
720,96525,Ilangata,75.05.03.2001,Anggrek,Kabupaten,Gorontalo Utara,Gorontalo
721,96525,Ilodulunga,75.05.03.2021,Anggrek,Kabupaten,Gorontalo Utara,Gorontalo
722,96525,Iloheluma,75.05.03.2017,Anggrek,Kabupaten,Gorontalo Utara,Gorontalo
723,96525,Langge,75.05.03.2011,Anggrek,Kabupaten,Gorontalo Utara,Gorontalo
724,96525,Mootilango,75.05.03.2009,Anggrek,Kabupaten,Gorontalo Utara,Gorontalo
725,96525,Popalo,75.05.03.2007,Anggrek,Kabupaten,Gorontalo Utara,Gorontalo
726,96525,Putiana,75.05.03.2023,Anggrek,Kabupaten,Gorontalo Utara,Gorontalo
727,96525,Tolango,75.05.03.2006,Anggrek,Kabupaten,Gorontalo Utara,Gorontalo
728,96525,Tolongio,75.05.03.2002,Anggrek,Kabupaten,Gorontalo Utara,Gorontalo
729,96525,Tutuwoto,75.05.03.2012,Anggrek,Kabupaten,Gorontalo Utara,Gorontalo