no,postal_code,urban,area_code,sub_district,dt2,city,province
1,37562,Balai Rajo,15.09.11.2002,VII Koto Ilir,Kabupaten,Tebo,Jambi
2,37562,Cermin Alam,15.09.11.2003,VII Koto Ilir,Kabupaten,Tebo,Jambi
3,37562,Paseban,15.09.11.2005,VII Koto Ilir,Kabupaten,Tebo,Jambi
4,37562,Pasir Mayang,15.09.11.2006,VII Koto Ilir,Kabupaten,Tebo,Jambi
5,37562,Sungai Karang,15.09.11.2004,VII Koto Ilir,Kabupaten,Tebo,Jambi
6,37562,Teluk Kepayang Pulau Indah,15.09.11.2001,VII Koto Ilir,Kabupaten,Tebo,Jambi
7,37561,Aur Cino,15.09.06.2005,VII Koto,Kabupaten,Tebo,Jambi
8,37561,Dusun Baru,15.09.06.2014,VII Koto,Kabupaten,Tebo,Jambi
9,37561,Kuamang,15.09.06.2002,VII Koto,Kabupaten,Tebo,Jambi
10,37561,Muara Niro,15.09.06.2007,VII Koto,Kabupaten,Tebo,Jambi
11,37561,Muara Tabun,15.09.06.2016,VII Koto,Kabupaten,Tebo,Jambi
12,37561,Sungai Abang,15.09.06.2004,VII Koto,Kabupaten,Tebo,Jambi
13,37561,Tabun,15.09.06.2015,VII Koto,Kabupaten,Tebo,Jambi
14,37561,Tanjung Pucuk Jambi (Pucuk Jambi),15.09.06.2001,VII Koto,Kabupaten,Tebo,Jambi
15,37561,Teluk Kayu Putih,15.09.06.2003,VII Koto,Kabupaten,Tebo,Jambi
16,37561,Teluk Lancang,15.09.06.2013,VII Koto,Kabupaten,Tebo,Jambi
17,36552,Badang,15.06.01.2001,Tungkal Ulu,Kabupaten,Tanjung Jabung Barat,Jambi
18,36552,Badang Sepakat,15.06.01.2021,Tungkal Ulu,Kabupaten,Tanjung Jabung Barat,Jambi
19,36552,Brasau,15.06.01.2017,Tungkal Ulu,Kabupaten,Tanjung Jabung Barat,Jambi
20,36552,Gemuruh,15.06.01.2019,Tungkal Ulu,Kabupaten,Tanjung Jabung Barat,Jambi
21,36552,Kuala Dasal,15.06.01.2003,Tungkal Ulu,Kabupaten,Tanjung Jabung Barat,Jambi
22,36552,Pelabuhan Dagang,15.06.01.1005,Tungkal Ulu,Kabupaten,Tanjung Jabung Barat,Jambi
23,36552,Pematang Pauh,15.06.01.2004,Tungkal Ulu,Kabupaten,Tanjung Jabung Barat,Jambi
24,36552,Pematang Tembesu,15.06.01.2020,Tungkal Ulu,Kabupaten,Tanjung Jabung Barat,Jambi
25,36552,Taman Raja,15.06.01.2006,Tungkal Ulu,Kabupaten,Tanjung Jabung Barat,Jambi
26,36552,Tanjungtayas (Tanjung Tayas),15.06.01.2002,Tungkal Ulu,Kabupaten,Tanjung Jabung Barat,Jambi
27,36557,Kampung Nelayan,15.06.02.1015,Tungkal Ilir,Kabupaten,Tanjung Jabung Barat,Jambi
28,36557,Patunas,15.06.02.1016,Tungkal Ilir,Kabupaten,Tanjung Jabung Barat,Jambi
29,36557,Sriwijaya,15.06.02.1017,Tungkal Ilir,Kabupaten,Tanjung Jabung Barat,Jambi
30,36557,Sungainibung,15.06.02.1018,Tungkal Ilir,Kabupaten,Tanjung Jabung Barat,Jambi
31,36557,Teluksialang (Teluk Sialang),15.06.02.2014,Tungkal Ilir,Kabupaten,Tanjung Jabung Barat,Jambi
32,36557,Tungkal Empat Kota,15.06.02.1004,Tungkal Ilir,Kabupaten,Tanjung Jabung Barat,Jambi
33,36557,Tungkal Harapan,15.06.02.1006,Tungkal Ilir,Kabupaten,Tanjung Jabung Barat,Jambi
34,36557,Tungkal I,15.06.02.2003,Tungkal Ilir,Kabupaten,Tanjung Jabung Barat,Jambi
35,36557,Tungkal II,15.06.02.1007,Tungkal Ilir,Kabupaten,Tanjung Jabung Barat,Jambi
36,36557,Tungkal III,15.06.02.1005,Tungkal Ilir,Kabupaten,Tanjung Jabung Barat,Jambi
37,37371,Baru Bukit Punjung,15.02.24.2004,Tiang Pumpung,Kabupaten,Merangin,Jambi
38,37371,Baru Sungai Sakai,15.02.24.2006,Tiang Pumpung,Kabupaten,Merangin,Jambi
39,37371,Beringin Sanggul,15.02.24.2003,Tiang Pumpung,Kabupaten,Merangin,Jambi
40,37353,Rantau Limau Kapas,15.02.24.2005,Tiang Pumpung,Kabupaten,Merangin,Jambi
41,37371,Sekancing (Sei Kancing),15.02.24.2001,Tiang Pumpung,Kabupaten,Merangin,Jambi
42,37371,Sekancing Ilir,15.02.24.2002,Tiang Pumpung,Kabupaten,Merangin,Jambi
43,37574,Lubuk Mandarsah (Lubuk Mandarasah),15.09.09.2005,Tengah Ilir,Kabupaten,Tebo,Jambi
44,37574,Lubuk Mandrasah Ulu,15.09.09.2006,Tengah Ilir,Kabupaten,Tebo,Jambi
45,37574,Mengupeh,15.09.09.2003,Tengah Ilir,Kabupaten,Tebo,Jambi
46,37574,Muara Kilis,15.09.09.2001,Tengah Ilir,Kabupaten,Tebo,Jambi
47,37574,Penapalan,15.09.09.2002,Tengah Ilir,Kabupaten,Tebo,Jambi
48,37574,Rantau Api,15.09.09.2004,Tengah Ilir,Kabupaten,Tebo,Jambi
49,36129,Aur Kenali,15.71.01.1012,Telanaipura,Kota,Jambi,Jambi
50,36123,Buluran Kenali,15.71.01.1002,Telanaipura,Kota,Jambi,Jambi
51,36129,Pematang Sulur,15.71.01.1011,Telanaipura,Kota,Jambi,Jambi
52,36124,Penyengat Rendah,15.71.01.1010,Telanaipura,Kota,Jambi,Jambi
53,36124,Simpang IV Sipin (Simpang Empat Sipin),15.71.01.1001,Telanaipura,Kota,Jambi,Jambi
54,36122,Telanaipura,15.71.01.1004,Telanaipura,Kota,Jambi,Jambi
55,36123,Teluk Kenali,15.71.01.1003,Telanaipura,Kota,Jambi,Jambi
56,37555,Bungo Tanjung,15.09.03.2008,Tebo Ulu,Kabupaten,Tebo,Jambi
57,37555,Jambu,15.09.03.2015,Tebo Ulu,Kabupaten,Tebo,Jambi
58,37555,Lubuk Benteng,15.09.03.2010,Tebo Ulu,Kabupaten,Tebo,Jambi
59,37555,Medan Seri Rambahan,15.09.03.2017,Tebo Ulu,Kabupaten,Tebo,Jambi
60,37555,Melako Intan (Malako Intan),15.09.03.2012,Tebo Ulu,Kabupaten,Tebo,Jambi
61,37555,Pagar Puding,15.09.03.2003,Tebo Ulu,Kabupaten,Tebo,Jambi
62,37555,Pulau Jelmu,15.09.03.2016,Tebo Ulu,Kabupaten,Tebo,Jambi
63,37555,Pulau Panjang,15.09.03.2009,Tebo Ulu,Kabupaten,Tebo,Jambi
64,37555,Pulautemiang (Pulau Temiang),15.09.03.1001,Tebo Ulu,Kabupaten,Tebo,Jambi
65,37555,Rantau Langkap,15.09.03.2006,Tebo Ulu,Kabupaten,Tebo,Jambi
66,37555,Sungai Rambai,15.09.03.2002,Tebo Ulu,Kabupaten,Tebo,Jambi
67,37555,Tanjung Aur,15.09.03.2007,Tebo Ulu,Kabupaten,Tebo,Jambi
68,37555,Teluk Kasai Rambahan,15.09.03.2005,Tebo Ulu,Kabupaten,Tebo,Jambi
69,37555,Teluk Kembang Jambu,15.09.03.2004,Tebo Ulu,Kabupaten,Tebo,Jambi
70,37555,Teluk Kuali,15.09.03.2011,Tebo Ulu,Kabupaten,Tebo,Jambi
71,37555,Teluk Pandan Rambahan,15.09.03.2019,Tebo Ulu,Kabupaten,Tebo,Jambi
72,37555,Ulak Banjir Rambahan,15.09.03.2018,Tebo Ulu,Kabupaten,Tebo,Jambi
73,37571,Aburan Batang Tebo,15.09.01.2011,Tebo Tengah,Kabupaten,Tebo,Jambi
74,37571,Bedaro Rampak,15.09.01.2003,Tebo Tengah,Kabupaten,Tebo,Jambi
75,37571,Kandang,15.09.01.2008,Tebo Tengah,Kabupaten,Tebo,Jambi
76,37571,Mangun Jayo,15.09.01.2004,Tebo Tengah,Kabupaten,Tebo,Jambi
77,37571,Matebo (Muara Tebo),15.09.01.1001,Tebo Tengah,Kabupaten,Tebo,Jambi
78,37571,Pelayang,15.09.01.2009,Tebo Tengah,Kabupaten,Tebo,Jambi
79,37571,Semabu,15.09.01.2007,Tebo Tengah,Kabupaten,Tebo,Jambi
80,37571,Sungai Alai,15.09.01.2012,Tebo Tengah,Kabupaten,Tebo,Jambi
81,37571,Sungai Keruh,15.09.01.2010,Tebo Tengah,Kabupaten,Tebo,Jambi
82,37571,Tebing Tinggi,15.09.01.1002,Tebo Tengah,Kabupaten,Tebo,Jambi
83,37571,Teluk Pandak,15.09.01.2005,Tebo Tengah,Kabupaten,Tebo,Jambi
84,37571,Tengah Ulu,15.09.01.2006,Tebo Tengah,Kabupaten,Tebo,Jambi
85,37572,Betung Bedarah Barat,15.09.02.2012,Tebo Ilir,Kabupaten,Tebo,Jambi
86,37572,Betung Bedarah Timur,15.09.02.2011,Tebo Ilir,Kabupaten,Tebo,Jambi
87,37572,Kemantan,15.09.02.2018,Tebo Ilir,Kabupaten,Tebo,Jambi
88,37572,Kunangan,15.09.02.2014,Tebo Ilir,Kabupaten,Tebo,Jambi
89,37572,Muara Ketalo,15.09.02.2015,Tebo Ilir,Kabupaten,Tebo,Jambi
90,37572,Sungai Aro,15.09.02.2002,Tebo Ilir,Kabupaten,Tebo,Jambi
91,37572,Sungai Bengkal,15.09.02.1001,Tebo Ilir,Kabupaten,Tebo,Jambi
92,37572,Sungai Bengkal Barat,15.09.02.2017,Tebo Ilir,Kabupaten,Tebo,Jambi
93,37572,Teluk Rendah Ilir,15.09.02.2005,Tebo Ilir,Kabupaten,Tebo,Jambi
94,37572,Teluk Rendah Pasar,15.09.02.2003,Tebo Ilir,Kabupaten,Tebo,Jambi
95,37572,Teluk Rendah Ulu,15.09.02.2004,Tebo Ilir,Kabupaten,Tebo,Jambi
96,37572,Tuo Ilir (Desa Tuo Ilir),15.09.02.2008,Tebo Ilir,Kabupaten,Tebo,Jambi
97,36551,Adi Jaya,15.06.06.2004,Tebing Tinggi,Kabupaten,Tanjung Jabung Barat,Jambi
98,36551,Dataran Kempas,15.06.06.2009,Tebing Tinggi,Kabupaten,Tanjung Jabung Barat,Jambi
99,36551,Delima,15.06.06.2010,Tebing Tinggi,Kabupaten,Tanjung Jabung Barat,Jambi
100,36551,Kelagian,15.06.06.2005,Tebing Tinggi,Kabupaten,Tanjung Jabung Barat,Jambi
101,36551,Purwodadi,15.06.06.2002,Tebing Tinggi,Kabupaten,Tanjung Jabung Barat,Jambi
102,36551,Suka Damai (Sukadamai),15.06.06.2003,Tebing Tinggi,Kabupaten,Tanjung Jabung Barat,Jambi
103,36551,Sungaikeruh,15.06.06.2008,Tebing Tinggi,Kabupaten,Tanjung Jabung Barat,Jambi
104,36551,Talang Makmur,15.06.06.2007,Tebing Tinggi,Kabupaten,Tanjung Jabung Barat,Jambi
105,36551,Tebing Tinggi,15.06.06.1001,Tebing Tinggi,Kabupaten,Tanjung Jabung Barat,Jambi
106,36551,Telukpengkah,15.06.06.2006,Tebing Tinggi,Kabupaten,Tanjung Jabung Barat,Jambi
107,37255,Bukit Kemang (Bukit Kemang Baru),15.08.01.2007,Tanah Tumbuh,Kabupaten,Bungo,Jambi
108,37255,Koto Jayo,15.08.01.2016,Tanah Tumbuh,Kabupaten,Bungo,Jambi
109,37255,Lubuk Niur,15.08.01.2002,Tanah Tumbuh,Kabupaten,Bungo,Jambi
110,37255,Panjang,15.08.01.2008,Tanah Tumbuh,Kabupaten,Bungo,Jambi
111,37255,Pedukun,15.08.01.2001,Tanah Tumbuh,Kabupaten,Bungo,Jambi
112,37255,Perenti Lueh/Luweh,15.08.01.2009,Tanah Tumbuh,Kabupaten,Bungo,Jambi
113,37255,Rambah,15.08.01.2005,Tanah Tumbuh,Kabupaten,Bungo,Jambi
114,37255,Renah Jelmu,15.08.01.2015,Tanah Tumbuh,Kabupaten,Bungo,Jambi
115,37255,Tanah Tumbuh,15.08.01.2004,Tanah Tumbuh,Kabupaten,Bungo,Jambi
116,37255,Tebing Tinggi Uleh,15.08.01.2006,Tanah Tumbuh,Kabupaten,Bungo,Jambi
117,37255,Teluk Kecimbung,15.08.01.2003,Tanah Tumbuh,Kabupaten,Bungo,Jambi
118,37264,Embacang Gedang,15.08.17.2006,Tanah Sepenggal Lintas,Kabupaten,Bungo,Jambi
119,37264,Lubuk Landai,15.08.17.2003,Tanah Sepenggal Lintas,Kabupaten,Bungo,Jambi
120,37264,Paku Aji,15.08.17.2008,Tanah Sepenggal Lintas,Kabupaten,Bungo,Jambi
121,37264,Pematang Panjang,15.08.17.2009,Tanah Sepenggal Lintas,Kabupaten,Bungo,Jambi
122,37264,Rantau Embacang,15.08.17.2004,Tanah Sepenggal Lintas,Kabupaten,Bungo,Jambi
123,37264,Rantau Makmur,15.08.17.2012,Tanah Sepenggal Lintas,Kabupaten,Bungo,Jambi
124,37264,Sungai Lilin,15.08.17.2010,Tanah Sepenggal Lintas,Kabupaten,Bungo,Jambi
125,37264,Sungai Mancur,15.08.17.2001,Tanah Sepenggal Lintas,Kabupaten,Bungo,Jambi
126,37264,Sungai Puri,15.08.17.2007,Tanah Sepenggal Lintas,Kabupaten,Bungo,Jambi
127,37264,Sungai Tembang,15.08.17.2011,Tanah Sepenggal Lintas,Kabupaten,Bungo,Jambi
128,37264,Tanah Periuk,15.08.17.2002,Tanah Sepenggal Lintas,Kabupaten,Bungo,Jambi
129,37264,Tebing Tinggi,15.08.17.2005,Tanah Sepenggal Lintas,Kabupaten,Bungo,Jambi
130,37263,Candi,15.08.05.2009,Tanah Sepenggal,Kabupaten,Bungo,Jambi
131,37263,Empelu,15.08.05.2003,Tanah Sepenggal,Kabupaten,Bungo,Jambi
132,37263,Pasar Lubuk Landai,15.08.05.2006,Tanah Sepenggal,Kabupaten,Bungo,Jambi
133,37263,Pasar Rantau Embacang,15.08.05.2017,Tanah Sepenggal,Kabupaten,Bungo,Jambi
134,37263,Sungai Gambir,15.08.05.2007,Tanah Sepenggal,Kabupaten,Bungo,Jambi
135,37263,Tanah Bekali,15.08.05.2012,Tanah Sepenggal,Kabupaten,Bungo,Jambi
136,37263,Tanjung,15.08.05.2010,Tanah Sepenggal,Kabupaten,Bungo,Jambi
137,37263,Telentam,15.08.05.2015,Tanah Sepenggal,Kabupaten,Bungo,Jambi
138,37263,Teluk Pandak,15.08.05.2001,Tanah Sepenggal,Kabupaten,Bungo,Jambi
139,37263,Tenam,15.08.05.2019,Tanah Sepenggal,Kabupaten,Bungo,Jambi
140,37121,Baru Debai,15.72.04.2001,Tanah Kampung,Kota,Sungai Penuh,Jambi
141,37121,Koto Baru Tanah Kampung,15.72.04.2012,Tanah Kampung,Kota,Sungai Penuh,Jambi
142,37121,Koto Dumo,15.72.04.2004,Tanah Kampung,Kota,Sungai Penuh,Jambi
143,37121,Koto Padang,15.72.04.2010,Tanah Kampung,Kota,Sungai Penuh,Jambi
144,37121,Koto Panap,15.72.04.2007,Tanah Kampung,Kota,Sungai Penuh,Jambi
145,37121,Koto Pudung,15.72.04.2003,Tanah Kampung,Kota,Sungai Penuh,Jambi
146,37121,Koto Tengah,15.72.04.2008,Tanah Kampung,Kota,Sungai Penuh,Jambi
147,37121,Koto Tuo,15.72.04.2006,Tanah Kampung,Kota,Sungai Penuh,Jambi
148,37121,Mekar Jaya,15.72.04.2013,Tanah Kampung,Kota,Sungai Penuh,Jambi
149,37121,Pendung Hiang,15.72.04.2002,Tanah Kampung,Kota,Sungai Penuh,Jambi
150,37121,Sembilan,15.72.04.2005,Tanah Kampung,Kota,Sungai Penuh,Jambi
151,37121,Tanjung Bunga/Bungo,15.72.04.2009,Tanah Kampung,Kota,Sungai Penuh,Jambi
152,37121,Tanjung Karang,15.72.04.2011,Tanah Kampung,Kota,Sungai Penuh,Jambi
153,37172,Agung Koto Iman,15.01.22.2010,Tanah Cogok,Kabupaten,Kerinci,Jambi
154,37171,Baru Semerah,15.01.22.2012,Tanah Cogok,Kabupaten,Kerinci,Jambi
155,37171,Bunga Tanjung,15.01.22.2002,Tanah Cogok,Kabupaten,Kerinci,Jambi
156,37171,Kayu Aro Ambai (Kayuaro Ambai),15.01.22.2001,Tanah Cogok,Kabupaten,Kerinci,Jambi
157,37172,Koto Iman,15.01.22.2011,Tanah Cogok,Kabupaten,Kerinci,Jambi
158,37172,Koto Petai,15.01.22.2008,Tanah Cogok,Kabupaten,Kerinci,Jambi
159,37172,Koto Salak,15.01.22.2009,Tanah Cogok,Kabupaten,Kerinci,Jambi
160,37172,Koto Tuo Ujung Pasir,15.01.22.2006,Tanah Cogok,Kabupaten,Kerinci,Jambi
161,37171,Pondok Beringin,15.01.22.2003,Tanah Cogok,Kabupaten,Kerinci,Jambi
162,37171,Sebukar,15.01.22.2005,Tanah Cogok,Kabupaten,Kerinci,Jambi
163,37171,Semerah,15.01.22.2004,Tanah Cogok,Kabupaten,Kerinci,Jambi
164,37172,Ujung Pasir,15.01.22.2007,Tanah Cogok,Kabupaten,Kerinci,Jambi
165,36383,Dusun Mudo (Mudo),15.05.11.2006,Taman Rajo,Kabupaten,Muaro Jambi,Jambi
166,36383,Kemingking Dalam,15.05.11.2004,Taman Rajo,Kabupaten,Muaro Jambi,Jambi
167,36383,Kemingking Luar,15.05.11.2008,Taman Rajo,Kabupaten,Muaro Jambi,Jambi
168,36383,Kunangan,15.05.11.2001,Taman Rajo,Kabupaten,Muaro Jambi,Jambi
169,36383,Manis Mato,15.05.11.2010,Taman Rajo,Kabupaten,Muaro Jambi,Jambi
170,36383,Rukam,15.05.11.2009,Taman Rajo,Kabupaten,Muaro Jambi,Jambi
171,36383,Sekumbung,15.05.11.2007,Taman Rajo,Kabupaten,Muaro Jambi,Jambi
172,36383,Talang Duku,15.05.11.2002,Taman Rajo,Kabupaten,Muaro Jambi,Jambi
173,36383,Tebat Patah,15.05.11.2003,Taman Rajo,Kabupaten,Muaro Jambi,Jambi
174,36383,Teluk Jambu,15.05.11.2005,Taman Rajo,Kabupaten,Muaro Jambi,Jambi
175,37356,Kapuk,15.02.07.2010,Tabir Ulu,Kabupaten,Merangin,Jambi
176,37356,Medan Baru,15.02.07.2013,Tabir Ulu,Kabupaten,Merangin,Jambi
177,37356,Muara Jernih,15.02.07.2009,Tabir Ulu,Kabupaten,Merangin,Jambi
178,37356,Muaro Seketuk (Muara Seketuk),15.02.07.2014,Tabir Ulu,Kabupaten,Merangin,Jambi
179,37356,Pulau Aro,15.02.07.2011,Tabir Ulu,Kabupaten,Merangin,Jambi
180,37356,Rantau Ngarau / Ngaro,15.02.07.2012,Tabir Ulu,Kabupaten,Merangin,Jambi
181,37355,Bukit Subur,15.02.15.2004,Tabir Timur,Kabupaten,Merangin,Jambi
182,37355,Sri Sembilan,15.02.15.2003,Tabir Timur,Kabupaten,Merangin,Jambi
183,37355,Sungai Bulian,15.02.15.2002,Tabir Timur,Kabupaten,Merangin,Jambi
184,37355,Sungai Limau,15.02.15.2001,Tabir Timur,Kabupaten,Merangin,Jambi
185,37354,Bungo Antoi (Bunga Antoi),15.02.08.2002,Tabir Selatan,Kabupaten,Merangin,Jambi
186,37354,Bungo Tanjung (Bunga Tanjung),15.02.08.2005,Tabir Selatan,Kabupaten,Merangin,Jambi
187,37354,Gading Jaya,15.02.08.2007,Tabir Selatan,Kabupaten,Merangin,Jambi
188,37354,Mekar Jaya,15.02.08.2008,Tabir Selatan,Kabupaten,Merangin,Jambi
189,37354,Muara Delang,15.02.08.2003,Tabir Selatan,Kabupaten,Merangin,Jambi
190,37354,Rawa Jaya,15.02.08.2006,Tabir Selatan,Kabupaten,Merangin,Jambi
191,37354,Sinar Gading,15.02.08.2004,Tabir Selatan,Kabupaten,Merangin,Jambi
192,37354,Sungai Sahut,15.02.08.2001,Tabir Selatan,Kabupaten,Merangin,Jambi
193,37357,Koto Baru,15.02.22.2004,Tabir Lintas,Kabupaten,Merangin,Jambi
194,37357,Mensango,15.02.22.2003,Tabir Lintas,Kabupaten,Merangin,Jambi
195,37357,Sido Harjo,15.02.22.2005,Tabir Lintas,Kabupaten,Merangin,Jambi
196,37357,Sido Lego,15.02.22.2002,Tabir Lintas,Kabupaten,Merangin,Jambi
197,37357,Tambang Baru,15.02.22.2001,Tabir Lintas,Kabupaten,Merangin,Jambi
198,37358,Air Batu,15.02.14.2003,Tabir Ilir,Kabupaten,Merangin,Jambi
199,37358,Kota Raja,15.02.14.2005,Tabir Ilir,Kabupaten,Merangin,Jambi
200,37358,Mekar Limau Manis,15.02.14.2007,Tabir Ilir,Kabupaten,Merangin,Jambi
201,37358,Rantau Limau Manis,15.02.14.2001,Tabir Ilir,Kabupaten,Merangin,Jambi
202,37358,Rejo Sari,15.02.14.2004,Tabir Ilir,Kabupaten,Merangin,Jambi
203,37358,Tunggul Bulin,15.02.14.2006,Tabir Ilir,Kabupaten,Merangin,Jambi
204,37358,Ulak Makam,15.02.14.2002,Tabir Ilir,Kabupaten,Merangin,Jambi
205,37356,Air Liki,15.02.23.2008,Tabir Barat,Kabupaten,Merangin,Jambi
206,37356,Air Liki Baru,15.02.23.2014,Tabir Barat,Kabupaten,Merangin,Jambi
207,37356,Baru Kibul,15.02.23.2012,Tabir Barat,Kabupaten,Merangin,Jambi
208,37356,Batang Kibul,15.02.23.2004,Tabir Barat,Kabupaten,Merangin,Jambi
209,37356,Muara Kibul,15.02.23.2001,Tabir Barat,Kabupaten,Merangin,Jambi
210,37356,Muara Langeh (Muaro Langeh),15.02.23.2010,Tabir Barat,Kabupaten,Merangin,Jambi
211,37356,Ngaol,15.02.23.2007,Tabir Barat,Kabupaten,Merangin,Jambi
212,37356,Ngaol Ilir,15.02.23.2013,Tabir Barat,Kabupaten,Merangin,Jambi
213,37356,Pulau Lebar,15.02.23.2009,Tabir Barat,Kabupaten,Merangin,Jambi
214,37356,Pulau Tebakar (Pulau Terbakar),15.02.23.2003,Tabir Barat,Kabupaten,Merangin,Jambi
215,37356,Sungai Tabir,15.02.23.2005,Tabir Barat,Kabupaten,Merangin,Jambi
216,37356,Tanjung Beringin,15.02.23.2011,Tabir Barat,Kabupaten,Merangin,Jambi
217,37356,Tanjung Putus,15.02.23.2002,Tabir Barat,Kabupaten,Merangin,Jambi
218,37356,Telentam,15.02.23.2006,Tabir Barat,Kabupaten,Merangin,Jambi
219,37350,Beluran Panjang (Buluran),15.02.05.2014,Tabir,Kabupaten,Merangin,Jambi
220,37350,Dusun Baru,15.02.05.1002,Tabir,Kabupaten,Merangin,Jambi
221,37350,Kampung Baruh,15.02.05.1005,Tabir,Kabupaten,Merangin,Jambi
222,37350,Kandang,15.02.05.2007,Tabir,Kabupaten,Merangin,Jambi
223,37350,Koto Rayo,15.02.05.2008,Tabir,Kabupaten,Merangin,Jambi
224,37350,Lubuk Napal,15.02.05.2035,Tabir,Kabupaten,Merangin,Jambi
225,37350,Mampun,15.02.05.1020,Tabir,Kabupaten,Merangin,Jambi
226,37350,Pasar Baru Rantau,15.02.05.1036,Tabir,Kabupaten,Merangin,Jambi
227,37350,Pasar Rantau Panjang,15.02.05.1003,Tabir,Kabupaten,Merangin,Jambi
228,37350,Seling,15.02.05.2015,Tabir,Kabupaten,Merangin,Jambi
229,37350,Tanjung Ilir,15.02.05.2011,Tabir,Kabupaten,Merangin,Jambi
230,37111,Amar Sakti,15.72.01.2014,Sungai Penuh,Kota,Sungai Penuh,Jambi
231,37111,Gedang,15.72.01.2006,Sungai Penuh,Kota,Sungai Penuh,Jambi
232,37111,Pasar Baru,15.72.01.2004,Sungai Penuh,Kota,Sungai Penuh,Jambi
233,37113,Pasar Sungai Penuh,15.72.01.1003,Sungai Penuh,Kota,Sungai Penuh,Jambi
234,37111,Sungai Penuh,15.72.01.1001,Sungai Penuh,Kota,Sungai Penuh,Jambi
235,37363,Benteng,15.02.04.2025,Sungai Manau,Kabupaten,Merangin,Jambi
236,37363,Bukit Batu,15.02.04.2015,Sungai Manau,Kabupaten,Merangin,Jambi
237,37363,Durian Lecah,15.02.04.2011,Sungai Manau,Kabupaten,Merangin,Jambi
238,37363,Gelanggang,15.02.04.2026,Sungai Manau,Kabupaten,Merangin,Jambi
239,37363,Palipan,15.02.04.2009,Sungai Manau,Kabupaten,Merangin,Jambi
240,37363,Saringat/Seringat,15.02.04.2010,Sungai Manau,Kabupaten,Merangin,Jambi
241,37363,Sungai Manau,15.02.04.2017,Sungai Manau,Kabupaten,Merangin,Jambi
242,37363,Sungai Nilau,15.02.04.2016,Sungai Manau,Kabupaten,Merangin,Jambi
243,37363,Sungai/Sei Pinang,15.02.04.2007,Sungai Manau,Kabupaten,Merangin,Jambi
244,37363,Tiangko,15.02.04.2008,Sungai Manau,Kabupaten,Merangin,Jambi
245,36363,Gambut Jaya,15.05.08.2015,Sungai Gelam,Kabupaten,Muaro Jambi,Jambi
246,36363,Kebon IX,15.05.08.2001,Sungai Gelam,Kabupaten,Muaro Jambi,Jambi
247,36363,Ladang Panjang,15.05.08.2004,Sungai Gelam,Kabupaten,Muaro Jambi,Jambi
248,36363,Mekar Jaya,15.05.08.2013,Sungai Gelam,Kabupaten,Muaro Jambi,Jambi
249,36363,Mingkung Jaya,15.05.08.2011,Sungai Gelam,Kabupaten,Muaro Jambi,Jambi
250,36363,Parit,15.05.08.2008,Sungai Gelam,Kabupaten,Muaro Jambi,Jambi
251,36363,Petaling Jaya,15.05.08.2009,Sungai Gelam,Kabupaten,Muaro Jambi,Jambi
252,36363,Sido Mukti,15.05.08.2014,Sungai Gelam,Kabupaten,Muaro Jambi,Jambi
253,36363,Sumber Agung,15.05.08.2010,Sungai Gelam,Kabupaten,Muaro Jambi,Jambi
254,36363,Sungai Gelam,15.05.08.2007,Sungai Gelam,Kabupaten,Muaro Jambi,Jambi
255,36363,Talang Belido,15.05.08.2002,Sungai Gelam,Kabupaten,Muaro Jambi,Jambi
256,36363,Talang Kerinci,15.05.08.2003,Sungai Gelam,Kabupaten,Muaro Jambi,Jambi
257,36363,Tangkit,15.05.08.2005,Sungai Gelam,Kabupaten,Muaro Jambi,Jambi
258,36363,Tangkit Baru,15.05.08.2006,Sungai Gelam,Kabupaten,Muaro Jambi,Jambi
259,36363,Trimulya Jaya,15.05.08.2012,Sungai Gelam,Kabupaten,Muaro Jambi,Jambi
260,37112,Dusun Baru,15.72.08.1005,Sungai Bungkal,Kota,Sungai Penuh,Jambi
261,37111,Koto Tinggi,15.72.08.2002,Sungai Bungkal,Kota,Sungai Penuh,Jambi
262,37111,Pelayang Raya,15.72.08.2004,Sungai Bungkal,Kota,Sungai Penuh,Jambi
263,37111,Sumur Anyir,15.72.08.2001,Sungai Bungkal,Kota,Sungai Penuh,Jambi
264,37111,Sungai Ning,15.72.08.2006,Sungai Bungkal,Kota,Sungai Penuh,Jambi
265,37111,Talang Lindung,15.72.08.2003,Sungai Bungkal,Kota,Sungai Penuh,Jambi
266,36365,Bakti Mulya,15.05.07.2033,Sungai Bahar,Kabupaten,Muaro Jambi,Jambi
267,36365,Berkah (Desa Berkah),15.05.07.2013,Sungai Bahar,Kabupaten,Muaro Jambi,Jambi
268,36365,Bukit Makmur,15.05.07.2018,Sungai Bahar,Kabupaten,Muaro Jambi,Jambi
269,36365,Bukit Mas,15.05.07.2021,Sungai Bahar,Kabupaten,Muaro Jambi,Jambi
270,36365,Marga Manunggal Jaya,15.05.07.2007,Sungai Bahar,Kabupaten,Muaro Jambi,Jambi
271,36365,Marga Mulya,15.05.07.2005,Sungai Bahar,Kabupaten,Muaro Jambi,Jambi
272,36365,Mekar Sari Makmur (Mekarsari Makmur),15.05.07.2025,Sungai Bahar,Kabupaten,Muaro Jambi,Jambi
273,36365,Panca Bakti,15.05.07.2034,Sungai Bahar,Kabupaten,Muaro Jambi,Jambi
274,36365,Panca Mulya,15.05.07.2006,Sungai Bahar,Kabupaten,Muaro Jambi,Jambi
275,36365,Suka Makmur,15.05.07.2004,Sungai Bahar,Kabupaten,Muaro Jambi,Jambi
276,36365,Tanjung Harapan,15.05.07.2012,Sungai Bahar,Kabupaten,Muaro Jambi,Jambi
277,37573,Jati Belarik,15.09.05.2006,Sumay,Kabupaten,Tebo,Jambi
278,37573,Lembak Bungur,15.09.05.2002,Sumay,Kabupaten,Tebo,Jambi
279,37573,Muara Sekalo,15.09.05.2010,Sumay,Kabupaten,Tebo,Jambi
280,37573,Pemayungan (Pemayongan),15.09.05.2012,Sumay,Kabupaten,Tebo,Jambi
281,37573,Punti Kalo (Puntikalo),15.09.05.2005,Sumay,Kabupaten,Tebo,Jambi
282,37573,Semambu (Desa Semambu),15.09.05.2011,Sumay,Kabupaten,Tebo,Jambi
283,37573,Suo Suo,15.09.05.2009,Sumay,Kabupaten,Tebo,Jambi
284,37573,Tambun Arang,15.09.05.2004,Sumay,Kabupaten,Tebo,Jambi
285,37573,Teluk Langkap,15.09.05.2003,Sumay,Kabupaten,Tebo,Jambi
286,37573,Teluk Singkawang,15.09.05.2001,Sumay,Kabupaten,Tebo,Jambi
287,37573,Teriti,15.09.05.2008,Sumay,Kabupaten,Tebo,Jambi
288,37573,Tuo Sumay,15.09.05.2007,Sumay,Kabupaten,Tebo,Jambi
289,37169,Koto Lua,15.01.18.2014,Siulak Mukai,Kabupaten,Kerinci,Jambi
290,37169,Lubuk Tabun,15.01.18.2013,Siulak Mukai,Kabupaten,Kerinci,Jambi
291,37169,Mukai Hilir,15.01.18.2001,Siulak Mukai,Kabupaten,Kerinci,Jambi
292,37169,Mukai Mudik,15.01.18.2003,Siulak Mukai,Kabupaten,Kerinci,Jambi
293,37169,Mukai Pintu,15.01.18.2007,Siulak Mukai,Kabupaten,Kerinci,Jambi
294,37169,Mukai Seberang,15.01.18.2011,Siulak Mukai,Kabupaten,Kerinci,Jambi
295,37169,Mukai Tengah,15.01.18.2002,Siulak Mukai,Kabupaten,Kerinci,Jambi
296,37169,Mukai Tinggi,15.01.18.2006,Siulak Mukai,Kabupaten,Kerinci,Jambi
297,37169,Pasir Jaya,15.01.18.2009,Siulak Mukai,Kabupaten,Kerinci,Jambi
298,37169,Senimpik,15.01.18.2004,Siulak Mukai,Kabupaten,Kerinci,Jambi
299,37169,Sungaikuning (Sungai Kuning),15.01.18.2010,Siulak Mukai,Kabupaten,Kerinci,Jambi
300,37169,Sungailangkap (Sungai Langkap),15.01.18.2008,Siulak Mukai,Kabupaten,Kerinci,Jambi
301,37169,Talang Tinggi,15.01.18.2012,Siulak Mukai,Kabupaten,Kerinci,Jambi
302,37169,Tebing Tinggi,15.01.18.2005,Siulak Mukai,Kabupaten,Kerinci,Jambi
303,37160,Air Terjun,15.01.16.2016,Siulak,Kabupaten,Kerinci,Jambi
304,37160,Baru Sungaipegeh (Baru Sungai Pegeh),15.01.16.2033,Siulak,Kabupaten,Kerinci,Jambi
305,37160,Bendar Sedap,15.01.16.2034,Siulak,Kabupaten,Kerinci,Jambi
306,37160,Demong Sakti,15.01.16.2039,Siulak,Kabupaten,Kerinci,Jambi
307,37160,Dusun Baru,15.01.16.2014,Siulak,Kabupaten,Kerinci,Jambi
308,37160,Dusun Dalam,15.01.16.2015,Siulak,Kabupaten,Kerinci,Jambi
309,37160,Koto Aro,15.01.16.2019,Siulak,Kabupaten,Kerinci,Jambi
310,37160,Koto Beringin,15.01.16.2013,Siulak,Kabupaten,Kerinci,Jambi
311,37160,Koto Kapeh,15.01.16.2012,Siulak,Kabupaten,Kerinci,Jambi
312,37160,Koto Lebuh Tinggi,15.01.16.2021,Siulak,Kabupaten,Kerinci,Jambi
313,37160,Koto Rendah,15.01.16.2007,Siulak,Kabupaten,Kerinci,Jambi
314,37160,Koto Tengah,15.01.16.2025,Siulak,Kabupaten,Kerinci,Jambi
315,37160,Lubuk Nagodang,15.01.16.2009,Siulak,Kabupaten,Kerinci,Jambi
316,37160,Padang Jantung,15.01.16.2036,Siulak,Kabupaten,Kerinci,Jambi
317,37160,Pasar Senen,15.01.16.2040,Siulak,Kabupaten,Kerinci,Jambi
318,37160,Pasar Siulak Gedang,15.01.16.2004,Siulak,Kabupaten,Kerinci,Jambi
319,37160,Pelak Gedang,15.01.16.2038,Siulak,Kabupaten,Kerinci,Jambi
320,37160,Plak Naneh,15.01.16.2035,Siulak,Kabupaten,Kerinci,Jambi
321,37160,Siulak Gedang,15.01.16.2001,Siulak,Kabupaten,Kerinci,Jambi
322,37160,Siulak Kecil Hilir,15.01.16.2024,Siulak,Kabupaten,Kerinci,Jambi
323,37160,Siulak Kecil Mudik,15.01.16.2006,Siulak,Kabupaten,Kerinci,Jambi
324,37160,Siulak Panjang,15.01.16.2005,Siulak,Kabupaten,Kerinci,Jambi
325,37160,Sungailebuh (Sungai Lebuh),15.01.16.2011,Siulak,Kabupaten,Kerinci,Jambi
326,37160,Sungaipegeh (Sungai Pegeh),15.01.16.2010,Siulak,Kabupaten,Kerinci,Jambi
327,37160,Telago Biru,15.01.16.2028,Siulak,Kabupaten,Kerinci,Jambi
328,37160,Tutung Bungkuk,15.01.16.2030,Siulak,Kabupaten,Kerinci,Jambi
329,37171,Ambai Atas,15.01.04.2009,Sitinjau Laut,Kabupaten,Kerinci,Jambi
330,37171,Ambai Bawah,15.01.04.2026,Sitinjau Laut,Kabupaten,Kerinci,Jambi
331,37171,Angkasa Pura,15.01.04.2030,Sitinjau Laut,Kabupaten,Kerinci,Jambi
332,37171,Betung Kuning,15.01.04.2014,Sitinjau Laut,Kabupaten,Kerinci,Jambi
333,37171,Hiang Karya,15.01.04.2028,Sitinjau Laut,Kabupaten,Kerinci,Jambi
334,37171,Hiang Lestari,15.01.04.2029,Sitinjau Laut,Kabupaten,Kerinci,Jambi
335,37171,Hiang Sakti,15.01.04.2031,Sitinjau Laut,Kabupaten,Kerinci,Jambi
336,37171,Hiang Tinggi,15.01.04.2008,Sitinjau Laut,Kabupaten,Kerinci,Jambi
337,37171,Koto Baru Hiang,15.01.04.2013,Sitinjau Laut,Kabupaten,Kerinci,Jambi
338,37171,Koto Sekilan Ambai,15.01.04.2033,Sitinjau Laut,Kabupaten,Kerinci,Jambi
339,37171,Penawar Tinggi,15.01.04.2034,Sitinjau Laut,Kabupaten,Kerinci,Jambi
340,37171,Pendung Hilir,15.01.04.2012,Sitinjau Laut,Kabupaten,Kerinci,Jambi
341,37171,Pendung Tengah,15.01.04.2011,Sitinjau Laut,Kabupaten,Kerinci,Jambi
342,37171,Tanjungmudo (Tanjung Mudo),15.01.04.2010,Sitinjau Laut,Kabupaten,Kerinci,Jambi
343,37483,Argo Sari,15.03.09.2012,Singkut,Kabupaten,Sarolangun,Jambi
344,37483,Bukit Bumi Raya (Bukitbumi Raya),15.03.09.2011,Singkut,Kabupaten,Sarolangun,Jambi
345,37483,Bukit Murau (Bukitmurau),15.03.09.2005,Singkut,Kabupaten,Sarolangun,Jambi
346,37483,Bukit Talang Mas (Bukittalang Mas),15.03.09.2010,Singkut,Kabupaten,Sarolangun,Jambi
347,37483,Bukittigo (Bukit Tigo),15.03.09.2002,Singkut,Kabupaten,Sarolangun,Jambi
348,37483,Pasar Singkut,15.03.09.2007,Singkut,Kabupaten,Sarolangun,Jambi
349,37483,Payo Lebar,15.03.09.2004,Singkut,Kabupaten,Sarolangun,Jambi
350,37483,Perdamaian,15.03.09.2006,Singkut,Kabupaten,Sarolangun,Jambi
351,37483,Sendang Sari,15.03.09.2013,Singkut,Kabupaten,Sarolangun,Jambi
352,37483,Siliwangi,15.03.09.2008,Singkut,Kabupaten,Sarolangun,Jambi
353,37483,Simpang Nibung,15.03.09.2009,Singkut,Kabupaten,Sarolangun,Jambi
354,37483,Sungai Benteng (Sungaibenteng),15.03.09.1001,Singkut,Kabupaten,Sarolangun,Jambi
355,37483,Sungai Gedang (Sungaigedang),15.03.09.2003,Singkut,Kabupaten,Sarolangun,Jambi
356,37554,Bukit Pamuatan (Bukit Pemuatan),15.09.10.2003,Serai Serumpun,Kabupaten,Tebo,Jambi
357,37554,Napal Putih,15.09.10.2004,Serai Serumpun,Kabupaten,Tebo,Jambi
358,37554,Pagar Puding Lamo,15.09.10.2006,Serai Serumpun,Kabupaten,Tebo,Jambi
359,37554,Pinang Belai/Balai,15.09.10.2001,Serai Serumpun,Kabupaten,Tebo,Jambi
360,37554,Sako Makmur,15.09.10.2005,Serai Serumpun,Kabupaten,Tebo,Jambi
361,37554,Sekutur Jaya,15.09.10.2002,Serai Serumpun,Kabupaten,Tebo,Jambi
362,37554,Tanjung Aur Seberang,15.09.10.2007,Serai Serumpun,Kabupaten,Tebo,Jambi
363,37554,Teluk Melintang,15.09.10.2008,Serai Serumpun,Kabupaten,Tebo,Jambi
364,36513,Kempas Jaya,15.06.13.2006,Senyerang,Kabupaten,Tanjung Jabung Barat,Jambi
365,36513,Lumahan,15.06.13.2007,Senyerang,Kabupaten,Tanjung Jabung Barat,Jambi
366,36513,Margo Rukun,15.06.13.2005,Senyerang,Kabupaten,Tanjung Jabung Barat,Jambi
367,36513,Senyerang,15.06.13.1001,Senyerang,Kabupaten,Tanjung Jabung Barat,Jambi
368,36513,Sungaikayu Aro (Sungai Kayu Aro),15.06.13.2002,Senyerang,Kabupaten,Tanjung Jabung Barat,Jambi
369,36513,Sungaikepayang (Sungai Kepayang),15.06.13.2010,Senyerang,Kabupaten,Tanjung Jabung Barat,Jambi
370,36513,Sungailandak (Sungai Landak),15.06.13.2008,Senyerang,Kabupaten,Tanjung Jabung Barat,Jambi
371,36513,Sungairambai (Sungai Rambai),15.06.13.2004,Senyerang,Kabupaten,Tanjung Jabung Barat,Jambi
372,36513,Sungsang,15.06.13.2009,Senyerang,Kabupaten,Tanjung Jabung Barat,Jambi
373,36513,Telukketapang (Teluk Ketapang),15.06.13.2003,Senyerang,Kabupaten,Tanjung Jabung Barat,Jambi
374,36381,Berembang,15.05.02.2008,Sekernan,Kabupaten,Muaro Jambi,Jambi
375,36381,Bukit Baling,15.05.02.2013,Sekernan,Kabupaten,Muaro Jambi,Jambi
376,36381,Gerunggung,15.05.02.2011,Sekernan,Kabupaten,Muaro Jambi,Jambi
377,36381,Kedotan,15.05.02.2006,Sekernan,Kabupaten,Muaro Jambi,Jambi
378,36381,Keranggan,15.05.02.2007,Sekernan,Kabupaten,Muaro Jambi,Jambi
379,36381,Pematang Pulai/Pule,15.05.02.2004,Sekernan,Kabupaten,Muaro Jambi,Jambi
380,36381,Pulau Kayu Aro,15.05.02.2003,Sekernan,Kabupaten,Muaro Jambi,Jambi
381,36381,Rantau Majo,15.05.02.2002,Sekernan,Kabupaten,Muaro Jambi,Jambi
382,36381,Sekernan,15.05.02.2009,Sekernan,Kabupaten,Muaro Jambi,Jambi
383,36381,Sengeti,15.05.02.1010,Sekernan,Kabupaten,Muaro Jambi,Jambi
384,36381,Suak Putat,15.05.02.2001,Sekernan,Kabupaten,Muaro Jambi,Jambi
385,36381,Suko Awin Jaya,15.05.02.2015,Sekernan,Kabupaten,Muaro Jambi,Jambi
386,36381,Tan Tan (Tantan),15.05.02.2005,Sekernan,Kabupaten,Muaro Jambi,Jambi
387,36381,Tanjung Lanjut,15.05.02.2014,Sekernan,Kabupaten,Muaro Jambi,Jambi
388,36381,Tunas Baru,15.05.02.2012,Sekernan,Kabupaten,Muaro Jambi,Jambi
389,36381,Tunas Mudo,15.05.02.2016,Sekernan,Kabupaten,Muaro Jambi,Jambi
390,36511,Harapan Jaya,15.06.10.2006,Seberang Kota,Kabupaten,Tanjung Jabung Barat,Jambi
391,36514,Kuala Baru,15.06.10.2003,Seberang Kota,Kabupaten,Tanjung Jabung Barat,Jambi
392,36511,Kuala Kahar,15.06.10.2007,Seberang Kota,Kabupaten,Tanjung Jabung Barat,Jambi
393,36511,Mekar Alam,15.06.10.2005,Seberang Kota,Kabupaten,Tanjung Jabung Barat,Jambi
394,36511,Muaraseberang (Muara Seberang),15.06.10.2008,Seberang Kota,Kabupaten,Tanjung Jabung Barat,Jambi
395,36514,Telukpulai Raya (Teluk Pulai Raya),15.06.10.2004,Seberang Kota,Kabupaten,Tanjung Jabung Barat,Jambi
396,36514,Tungkal Empat (IV) Desa,15.06.10.2002,Seberang Kota,Kabupaten,Tanjung Jabung Barat,Jambi
397,36514,Tungkal Lima (V),15.06.10.1001,Seberang Kota,Kabupaten,Tanjung Jabung Barat,Jambi
398,37481,Aur Gading,15.03.03.1026,Sarolangun,Kabupaten,Sarolangun,Jambi
399,37481,Bernai,15.03.03.2002,Sarolangun,Kabupaten,Sarolangun,Jambi
400,37481,Bernai Dalam,15.03.03.2028,Sarolangun,Kabupaten,Sarolangun,Jambi
401,37481,Desa Baru,15.03.03.2024,Sarolangun,Kabupaten,Sarolangun,Jambi
402,37481,Dusun Sarolangun,15.03.03.1001,Sarolangun,Kabupaten,Sarolangun,Jambi
403,37481,Gunung Kembang,15.03.03.1025,Sarolangun,Kabupaten,Sarolangun,Jambi
404,37481,Ladang Panjang,15.03.03.2014,Sarolangun,Kabupaten,Sarolangun,Jambi
405,37481,Lidung,15.03.03.2013,Sarolangun,Kabupaten,Sarolangun,Jambi
406,37481,Panti,15.03.03.2004,Sarolangun,Kabupaten,Sarolangun,Jambi
407,37481,Pasar Sarolangun,15.03.03.1016,Sarolangun,Kabupaten,Sarolangun,Jambi
408,37481,Sarolangun Kembang,15.03.03.1019,Sarolangun,Kabupaten,Sarolangun,Jambi
409,37481,Sukasari,15.03.03.1015,Sarolangun,Kabupaten,Sarolangun,Jambi
410,37481,Sungai Abang,15.03.03.2006,Sarolangun,Kabupaten,Sarolangun,Jambi
411,37481,Sungai Baung,15.03.03.2003,Sarolangun,Kabupaten,Sarolangun,Jambi
412,37481,Tinting (Tingting),15.03.03.2005,Sarolangun,Kabupaten,Sarolangun,Jambi
413,37481,Ujung Tanjung,15.03.03.2027,Sarolangun,Kabupaten,Sarolangun,Jambi
414,36773,Air Hitam Laut (Air Hitam / Laut),15.07.05.2002,Sadu,Kabupaten,Tanjung Jabung Timur,Jambi
415,36773,Labuhan Pering,15.07.05.2009,Sadu,Kabupaten,Tanjung Jabung Timur,Jambi
416,36773,Remau Baku Tuo,15.07.05.2008,Sadu,Kabupaten,Tanjung Jabung Timur,Jambi
417,36773,Sungai Benuh,15.07.05.2006,Sadu,Kabupaten,Tanjung Jabung Timur,Jambi
418,36773,Sungai Cemara,15.07.05.2007,Sadu,Kabupaten,Tanjung Jabung Timur,Jambi
419,36773,Sungai Itik,15.07.05.2004,Sadu,Kabupaten,Tanjung Jabung Timur,Jambi
420,36773,Sungai Jambat,15.07.05.2003,Sadu,Kabupaten,Tanjung Jabung Timur,Jambi
421,36773,Sungai Sayang,15.07.05.2001,Sadu,Kabupaten,Tanjung Jabung Timur,Jambi
422,36773,Sungailokan (Sungai Lokan),15.07.05.1005,Sadu,Kabupaten,Tanjung Jabung Timur,Jambi
423,37553,Damai Makmur,15.09.07.2010,Rimbo Ulu,Kabupaten,Tebo,Jambi
424,37553,Mekar Sari,15.09.07.2007,Rimbo Ulu,Kabupaten,Tebo,Jambi
425,37553,Sido Mulyo,15.09.07.2012,Rimbo Ulu,Kabupaten,Tebo,Jambi
426,37553,Sido Rukun,15.09.07.2004,Rimbo Ulu,Kabupaten,Tebo,Jambi
427,37553,Suka Damai,15.09.07.2001,Rimbo Ulu,Kabupaten,Tebo,Jambi
428,37553,Suka Jaya,15.09.07.2011,Rimbo Ulu,Kabupaten,Tebo,Jambi
429,37553,Suka Maju,15.09.07.2006,Rimbo Ulu,Kabupaten,Tebo,Jambi
430,37553,Sumber Sari,15.09.07.2003,Rimbo Ulu,Kabupaten,Tebo,Jambi
431,37553,Sungai Pandan,15.09.07.2005,Rimbo Ulu,Kabupaten,Tebo,Jambi
432,37553,Wana Arum,15.09.07.2008,Rimbo Ulu,Kabupaten,Tebo,Jambi
433,37553,Wana Mulya,15.09.07.2009,Rimbo Ulu,Kabupaten,Tebo,Jambi
434,37553,Wana Reja (Wanareja),15.09.07.2002,Rimbo Ulu,Kabupaten,Tebo,Jambi
435,37215,Cadika (Candika),15.08.13.1002,Rimbo Tengah,Kabupaten,Bungo,Jambi
436,37215,Pasir Putih,15.08.13.1001,Rimbo Tengah,Kabupaten,Bungo,Jambi
437,37215,Sungai Buluh,15.08.13.2004,Rimbo Tengah,Kabupaten,Bungo,Jambi
438,37215,Sungai Mengkuang,15.08.13.2003,Rimbo Tengah,Kabupaten,Bungo,Jambi
439,37552,Giri Mulyo,15.09.08.2010,Rimbo Ilir,Kabupaten,Tebo,Jambi
440,37552,Giri Purno,15.09.08.2005,Rimbo Ilir,Kabupaten,Tebo,Jambi
441,37552,Giriwinangun,15.09.08.2001,Rimbo Ilir,Kabupaten,Tebo,Jambi
442,37552,Karang Dadi,15.09.08.2004,Rimbo Ilir,Kabupaten,Tebo,Jambi
443,37552,Pulung Rejo,15.09.08.2003,Rimbo Ilir,Kabupaten,Tebo,Jambi
444,37552,Rantau Kembang,15.09.08.2009,Rimbo Ilir,Kabupaten,Tebo,Jambi
445,37552,Sarimulya (Sari Mulyo / Mulya),15.09.08.2007,Rimbo Ilir,Kabupaten,Tebo,Jambi
446,37552,Sepakat Bersatu,15.09.08.2008,Rimbo Ilir,Kabupaten,Tebo,Jambi
447,37552,Sidorejo (Sido Rejo),15.09.08.2002,Rimbo Ilir,Kabupaten,Tebo,Jambi
448,37552,Sumber Agung,15.09.08.2006,Rimbo Ilir,Kabupaten,Tebo,Jambi
449,37551,Jaya Mulya,15.09.04.2016,Rimbo Bujang,Kabupaten,Tebo,Jambi
450,37551,Mandiri Agung,15.09.04.1010,Rimbo Bujang,Kabupaten,Tebo,Jambi
451,37551,Mekar Kencana,15.09.04.2011,Rimbo Bujang,Kabupaten,Tebo,Jambi
452,37551,Pematang Sapat,15.09.04.2008,Rimbo Bujang,Kabupaten,Tebo,Jambi
453,37551,Perintis,15.09.04.2002,Rimbo Bujang,Kabupaten,Tebo,Jambi
454,37551,Perintis Jaya,15.09.04.2014,Rimbo Bujang,Kabupaten,Tebo,Jambi
455,37551,Perintis Makmur,15.09.04.2015,Rimbo Bujang,Kabupaten,Tebo,Jambi
456,37551,Purwo Dadi,15.09.04.2012,Rimbo Bujang,Kabupaten,Tebo,Jambi
457,37551,Purwo Harjo,15.09.04.2004,Rimbo Bujang,Kabupaten,Tebo,Jambi
458,37551,Rimbo Mulyo,15.09.04.2003,Rimbo Bujang,Kabupaten,Tebo,Jambi
459,37551,Sapta Mulia (Sapta Mulyo),15.09.04.2007,Rimbo Bujang,Kabupaten,Tebo,Jambi
460,37551,Sarana Agung,15.09.04.1009,Rimbo Bujang,Kabupaten,Tebo,Jambi
461,37551,Tegal Arum,15.09.04.2005,Rimbo Bujang,Kabupaten,Tebo,Jambi
462,37551,Tegal Asri,15.09.04.2013,Rimbo Bujang,Kabupaten,Tebo,Jambi
463,37551,Tirta Kencana (Tirtakencana),15.09.04.2006,Rimbo Bujang,Kabupaten,Tebo,Jambi
464,37551,Wirotho Agung,15.09.04.1001,Rimbo Bujang,Kabupaten,Tebo,Jambi
465,37362,Air Batu,15.02.16.2008,Renah Pembarap,Kabupaten,Merangin,Jambi
466,37362,Durian Batakuk,15.02.16.2003,Renah Pembarap,Kabupaten,Merangin,Jambi
467,37362,Guguk,15.02.16.2006,Renah Pembarap,Kabupaten,Merangin,Jambi
468,37362,Markeh,15.02.16.2007,Renah Pembarap,Kabupaten,Merangin,Jambi
469,37362,Marus Jaya,15.02.16.2009,Renah Pembarap,Kabupaten,Merangin,Jambi
470,37362,Muara Bantan,15.02.16.2004,Renah Pembarap,Kabupaten,Merangin,Jambi
471,37362,Muaro Panco Barat,15.02.16.2001,Renah Pembarap,Kabupaten,Merangin,Jambi
472,37362,Muaro Panco Timur (Simpang Muaro Panco Timur),15.02.16.2012,Renah Pembarap,Kabupaten,Merangin,Jambi
473,37362,Parit Ujung Tanjung,15.02.16.2005,Renah Pembarap,Kabupaten,Merangin,Jambi
474,37362,Renah Medan,15.02.16.2010,Renah Pembarap,Kabupaten,Merangin,Jambi
475,37362,Simpang Parit,15.02.16.2011,Renah Pembarap,Kabupaten,Merangin,Jambi
476,37362,Talang Segegah,15.02.16.2002,Renah Pembarap,Kabupaten,Merangin,Jambi
477,37351,Bukit Bungkul,15.02.19.2002,Renah Pamenang (Renah Pemenang),Kabupaten,Merangin,Jambi
478,37351,Lantak Seribu,15.02.19.2004,Renah Pamenang (Renah Pemenang),Kabupaten,Merangin,Jambi
479,37351,Meranti,15.02.19.2001,Renah Pamenang (Renah Pemenang),Kabupaten,Merangin,Jambi
480,37351,Rasau,15.02.19.2003,Renah Pamenang (Renah Pemenang),Kabupaten,Merangin,Jambi
481,36559,Bukitbakar (Bukit Bakar),15.06.08.2010,Renah Mendaluh,Kabupaten,Tanjung Jabung Barat,Jambi
482,36559,Cinta Damai,15.06.08.2005,Renah Mendaluh,Kabupaten,Tanjung Jabung Barat,Jambi
483,36559,Lampisi,15.06.08.2004,Renah Mendaluh,Kabupaten,Tanjung Jabung Barat,Jambi
484,36559,Lubuk Kambing,15.06.08.1001,Renah Mendaluh,Kabupaten,Tanjung Jabung Barat,Jambi
485,36559,Muaradanau (Muara Danau),15.06.08.2007,Renah Mendaluh,Kabupaten,Tanjung Jabung Barat,Jambi
486,36559,Pulaupauh (Pulau Pauh),15.06.08.2002,Renah Mendaluh,Kabupaten,Tanjung Jabung Barat,Jambi
487,36559,Rantau Benar,15.06.08.2003,Renah Mendaluh,Kabupaten,Tanjung Jabung Barat,Jambi
488,36559,Sungaipaur (Sungai Pau),15.06.08.2009,Renah Mendaluh,Kabupaten,Tanjung Jabung Barat,Jambi
489,36559,Sungairotan (Sei / Sungai Rotan),15.06.08.2006,Renah Mendaluh,Kabupaten,Tanjung Jabung Barat,Jambi
490,36559,Tanahtumbuh (Tanah Tumbuh),15.06.08.2008,Renah Mendaluh,Kabupaten,Tanjung Jabung Barat,Jambi
491,36772,Bandar Jaya,15.07.04.1006,Rantau Rasau,Kabupaten,Tanjung Jabung Timur,Jambi
492,36772,Bangun Karya,15.07.04.2008,Rantau Rasau,Kabupaten,Tanjung Jabung Timur,Jambi
493,36772,Harapan Makmur,15.07.04.2007,Rantau Rasau,Kabupaten,Tanjung Jabung Timur,Jambi
494,36772,Karya Bakti,15.07.04.2013,Rantau Rasau,Kabupaten,Tanjung Jabung Timur,Jambi
495,36772,Marga Mulya,15.07.04.2014,Rantau Rasau,Kabupaten,Tanjung Jabung Timur,Jambi
496,36772,Pematang Mayan,15.07.04.2015,Rantau Rasau,Kabupaten,Tanjung Jabung Timur,Jambi
497,36772,Rantau Jaya,15.07.04.2009,Rantau Rasau,Kabupaten,Tanjung Jabung Timur,Jambi
498,36772,Rantau Rasau I,15.07.04.2004,Rantau Rasau,Kabupaten,Tanjung Jabung Timur,Jambi
499,36772,Rantau Rasau II,15.07.04.2005,Rantau Rasau,Kabupaten,Tanjung Jabung Timur,Jambi
500,36772,Sungai Dusun,15.07.04.2011,Rantau Rasau,Kabupaten,Tanjung Jabung Timur,Jambi
501,36772,Tri Mulya/Mulyo,15.07.04.2016,Rantau Rasau,Kabupaten,Tanjung Jabung Timur,Jambi
502,37261,Leban,15.08.02.2004,Rantau Pandan,Kabupaten,Bungo,Jambi
503,37261,Lubuk Kayu Aro,15.08.02.2005,Rantau Pandan,Kabupaten,Bungo,Jambi
504,37261,Lubuk Mayan,15.08.02.2015,Rantau Pandan,Kabupaten,Bungo,Jambi
505,37261,Rantau Duku,15.08.02.2001,Rantau Pandan,Kabupaten,Bungo,Jambi
506,37261,Rantau Pandan,15.08.02.2003,Rantau Pandan,Kabupaten,Bungo,Jambi
507,37261,Talang Sungai Bungo,15.08.02.2002,Rantau Pandan,Kabupaten,Bungo,Jambi
508,37111,Aur Duri,15.72.06.2002,Pondok Tinggi,Kota,Sungai Penuh,Jambi
509,37111,Karya Bakti,15.72.06.2006,Pondok Tinggi,Kota,Sungai Penuh,Jambi
510,37111,Koto Lembu/Lebu,15.72.06.2007,Pondok Tinggi,Kota,Sungai Penuh,Jambi
511,37111,Lawang Agung,15.72.06.2005,Pondok Tinggi,Kota,Sungai Penuh,Jambi
512,37111,Permanti,15.72.06.2004,Pondok Tinggi,Kota,Sungai Penuh,Jambi
513,37111,Pondok Agung,15.72.06.2003,Pondok Tinggi,Kota,Sungai Penuh,Jambi
514,37114,Pondok Tinggi,15.72.06.1008,Pondok Tinggi,Kota,Sungai Penuh,Jambi
515,37111,Sungai Jernih,15.72.06.2001,Pondok Tinggi,Kota,Sungai Penuh,Jambi
516,37111,Koto Bento,15.72.02.2003,Pesisir Bukit,Kota,Sungai Penuh,Jambi
517,37152,Koto Dua / Duo,15.72.02.2008,Pesisir Bukit,Kota,Sungai Penuh,Jambi
518,37111,Koto Keras,15.72.02.2002,Pesisir Bukit,Kota,Sungai Penuh,Jambi
519,37111,Koto Lolo,15.72.02.2004,Pesisir Bukit,Kota,Sungai Penuh,Jambi
520,37111,Koto Renah,15.72.02.2001,Pesisir Bukit,Kota,Sungai Penuh,Jambi
521,37111,Koto Tengah,15.72.02.2005,Pesisir Bukit,Kota,Sungai Penuh,Jambi
522,37152,Seberang,15.72.02.2011,Pesisir Bukit,Kota,Sungai Penuh,Jambi
523,37152,Sumur Gedang,15.72.02.2015,Pesisir Bukit,Kota,Sungai Penuh,Jambi
524,37152,Sungai Liuk,15.72.02.2010,Pesisir Bukit,Kota,Sungai Penuh,Jambi
525,36553,Karya Maju,15.06.03.2018,Pengabuan,Kabupaten,Tanjung Jabung Barat,Jambi
526,36553,Mekar Jati,15.06.03.2008,Pengabuan,Kabupaten,Tanjung Jabung Barat,Jambi
527,36553,Parit Bilal,15.06.03.2015,Pengabuan,Kabupaten,Tanjung Jabung Barat,Jambi
528,36553,Parit Pudin,15.06.03.2006,Pengabuan,Kabupaten,Tanjung Jabung Barat,Jambi
529,36553,Parit Sidang,15.06.03.2013,Pengabuan,Kabupaten,Tanjung Jabung Barat,Jambi
530,36553,Pasar Senin,15.06.03.2020,Pengabuan,Kabupaten,Tanjung Jabung Barat,Jambi
531,36553,SuakSamin (Suak Samin),15.06.03.2016,Pengabuan,Kabupaten,Tanjung Jabung Barat,Jambi
532,36553,Sungaibaung (Sungai Baung),15.06.03.2017,Pengabuan,Kabupaten,Tanjung Jabung Barat,Jambi
533,36553,Sungaijering (Sungai Jering),15.06.03.2014,Pengabuan,Kabupaten,Tanjung Jabung Barat,Jambi
534,36553,Sungaipampang (Sungai Pampang),15.06.03.2012,Pengabuan,Kabupaten,Tanjung Jabung Barat,Jambi
535,36553,Sungairaya (Sungai Raya),15.06.03.2019,Pengabuan,Kabupaten,Tanjung Jabung Barat,Jambi
536,36553,Sungaiserindit (Sei / Sungai Serindit),15.06.03.2007,Pengabuan,Kabupaten,Tanjung Jabung Barat,Jambi
537,36553,Teluknilau (Teluk Nilau),15.06.03.1001,Pengabuan,Kabupaten,Tanjung Jabung Barat,Jambi
538,36657,Awin,15.04.05.2016,Pemayung,Kabupaten,Batanghari,Jambi
539,36657,Jembatan Mas,15.04.05.1002,Pemayung,Kabupaten,Batanghari,Jambi
540,36657,Kampung Pulau,15.04.05.2020,Pemayung,Kabupaten,Batanghari,Jambi
541,36657,Kaos,15.04.05.2014,Pemayung,Kabupaten,Batanghari,Jambi
542,36657,Kuap,15.04.05.2005,Pemayung,Kabupaten,Batanghari,Jambi
543,36657,Kubu Kandang,15.04.05.2007,Pemayung,Kabupaten,Batanghari,Jambi
544,36657,Lopak Aur,15.04.05.2010,Pemayung,Kabupaten,Batanghari,Jambi
545,36657,Lubuk Ruso,15.04.05.2004,Pemayung,Kabupaten,Batanghari,Jambi
546,36657,Olak Rambahan,15.04.05.2017,Pemayung,Kabupaten,Batanghari,Jambi
547,36657,Pulau Betung,15.04.05.2009,Pemayung,Kabupaten,Batanghari,Jambi
548,36657,Pulau Raman,15.04.05.2013,Pemayung,Kabupaten,Batanghari,Jambi
549,36657,Selat,15.04.05.2011,Pemayung,Kabupaten,Batanghari,Jambi
550,36657,Senaning,15.04.05.2006,Pemayung,Kabupaten,Batanghari,Jambi
551,36657,Serasah,15.04.05.2003,Pemayung,Kabupaten,Batanghari,Jambi
552,36657,Simpang Kubu Kandang,15.04.05.2015,Pemayung,Kabupaten,Batanghari,Jambi
553,36657,Tebing Tinggi,15.04.05.2001,Pemayung,Kabupaten,Batanghari,Jambi
554,36657,Teluk,15.04.05.2012,Pemayung,Kabupaten,Batanghari,Jambi
555,36657,Teluk Ketapang,15.04.05.2019,Pemayung,Kabupaten,Batanghari,Jambi
556,36657,Ture,15.04.05.2008,Pemayung,Kabupaten,Batanghari,Jambi
557,37252,Bangun Harjo/Harja,15.08.09.2013,Pelepat Ilir,Kabupaten,Bungo,Jambi
558,37252,Danau,15.08.09.2002,Pelepat Ilir,Kabupaten,Bungo,Jambi
559,37252,Daya Murni,15.08.09.2008,Pelepat Ilir,Kabupaten,Bungo,Jambi
560,37252,Karya Harapan Mukti,15.08.09.2016,Pelepat Ilir,Kabupaten,Bungo,Jambi
561,37252,Koto Jayo,15.08.09.2001,Pelepat Ilir,Kabupaten,Bungo,Jambi
562,37252,Kuamang Jaya,15.08.09.2015,Pelepat Ilir,Kabupaten,Bungo,Jambi
563,37252,Kuning Gading,15.08.09.2014,Pelepat Ilir,Kabupaten,Bungo,Jambi
564,37252,Lembah Kuamang,15.08.09.2006,Pelepat Ilir,Kabupaten,Bungo,Jambi
565,37252,Lingga Kuamang,15.08.09.2012,Pelepat Ilir,Kabupaten,Bungo,Jambi
566,37252,Lubuk,15.08.09.2004,Pelepat Ilir,Kabupaten,Bungo,Jambi
567,37252,Maju Jaya,15.08.09.2010,Pelepat Ilir,Kabupaten,Bungo,Jambi
568,37252,Muara Kuamang,15.08.09.2003,Pelepat Ilir,Kabupaten,Bungo,Jambi
569,37252,Padang Palangeh,15.08.09.2017,Pelepat Ilir,Kabupaten,Bungo,Jambi
570,37252,Purwosari (Purwasari),15.08.09.2005,Pelepat Ilir,Kabupaten,Bungo,Jambi
571,37252,Sumber Harapan,15.08.09.2007,Pelepat Ilir,Kabupaten,Bungo,Jambi
572,37252,Sumber Mulya,15.08.09.2009,Pelepat Ilir,Kabupaten,Bungo,Jambi
573,37252,Tirta Mulya,15.08.09.2011,Pelepat Ilir,Kabupaten,Bungo,Jambi
574,37262,Balai Jaya,15.08.06.2004,Pelepat,Kabupaten,Bungo,Jambi
575,37262,Baru Pelepat,15.08.06.2001,Pelepat,Kabupaten,Bungo,Jambi
576,37262,Batu Kerbau,15.08.06.2009,Pelepat,Kabupaten,Bungo,Jambi
577,37262,Bukit Telago,15.08.06.2014,Pelepat,Kabupaten,Bungo,Jambi
578,37262,Cilodang,15.08.06.2013,Pelepat,Kabupaten,Bungo,Jambi
579,37262,Dwi Karya Bakti,15.08.06.2002,Pelepat,Kabupaten,Bungo,Jambi
580,37262,Gapura Suci,15.08.06.2010,Pelepat,Kabupaten,Bungo,Jambi
581,37262,Mulya Bakti,15.08.06.2011,Pelepat,Kabupaten,Bungo,Jambi
582,37262,Mulya Jaya,15.08.06.2012,Pelepat,Kabupaten,Bungo,Jambi
583,37262,Rantau Keloyang,15.08.06.2003,Pelepat,Kabupaten,Bungo,Jambi
584,37262,Rantel,15.08.06.2005,Pelepat,Kabupaten,Bungo,Jambi
585,37262,Sekampil,15.08.06.2015,Pelepat,Kabupaten,Bungo,Jambi
586,37262,Senamat,15.08.06.2006,Pelepat,Kabupaten,Bungo,Jambi
587,37262,Sungai Beringin,15.08.06.2007,Pelepat,Kabupaten,Bungo,Jambi
588,37262,Sungai Gurun,15.08.06.2008,Pelepat,Kabupaten,Bungo,Jambi
589,36251,Arab Melayu,15.71.05.1001,Pelayangan,Kota,Jambi,Jambi
590,36253,Jelmu,15.71.05.1003,Pelayangan,Kota,Jambi,Jambi
591,36252,Mudung Laut,15.71.05.1002,Pelayangan,Kota,Jambi,Jambi
592,36255,Tahtul Yaman,15.71.05.1005,Pelayangan,Kota,Jambi,Jambi
593,36256,Tanjung Johor,15.71.05.1006,Pelayangan,Kota,Jambi,Jambi
594,36254,Tengah,15.71.05.1004,Pelayangan,Kota,Jambi,Jambi
595,37482,Batu Putih,15.03.05.2017,Pelawan,Kabupaten,Sarolangun,Jambi
596,37482,Bukit,15.03.05.2004,Pelawan,Kabupaten,Sarolangun,Jambi
597,37482,Lubuk Sayak,15.03.05.2023,Pelawan,Kabupaten,Sarolangun,Jambi
598,37482,Lubuk Sepuh,15.03.05.2005,Pelawan,Kabupaten,Sarolangun,Jambi
599,37482,Mekar Sari (Mekarsari),15.03.05.2019,Pelawan,Kabupaten,Sarolangun,Jambi
600,37482,Muara Danau,15.03.05.2007,Pelawan,Kabupaten,Sarolangun,Jambi
601,37482,Pasar Pelawan,15.03.05.2021,Pelawan,Kabupaten,Sarolangun,Jambi
602,37482,Pelawan,15.03.05.2002,Pelawan,Kabupaten,Sarolangun,Jambi
603,37482,Pelawan Jaya,15.03.05.2022,Pelawan,Kabupaten,Sarolangun,Jambi
604,37482,Pematang Kulim (Kolim),15.03.05.2016,Pelawan,Kabupaten,Sarolangun,Jambi
605,37482,Penegah,15.03.05.2001,Pelawan,Kabupaten,Sarolangun,Jambi
606,37482,Pulauaro (Pulau Aro),15.03.05.2003,Pelawan,Kabupaten,Sarolangun,Jambi
607,37482,Rantau Tenang,15.03.05.2006,Pelawan,Kabupaten,Sarolangun,Jambi
608,37482,Sungai Merah,15.03.05.2013,Pelawan,Kabupaten,Sarolangun,Jambi
609,37491,Batu Ampar,15.03.04.2003,Pauh,Kabupaten,Sarolangun,Jambi
610,37491,Batu Kucing,15.03.04.2004,Pauh,Kabupaten,Sarolangun,Jambi
611,37491,Danau Serdang,15.03.04.2022,Pauh,Kabupaten,Sarolangun,Jambi
612,37491,Karang Mendapo,15.03.04.2002,Pauh,Kabupaten,Sarolangun,Jambi
613,37491,Kasang Melintang,15.03.04.2007,Pauh,Kabupaten,Sarolangun,Jambi
614,37491,Lamban Sigatal,15.03.04.2011,Pauh,Kabupaten,Sarolangun,Jambi
615,37491,Lubuk Napal,15.03.04.2009,Pauh,Kabupaten,Sarolangun,Jambi
616,37491,Pangidaran (Pengidaran),15.03.04.2001,Pauh,Kabupaten,Sarolangun,Jambi
617,37491,Pangkal Bulian,15.03.04.2008,Pauh,Kabupaten,Sarolangun,Jambi
618,37491,Pauh,15.03.04.1005,Pauh,Kabupaten,Sarolangun,Jambi
619,37491,Seko Besar,15.03.04.2020,Pauh,Kabupaten,Sarolangun,Jambi
620,37491,Semaran,15.03.04.2006,Pauh,Kabupaten,Sarolangun,Jambi
621,37491,Sepintun,15.03.04.2010,Pauh,Kabupaten,Sarolangun,Jambi
622,37491,Taman Bandung,15.03.04.2021,Pauh,Kabupaten,Sarolangun,Jambi
623,37214,Batang Bungo,15.08.03.1023,Pasar Muaro Bungo (Pasar Muara Bungo),Kabupaten,Bungo,Jambi
624,37214,Bungo Barat,15.08.03.1008,Pasar Muaro Bungo (Pasar Muara Bungo),Kabupaten,Bungo,Jambi
625,37214,Bungo Timur,15.08.03.1007,Pasar Muaro Bungo (Pasar Muara Bungo),Kabupaten,Bungo,Jambi
626,37214,Jaya Setia,15.08.03.1022,Pasar Muaro Bungo (Pasar Muara Bungo),Kabupaten,Bungo,Jambi
627,37214,Tanjung Gedang,15.08.03.1006,Pasar Muaro Bungo (Pasar Muara Bungo),Kabupaten,Bungo,Jambi
628,36112,Beringin,15.71.04.1001,Pasar Jambi,Kota,Jambi,Jambi
629,36111,Orang Kayo Hitam,15.71.04.1002,Pasar Jambi,Kota,Jambi,Jambi
630,36133,Pasar Jambi,15.71.04.1003,Pasar Jambi,Kota,Jambi,Jambi
631,36134,Sungai Asam,15.71.04.1004,Pasar Jambi,Kota,Jambi,Jambi
632,37361,Baru Pangkalan Jambu,15.02.17.2001,Pangkalan Jambu,Kabupaten,Merangin,Jambi
633,37361,Birun,15.02.17.2003,Pangkalan Jambu,Kabupaten,Merangin,Jambi
634,37361,Bukit Perentak,15.02.17.2002,Pangkalan Jambu,Kabupaten,Merangin,Jambi
635,37361,Bungo Tanjung,15.02.17.2005,Pangkalan Jambu,Kabupaten,Merangin,Jambi
636,37361,Kampung Limo,15.02.17.2007,Pangkalan Jambu,Kabupaten,Merangin,Jambi
637,37361,Sungai Jering,15.02.17.2006,Pangkalan Jambu,Kabupaten,Merangin,Jambi
638,37361,Tanjung Mudo,15.02.17.2008,Pangkalan Jambu,Kabupaten,Merangin,Jambi
639,37361,Tiga Alur (Tiga / Tigo Alur Pangkalan Jambu),15.02.17.2004,Pangkalan Jambu,Kabupaten,Merangin,Jambi
640,37319,Pulau Bayur,15.02.20.2003,Pamenang Selatan,Kabupaten,Merangin,Jambi
641,37319,Selango,15.02.20.2004,Pamenang Selatan,Kabupaten,Merangin,Jambi
642,37319,Tambang Emas,15.02.20.2001,Pamenang Selatan,Kabupaten,Merangin,Jambi
643,37319,Tanjung Benuang,15.02.20.2002,Pamenang Selatan,Kabupaten,Merangin,Jambi
644,37318,Karang Anyar,15.02.13.2003,Pamenang Barat,Kabupaten,Merangin,Jambi
645,37318,Limbur Merangin,15.02.13.2002,Pamenang Barat,Kabupaten,Merangin,Jambi
646,37318,Mampun Baru,15.02.13.2006,Pamenang Barat,Kabupaten,Merangin,Jambi
647,37318,Papit,15.02.13.2007,Pamenang Barat,Kabupaten,Merangin,Jambi
648,37318,Pinang Merah,15.02.13.2004,Pamenang Barat,Kabupaten,Merangin,Jambi
649,37318,PulauTujuh,15.02.13.2008,Pamenang Barat,Kabupaten,Merangin,Jambi
650,37318,Simpang Limbur Merangin,15.02.13.2005,Pamenang Barat,Kabupaten,Merangin,Jambi
651,37318,Tanjung Lamin,15.02.13.2001,Pamenang Barat,Kabupaten,Merangin,Jambi
652,37352,Empang Benao,15.02.06.2006,Pamenang,Kabupaten,Merangin,Jambi
653,37352,Jelatang,15.02.06.2004,Pamenang,Kabupaten,Merangin,Jambi
654,37352,Karang Berahi/Birahi,15.02.06.2011,Pamenang,Kabupaten,Merangin,Jambi
655,37352,Keroya,15.02.06.2009,Pamenang,Kabupaten,Merangin,Jambi
656,37352,Muara/Muaro Belengo,15.02.06.2010,Pamenang,Kabupaten,Merangin,Jambi
657,37352,Pamenang,15.02.06.1008,Pamenang,Kabupaten,Merangin,Jambi
658,37352,Pauh Menang,15.02.06.2012,Pamenang,Kabupaten,Merangin,Jambi
659,37352,Pelakar Jaya,15.02.06.2027,Pamenang,Kabupaten,Merangin,Jambi
660,37352,Pematang Kancil,15.02.06.2013,Pamenang,Kabupaten,Merangin,Jambi
661,37352,Rejo Sari (Rejosari),15.02.06.2007,Pamenang,Kabupaten,Merangin,Jambi
662,37352,Sialang,15.02.06.2015,Pamenang,Kabupaten,Merangin,Jambi
663,37352,Sungai Udang,15.02.06.2026,Pamenang,Kabupaten,Merangin,Jambi
664,37352,Tanah Abang,15.02.06.2014,Pamenang,Kabupaten,Merangin,Jambi
665,37352,Tanjung Gedang,15.02.06.2005,Pamenang,Kabupaten,Merangin,Jambi
666,36139,Bakung Jaya,15.71.11.1006,Paal Merah,Kota,Jambi,Jambi
667,36139,Eka Jaya,15.71.11.1003,Paal Merah,Kota,Jambi,Jambi
668,36139,Lingkar Selatan,15.71.11.1004,Paal Merah,Kota,Jambi,Jambi
669,36139,Paal Merah,15.71.11.1005,Paal Merah,Kota,Jambi,Jambi
670,36148,Payo Selincah/Silincah,15.71.11.1002,Paal Merah,Kota,Jambi,Jambi
671,36139,Talang Bakung,15.71.11.1001,Paal Merah,Kota,Jambi,Jambi
672,36771,Bunga Tanjung,15.07.02.2010,Nipah Panjang,Kabupaten,Tanjung Jabung Timur,Jambi
673,36771,Nipah Panjang I,15.07.02.1001,Nipah Panjang,Kabupaten,Tanjung Jabung Timur,Jambi
674,36771,Nipah Panjang II,15.07.02.1002,Nipah Panjang,Kabupaten,Tanjung Jabung Timur,Jambi
675,36771,Pemusiran,15.07.02.2007,Nipah Panjang,Kabupaten,Tanjung Jabung Timur,Jambi
676,36771,Simpang Datuk,15.07.02.2004,Nipah Panjang,Kabupaten,Tanjung Jabung Timur,Jambi
677,36771,Simpang Jelita,15.07.02.2003,Nipah Panjang,Kabupaten,Tanjung Jabung Timur,Jambi
678,36771,Sungai Jeruk,15.07.02.2009,Nipah Panjang,Kabupaten,Tanjung Jabung Timur,Jambi
679,36771,Sungai Raya,15.07.02.2006,Nipah Panjang,Kabupaten,Tanjung Jabung Timur,Jambi
680,36771,Sungai Tering,15.07.02.2008,Nipah Panjang,Kabupaten,Tanjung Jabung Timur,Jambi
681,36771,Teluk Kijing,15.07.02.2005,Nipah Panjang,Kabupaten,Tanjung Jabung Timur,Jambi
682,37317,Aur Berduri,15.02.11.2002,Nalo Tantan (Nalo Tatan),Kabupaten,Merangin,Jambi
683,37317,Danau,15.02.11.2007,Nalo Tantan (Nalo Tatan),Kabupaten,Merangin,Jambi
684,37317,Mentawak,15.02.11.2006,Nalo Tantan (Nalo Tatan),Kabupaten,Merangin,Jambi
685,37317,Nalo Baru (Baru Nalo),15.02.11.2005,Nalo Tantan (Nalo Tatan),Kabupaten,Merangin,Jambi
686,37317,Nalo Gedang,15.02.11.2004,Nalo Tantan (Nalo Tatan),Kabupaten,Merangin,Jambi
687,37317,Sungai Ulak,15.02.11.2001,Nalo Tantan (Nalo Tatan),Kabupaten,Merangin,Jambi
688,37317,Telun,15.02.11.2003,Nalo Tantan (Nalo Tatan),Kabupaten,Merangin,Jambi
689,37216,Baru Pusat Jalo,15.08.08.2004,Muko-muko Bathin VII,Kabupaten,Bungo,Jambi
690,37216,Bedaro,15.08.08.2005,Muko-muko Bathin VII,Kabupaten,Bungo,Jambi
691,37216,Datar,15.08.08.2007,Muko-muko Bathin VII,Kabupaten,Bungo,Jambi
692,37216,Mangun Jayo,15.08.08.2001,Muko-muko Bathin VII,Kabupaten,Bungo,Jambi
693,37216,Pekan Jum'at,15.08.08.2009,Muko-muko Bathin VII,Kabupaten,Bungo,Jambi
694,37216,Suka Jaya,15.08.08.2008,Muko-muko Bathin VII,Kabupaten,Bungo,Jambi
695,37216,Tanjung Agung,15.08.08.2002,Muko-muko Bathin VII,Kabupaten,Bungo,Jambi
696,37216,Tebat,15.08.08.2003,Muko-muko Bathin VII,Kabupaten,Bungo,Jambi
697,37216,Tebing Tinggi,15.08.08.2006,Muko-muko Bathin VII,Kabupaten,Bungo,Jambi
698,36653,Ampelu,15.04.02.2004,Muara Tembesi,Kabupaten,Batanghari,Jambi
699,36653,Ampelu Mudo,15.04.02.2012,Muara Tembesi,Kabupaten,Batanghari,Jambi
700,36653,Jebak,15.04.02.2003,Muara Tembesi,Kabupaten,Batanghari,Jambi
701,36653,Kampung Baru,15.04.02.1001,Muara Tembesi,Kabupaten,Batanghari,Jambi
702,36653,Pasar Muara Tembesi,15.04.02.1002,Muara Tembesi,Kabupaten,Batanghari,Jambi
703,36653,Pelayangan,15.04.02.2013,Muara Tembesi,Kabupaten,Batanghari,Jambi
704,36653,Pematang Lima Suku,15.04.02.2015,Muara Tembesi,Kabupaten,Batanghari,Jambi
705,36653,Pulau,15.04.02.2009,Muara Tembesi,Kabupaten,Batanghari,Jambi
706,36653,Rambutan Masam,15.04.02.2005,Muara Tembesi,Kabupaten,Batanghari,Jambi
707,36653,Rantau Kapas Mudo,15.04.02.2006,Muara Tembesi,Kabupaten,Batanghari,Jambi
708,36653,Rantau Kapas Tuo,15.04.02.2007,Muara Tembesi,Kabupaten,Batanghari,Jambi
709,36653,Suka Ramai (Sukaramai),15.04.02.2011,Muara Tembesi,Kabupaten,Batanghari,Jambi
710,36653,Sungai Pulai,15.04.02.2008,Muara Tembesi,Kabupaten,Batanghari,Jambi
711,36653,Tanjung Marwo,15.04.02.2010,Muara Tembesi,Kabupaten,Batanghari,Jambi
712,37570,Bangko Pintas,15.09.12.2007,Muara Tabir,Kabupaten,Tebo,Jambi
713,37570,Bangun Seranten (Bangun Saranten),15.09.12.2004,Muara Tabir,Kabupaten,Tebo,Jambi
714,37570,Embacang Gedang,15.09.12.2003,Muara Tabir,Kabupaten,Tebo,Jambi
715,37570,Olak Kemang,15.09.12.2008,Muara Tabir,Kabupaten,Tebo,Jambi
716,37570,Pintas Tuo,15.09.12.2002,Muara Tabir,Kabupaten,Tebo,Jambi
717,37570,Sungai Jernih,15.09.12.2006,Muara Tabir,Kabupaten,Tebo,Jambi
718,37570,Tambun Arang,15.09.12.2005,Muara Tabir,Kabupaten,Tebo,Jambi
719,37570,Tanah Garo,15.09.12.2001,Muara Tabir,Kabupaten,Tebo,Jambi
720,37370,Air Lago,15.02.03.2015,Muara Siau,Kabupaten,Merangin,Jambi
721,37370,Badak Tekurung,15.02.03.2016,Muara Siau,Kabupaten,Merangin,Jambi
722,37370,Durian Rambun,15.02.03.2004,Muara Siau,Kabupaten,Merangin,Jambi
723,37370,Lubuk Beringin,15.02.03.2008,Muara Siau,Kabupaten,Merangin,Jambi
724,37370,Lubuk Birah,15.02.03.2007,Muara Siau,Kabupaten,Merangin,Jambi
725,37370,Muara Siau,15.02.03.2012,Muara Siau,Kabupaten,Merangin,Jambi
726,37370,Pasar Muara Siau,15.02.03.2024,Muara Siau,Kabupaten,Merangin,Jambi
727,37370,Peradu Temberas (Peradun Temeras),15.02.03.2010,Muara Siau,Kabupaten,Merangin,Jambi
728,37370,Pulau Raman,15.02.03.2021,Muara Siau,Kabupaten,Merangin,Jambi
729,37370,Rantau Bayur,15.02.03.2029,Muara Siau,Kabupaten,Merangin,Jambi
730,37370,Rantau Bidaro (Rantai Bedaro),15.02.03.2017,Muara Siau,Kabupaten,Merangin,Jambi
731,37370,Rantau Macang,15.02.03.2009,Muara Siau,Kabupaten,Merangin,Jambi
732,37370,Rantau Panjang,15.02.03.2018,Muara Siau,Kabupaten,Merangin,Jambi
733,37370,Sepantai Renah,15.02.03.2027,Muara Siau,Kabupaten,Merangin,Jambi
734,37370,Sungai Ulas,15.02.03.2028,Muara Siau,Kabupaten,Merangin,Jambi
735,37370,Teluk Sikumbang,15.02.03.2011,Muara Siau,Kabupaten,Merangin,Jambi
736,37370,Tiaro,15.02.03.2013,Muara Siau,Kabupaten,Merangin,Jambi
737,36762,Alang-Alang,15.07.01.2001,Muara Sabak Timur,Kabupaten,Tanjung Jabung Timur,Jambi
738,36762,Kota Harapan,15.07.01.2017,Muara Sabak Timur,Kabupaten,Tanjung Jabung Timur,Jambi
739,36762,Kota Raja,15.07.01.2014,Muara Sabak Timur,Kabupaten,Tanjung Jabung Timur,Jambi
740,36762,Kuala Simbur,15.07.01.2018,Muara Sabak Timur,Kabupaten,Tanjung Jabung Timur,Jambi
741,36762,Lambur,15.07.01.2002,Muara Sabak Timur,Kabupaten,Tanjung Jabung Timur,Jambi
742,36762,Lambur I,15.07.01.2011,Muara Sabak Timur,Kabupaten,Tanjung Jabung Timur,Jambi
743,36762,Lambur II,15.07.01.2012,Muara Sabak Timur,Kabupaten,Tanjung Jabung Timur,Jambi
744,36762,Muara Sabak Ilir,15.07.01.1010,Muara Sabak Timur,Kabupaten,Tanjung Jabung Timur,Jambi
745,36762,Muara Sabak Ulu,15.07.01.1013,Muara Sabak Timur,Kabupaten,Tanjung Jabung Timur,Jambi
746,36762,Siau Dalam,15.07.01.2015,Muara Sabak Timur,Kabupaten,Tanjung Jabung Timur,Jambi
747,36762,Simbur Naik,15.07.01.2004,Muara Sabak Timur,Kabupaten,Tanjung Jabung Timur,Jambi
748,36762,Sungai Ular,15.07.01.2016,Muara Sabak Timur,Kabupaten,Tanjung Jabung Timur,Jambi
749,36761,Kampung Singkep,15.07.07.1001,Muara Sabak Barat,Kabupaten,Tanjung Jabung Timur,Jambi
750,36761,Nibung Putih,15.07.07.1002,Muara Sabak Barat,Kabupaten,Tanjung Jabung Timur,Jambi
751,36761,Parit Culum I,15.07.07.1005,Muara Sabak Barat,Kabupaten,Tanjung Jabung Timur,Jambi
752,36761,Parit Culum II,15.07.07.1006,Muara Sabak Barat,Kabupaten,Tanjung Jabung Timur,Jambi
753,36761,Rano,15.07.07.1003,Muara Sabak Barat,Kabupaten,Tanjung Jabung Timur,Jambi
754,36761,Talang Babat,15.07.07.1004,Muara Sabak Barat,Kabupaten,Tanjung Jabung Timur,Jambi
755,36761,Telukdawan (Teluk Dawan),15.07.07.1007,Muara Sabak Barat,Kabupaten,Tanjung Jabung Timur,Jambi
756,36558,Bukit Indah,15.06.09.2004,Muara Papalik,Kabupaten,Tanjung Jabung Barat,Jambi
757,36558,Dusun Mudo,15.06.09.2002,Muara Papalik,Kabupaten,Tanjung Jabung Barat,Jambi
758,36558,Intan Jaya,15.06.09.2003,Muara Papalik,Kabupaten,Tanjung Jabung Barat,Jambi
759,36558,Kemang Manis,15.06.09.2005,Muara Papalik,Kabupaten,Tanjung Jabung Barat,Jambi
760,36558,Lubuk Sebontan,15.06.09.2007,Muara Papalik,Kabupaten,Tanjung Jabung Barat,Jambi
761,36558,Pematang Balam,15.06.09.2010,Muara Papalik,Kabupaten,Tanjung Jabung Barat,Jambi
762,36558,Rantau Badak,15.06.09.1001,Muara Papalik,Kabupaten,Tanjung Jabung Barat,Jambi
763,36558,Rantau Badak Lamo,15.06.09.2006,Muara Papalik,Kabupaten,Tanjung Jabung Barat,Jambi
764,36558,Sungaimuluk (Sungai Muluk),15.06.09.2009,Muara Papalik,Kabupaten,Tanjung Jabung Barat,Jambi
765,36558,Sungaipapauh (Sungai Papauh),15.06.09.2008,Muara Papalik,Kabupaten,Tanjung Jabung Barat,Jambi
766,36611,Aro,15.04.03.2013,Muara Bulian,Kabupaten,Batanghari,Jambi
767,36611,Bajubang Laut,15.04.03.2016,Muara Bulian,Kabupaten,Batanghari,Jambi
768,36611,Kilangan,15.04.03.2020,Muara Bulian,Kabupaten,Batanghari,Jambi
769,36611,Malapari,15.04.03.2008,Muara Bulian,Kabupaten,Batanghari,Jambi
770,36613,Muara Bulian,15.04.03.1001,Muara Bulian,Kabupaten,Batanghari,Jambi
771,36611,Muaro Singoan (Muara Singoan),15.04.03.2012,Muara Bulian,Kabupaten,Batanghari,Jambi
772,36611,Napal Sisik,15.04.03.2009,Muara Bulian,Kabupaten,Batanghari,Jambi
773,36611,Olak,15.04.03.2011,Muara Bulian,Kabupaten,Batanghari,Jambi
774,36611,Pasar Baru,15.04.03.1004,Muara Bulian,Kabupaten,Batanghari,Jambi
775,36611,Pasar Terusan,15.04.03.2006,Muara Bulian,Kabupaten,Batanghari,Jambi
776,36611,Pelayangan,15.04.03.2021,Muara Bulian,Kabupaten,Batanghari,Jambi
777,36612,Rambahan,15.04.03.2010,Muara Bulian,Kabupaten,Batanghari,Jambi
778,36611,Rantau Puri,15.04.03.2014,Muara Bulian,Kabupaten,Batanghari,Jambi
779,36611,Rengas Condong,15.04.03.1005,Muara Bulian,Kabupaten,Batanghari,Jambi
780,36611,Simpang Terusan,15.04.03.2007,Muara Bulian,Kabupaten,Batanghari,Jambi
781,36611,Singkawang,15.04.03.2017,Muara Bulian,Kabupaten,Batanghari,Jambi
782,36614,Sridadi,15.04.03.1003,Muara Bulian,Kabupaten,Batanghari,Jambi
783,36611,Sungai Baung,15.04.03.2015,Muara Bulian,Kabupaten,Batanghari,Jambi
784,36611,Sungai Buluh,15.04.03.2019,Muara Bulian,Kabupaten,Batanghari,Jambi
785,36611,Tenam,15.04.03.2018,Muara Bulian,Kabupaten,Batanghari,Jambi
786,36612,Teratai,15.04.03.1002,Muara Bulian,Kabupaten,Batanghari,Jambi
787,36364,Baru,15.05.05.2010,Mestong,Kabupaten,Muaro Jambi,Jambi
788,36364,Ibru,15.05.05.2004,Mestong,Kabupaten,Muaro Jambi,Jambi
789,36364,Muaro Sebapo,15.05.05.2019,Mestong,Kabupaten,Muaro Jambi,Jambi
790,36364,Nagasari (Naga Sari),15.05.05.2005,Mestong,Kabupaten,Muaro Jambi,Jambi
791,36364,Nyogan,15.05.05.2012,Mestong,Kabupaten,Muaro Jambi,Jambi
792,36364,Pelempang,15.05.05.2002,Mestong,Kabupaten,Muaro Jambi,Jambi
793,36364,Pondok Meja,15.05.05.2016,Mestong,Kabupaten,Muaro Jambi,Jambi
794,36364,Sebapo,15.05.05.2006,Mestong,Kabupaten,Muaro Jambi,Jambi
795,36364,Suka Damai,15.05.05.2015,Mestong,Kabupaten,Muaro Jambi,Jambi
796,36364,Suka Maju,15.05.05.2017,Mestong,Kabupaten,Muaro Jambi,Jambi
797,36364,Sungai Landai,15.05.05.2003,Mestong,Kabupaten,Muaro Jambi,Jambi
798,36364,Tanjung Pauh Km. 32 (Tanjung Pauh),15.05.05.2001,Mestong,Kabupaten,Muaro Jambi,Jambi
799,36364,Tanjung Pauh Km. 39,15.05.05.2011,Mestong,Kabupaten,Muaro Jambi,Jambi
800,36364,Tanjung Pauh Talang Pelita (Tanjungpauh),15.05.05.2018,Mestong,Kabupaten,Muaro Jambi,Jambi
801,36364,Tempino,15.05.05.1009,Mestong,Kabupaten,Muaro Jambi,Jambi
802,36654,Belanti Jaya,15.04.01.2013,Mersam,Kabupaten,Batanghari,Jambi
803,36654,Benteng Rendah,15.04.01.2007,Mersam,Kabupaten,Batanghari,Jambi
804,36654,Bukit Harapan,15.04.01.2012,Mersam,Kabupaten,Batanghari,Jambi
805,36654,Bukit Kemuning,15.04.01.2015,Mersam,Kabupaten,Batanghari,Jambi
806,36654,Kembang Paseban,15.04.01.1001,Mersam,Kabupaten,Batanghari,Jambi
807,36654,Kembang Tanjung,15.04.01.2005,Mersam,Kabupaten,Batanghari,Jambi
808,36654,Mersam,15.04.01.2006,Mersam,Kabupaten,Batanghari,Jambi
809,36654,Pematang Gadung,15.04.01.2010,Mersam,Kabupaten,Batanghari,Jambi
810,36654,Rantau Gedang,15.04.01.2009,Mersam,Kabupaten,Batanghari,Jambi
811,36654,Sengkati Baru,15.04.01.2004,Mersam,Kabupaten,Batanghari,Jambi
812,36654,Sengkati Gedang,15.04.01.2003,Mersam,Kabupaten,Batanghari,Jambi
813,36654,Sengkati Kecil,15.04.01.2002,Mersam,Kabupaten,Batanghari,Jambi
814,36654,Sengkati Mudo,15.04.01.2018,Mersam,Kabupaten,Batanghari,Jambi
815,36654,Simpang Rantau Gedang,15.04.01.2016,Mersam,Kabupaten,Batanghari,Jambi
816,36654,Sungai Puar,15.04.01.2008,Mersam,Kabupaten,Batanghari,Jambi
817,36654,Tanjung Putra,15.04.01.2017,Mersam,Kabupaten,Batanghari,Jambi
818,36654,Tapah Sari,15.04.01.2014,Mersam,Kabupaten,Batanghari,Jambi
819,36654,Teluk Melintang,15.04.01.2011,Mersam,Kabupaten,Batanghari,Jambi
820,36554,Adi Purwa,15.06.05.2014,Merlung,Kabupaten,Tanjung Jabung Barat,Jambi
821,36554,Bukitharapan (Bukit Harapan),15.06.05.2013,Merlung,Kabupaten,Tanjung Jabung Barat,Jambi
822,36554,Lubuk Terap,15.06.05.2006,Merlung,Kabupaten,Tanjung Jabung Barat,Jambi
823,36554,Merlung (Desa),15.06.05.1007,Merlung,Kabupaten,Tanjung Jabung Barat,Jambi
824,36554,Merlung (Kelurahan),15.06.05.2020,Merlung,Kabupaten,Tanjung Jabung Barat,Jambi
825,36554,Penyabungan,15.06.05.2005,Merlung,Kabupaten,Tanjung Jabung Barat,Jambi
826,36554,Pinang Gading,15.06.05.2018,Merlung,Kabupaten,Tanjung Jabung Barat,Jambi
827,36554,Tanjungbenanak (Tanjung Benanak),15.06.05.2012,Merlung,Kabupaten,Tanjung Jabung Barat,Jambi
828,36554,Tanjungmakmur (Tanjung Makmur),15.06.05.2021,Merlung,Kabupaten,Tanjung Jabung Barat,Jambi
829,36554,Tanjungpaku (Tanjung Paku),15.06.05.2008,Merlung,Kabupaten,Tanjung Jabung Barat,Jambi
830,36766,Bukit Tempurung,15.07.09.2004,Mendahara Ulu,Kabupaten,Tanjung Jabung Timur,Jambi
831,36766,Mencolok,15.07.09.2007,Mendahara Ulu,Kabupaten,Tanjung Jabung Timur,Jambi
832,36766,Pematang Rahim,15.07.09.2002,Mendahara Ulu,Kabupaten,Tanjung Jabung Timur,Jambi
833,36766,Simpang Tuan,15.07.09.1001,Mendahara Ulu,Kabupaten,Tanjung Jabung Timur,Jambi
834,36766,Sinar Wajo,15.07.09.2005,Mendahara Ulu,Kabupaten,Tanjung Jabung Timur,Jambi
835,36766,Sungai Beras,15.07.09.2006,Mendahara Ulu,Kabupaten,Tanjung Jabung Timur,Jambi
836,36766,Sungai Toman,15.07.09.2003,Mendahara Ulu,Kabupaten,Tanjung Jabung Timur,Jambi
837,36765,Bhakti/Bakti Idaman,15.07.03.2016,Mendahara,Kabupaten,Tanjung Jabung Timur,Jambi
838,36765,Lagan Ilir,15.07.03.2007,Mendahara,Kabupaten,Tanjung Jabung Timur,Jambi
839,36765,Mendahara Ilir,15.07.03.1002,Mendahara,Kabupaten,Tanjung Jabung Timur,Jambi
840,36765,Mendahara Tengah,15.07.03.2003,Mendahara,Kabupaten,Tanjung Jabung Timur,Jambi
841,36765,Merbau,15.07.03.2017,Mendahara,Kabupaten,Tanjung Jabung Timur,Jambi
842,36765,Pangkal Duri Ilir,15.07.03.2018,Mendahara,Kabupaten,Tanjung Jabung Timur,Jambi
843,36765,Pangkalan/Pangkal Duri,15.07.03.2001,Mendahara,Kabupaten,Tanjung Jabung Timur,Jambi
844,36765,Sinar Kalimantan,15.07.03.2014,Mendahara,Kabupaten,Tanjung Jabung Timur,Jambi
845,36765,Sungai Tawar,15.07.03.2015,Mendahara,Kabupaten,Tanjung Jabung Timur,Jambi
846,36652,Batu Sawar,15.04.06.2001,Maro Sebo Ulu,Kabupaten,Batanghari,Jambi
847,36652,Buluh Kasab,15.04.06.2007,Maro Sebo Ulu,Kabupaten,Batanghari,Jambi
848,36652,Kampung Baru,15.04.06.2004,Maro Sebo Ulu,Kabupaten,Batanghari,Jambi
849,36652,Kembang Seri,15.04.06.2006,Maro Sebo Ulu,Kabupaten,Batanghari,Jambi
850,36652,Kembang Seri Baru,15.04.06.2017,Maro Sebo Ulu,Kabupaten,Batanghari,Jambi
851,36652,Mekar Sari,15.04.06.2016,Maro Sebo Ulu,Kabupaten,Batanghari,Jambi
852,36652,Olak Kemang,15.04.06.2009,Maro Sebo Ulu,Kabupaten,Batanghari,Jambi
853,36652,Padang Kelapo,15.04.06.2010,Maro Sebo Ulu,Kabupaten,Batanghari,Jambi
854,36652,Peninjauan,15.04.06.2002,Maro Sebo Ulu,Kabupaten,Batanghari,Jambi
855,36652,Rawa Mekar,15.04.06.2015,Maro Sebo Ulu,Kabupaten,Batanghari,Jambi
856,36652,Rengas IX,15.04.06.2005,Maro Sebo Ulu,Kabupaten,Batanghari,Jambi
857,36652,Simpang Sungai Rengas,15.04.06.1014,Maro Sebo Ulu,Kabupaten,Batanghari,Jambi
858,36652,Sungai Lingkar,15.04.06.2011,Maro Sebo Ulu,Kabupaten,Batanghari,Jambi
859,36652,Sungai Ruan Ilir,15.04.06.2013,Maro Sebo Ulu,Kabupaten,Batanghari,Jambi
860,36652,Sungai Ruan Ulu,15.04.06.2012,Maro Sebo Ulu,Kabupaten,Batanghari,Jambi
861,36652,Tebing Tinggi,15.04.06.2008,Maro Sebo Ulu,Kabupaten,Batanghari,Jambi
862,36652,Teluk Leban,15.04.06.2003,Maro Sebo Ulu,Kabupaten,Batanghari,Jambi
863,36655,Bukit Sari,15.04.08.2004,Maro Sebo Ilir,Kabupaten,Batanghari,Jambi
864,36655,Bulian Jaya,15.04.08.2001,Maro Sebo Ilir,Kabupaten,Batanghari,Jambi
865,36655,Danau Embat,15.04.08.2007,Maro Sebo Ilir,Kabupaten,Batanghari,Jambi
866,36655,Karya Mukti,15.04.08.2005,Maro Sebo Ilir,Kabupaten,Batanghari,Jambi
867,36655,Kehidupan Baru,15.04.08.2003,Maro Sebo Ilir,Kabupaten,Batanghari,Jambi
868,36655,Terusan,15.04.08.2006,Maro Sebo Ilir,Kabupaten,Batanghari,Jambi
869,36655,Terusan (Kelurahan Terusan),15.04.08.1008,Maro Sebo Ilir,Kabupaten,Batanghari,Jambi
870,36655,Tidar Kuranji,15.04.08.2002,Maro Sebo Ilir,Kabupaten,Batanghari,Jambi
871,36382,Bakung,15.05.04.2017,Maro Sebo,Kabupaten,Muaro Jambi,Jambi
872,36382,Baru,15.05.04.2005,Maro Sebo,Kabupaten,Muaro Jambi,Jambi
873,36382,Danau Kedap,15.05.04.2018,Maro Sebo,Kabupaten,Muaro Jambi,Jambi
874,36382,Danau Lamo,15.05.04.2006,Maro Sebo,Kabupaten,Muaro Jambi,Jambi
875,36382,Jambi Kecil,15.05.04.1002,Maro Sebo,Kabupaten,Muaro Jambi,Jambi
876,36382,Jambi Kulo/Tulo,15.05.04.2004,Maro Sebo,Kabupaten,Muaro Jambi,Jambi
877,36382,Lubuk Raman,15.05.04.2020,Maro Sebo,Kabupaten,Muaro Jambi,Jambi
878,36382,Muara/Muaro Jambi,15.05.04.2007,Maro Sebo,Kabupaten,Muaro Jambi,Jambi
879,36382,Mudung Darat,15.05.04.2019,Maro Sebo,Kabupaten,Muaro Jambi,Jambi
880,36382,Niaso,15.05.04.2016,Maro Sebo,Kabupaten,Muaro Jambi,Jambi
881,36382,Setiris,15.05.04.2001,Maro Sebo,Kabupaten,Muaro Jambi,Jambi
882,36382,Tanjung Katung,15.05.04.2003,Maro Sebo,Kabupaten,Muaro Jambi,Jambi
883,37359,Lubuk Bumbun,15.02.21.2005,Margo Tabir,Kabupaten,Merangin,Jambi
884,37359,Sido Rukun,15.02.21.2004,Margo Tabir,Kabupaten,Merangin,Jambi
885,37359,Suko Rejo,15.02.21.2003,Margo Tabir,Kabupaten,Merangin,Jambi
886,37359,Sumber Agung,15.02.21.2002,Margo Tabir,Kabupaten,Merangin,Jambi
887,37359,Tanjung Rejo,15.02.21.2001,Margo Tabir,Kabupaten,Merangin,Jambi
888,37359,Tegal Rejo,15.02.21.2006,Margo Tabir,Kabupaten,Merangin,Jambi
889,37492,Butang Baru,15.03.11.2004,Mandiangin Timur,Kabupaten,Sarolangun,Jambi
890,37492,Guruh Baru,15.03.11.2001,Mandiangin Timur,Kabupaten,Sarolangun,Jambi
891,37492,Jati Baru,15.03.11.2006,Mandiangin Timur,Kabupaten,Sarolangun,Jambi
892,37492,Jati Baru Mudo,15.03.11.2007,Mandiangin Timur,Kabupaten,Sarolangun,Jambi
893,37492,Jernang Baru,15.03.11.2010,Mandiangin Timur,Kabupaten,Sarolangun,Jambi
894,37492,Meranti Baru,15.03.11.2008,Mandiangin Timur,Kabupaten,Sarolangun,Jambi
895,37492,Meranti Jaya,15.03.11.2009,Mandiangin Timur,Kabupaten,Sarolangun,Jambi
896,37492,Petiduran Baru,15.03.11.2002,Mandiangin Timur,Kabupaten,Sarolangun,Jambi
897,37492,Suka Maju,15.03.11.2005,Mandiangin Timur,Kabupaten,Sarolangun,Jambi
898,37492,Sungai Butang,15.03.11.2003,Mandiangin Timur,Kabupaten,Sarolangun,Jambi
899,37492,Bukit Peranginan (Bukitperanginan),15.03.06.2013,Mandiangin,Kabupaten,Sarolangun,Jambi
900,37492,Gurun Baru,15.03.06.2020,Mandiangin,Kabupaten,Sarolangun,Jambi
901,37492,Gurun Mudo,15.03.06.2005,Mandiangin,Kabupaten,Sarolangun,Jambi
902,37492,Gurun Tuo,15.03.06.2006,Mandiangin,Kabupaten,Sarolangun,Jambi
903,37492,Gurun Tuo Simpang,15.03.06.2004,Mandiangin,Kabupaten,Sarolangun,Jambi
904,37492,Kertopati (Kerto Pati),15.03.06.2009,Mandiangin,Kabupaten,Sarolangun,Jambi
905,37492,Kute Jaye,15.03.06.2021,Mandiangin,Kabupaten,Sarolangun,Jambi
906,37492,Mandiangin,15.03.06.2001,Mandiangin,Kabupaten,Sarolangun,Jambi
907,37492,Mandiangin Pasar,15.03.06.2022,Mandiangin,Kabupaten,Sarolangun,Jambi
908,37492,Mandiangin Tuo,15.03.06.2008,Mandiangin,Kabupaten,Sarolangun,Jambi
909,37492,Muaro Ketalo,15.03.06.2010,Mandiangin,Kabupaten,Sarolangun,Jambi
910,37492,Pemusiran,15.03.06.2003,Mandiangin,Kabupaten,Sarolangun,Jambi
911,37492,Rangkiling,15.03.06.2007,Mandiangin,Kabupaten,Sarolangun,Jambi
912,37492,Rangkiling Simpang,15.03.06.2002,Mandiangin,Kabupaten,Sarolangun,Jambi
913,37492,Simpang Kertopati,15.03.06.2012,Mandiangin,Kabupaten,Sarolangun,Jambi
914,37492,Sungai Rotan (Sungairotan),15.03.06.2023,Mandiangin,Kabupaten,Sarolangun,Jambi
915,37492,Talang Serdang,15.03.06.2028,Mandiangin,Kabupaten,Sarolangun,Jambi
916,37492,Taman Dewa (Desa Taman Dewa),15.03.06.2011,Mandiangin,Kabupaten,Sarolangun,Jambi
917,37382,Berkun,15.03.02.2012,Limun,Kabupaten,Sarolangun,Jambi
918,37382,Demang,15.03.02.2018,Limun,Kabupaten,Sarolangun,Jambi
919,37382,Lubuk Bedorong,15.03.02.2009,Limun,Kabupaten,Sarolangun,Jambi
920,37382,Meribung,15.03.02.2010,Limun,Kabupaten,Sarolangun,Jambi
921,37382,Mersip,15.03.02.2013,Limun,Kabupaten,Sarolangun,Jambi
922,37382,Moenti,15.03.02.2016,Limun,Kabupaten,Sarolangun,Jambi
923,37382,Muara Limun,15.03.02.2022,Limun,Kabupaten,Sarolangun,Jambi
924,37382,Muara Mensao (Muara Mansao),15.03.02.2017,Limun,Kabupaten,Sarolangun,Jambi
925,37382,Napal Melintang,15.03.02.2011,Limun,Kabupaten,Sarolangun,Jambi
926,37382,Panca Karya,15.03.02.2008,Limun,Kabupaten,Sarolangun,Jambi
927,37382,Pulau Pandan,15.03.02.2005,Limun,Kabupaten,Sarolangun,Jambi
928,37382,Ranggo,15.03.02.2007,Limun,Kabupaten,Sarolangun,Jambi
929,37382,Suka Damai,15.03.02.2023,Limun,Kabupaten,Sarolangun,Jambi
930,37382,Tanjung Raden,15.03.02.2014,Limun,Kabupaten,Sarolangun,Jambi
931,37382,Temalang,15.03.02.2021,Limun,Kabupaten,Sarolangun,Jambi
932,37382,Temenggung,15.03.02.2006,Limun,Kabupaten,Sarolangun,Jambi
933,37213,Baru Lubuk Mengkuang,15.08.07.2008,Limbur Lubuk Mengkuang,Kabupaten,Bungo,Jambi
934,37213,Limbur Baru,15.08.07.2014,Limbur Lubuk Mengkuang,Kabupaten,Bungo,Jambi
935,37213,Lubuk Tanah Terban,15.08.07.2009,Limbur Lubuk Mengkuang,Kabupaten,Bungo,Jambi
936,37213,Muara/Muaro Tebo Pandak,15.08.07.2006,Limbur Lubuk Mengkuang,Kabupaten,Bungo,Jambi
937,37213,Pauh Agung,15.08.07.2003,Limbur Lubuk Mengkuang,Kabupaten,Bungo,Jambi
938,37213,Pemunyian,15.08.07.2010,Limbur Lubuk Mengkuang,Kabupaten,Bungo,Jambi
939,37213,Rantau Tipu,15.08.07.2007,Limbur Lubuk Mengkuang,Kabupaten,Bungo,Jambi
940,37213,Renah Sungai Besar,15.08.07.2005,Limbur Lubuk Mengkuang,Kabupaten,Bungo,Jambi
941,37213,Renah Sungai Ipuh,15.08.07.2011,Limbur Lubuk Mengkuang,Kabupaten,Bungo,Jambi
942,37213,Sekar Mengkuang,15.08.07.2013,Limbur Lubuk Mengkuang,Kabupaten,Bungo,Jambi
943,37213,Tanjung Bungo,15.08.07.2001,Limbur Lubuk Mengkuang,Kabupaten,Bungo,Jambi
944,37213,Tebo Jaya,15.08.07.2012,Limbur Lubuk Mengkuang,Kabupaten,Bungo,Jambi
945,37213,Tuo Limbur,15.08.07.2004,Limbur Lubuk Mengkuang,Kabupaten,Bungo,Jambi
946,37213,Tuo Lubuk Mengkuang,15.08.07.2002,Limbur Lubuk Mengkuang,Kabupaten,Bungo,Jambi
947,37373,Durian Mukut,15.02.09.2015,Lembah Masurai,Kabupaten,Merangin,Jambi
948,37373,Koto Rami,15.02.09.2004,Lembah Masurai,Kabupaten,Merangin,Jambi
949,37373,Muara Kelukup,15.02.09.2012,Lembah Masurai,Kabupaten,Merangin,Jambi
950,37373,Muara Lengayo,15.02.09.2013,Lembah Masurai,Kabupaten,Merangin,Jambi
951,37373,Muaro Pangi (Muara Pangi),15.02.09.2009,Lembah Masurai,Kabupaten,Merangin,Jambi
952,37373,Nilo Dingin,15.02.09.2001,Lembah Masurai,Kabupaten,Merangin,Jambi
953,37373,Pasar Masurai,15.02.09.2006,Lembah Masurai,Kabupaten,Merangin,Jambi
954,37373,Rancan,15.02.09.2005,Lembah Masurai,Kabupaten,Merangin,Jambi
955,37373,Rantau Jering,15.02.09.2007,Lembah Masurai,Kabupaten,Merangin,Jambi
956,37373,Sungai Lalang,15.02.09.2010,Lembah Masurai,Kabupaten,Merangin,Jambi
957,37373,Talang Asal,15.02.09.2011,Lembah Masurai,Kabupaten,Merangin,Jambi
958,37373,Talang Paruh,15.02.09.2014,Lembah Masurai,Kabupaten,Merangin,Jambi
959,37373,Tanjung Berugo,15.02.09.2002,Lembah Masurai,Kabupaten,Merangin,Jambi
960,37373,Tanjung Dalam,15.02.09.2008,Lembah Masurai,Kabupaten,Merangin,Jambi
961,37373,Tuo (Dusun Tuo),15.02.09.2003,Lembah Masurai,Kabupaten,Merangin,Jambi
962,37111,Air Teluh (Air Teluk),15.72.05.2003,Kumun Debai,Kota,Sungai Penuh,Jambi
963,37111,Debai,15.72.05.2005,Kumun Debai,Kota,Sungai Penuh,Jambi
964,37111,Kumun Hilir,15.72.05.2001,Kumun Debai,Kota,Sungai Penuh,Jambi
965,37111,Kumun Mudik,15.72.05.2002,Kumun Debai,Kota,Sungai Penuh,Jambi
966,37111,Muara Jaya,15.72.05.2009,Kumun Debai,Kota,Sungai Penuh,Jambi
967,37111,Pinggir Air,15.72.05.2006,Kumun Debai,Kota,Sungai Penuh,Jambi
968,37111,Renah Kayu Embun,15.72.05.2007,Kumun Debai,Kota,Sungai Penuh,Jambi
969,37111,Sandaran Galeh,15.72.05.2004,Kumun Debai,Kota,Sungai Penuh,Jambi
970,37111,Ulu Air,15.72.05.2008,Kumun Debai,Kota,Sungai Penuh,Jambi
971,36373,Arang Arang,15.05.06.2016,Kumpeh Ulu,Kabupaten,Muaro Jambi,Jambi
972,36373,Kasang Kota Karang,15.05.06.2024,Kumpeh Ulu,Kabupaten,Muaro Jambi,Jambi
973,36373,Kasang Kumpeh,15.05.06.2023,Kumpeh Ulu,Kabupaten,Muaro Jambi,Jambi
974,36373,Kasang Lopak Alai,15.05.06.2004,Kumpeh Ulu,Kabupaten,Muaro Jambi,Jambi
975,36373,Kasang Pudak,15.05.06.2005,Kumpeh Ulu,Kabupaten,Muaro Jambi,Jambi
976,36373,Kota Karang,15.05.06.2003,Kumpeh Ulu,Kabupaten,Muaro Jambi,Jambi
977,36373,Lopak Alai,15.05.06.2010,Kumpeh Ulu,Kabupaten,Muaro Jambi,Jambi
978,36373,Muara Kumpeh,15.05.06.2002,Kumpeh Ulu,Kabupaten,Muaro Jambi,Jambi
979,36373,Pemunduran,15.05.06.2014,Kumpeh Ulu,Kabupaten,Muaro Jambi,Jambi
980,36373,Pudak,15.05.06.2001,Kumpeh Ulu,Kabupaten,Muaro Jambi,Jambi
981,36373,Ramin,15.05.06.2012,Kumpeh Ulu,Kabupaten,Muaro Jambi,Jambi
982,36373,Sakean,15.05.06.2009,Kumpeh Ulu,Kabupaten,Muaro Jambi,Jambi
983,36373,Sipin Teluk Duren,15.05.06.2015,Kumpeh Ulu,Kabupaten,Muaro Jambi,Jambi
984,36373,Solok,15.05.06.2008,Kumpeh Ulu,Kabupaten,Muaro Jambi,Jambi
985,36373,Sumber Jaya,15.05.06.2017,Kumpeh Ulu,Kabupaten,Muaro Jambi,Jambi
986,36373,Sungai Terap,15.05.06.2018,Kumpeh Ulu,Kabupaten,Muaro Jambi,Jambi
987,36373,Tarikan,15.05.06.2011,Kumpeh Ulu,Kabupaten,Muaro Jambi,Jambi
988,36373,Teluk Raya,15.05.06.2013,Kumpeh Ulu,Kabupaten,Muaro Jambi,Jambi
989,36371,Betung,15.05.03.2003,Kumpeh,Kabupaten,Muaro Jambi,Jambi
990,36371,Gedong Karya,15.05.03.2011,Kumpeh,Kabupaten,Muaro Jambi,Jambi
991,36371,Jebus,15.05.03.2010,Kumpeh,Kabupaten,Muaro Jambi,Jambi
992,36371,Londrang (Londerang),15.05.03.2014,Kumpeh,Kabupaten,Muaro Jambi,Jambi
993,36371,Maju Jaya,15.05.03.2019,Kumpeh,Kabupaten,Muaro Jambi,Jambi
994,36371,Mekar Sari,15.05.03.2017,Kumpeh,Kabupaten,Muaro Jambi,Jambi
995,36371,Pematang Raman,15.05.03.2004,Kumpeh,Kabupaten,Muaro Jambi,Jambi
996,36371,Petanang,15.05.03.2016,Kumpeh,Kabupaten,Muaro Jambi,Jambi
997,36371,Puding,15.05.03.2001,Kumpeh,Kabupaten,Muaro Jambi,Jambi
998,36371,Pulau Mentaro,15.05.03.2002,Kumpeh,Kabupaten,Muaro Jambi,Jambi
999,36371,Rantau Panjang,15.05.03.2013,Kumpeh,Kabupaten,Muaro Jambi,Jambi
1000,36371,Rondang,15.05.03.2018,Kumpeh,Kabupaten,Muaro Jambi,Jambi
1001,36371,Seponjen,15.05.03.2006,Kumpeh,Kabupaten,Muaro Jambi,Jambi
1002,36371,Sogo,15.05.03.2007,Kumpeh,Kabupaten,Muaro Jambi,Jambi
1003,36371,Sungai Aur,15.05.03.2009,Kumpeh,Kabupaten,Muaro Jambi,Jambi
1004,36371,Sungai Bungur,15.05.03.2005,Kumpeh,Kabupaten,Muaro Jambi,Jambi
1005,36371,Tanjung,15.05.03.1008,Kumpeh,Kabupaten,Muaro Jambi,Jambi
1006,36760,Kampung Laut,15.07.08.1001,Kuala Jambi,Kabupaten,Tanjung Jabung Timur,Jambi
1007,36760,Kuala Lagan,15.07.08.2004,Kuala Jambi,Kabupaten,Tanjung Jabung Timur,Jambi
1008,36760,Majelis Hidayah,15.07.08.2005,Kuala Jambi,Kabupaten,Tanjung Jabung Timur,Jambi
1009,36760,Manunggal Makmur,15.07.08.2006,Kuala Jambi,Kabupaten,Tanjung Jabung Timur,Jambi
1010,36760,Tanjungsolok (Tanjung Solok),15.07.08.1002,Kuala Jambi,Kabupaten,Tanjung Jabung Timur,Jambi
1011,36760,Teluk Majelis,15.07.08.2003,Kuala Jambi,Kabupaten,Tanjung Jabung Timur,Jambi
1012,36556,Betara Kanan,15.06.12.2003,Kuala Betara,Kabupaten,Tanjung Jabung Barat,Jambi
1013,36556,Betara Kiri,15.06.12.1001,Kuala Betara,Kabupaten,Tanjung Jabung Barat,Jambi
1014,36556,Dataran Pinang,15.06.12.2005,Kuala Betara,Kabupaten,Tanjung Jabung Barat,Jambi
1015,36556,Kuala Indah,15.06.12.2009,Kuala Betara,Kabupaten,Tanjung Jabung Barat,Jambi
1016,36556,Suak Labu,15.06.12.2010,Kuala Betara,Kabupaten,Tanjung Jabung Barat,Jambi
1017,36556,Sungaidualap (Sungai Dualap),15.06.12.2002,Kuala Betara,Kabupaten,Tanjung Jabung Barat,Jambi
1018,36556,Sungaidungun (Sungai Dungun),15.06.12.2008,Kuala Betara,Kabupaten,Tanjung Jabung Barat,Jambi
1019,36556,Sungaigebar (Sungai Gebar),15.06.12.2004,Kuala Betara,Kabupaten,Tanjung Jabung Barat,Jambi
1020,36556,Sungaigebar Barat (Sungai Gebar Barat),15.06.12.2007,Kuala Betara,Kabupaten,Tanjung Jabung Barat,Jambi
1021,36556,Tanjungpasir (Tanjung Pasir),15.06.12.2006,Kuala Betara,Kabupaten,Tanjung Jabung Barat,Jambi
1022,37152,Dujung Sakti,15.72.07.2004,Koto Baru,Kota,Sungai Penuh,Jambi
1023,37152,Kampung Tengah,15.72.07.2003,Koto Baru,Kota,Sungai Penuh,Jambi
1024,37152,Koto Baru (Kota Baru),15.72.07.2001,Koto Baru,Kota,Sungai Penuh,Jambi
1025,37152,Koto Limau Manis,15.72.07.2002,Koto Baru,Kota,Sungai Penuh,Jambi
1026,37152,Permai Indah,15.72.07.2005,Koto Baru,Kota,Sungai Penuh,Jambi
1027,37152,Srimenanti (Baru Sri Menanti),15.72.07.2006,Koto Baru,Kota,Sungai Penuh,Jambi
1028,36128,Kenali Asam,15.71.07.1012,Kota Baru,Kota,Jambi,Jambi
1029,36128,Kenali Asam Atas,15.71.07.1006,Kota Baru,Kota,Jambi,Jambi
1030,36128,Kenali Asam Bawah,15.71.07.1005,Kota Baru,Kota,Jambi,Jambi
1031,36128,Paal Lima,15.71.07.1004,Kota Baru,Kota,Jambi,Jambi
1032,36126,Simpang III Sipin (Simpang Tiga Sipin),15.71.07.1002,Kota Baru,Kota,Jambi,Jambi
1033,36127,Suka Karya,15.71.07.1001,Kota Baru,Kota,Jambi,Jambi
1034,36128,Talang Gulo,15.71.07.1011,Kota Baru,Kota,Jambi,Jambi
1035,37173,Benik,15.01.08.2006,Keliling Danau,Kabupaten,Kerinci,Jambi
1036,37173,Dsn. Baru P. Tengah (Dusun Baru Pulau Tengah),15.01.08.2013,Keliling Danau,Kabupaten,Kerinci,Jambi
1037,37173,Jembatan Merah,15.01.08.2025,Keliling Danau,Kabupaten,Kerinci,Jambi
1038,37173,Jujun,15.01.08.2001,Keliling Danau,Kabupaten,Kerinci,Jambi
1039,37173,Keluru,15.01.08.2003,Keliling Danau,Kabupaten,Kerinci,Jambi
1040,37173,Koto Agung,15.01.08.2019,Keliling Danau,Kabupaten,Kerinci,Jambi
1041,37173,Koto Baru,15.01.08.2023,Keliling Danau,Kabupaten,Kerinci,Jambi
1042,37173,Kt Tuo P. Tengah (Koto Tuo Pulau Tengah),15.01.08.2007,Keliling Danau,Kabupaten,Kerinci,Jambi
1043,37173,Kt. Dian P. Tengah (Koto Dian Pulau Tengah),15.01.08.2008,Keliling Danau,Kabupaten,Kerinci,Jambi
1044,37173,Lempur Danau,15.01.08.2012,Keliling Danau,Kabupaten,Kerinci,Jambi
1045,37173,Limok Manaih Pulau,15.01.08.2026,Keliling Danau,Kabupaten,Kerinci,Jambi
1046,37173,Pancuran Bangko,15.01.08.2028,Keliling Danau,Kabupaten,Kerinci,Jambi
1047,37173,Pasar Jujun,15.01.08.2027,Keliling Danau,Kabupaten,Kerinci,Jambi
1048,37173,Pidung,15.01.08.2004,Keliling Danau,Kabupaten,Kerinci,Jambi
1049,37173,Pulautengah,15.01.08.2022,Keliling Danau,Kabupaten,Kerinci,Jambi
1050,37173,Talang Lindung,15.01.08.2002,Keliling Danau,Kabupaten,Kerinci,Jambi
1051,37173,Tanjungbatu (Tanjung Batu),15.01.08.2005,Keliling Danau,Kabupaten,Kerinci,Jambi
1052,37173,Telago (Telago Pulau Tengah),15.01.08.2018,Keliling Danau,Kabupaten,Kerinci,Jambi
1053,37165,Batu Hampar,15.01.19.2001,Kayu Aro Barat,Kabupaten,Kerinci,Jambi
1054,37165,Bedeng Delapan,15.01.19.2003,Kayu Aro Barat,Kabupaten,Kerinci,Jambi
1055,37165,Bedeng Dua,15.01.19.2004,Kayu Aro Barat,Kabupaten,Kerinci,Jambi
1056,37165,Bento,15.01.19.2013,Kayu Aro Barat,Kabupaten,Kerinci,Jambi
1057,37165,Ensatu,15.01.19.2017,Kayu Aro Barat,Kabupaten,Kerinci,Jambi
1058,37165,Giri Mulyo,15.01.19.2011,Kayu Aro Barat,Kabupaten,Kerinci,Jambi
1059,37165,Gununglabu (Gunung Labu),15.01.19.2012,Kayu Aro Barat,Kabupaten,Kerinci,Jambi
1060,37165,Kampung Baru,15.01.19.2014,Kayu Aro Barat,Kabupaten,Kerinci,Jambi
1061,37165,Kebun Baru,15.01.19.2007,Kayu Aro Barat,Kabupaten,Kerinci,Jambi
1062,37165,Pasar Minggu,15.01.19.2016,Kayu Aro Barat,Kabupaten,Kerinci,Jambi
1063,37165,Patok Empat,15.01.19.2008,Kayu Aro Barat,Kabupaten,Kerinci,Jambi
1064,37165,Sako Duo,15.01.19.2005,Kayu Aro Barat,Kabupaten,Kerinci,Jambi
1065,37165,Sungaiasam (Sungai Asam),15.01.19.2015,Kayu Aro Barat,Kabupaten,Kerinci,Jambi
1066,37165,Sungaijambu (Sungai Jambu),15.01.19.2009,Kayu Aro Barat,Kabupaten,Kerinci,Jambi
1067,37165,Sungaikering (Sungai Kering),15.01.19.2010,Kayu Aro Barat,Kabupaten,Kerinci,Jambi
1068,37165,Sungailintang (Sungai Lintang),15.01.19.2006,Kayu Aro Barat,Kabupaten,Kerinci,Jambi
1069,37165,Sungairenah (Sungai Renah),15.01.19.2002,Kayu Aro Barat,Kabupaten,Kerinci,Jambi
1070,37164,Batang Sangir,15.01.09.2025,Kayu Aro,Kabupaten,Kerinci,Jambi
1071,37164,Bedeng Baru,15.01.09.2024,Kayu Aro,Kabupaten,Kerinci,Jambi
1072,37164,Bendung Air Timur,15.01.09.2049,Kayu Aro,Kabupaten,Kerinci,Jambi
1073,37164,Kersik Tuo,15.01.09.2012,Kayu Aro,Kabupaten,Kerinci,Jambi
1074,37164,Koto Baru,15.01.09.2014,Kayu Aro,Kabupaten,Kerinci,Jambi
1075,37164,Koto Panjang,15.01.09.2015,Kayu Aro,Kabupaten,Kerinci,Jambi
1076,37164,Koto Periang,15.01.09.2038,Kayu Aro,Kabupaten,Kerinci,Jambi
1077,37164,Koto Tengah,15.01.09.2016,Kayu Aro,Kabupaten,Kerinci,Jambi
1078,37164,Koto Tuo,15.01.09.2010,Kayu Aro,Kabupaten,Kerinci,Jambi
1079,37164,Lindung Jaya,15.01.09.2039,Kayu Aro,Kabupaten,Kerinci,Jambi
1080,37164,Mekar Jaya,15.01.09.2045,Kayu Aro,Kabupaten,Kerinci,Jambi
1081,37164,Mekar Sari,15.01.09.2043,Kayu Aro,Kabupaten,Kerinci,Jambi
1082,37164,Pasar Sungai Tanduk,15.01.09.2042,Kayu Aro,Kabupaten,Kerinci,Jambi
1083,37164,Renah Kasah (Renah Kasak),15.01.09.2041,Kayu Aro,Kabupaten,Kerinci,Jambi
1084,37164,Sangir,15.01.09.2013,Kayu Aro,Kabupaten,Kerinci,Jambi
1085,37164,Sangir Tengah,15.01.09.2047,Kayu Aro,Kabupaten,Kerinci,Jambi
1086,37164,Sungaibendung Air (Sungai Bendung Air),15.01.09.2017,Kayu Aro,Kabupaten,Kerinci,Jambi
1087,37164,Sungaidalam (Sungai Dalam),15.01.09.2030,Kayu Aro,Kabupaten,Kerinci,Jambi
1088,37164,Sungaisampun (Sungai Sampun),15.01.09.2022,Kayu Aro,Kabupaten,Kerinci,Jambi
1089,37164,Sungaitanduk (Sungai Tanduk),15.01.09.2011,Kayu Aro,Kabupaten,Kerinci,Jambi
1090,37164,Tanjungbungo (Tanjung Bungo),15.01.09.2048,Kayu Aro,Kabupaten,Kerinci,Jambi
1091,37257,Aur Gading,15.08.16.2002,Jujuhan Ilir,Kabupaten,Bungo,Jambi
1092,37257,Bukit Sari,15.08.16.2005,Jujuhan Ilir,Kabupaten,Bungo,Jambi
1093,37257,Kuamang,15.08.16.2007,Jujuhan Ilir,Kabupaten,Bungo,Jambi
1094,37257,Lubuk Tenam,15.08.16.2006,Jujuhan Ilir,Kabupaten,Bungo,Jambi
1095,37257,Pulau Batu,15.08.16.2003,Jujuhan Ilir,Kabupaten,Bungo,Jambi
1096,37257,Sari Mulya,15.08.16.2004,Jujuhan Ilir,Kabupaten,Bungo,Jambi
1097,37257,Tepian Danto,15.08.16.2001,Jujuhan Ilir,Kabupaten,Bungo,Jambi
1098,37256,Baru Balai Panjang,15.08.04.2014,Jujuhan,Kabupaten,Bungo,Jambi
1099,37256,Jumbak,15.08.04.2007,Jujuhan,Kabupaten,Bungo,Jambi
1100,37256,Pulau Jelmu,15.08.04.2003,Jujuhan,Kabupaten,Bungo,Jambi
1101,37256,Rantau Ikil,15.08.04.2002,Jujuhan,Kabupaten,Bungo,Jambi
1102,37256,Rantau Panjang,15.08.04.2009,Jujuhan,Kabupaten,Bungo,Jambi
1103,37256,Sirih Sekapur,15.08.04.2004,Jujuhan,Kabupaten,Bungo,Jambi
1104,37256,Sirih Sekapur Perkembangan,15.08.04.2015,Jujuhan,Kabupaten,Bungo,Jambi
1105,37256,Talang Pemesun (Pamesun),15.08.04.2013,Jujuhan,Kabupaten,Bungo,Jambi
1106,37256,Tanjung Belit,15.08.04.2001,Jujuhan,Kabupaten,Bungo,Jambi
1107,37256,Ujung Tanjung,15.08.04.2005,Jujuhan,Kabupaten,Bungo,Jambi
1108,36134,Cempaka Putih,15.71.08.1002,Jelutung,Kota,Jambi,Jambi
1109,36137,Handil Jaya,15.71.08.1007,Jelutung,Kota,Jambi,Jambi
1110,36136,Jelutung,15.71.08.1006,Jelutung,Kota,Jambi,Jambi
1111,36137,Kebun Handil,15.71.08.1003,Jelutung,Kota,Jambi,Jambi
1112,36135,Lebak Bandung,15.71.08.1004,Jelutung,Kota,Jambi,Jambi
1113,36135,Payo Lebar,15.71.08.1005,Jelutung,Kota,Jambi,Jambi
1114,36133,Talang Jauh,15.71.08.1001,Jelutung,Kota,Jambi,Jambi
1115,37374,Baru,15.02.18.2003,Jangkat Timur (Sungai Tenang),Kabupaten,Merangin,Jambi
1116,37374,Beringin Tinggi,15.02.18.2005,Jangkat Timur (Sungai Tenang),Kabupaten,Merangin,Jambi
1117,37374,Gedang,15.02.18.2008,Jangkat Timur (Sungai Tenang),Kabupaten,Merangin,Jambi
1118,37374,Jangkat (Jangkar),15.02.18.2012,Jangkat Timur (Sungai Tenang),Kabupaten,Merangin,Jambi
1119,37374,Kabu,15.02.18.2014,Jangkat Timur (Sungai Tenang),Kabupaten,Merangin,Jambi
1120,37374,Koto Baru,15.02.18.2010,Jangkat Timur (Sungai Tenang),Kabupaten,Merangin,Jambi
1121,37374,Koto Teguh,15.02.18.2002,Jangkat Timur (Sungai Tenang),Kabupaten,Merangin,Jambi
1122,37374,Pematang Pauh,15.02.18.2006,Jangkat Timur (Sungai Tenang),Kabupaten,Merangin,Jambi
1123,37374,Rantau Suli,15.02.18.2007,Jangkat Timur (Sungai Tenang),Kabupaten,Merangin,Jambi
1124,37374,Simpang Talang Tembago,15.02.18.2015,Jangkat Timur (Sungai Tenang),Kabupaten,Merangin,Jambi
1125,37374,Talang Tembago,15.02.18.2004,Jangkat Timur (Sungai Tenang),Kabupaten,Merangin,Jambi
1126,37374,Tanjung Alam,15.02.18.2013,Jangkat Timur (Sungai Tenang),Kabupaten,Merangin,Jambi
1127,37374,Tanjung Benuang (Tanjung Beruang),15.02.18.2011,Jangkat Timur (Sungai Tenang),Kabupaten,Merangin,Jambi
1128,37374,Tanjung Mudo,15.02.18.2001,Jangkat Timur (Sungai Tenang),Kabupaten,Merangin,Jambi
1129,37372,Koto Rawang,15.02.01.2024,Jangkat,Kabupaten,Merangin,Jambi
1130,37372,Koto Renah,15.02.01.2010,Jangkat,Kabupaten,Merangin,Jambi
1131,37372,Lubuk Mentilin,15.02.01.2003,Jangkat,Kabupaten,Merangin,Jambi
1132,37372,Lubuk Pungguk,15.02.01.2009,Jangkat,Kabupaten,Merangin,Jambi
1133,37372,Muara Madras (Muara Manderas),15.02.01.2011,Jangkat,Kabupaten,Merangin,Jambi
1134,37372,Pulau Tengah,15.02.01.2008,Jangkat,Kabupaten,Merangin,Jambi
1135,37372,Rantau Kermas,15.02.01.2004,Jangkat,Kabupaten,Merangin,Jambi
1136,37372,Renah Alai,15.02.01.2005,Jangkat,Kabupaten,Merangin,Jambi
1137,37372,Renah Kemumu,15.02.01.2001,Jangkat,Kabupaten,Merangin,Jambi
1138,37372,Renah Pelaan,15.02.01.2023,Jangkat,Kabupaten,Merangin,Jambi
1139,37372,Tanjung Kasri,15.02.01.2002,Jangkat,Kabupaten,Merangin,Jambi
1140,36145,Budiman,15.71.03.1004,Jambi Timur,Kota,Jambi,Jambi
1141,36141,Kasang,15.71.03.1006,Jambi Timur,Kota,Jambi,Jambi
1142,36141,Kasang Jaya,15.71.03.1002,Jambi Timur,Kota,Jambi,Jambi
1143,36143,Rajawali,15.71.03.1008,Jambi Timur,Kota,Jambi,Jambi
1144,36149,Sijenjang (Sijinjang),15.71.03.1001,Jambi Timur,Kota,Jambi,Jambi
1145,36144,Sulanjana (Sulan Jana),15.71.03.1005,Jambi Timur,Kota,Jambi,Jambi
1146,36142,Talang Banjar,15.71.03.1003,Jambi Timur,Kota,Jambi,Jambi
1147,36146,Tanjung Pinang,15.71.03.1010,Jambi Timur,Kota,Jambi,Jambi
1148,36147,Tanjung Sari,15.71.03.1007,Jambi Timur,Kota,Jambi,Jambi
1149,36132,Pakuan Baru,15.71.02.1006,Jambi Selatan,Kota,Jambi,Jambi
1150,36139,Pasir Putih,15.71.02.1002,Jambi Selatan,Kota,Jambi,Jambi
1151,36139,Tambak Sari,15.71.02.1003,Jambi Selatan,Kota,Jambi,Jambi
1152,36138,Thehok (The Hok),15.71.02.1004,Jambi Selatan,Kota,Jambi,Jambi
1153,36131,Wijaya Pura,15.71.02.1005,Jambi Selatan,Kota,Jambi,Jambi
1154,36361,Danau Sarang Elang,15.05.01.2019,Jambi Luar Kota,Kabupaten,Muaro Jambi,Jambi
1155,36361,Kedemangan (Kademangan),15.05.01.2015,Jambi Luar Kota,Kabupaten,Muaro Jambi,Jambi
1156,36382,Maro Sebo,15.05.01.2017,Jambi Luar Kota,Kabupaten,Muaro Jambi,Jambi
1157,36361,Mendalo Darat,15.05.01.2007,Jambi Luar Kota,Kabupaten,Muaro Jambi,Jambi
1158,36361,Mendalo Indah,15.05.01.2021,Jambi Luar Kota,Kabupaten,Muaro Jambi,Jambi
1159,36361,Mendalo Laut,15.05.01.2010,Jambi Luar Kota,Kabupaten,Muaro Jambi,Jambi
1160,36361,Muara Pijoan (Muaro Pijoan),15.05.01.2005,Jambi Luar Kota,Kabupaten,Muaro Jambi,Jambi
1161,36361,Muhajirin,15.05.01.2016,Jambi Luar Kota,Kabupaten,Muaro Jambi,Jambi
1162,36361,Pematang Gajah,15.05.01.2022,Jambi Luar Kota,Kabupaten,Muaro Jambi,Jambi
1163,36361,Pematang Jering,15.05.01.2004,Jambi Luar Kota,Kabupaten,Muaro Jambi,Jambi
1164,36361,Penyengat Olak,15.05.01.2013,Jambi Luar Kota,Kabupaten,Muaro Jambi,Jambi
1165,36361,Pijoan,15.05.01.1003,Jambi Luar Kota,Kabupaten,Muaro Jambi,Jambi
1166,36361,Rengas Bandung,15.05.01.2008,Jambi Luar Kota,Kabupaten,Muaro Jambi,Jambi
1167,36361,Sarang Burung,15.05.01.2009,Jambi Luar Kota,Kabupaten,Muaro Jambi,Jambi
1168,36361,Sembubuk,15.05.01.2011,Jambi Luar Kota,Kabupaten,Muaro Jambi,Jambi
1169,36361,Senaung,15.05.01.2012,Jambi Luar Kota,Kabupaten,Muaro Jambi,Jambi
1170,36361,Simpang Limo,15.05.01.2020,Jambi Luar Kota,Kabupaten,Muaro Jambi,Jambi
1171,36361,Simpang Sungai/Sei Duren,15.05.01.2014,Jambi Luar Kota,Kabupaten,Muaro Jambi,Jambi
1172,36361,Sungai Bertam,15.05.01.2002,Jambi Luar Kota,Kabupaten,Muaro Jambi,Jambi
1173,36361,Sungai Duren,15.05.01.2006,Jambi Luar Kota,Kabupaten,Muaro Jambi,Jambi
1174,37151,Cempaka,15.72.03.2013,Hamparan Rawang,Kota,Sungai Penuh,Jambi
1175,37151,Dusun Diilir,15.72.03.2009,Hamparan Rawang,Kota,Sungai Penuh,Jambi
1176,37151,Kampung Dalam,15.72.03.2006,Hamparan Rawang,Kota,Sungai Penuh,Jambi
1177,37151,Kampung Diilir,15.72.03.2001,Hamparan Rawang,Kota,Sungai Penuh,Jambi
1178,37151,Koto Beringin,15.72.03.2002,Hamparan Rawang,Kota,Sungai Penuh,Jambi
1179,37151,Koto Dian,15.72.03.2011,Hamparan Rawang,Kota,Sungai Penuh,Jambi
1180,37151,Koto Teluk,15.72.03.2005,Hamparan Rawang,Kota,Sungai Penuh,Jambi
1181,37151,Larik Kemahan,15.72.03.2008,Hamparan Rawang,Kota,Sungai Penuh,Jambi
1182,37151,Maliki Air,15.72.03.2003,Hamparan Rawang,Kota,Sungai Penuh,Jambi
1183,37151,Paling Serumpun,15.72.03.2010,Hamparan Rawang,Kota,Sungai Penuh,Jambi
1184,37151,Simpang Tiga Rawang,15.72.03.2007,Hamparan Rawang,Kota,Sungai Penuh,Jambi
1185,37151,Tanjung,15.72.03.2004,Hamparan Rawang,Kota,Sungai Penuh,Jambi
1186,37151,Tanjung Muda/Mudo,15.72.03.2012,Hamparan Rawang,Kota,Sungai Penuh,Jambi
1187,37163,Bengkolan Duo (Bengkolan Dua),15.01.15.2006,Gunung Tujuh,Kabupaten,Kerinci,Jambi
1188,37163,Bumbun Duri,15.01.15.2009,Gunung Tujuh,Kabupaten,Kerinci,Jambi
1189,37163,Jernih Jaya,15.01.15.2005,Gunung Tujuh,Kabupaten,Kerinci,Jambi
1190,37163,Lubuk Pauh,15.01.15.2007,Gunung Tujuh,Kabupaten,Kerinci,Jambi
1191,37163,Pauh Tinggi,15.01.15.2011,Gunung Tujuh,Kabupaten,Kerinci,Jambi
1192,37163,Pelompek,15.01.15.2004,Gunung Tujuh,Kabupaten,Kerinci,Jambi
1193,37163,Pelompek Pasar Baru,15.01.15.2013,Gunung Tujuh,Kabupaten,Kerinci,Jambi
1194,37163,Pesisir Bukit,15.01.15.2010,Gunung Tujuh,Kabupaten,Kerinci,Jambi
1195,37163,Sungaijernih (Sungai Jernih),15.01.15.2012,Gunung Tujuh,Kabupaten,Kerinci,Jambi
1196,37163,Sungairumpun (Sungai Rumpun),15.01.15.2001,Gunung Tujuh,Kabupaten,Kerinci,Jambi
1197,37163,Sungaisikai (Sungai Sikai),15.01.15.2002,Gunung Tujuh,Kabupaten,Kerinci,Jambi
1198,37163,Tangkil,15.01.15.2003,Gunung Tujuh,Kabupaten,Kerinci,Jambi
1199,37163,Telun Berasap,15.01.15.2008,Gunung Tujuh,Kabupaten,Kerinci,Jambi
1200,37174,Air Mumu,15.01.01.2002,Gunung Raya,Kabupaten,Kerinci,Jambi
1201,37174,Dusun Baru Lempur,15.01.01.2013,Gunung Raya,Kabupaten,Kerinci,Jambi
1202,37174,Kebun Baru,15.01.01.2011,Gunung Raya,Kabupaten,Kerinci,Jambi
1203,37174,Kebun Lima,15.01.01.2019,Gunung Raya,Kabupaten,Kerinci,Jambi
1204,37174,Lempur Hilir,15.01.01.2006,Gunung Raya,Kabupaten,Kerinci,Jambi
1205,37174,Lempur Mudik,15.01.01.2003,Gunung Raya,Kabupaten,Kerinci,Jambi
1206,37174,Lempur Tengah,15.01.01.1004,Gunung Raya,Kabupaten,Kerinci,Jambi
1207,37174,Manjunto Lempur,15.01.01.2018,Gunung Raya,Kabupaten,Kerinci,Jambi
1208,37174,Masgo,15.01.01.2005,Gunung Raya,Kabupaten,Kerinci,Jambi
1209,37174,Perikan Tengah,15.01.01.2012,Gunung Raya,Kabupaten,Kerinci,Jambi
1210,37174,Selam Paung (Selampaung),15.01.01.2001,Gunung Raya,Kabupaten,Kerinci,Jambi
1211,37174,Sungaihangat (Sungai Hangat),15.01.01.2016,Gunung Raya,Kabupaten,Kerinci,Jambi
1212,37162,Air Betung,15.01.06.2042,Gunung Kerinci,Kabupaten,Kerinci,Jambi
1213,37162,Baru Sungai Betung,15.01.06.2040,Gunung Kerinci,Kabupaten,Kerinci,Jambi
1214,37162,Danautinggi (Danau Tinggi),15.01.06.2016,Gunung Kerinci,Kabupaten,Kerinci,Jambi
1215,37162,Simpang Tutup,15.01.06.2013,Gunung Kerinci,Kabupaten,Kerinci,Jambi
1216,37162,Siulak Deras,15.01.06.1009,Gunung Kerinci,Kabupaten,Kerinci,Jambi
1217,37162,Siulak Deras Mudik,15.01.06.2018,Gunung Kerinci,Kabupaten,Kerinci,Jambi
1218,37162,Siulak Tenang,15.01.06.2019,Gunung Kerinci,Kabupaten,Kerinci,Jambi
1219,37162,Suko Pangkat,15.01.06.2014,Gunung Kerinci,Kabupaten,Kerinci,Jambi
1220,37162,Sungai Batu Gantih Hilir,15.01.06.2039,Gunung Kerinci,Kabupaten,Kerinci,Jambi
1221,37162,Sungaibatu Gantih (Sungai Batu Gantih),15.01.06.2011,Gunung Kerinci,Kabupaten,Kerinci,Jambi
1222,37162,Sungaibetung Hilir (Sungai Betung Hilir),15.01.06.2010,Gunung Kerinci,Kabupaten,Kerinci,Jambi
1223,37162,Sungaibetung Mudik (Sungai Betung Mudik),15.01.06.2015,Gunung Kerinci,Kabupaten,Kerinci,Jambi
1224,37162,Sungaigelampeh (Sungai Gelampeh),15.01.06.2017,Gunung Kerinci,Kabupaten,Kerinci,Jambi
1225,37162,Tanjunggenting (Tanjung Genting),15.01.06.2012,Gunung Kerinci,Kabupaten,Kerinci,Jambi
1226,37162,Tanjunggenting Mudik,15.01.06.2041,Gunung Kerinci,Kabupaten,Kerinci,Jambi
1227,37162,Ujung Ladang,15.01.06.2043,Gunung Kerinci,Kabupaten,Kerinci,Jambi
1228,36764,Kota Baru,15.07.10.2007,Geragai,Kabupaten,Tanjung Jabung Timur,Jambi
1229,36764,Lagan Tengah,15.07.10.2002,Geragai,Kabupaten,Tanjung Jabung Timur,Jambi
1230,36764,Lagan Ulu,15.07.10.2001,Geragai,Kabupaten,Tanjung Jabung Timur,Jambi
1231,36764,Pandan Jaya,15.07.10.1010,Geragai,Kabupaten,Tanjung Jabung Timur,Jambi
1232,36764,Pandan Lagan/Logan,15.07.10.2005,Geragai,Kabupaten,Tanjung Jabung Timur,Jambi
1233,36764,Pandan Makmur,15.07.10.2004,Geragai,Kabupaten,Tanjung Jabung Timur,Jambi
1234,36764,Pandan Sejahtera,15.07.10.2009,Geragai,Kabupaten,Tanjung Jabung Timur,Jambi
1235,36764,Rantau Karya,15.07.10.2008,Geragai,Kabupaten,Tanjung Jabung Timur,Jambi
1236,36764,Suka Maju,15.07.10.2006,Geragai,Kabupaten,Tanjung Jabung Timur,Jambi
1237,37161,Baru Kubang,15.01.17.2002,Depati Tujuh,Kabupaten,Kerinci,Jambi
1238,37161,Belui,15.01.17.2001,Depati Tujuh,Kabupaten,Kerinci,Jambi
1239,37161,Belui Tinggi,15.01.17.2006,Depati Tujuh,Kabupaten,Kerinci,Jambi
1240,37161,Kayu Aho Mangkak Koto Lanang,15.01.17.2015,Depati Tujuh,Kabupaten,Kerinci,Jambi
1241,37161,Koto Lanang,15.01.17.2012,Depati Tujuh,Kabupaten,Kerinci,Jambi
1242,37161,Koto Panjang,15.01.17.2003,Depati Tujuh,Kabupaten,Kerinci,Jambi
1243,37161,Koto Payang,15.01.17.2008,Depati Tujuh,Kabupaten,Kerinci,Jambi
1244,37161,Koto Simpai Kubang,15.01.17.2019,Depati Tujuh,Kabupaten,Kerinci,Jambi
1245,37161,Koto Tuo,15.01.17.2007,Depati Tujuh,Kabupaten,Kerinci,Jambi
1246,37161,Kubang Agung,15.01.17.2017,Depati Tujuh,Kabupaten,Kerinci,Jambi
1247,37161,Kubang Gedang,15.01.17.2004,Depati Tujuh,Kabupaten,Kerinci,Jambi
1248,37161,Ladeh,15.01.17.2013,Depati Tujuh,Kabupaten,Kerinci,Jambi
1249,37161,Lubuk Suli,15.01.17.2014,Depati Tujuh,Kabupaten,Kerinci,Jambi
1250,37161,Pahlawan Belui,15.01.17.2020,Depati Tujuh,Kabupaten,Kerinci,Jambi
1251,37161,Sekungkung,15.01.17.2010,Depati Tujuh,Kabupaten,Kerinci,Jambi
1252,37161,Semumu,15.01.17.2005,Depati Tujuh,Kabupaten,Kerinci,Jambi
1253,37161,Simpang Belui,15.01.17.2011,Depati Tujuh,Kabupaten,Kerinci,Jambi
1254,37161,Tambak Tinggi,15.01.17.2016,Depati Tujuh,Kabupaten,Kerinci,Jambi
1255,37161,Tebat Ijuk,15.01.17.2009,Depati Tujuh,Kabupaten,Kerinci,Jambi
1256,37161,Tebat Ijuk Dili,15.01.17.2018,Depati Tujuh,Kabupaten,Kerinci,Jambi
1257,36763,Catur Rahayu,15.07.06.2008,Dendang,Kabupaten,Tanjung Jabung Timur,Jambi
1258,36763,Jati Mulyo,15.07.06.2009,Dendang,Kabupaten,Tanjung Jabung Timur,Jambi
1259,36763,Kota Kandis Dendang (Kuta / Koto Kandis Dendang),15.07.06.2004,Dendang,Kabupaten,Tanjung Jabung Timur,Jambi
1260,36763,Koto Kandis,15.07.06.2005,Dendang,Kabupaten,Tanjung Jabung Timur,Jambi
1261,36763,Kuala Dendang,15.07.06.2003,Dendang,Kabupaten,Tanjung Jabung Timur,Jambi
1262,36763,Rantau Indah,15.07.06.1006,Dendang,Kabupaten,Tanjung Jabung Timur,Jambi
1263,36763,Sido Mukti,15.07.06.2007,Dendang,Kabupaten,Tanjung Jabung Timur,Jambi
1264,36262,Olak Kemang,15.71.06.1003,Danau Teluk,Kota,Jambi,Jambi
1265,36265,Pasir Panjang,15.71.06.1001,Danau Teluk,Kota,Jambi,Jambi
1266,36263,Tanjung Pasir,15.71.06.1004,Danau Teluk,Kota,Jambi,Jambi
1267,36264,Tanjung Raden,15.71.06.1002,Danau Teluk,Kota,Jambi,Jambi
1268,36261,Ulu Gedong,15.71.06.1005,Danau Teluk,Kota,Jambi,Jambi
1269,36121,Legok,15.71.10.1003,Danau Sipin,Kota,Jambi,Jambi
1270,36121,Murni,15.71.10.1002,Danau Sipin,Kota,Jambi,Jambi
1271,36129,Selamat,15.71.10.1004,Danau Sipin,Kota,Jambi,Jambi
1272,36121,Solok Sipin,15.71.10.1005,Danau Sipin,Kota,Jambi,Jambi
1273,36122,Sungai Putri,15.71.10.1001,Danau Sipin,Kota,Jambi,Jambi
1274,37173,Bukit Pulai (Bukitpulai),15.01.23.2003,Danau Kerinci Barat,Kabupaten,Kerinci,Jambi
1275,37173,Koto Baru Semerap,15.01.23.2012,Danau Kerinci Barat,Kabupaten,Kerinci,Jambi
1276,37173,Koto Patah,15.01.23.2014,Danau Kerinci Barat,Kabupaten,Kerinci,Jambi
1277,37173,Koto Tengah,15.01.23.2010,Danau Kerinci Barat,Kabupaten,Kerinci,Jambi
1278,37173,Pancuran Tiga,15.01.23.2001,Danau Kerinci Barat,Kabupaten,Kerinci,Jambi
1279,37173,Pasar Semerap,15.01.23.2013,Danau Kerinci Barat,Kabupaten,Kerinci,Jambi
1280,37173,Permai Baru,15.01.23.2006,Danau Kerinci Barat,Kabupaten,Kerinci,Jambi
1281,37173,Pondok Siguang,15.01.23.2009,Danau Kerinci Barat,Kabupaten,Kerinci,Jambi
1282,37173,Punai Merindu,15.01.23.2004,Danau Kerinci Barat,Kabupaten,Kerinci,Jambi
1283,37173,Semerap,15.01.23.2011,Danau Kerinci Barat,Kabupaten,Kerinci,Jambi
1284,37173,Serumpun Pauh,15.01.23.2008,Danau Kerinci Barat,Kabupaten,Kerinci,Jambi
1285,37173,Sumur Jauh,15.01.23.2005,Danau Kerinci Barat,Kabupaten,Kerinci,Jambi
1286,37173,Tanjungpauh Hilir (Tanjung Pauh Hilir),15.01.23.2007,Danau Kerinci Barat,Kabupaten,Kerinci,Jambi
1287,37173,Tanjungpauh Mudik (Tanjung Pauh Mudik),15.01.23.2002,Danau Kerinci Barat,Kabupaten,Kerinci,Jambi
1288,37172,Cupak,15.01.02.2006,Danau Kerinci,Kabupaten,Kerinci,Jambi
1289,37172,Dusun Baru Tanjung,15.01.02.2015,Danau Kerinci,Kabupaten,Kerinci,Jambi
1290,37172,Kota Baru Sanggaran,15.01.02.2002,Danau Kerinci,Kabupaten,Kerinci,Jambi
1291,37172,Koto Tengah,15.01.02.2008,Danau Kerinci,Kabupaten,Kerinci,Jambi
1292,37172,Pasar Sore Seleman,15.01.02.2016,Danau Kerinci,Kabupaten,Kerinci,Jambi
1293,37172,Pendung Talang (Pendung Talang Genting),15.01.02.2003,Danau Kerinci,Kabupaten,Kerinci,Jambi
1294,37172,Sanggaran Agung,15.01.02.2001,Danau Kerinci,Kabupaten,Kerinci,Jambi
1295,37172,Seleman,15.01.02.2004,Danau Kerinci,Kabupaten,Kerinci,Jambi
1296,37172,Simpang Empat,15.01.02.2013,Danau Kerinci,Kabupaten,Kerinci,Jambi
1297,37172,Talang Kemulun,15.01.02.2014,Danau Kerinci,Kabupaten,Kerinci,Jambi
1298,37172,Tanjungharapan,15.01.02.2018,Danau Kerinci,Kabupaten,Kerinci,Jambi
1299,37172,Tanjungtanah (Tanjung Tanah),15.01.02.2007,Danau Kerinci,Kabupaten,Kerinci,Jambi
1300,37172,Tebing Tinggi,15.01.02.2005,Danau Kerinci,Kabupaten,Kerinci,Jambi
1301,37381,Kampung Tujuh,15.03.10.2001,Cermin Nan Gedang / Gadang,Kabupaten,Sarolangun,Jambi
1302,37381,Lubuk Resam,15.03.10.2002,Cermin Nan Gedang / Gadang,Kabupaten,Sarolangun,Jambi
1303,37381,Lubuk Resam Hilir,15.03.10.2005,Cermin Nan Gedang / Gadang,Kabupaten,Sarolangun,Jambi
1304,37381,Pemuncak (Pemancak),15.03.10.2006,Cermin Nan Gedang / Gadang,Kabupaten,Sarolangun,Jambi
1305,37381,Sekamis,15.03.10.2010,Cermin Nan Gedang / Gadang,Kabupaten,Sarolangun,Jambi
1306,37381,Sungai Keramat (Sungaikeramat),15.03.10.2009,Cermin Nan Gedang / Gadang,Kabupaten,Sarolangun,Jambi
1307,37381,Tambang Tinggi,15.03.10.2007,Cermin Nan Gedang / Gadang,Kabupaten,Sarolangun,Jambi
1308,37381,Teluk Rendah (Telukrendah),15.03.10.2003,Cermin Nan Gedang / Gadang,Kabupaten,Sarolangun,Jambi
1309,37381,Teluk Tigo (Teluktigo),15.03.10.2004,Cermin Nan Gedang / Gadang,Kabupaten,Sarolangun,Jambi
1310,37381,Tendah,15.03.10.2008,Cermin Nan Gedang / Gadang,Kabupaten,Sarolangun,Jambi
1311,37212,Pulau Pekan,15.08.12.2005,Bungo Dani,Kabupaten,Bungo,Jambi
1312,37212,Sungai Arang,15.08.12.2004,Bungo Dani,Kabupaten,Bungo,Jambi
1313,37212,Sungai Kerjan,15.08.12.1002,Bungo Dani,Kabupaten,Bungo,Jambi
1314,37212,Sungai Pinang,15.08.12.1001,Bungo Dani,Kabupaten,Bungo,Jambi
1315,37212,Talang Pantai,15.08.12.2003,Bungo Dani,Kabupaten,Bungo,Jambi
1316,37176,Bintang Marak,15.01.20.2012,Bukitkerman,Kabupaten,Kerinci,Jambi
1317,37176,Karang Pandan,15.01.20.2013,Bukitkerman,Kabupaten,Kerinci,Jambi
1318,37176,Lolo Gedang,15.01.20.2002,Bukitkerman,Kabupaten,Kerinci,Jambi
1319,37176,Lolo Hilir,15.01.20.2004,Bukitkerman,Kabupaten,Kerinci,Jambi
1320,37176,Lolo Kecil,15.01.20.2003,Bukitkerman,Kabupaten,Kerinci,Jambi
1321,37176,Muak,15.01.20.2008,Bukitkerman,Kabupaten,Kerinci,Jambi
1322,37176,Muaro Lulo,15.01.20.2015,Bukitkerman,Kabupaten,Kerinci,Jambi
1323,37176,Pasar Kerman,15.01.20.2001,Bukitkerman,Kabupaten,Kerinci,Jambi
1324,37176,Pengasi Baru,15.01.20.2014,Bukitkerman,Kabupaten,Kerinci,Jambi
1325,37176,Pengasi Lama,15.01.20.2009,Bukitkerman,Kabupaten,Kerinci,Jambi
1326,37176,Pondok,15.01.20.2007,Bukitkerman,Kabupaten,Kerinci,Jambi
1327,37176,Pulaupandan,15.01.20.2010,Bukitkerman,Kabupaten,Kerinci,Jambi
1328,37176,Pulausangkar,15.01.20.2011,Bukitkerman,Kabupaten,Kerinci,Jambi
1329,37176,Talang Kemuning,15.01.20.2006,Bukitkerman,Kabupaten,Kerinci,Jambi
1330,37176,Tanjung Syam,15.01.20.2005,Bukitkerman,Kabupaten,Kerinci,Jambi
1331,36514,Bram Itam Kanan (Bram Itan Kanan / Beram Itam),15.06.11.2002,Bram Itam,Kabupaten,Tanjung Jabung Barat,Jambi
1332,36514,Bram Itam Kiri (Bram Itan Kiri / Beram Itam),15.06.11.1001,Bram Itam,Kabupaten,Tanjung Jabung Barat,Jambi
1333,36514,Bram Itam Raya,15.06.11.2005,Bram Itam,Kabupaten,Tanjung Jabung Barat,Jambi
1334,36514,Jati Emas,15.06.11.2007,Bram Itam,Kabupaten,Tanjung Jabung Barat,Jambi
1335,36514,Kemuning,15.06.11.2008,Bram Itam,Kabupaten,Tanjung Jabung Barat,Jambi
1336,36514,Mekar Tanjung,15.06.11.2009,Bram Itam,Kabupaten,Tanjung Jabung Barat,Jambi
1337,36514,Pantaigading (Pantai Gading),15.06.11.2006,Bram Itam,Kabupaten,Tanjung Jabung Barat,Jambi
1338,36514,Pembengis,15.06.11.2004,Bram Itam,Kabupaten,Tanjung Jabung Barat,Jambi
1339,36514,Semau,15.06.11.2010,Bram Itam,Kabupaten,Tanjung Jabung Barat,Jambi
1340,36514,Tanjungsenjulang (Tanjung Senjulang),15.06.11.2003,Bram Itam,Kabupaten,Tanjung Jabung Barat,Jambi
1341,36555,Bunga Tanjung,15.06.04.2015,Betara,Kabupaten,Tanjung Jabung Barat,Jambi
1342,36555,Lubuk Terentang,15.06.04.2011,Betara,Kabupaten,Tanjung Jabung Barat,Jambi
1343,36555,Makmur Jaya,15.06.04.2008,Betara,Kabupaten,Tanjung Jabung Barat,Jambi
1344,36555,Mandala Jaya,15.06.04.2017,Betara,Kabupaten,Tanjung Jabung Barat,Jambi
1345,36555,Mekar Jaya,15.06.04.1007,Betara,Kabupaten,Tanjung Jabung Barat,Jambi
1346,36555,Muntialo,15.06.04.2013,Betara,Kabupaten,Tanjung Jabung Barat,Jambi
1347,36555,Pematang Buluh,15.06.04.2012,Betara,Kabupaten,Tanjung Jabung Barat,Jambi
1348,36555,Pematang Lumut,15.06.04.2001,Betara,Kabupaten,Tanjung Jabung Barat,Jambi
1349,36555,Serdang Jaya,15.06.04.2009,Betara,Kabupaten,Tanjung Jabung Barat,Jambi
1350,36555,Sungaiterap (Sungai Tera),15.06.04.2016,Betara,Kabupaten,Tanjung Jabung Barat,Jambi
1351,36555,Telukkulbi,15.06.04.2014,Betara,Kabupaten,Tanjung Jabung Barat,Jambi
1352,36555,Terjun Gajah,15.06.04.2010,Betara,Kabupaten,Tanjung Jabung Barat,Jambi
1353,36751,Rantau Makmur,15.07.11.2003,Berbak,Kabupaten,Tanjung Jabung Timur,Jambi
1354,36751,Rantau Rasau Desa (Rantau Rasau),15.07.11.2002,Berbak,Kabupaten,Tanjung Jabung Timur,Jambi
1355,36751,Rawasari,15.07.11.2005,Berbak,Kabupaten,Tanjung Jabung Timur,Jambi
1356,36751,Simpang,15.07.11.1001,Berbak,Kabupaten,Tanjung Jabung Timur,Jambi
1357,36751,Sungai Rambut,15.07.11.2004,Berbak,Kabupaten,Tanjung Jabung Timur,Jambi
1358,36751,Telaga Limo (Telaga Lima / Telago Limo),15.07.11.2006,Berbak,Kabupaten,Tanjung Jabung Timur,Jambi
1359,36656,Aur Gading,15.04.04.2004,Batin XXIV,Kabupaten,Batanghari,Jambi
1360,36656,Bulian Baru,15.04.04.2015,Batin XXIV,Kabupaten,Batanghari,Jambi
1361,36656,Durian Luncuk,15.04.04.1003,Batin XXIV,Kabupaten,Batanghari,Jambi
1362,36656,Hajran,15.04.04.2006,Batin XXIV,Kabupaten,Batanghari,Jambi
1363,36656,Jangga,15.04.04.2008,Batin XXIV,Kabupaten,Batanghari,Jambi
1364,36656,Jangga Baru,15.04.04.2013,Batin XXIV,Kabupaten,Batanghari,Jambi
1365,36656,Jelutih,15.04.04.2001,Batin XXIV,Kabupaten,Batanghari,Jambi
1366,36656,Karmeo,15.04.04.2011,Batin XXIV,Kabupaten,Batanghari,Jambi
1367,36656,Koto Boyo,15.04.04.2009,Batin XXIV,Kabupaten,Batanghari,Jambi
1368,36656,Mata Gual,15.04.04.2007,Batin XXIV,Kabupaten,Batanghari,Jambi
1369,36656,Muara Jangga,15.04.04.1012,Batin XXIV,Kabupaten,Batanghari,Jambi
1370,36656,Olak Besar,15.04.04.2002,Batin XXIV,Kabupaten,Batanghari,Jambi
1371,36656,Paku Aji,15.04.04.2005,Batin XXIV,Kabupaten,Batanghari,Jambi
1372,36656,Simpang Aur Gading,15.04.04.2017,Batin XXIV,Kabupaten,Batanghari,Jambi
1373,36656,Simpang Jelutih,15.04.04.2016,Batin XXIV,Kabupaten,Batanghari,Jambi
1374,36656,Simpang Karmeo,15.04.04.2010,Batin XXIV,Kabupaten,Batanghari,Jambi
1375,36656,Terentang Baru,15.04.04.2014,Batin XXIV,Kabupaten,Batanghari,Jambi
1376,37210,Babeko,15.08.10.2002,Batin II Babeko (Bathin),Kabupaten,Bungo,Jambi
1377,37210,Sepunggur,15.08.10.2003,Batin II Babeko (Bathin),Kabupaten,Bungo,Jambi
1378,37210,Simpang Bebeko (Simpang Babeko),15.08.10.2004,Batin II Babeko (Bathin),Kabupaten,Bungo,Jambi
1379,37210,Suka Makmur,15.08.10.2005,Batin II Babeko (Bathin),Kabupaten,Bungo,Jambi
1380,37210,Tanjung Menanti,15.08.10.2001,Batin II Babeko (Bathin),Kabupaten,Bungo,Jambi
1381,37210,Tuo Sepunggur,15.08.10.2006,Batin II Babeko (Bathin),Kabupaten,Bungo,Jambi
1382,37480,Bangun Jayo,15.03.08.2005,Bathin VIII (Batin VIII),Kabupaten,Sarolangun,Jambi
1383,37480,Batu Penyabung,15.03.08.2008,Bathin VIII (Batin VIII),Kabupaten,Sarolangun,Jambi
1384,37480,Dusun Dalam,15.03.08.2012,Bathin VIII (Batin VIII),Kabupaten,Sarolangun,Jambi
1385,37480,Limbur Tembesi,15.03.08.1011,Bathin VIII (Batin VIII),Kabupaten,Sarolangun,Jambi
1386,37480,Muara Lati (Muaralati),15.03.08.2013,Bathin VIII (Batin VIII),Kabupaten,Sarolangun,Jambi
1387,37480,Penarun,15.03.08.2002,Bathin VIII (Batin VIII),Kabupaten,Sarolangun,Jambi
1388,37480,Pulau Buayo (Pulaubuayo),15.03.08.2010,Bathin VIII (Batin VIII),Kabupaten,Sarolangun,Jambi
1389,37480,Pulau Lintang,15.03.08.2003,Bathin VIII (Batin VIII),Kabupaten,Sarolangun,Jambi
1390,37480,Pulau Melako (Pulaumelako),15.03.08.2007,Bathin VIII (Batin VIII),Kabupaten,Sarolangun,Jambi
1391,37480,Rantau Gedang,15.03.08.2001,Bathin VIII (Batin VIII),Kabupaten,Sarolangun,Jambi
1392,37480,Suka Jadi (Sukajadi),15.03.08.2014,Bathin VIII (Batin VIII),Kabupaten,Sarolangun,Jambi
1393,37480,Tanjung,15.03.08.2004,Bathin VIII (Batin VIII),Kabupaten,Sarolangun,Jambi
1394,37480,Tanjung Gagak (Tanjunggagak),15.03.08.2009,Bathin VIII (Batin VIII),Kabupaten,Sarolangun,Jambi
1395,37480,Teluk Kecimbung (Sikumbang),15.03.08.2006,Bathin VIII (Batin VIII),Kabupaten,Sarolangun,Jambi
1396,37480,Teluk Mancur,15.03.08.2015,Bathin VIII (Batin VIII),Kabupaten,Sarolangun,Jambi
1397,37260,Aur Cino,15.08.14.2007,Bathin III Ulu,Kabupaten,Bungo,Jambi
1398,37260,Buat,15.08.14.2002,Bathin III Ulu,Kabupaten,Bungo,Jambi
1399,37260,Karak Apung,15.08.14.2004,Bathin III Ulu,Kabupaten,Bungo,Jambi
1400,37260,Laman Panjang,15.08.14.2003,Bathin III Ulu,Kabupaten,Bungo,Jambi
1401,37260,Lubuk Beringin,15.08.14.2008,Bathin III Ulu,Kabupaten,Bungo,Jambi
1402,37260,Muara Buat,15.08.14.2001,Bathin III Ulu,Kabupaten,Bungo,Jambi
1403,37260,Senamat Ulu,15.08.14.2006,Bathin III Ulu,Kabupaten,Bungo,Jambi
1404,37260,Sungai Telang,15.08.14.2009,Bathin III Ulu,Kabupaten,Bungo,Jambi
1405,37260,Timbolasi,15.08.14.2005,Bathin III Ulu,Kabupaten,Bungo,Jambi
1406,37211,Air Gemuruh,15.08.11.2005,Bathin III,Kabupaten,Bungo,Jambi
1407,37211,Bungo Taman Agung,15.08.11.1003,Bathin III,Kabupaten,Bungo,Jambi
1408,37211,Lubuk Benteng,15.08.11.2002,Bathin III,Kabupaten,Bungo,Jambi
1409,37211,Manggis,15.08.11.1001,Bathin III,Kabupaten,Bungo,Jambi
1410,37211,Purwo Bakti,15.08.11.2006,Bathin III,Kabupaten,Bungo,Jambi
1411,37211,Sarana Jaya,15.08.11.2007,Bathin III,Kabupaten,Bungo,Jambi
1412,37211,Sungai Binjai,15.08.11.1004,Bathin III,Kabupaten,Bungo,Jambi
1413,37211,Teluk Panjang,15.08.11.2008,Bathin III,Kabupaten,Bungo,Jambi
1414,37254,Pelayang,15.08.15.2001,Bathin II Pelayang,Kabupaten,Bungo,Jambi
1415,37254,Peninjau,15.08.15.2002,Bathin II Pelayang,Kabupaten,Bungo,Jambi
1416,37254,Pulau Kerakap,15.08.15.2004,Bathin II Pelayang,Kabupaten,Bungo,Jambi
1417,37254,Seberang Jaya,15.08.15.2005,Bathin II Pelayang,Kabupaten,Bungo,Jambi
1418,37254,Talang Selungko (Talang Silungko),15.08.15.2003,Bathin II Pelayang,Kabupaten,Bungo,Jambi
1419,37175,Baru Pulau Sangkar,15.01.07.2011,Batang Merangin,Kabupaten,Kerinci,Jambi
1420,37175,Batang Merangin,15.01.07.2013,Batang Merangin,Kabupaten,Kerinci,Jambi
1421,37175,Lubuk Paku,15.01.07.2006,Batang Merangin,Kabupaten,Kerinci,Jambi
1422,37175,Muara Hemat,15.01.07.2014,Batang Merangin,Kabupaten,Kerinci,Jambi
1423,37175,Pasar Tamiai,15.01.07.2009,Batang Merangin,Kabupaten,Kerinci,Jambi
1424,37175,Pematang Lingkung,15.01.07.2008,Batang Merangin,Kabupaten,Kerinci,Jambi
1425,37175,Seberang Merangin,15.01.07.2010,Batang Merangin,Kabupaten,Kerinci,Jambi
1426,37175,Tamiai,15.01.07.2007,Batang Merangin,Kabupaten,Kerinci,Jambi
1427,37175,Tarutung,15.01.07.2004,Batang Merangin,Kabupaten,Kerinci,Jambi
1428,37316,Kedarasan Panjang (Kederasan Panjang),15.02.12.2006,Batang Masumai,Kabupaten,Merangin,Jambi
1429,37316,Lubuk Gaung,15.02.12.2001,Batang Masumai,Kabupaten,Merangin,Jambi
1430,37316,Nibung (Tambang Nibung),15.02.12.2004,Batang Masumai,Kabupaten,Merangin,Jambi
1431,37316,Pelangki,15.02.12.2009,Batang Masumai,Kabupaten,Merangin,Jambi
1432,37316,Pulau Baru,15.02.12.2003,Batang Masumai,Kabupaten,Merangin,Jambi
1433,37316,Pulau Layang,15.02.12.2010,Batang Masumai,Kabupaten,Merangin,Jambi
1434,37316,Rantau Alai,15.02.12.2007,Batang Masumai,Kabupaten,Merangin,Jambi
1435,37316,Salam Buku,15.02.12.2002,Batang Masumai,Kabupaten,Merangin,Jambi
1436,37316,Tambang Besi,15.02.12.2008,Batang Masumai,Kabupaten,Merangin,Jambi
1437,37316,Titian Teras,15.02.12.2005,Batang Masumai,Kabupaten,Merangin,Jambi
1438,36550,Dusun Kebon/Kebun,15.06.07.1001,Batang Asam,Kabupaten,Tanjung Jabung Barat,Jambi
1439,36550,Kampung Baru,15.06.07.2005,Batang Asam,Kabupaten,Tanjung Jabung Barat,Jambi
1440,36550,Lubuk Bernai,15.06.07.2006,Batang Asam,Kabupaten,Tanjung Jabung Barat,Jambi
1441,36550,Lubuk Lawas,15.06.07.2010,Batang Asam,Kabupaten,Tanjung Jabung Barat,Jambi
1442,36550,Rawamedang (Rawa Medang),15.06.07.2007,Batang Asam,Kabupaten,Tanjung Jabung Barat,Jambi
1443,36550,Rawangkempas (Rawang Kempas),15.06.07.2009,Batang Asam,Kabupaten,Tanjung Jabung Barat,Jambi
1444,36550,Sri Agung,15.06.07.2002,Batang Asam,Kabupaten,Tanjung Jabung Barat,Jambi
1445,36550,Suban,15.06.07.2003,Batang Asam,Kabupaten,Tanjung Jabung Barat,Jambi
1446,36550,Sungaibadar (Sungai Badar),15.06.07.2011,Batang Asam,Kabupaten,Tanjung Jabung Barat,Jambi
1447,36550,Sungaipenoban (Sungai Penoban),15.06.07.2008,Batang Asam,Kabupaten,Tanjung Jabung Barat,Jambi
1448,36550,Tanjungbojo (Tanjung Bojo),15.06.07.2004,Batang Asam,Kabupaten,Tanjung Jabung Barat,Jambi
1449,37485,Batin Pengambang,15.03.01.2005,Batang Asai,Kabupaten,Sarolangun,Jambi
1450,37485,Batu Empang,15.03.01.2006,Batang Asai,Kabupaten,Sarolangun,Jambi
1451,37485,Bukit Berantai,15.03.01.2021,Batang Asai,Kabupaten,Sarolangun,Jambi
1452,37485,Bukit Kalimau Ulu,15.03.01.2014,Batang Asai,Kabupaten,Sarolangun,Jambi
1453,37485,Bukit Sulah,15.03.01.2022,Batang Asai,Kabupaten,Sarolangun,Jambi
1454,37485,Datuk Nan Duo,15.03.01.2013,Batang Asai,Kabupaten,Sarolangun,Jambi
1455,37485,Kasiro,15.03.01.2019,Batang Asai,Kabupaten,Sarolangun,Jambi
1456,37485,Kasiro Hilir (Kasiro Ilir),15.03.01.2020,Batang Asai,Kabupaten,Sarolangun,Jambi
1457,37485,Lubuk Bangkar,15.03.01.2010,Batang Asai,Kabupaten,Sarolangun,Jambi
1458,37485,Muara Cuban,15.03.01.2016,Batang Asai,Kabupaten,Sarolangun,Jambi
1459,37485,Muaro Air Dua,15.03.01.2003,Batang Asai,Kabupaten,Sarolangun,Jambi
1460,37485,Muaro Pemuat,15.03.01.2009,Batang Asai,Kabupaten,Sarolangun,Jambi
1461,37485,P. Salak Baru (Pulau Salak Baru),15.03.01.2008,Batang Asai,Kabupaten,Sarolangun,Jambi
1462,37485,Padang Jering,15.03.01.2018,Batang Asai,Kabupaten,Sarolangun,Jambi
1463,37485,Paniban Baru,15.03.01.2023,Batang Asai,Kabupaten,Sarolangun,Jambi
1464,37485,Pekan Gedang,15.03.01.2011,Batang Asai,Kabupaten,Sarolangun,Jambi
1465,37485,Raden Anom,15.03.01.2012,Batang Asai,Kabupaten,Sarolangun,Jambi
1466,37485,Rantau Panjang,15.03.01.2007,Batang Asai,Kabupaten,Sarolangun,Jambi
1467,37485,Simpang Narso,15.03.01.2004,Batang Asai,Kabupaten,Sarolangun,Jambi
1468,37485,Sungai Baung,15.03.01.2017,Batang Asai,Kabupaten,Sarolangun,Jambi
1469,37485,Sungai Bemban,15.03.01.2015,Batang Asai,Kabupaten,Sarolangun,Jambi
1470,37485,Sungai Keradak,15.03.01.2002,Batang Asai,Kabupaten,Sarolangun,Jambi
1471,37485,Tambak Ratu,15.03.01.2001,Batang Asai,Kabupaten,Sarolangun,Jambi
1472,37315,Bedeng Rejo,15.02.10.2003,Bangko Barat,Kabupaten,Merangin,Jambi
1473,37315,Biuku Tanjung,15.02.10.2002,Bangko Barat,Kabupaten,Merangin,Jambi
1474,37315,Bukit Beringin,15.02.10.2005,Bangko Barat,Kabupaten,Merangin,Jambi
1475,37315,Pulau Rengas,15.02.10.2001,Bangko Barat,Kabupaten,Merangin,Jambi
1476,37315,Pulau Rengas Ulu,15.02.10.2006,Bangko Barat,Kabupaten,Merangin,Jambi
1477,37315,Sungai Putih,15.02.10.2004,Bangko Barat,Kabupaten,Merangin,Jambi
1478,37313,Dusun Bangko,15.02.02.1011,Bangko,Kabupaten,Merangin,Jambi
1479,37311,Kungkai,15.02.02.2004,Bangko,Kabupaten,Merangin,Jambi
1480,37311,Langling,15.02.02.2012,Bangko,Kabupaten,Merangin,Jambi
1481,37311,Mudo (Dusun Mudo),15.02.02.2008,Bangko,Kabupaten,Merangin,Jambi
1482,37312,Pasar Atas (Pasar Atas Bangko),15.02.02.1009,Bangko,Kabupaten,Merangin,Jambi
1483,37311,Pasar Bangko,15.02.02.1010,Bangko,Kabupaten,Merangin,Jambi
1484,37314,Pematang Kandis,15.02.02.1013,Bangko,Kabupaten,Merangin,Jambi
1485,37311,Sungai Kapas,15.02.02.2024,Bangko,Kabupaten,Merangin,Jambi
1486,36615,Bajubang,15.04.07.1004,Bajubang,Kabupaten,Batanghari,Jambi
1487,36615,Batin,15.04.07.2007,Bajubang,Kabupaten,Batanghari,Jambi
1488,36615,Bungku,15.04.07.2001,Bajubang,Kabupaten,Batanghari,Jambi
1489,36615,Ladang Peris,15.04.07.2003,Bajubang,Kabupaten,Batanghari,Jambi
1490,36615,Mekar Jaya,15.04.07.2008,Bajubang,Kabupaten,Batanghari,Jambi
1491,36615,Mekar Sari Nes,15.04.07.2010,Bajubang,Kabupaten,Batanghari,Jambi
1492,36615,Penerokan,15.04.07.2005,Bajubang,Kabupaten,Batanghari,Jambi
1493,36615,Petajen,15.04.07.2006,Bajubang,Kabupaten,Batanghari,Jambi
1494,36615,Pompa Air,15.04.07.2002,Bajubang,Kabupaten,Batanghari,Jambi
1495,36615,Sungkai,15.04.07.2009,Bajubang,Kabupaten,Batanghari,Jambi
1496,36367,Bahar Mulya,15.05.09.2011,Bahar Utara,Kabupaten,Muaro Jambi,Jambi
1497,36367,Bukit Mulya,15.05.09.2006,Bahar Utara,Kabupaten,Muaro Jambi,Jambi
1498,36367,Markanding,15.05.09.2009,Bahar Utara,Kabupaten,Muaro Jambi,Jambi
1499,36367,Matra Manunggal,15.05.09.2005,Bahar Utara,Kabupaten,Muaro Jambi,Jambi
1500,36367,Mulya Jaya,15.05.09.2004,Bahar Utara,Kabupaten,Muaro Jambi,Jambi
1501,36367,Pinang Tinggi,15.05.09.2008,Bahar Utara,Kabupaten,Muaro Jambi,Jambi
1502,36367,Sumber Jaya,15.05.09.2007,Bahar Utara,Kabupaten,Muaro Jambi,Jambi
1503,36367,Sumber Mulya,15.05.09.2003,Bahar Utara,Kabupaten,Muaro Jambi,Jambi
1504,36367,Sungai Dayo,15.05.09.2010,Bahar Utara,Kabupaten,Muaro Jambi,Jambi
1505,36367,Talang Bukit,15.05.09.2001,Bahar Utara,Kabupaten,Muaro Jambi,Jambi
1506,36367,Talang Datar,15.05.09.2002,Bahar Utara,Kabupaten,Muaro Jambi,Jambi
1507,36366,Adipura Kencana,15.05.10.2007,Bahar Selatan,Kabupaten,Muaro Jambi,Jambi
1508,36366,Bukit Jaya,15.05.10.2008,Bahar Selatan,Kabupaten,Muaro Jambi,Jambi
1509,36366,Bukit Subur,15.05.10.2001,Bahar Selatan,Kabupaten,Muaro Jambi,Jambi
1510,36366,Mekar Jaya,15.05.10.2003,Bahar Selatan,Kabupaten,Muaro Jambi,Jambi
1511,36366,Tanjung Baru,15.05.10.2005,Bahar Selatan,Kabupaten,Muaro Jambi,Jambi
1512,36366,Tanjung Lebar,15.05.10.2010,Bahar Selatan,Kabupaten,Muaro Jambi,Jambi
1513,36366,Tanjung Mulia (Tanjungmulya),15.05.10.2006,Bahar Selatan,Kabupaten,Muaro Jambi,Jambi
1514,36366,Tanjung Sari,15.05.10.2009,Bahar Selatan,Kabupaten,Muaro Jambi,Jambi
1515,36366,Tri Jaya (Trijaya),15.05.10.2002,Bahar Selatan,Kabupaten,Muaro Jambi,Jambi
1516,36366,Ujung Tanjung,15.05.10.2004,Bahar Selatan,Kabupaten,Muaro Jambi,Jambi
1517,36129,Bagan Pete,15.71.09.1004,Alam Barajo,Kota,Jambi,Jambi
1518,36129,Beliung,15.71.09.1005,Alam Barajo,Kota,Jambi,Jambi
1519,36129,Kenali Besar,15.71.09.1001,Alam Barajo,Kota,Jambi,Jambi
1520,36129,Mayang Mangurai,15.71.09.1003,Alam Barajo,Kota,Jambi,Jambi
1521,36129,Pinang Merah,15.71.09.1007,Alam Barajo,Kota,Jambi,Jambi
1522,36125,Rawa Sari,15.71.09.1002,Alam Barajo,Kota,Jambi,Jambi
1523,36129,Simpang Rimbo,15.71.09.1006,Alam Barajo,Kota,Jambi,Jambi
1524,37490,Bukit Suban,15.03.07.2007,Air Hitam,Kabupaten,Sarolangun,Jambi
1525,37490,Desa Baru,15.03.07.2003,Air Hitam,Kabupaten,Sarolangun,Jambi
1526,37490,Jernih,15.03.07.2002,Air Hitam,Kabupaten,Sarolangun,Jambi
1527,37490,Lubuk Jering,15.03.07.2001,Air Hitam,Kabupaten,Sarolangun,Jambi
1528,37490,Lubuk Kepayang,15.03.07.2005,Air Hitam,Kabupaten,Sarolangun,Jambi
1529,37490,Mentawak Baru,15.03.07.2008,Air Hitam,Kabupaten,Sarolangun,Jambi
1530,37490,Mentawak Ulu,15.03.07.2009,Air Hitam,Kabupaten,Sarolangun,Jambi
1531,37490,Pematang Kabau,15.03.07.2006,Air Hitam,Kabupaten,Sarolangun,Jambi
1532,37490,Semurung,15.03.07.2004,Air Hitam,Kabupaten,Sarolangun,Jambi
1533,37167,Air Hangat,15.01.11.2008,Air Hangat Timur,Kabupaten,Kerinci,Jambi
1534,37167,Air Panas Sungaiabu,15.01.11.2027,Air Hangat Timur,Kabupaten,Kerinci,Jambi
1535,37167,Baru Air Hangat,15.01.11.2026,Air Hangat Timur,Kabupaten,Kerinci,Jambi
1536,37167,Baru Sungai Tutung,15.01.11.2009,Air Hangat Timur,Kabupaten,Kerinci,Jambi
1537,37167,Baru Sungaiabu,15.01.11.2028,Air Hangat Timur,Kabupaten,Kerinci,Jambi
1538,37167,Baru Sungaideras,15.01.11.2022,Air Hangat Timur,Kabupaten,Kerinci,Jambi
1539,37167,Baru Sungaimedang,15.01.11.2024,Air Hangat Timur,Kabupaten,Kerinci,Jambi
1540,37167,Kemantan Agung,15.01.11.2018,Air Hangat Timur,Kabupaten,Kerinci,Jambi
1541,37167,Kemantan Darat,15.01.11.2003,Air Hangat Timur,Kabupaten,Kerinci,Jambi
1542,37167,Kemantan Hilir,15.01.11.2014,Air Hangat Timur,Kabupaten,Kerinci,Jambi
1543,37167,Kemantan Kebalai,15.01.11.2002,Air Hangat Timur,Kabupaten,Kerinci,Jambi
1544,37167,Kemantan Mudik,15.01.11.2020,Air Hangat Timur,Kabupaten,Kerinci,Jambi
1545,37167,Kemantan Raya,15.01.11.2025,Air Hangat Timur,Kabupaten,Kerinci,Jambi
1546,37167,Kemantan Tinggi,15.01.11.2001,Air Hangat Timur,Kabupaten,Kerinci,Jambi
1547,37167,Koto Tebat,15.01.11.2006,Air Hangat Timur,Kabupaten,Kerinci,Jambi
1548,37167,Pondok Sungaiabu (Pondok Sungai Abu),15.01.11.2005,Air Hangat Timur,Kabupaten,Kerinci,Jambi
1549,37167,Pungut Hilir,15.01.11.2011,Air Hangat Timur,Kabupaten,Kerinci,Jambi
1550,37167,Pungut Mudik,15.01.11.2012,Air Hangat Timur,Kabupaten,Kerinci,Jambi
1551,37167,Pungut Tengah,15.01.11.2010,Air Hangat Timur,Kabupaten,Kerinci,Jambi
1552,37167,Simpang Empat (Simpang Empat Sungai Tutung),15.01.11.2021,Air Hangat Timur,Kabupaten,Kerinci,Jambi
1553,37167,Sungaiabu (Sungai Abu),15.01.11.2004,Air Hangat Timur,Kabupaten,Kerinci,Jambi
1554,37167,Sungaideras (Sungai Deras),15.01.11.2019,Air Hangat Timur,Kabupaten,Kerinci,Jambi
1555,37167,Sungaimedang (Sungai Medang),15.01.11.2007,Air Hangat Timur,Kabupaten,Kerinci,Jambi
1556,37167,Sungaitutung (Sungai Tutung),15.01.11.2015,Air Hangat Timur,Kabupaten,Kerinci,Jambi
1557,37167,Taman Jernih (Taman Jernih Sungaitutung),15.01.11.2023,Air Hangat Timur,Kabupaten,Kerinci,Jambi
1558,37166,Air Bersih,15.01.21.2012,Air Hangat Barat,Kabupaten,Kerinci,Jambi
1559,37166,Air Panas,15.01.21.2003,Air Hangat Barat,Kabupaten,Kerinci,Jambi
1560,37166,Baru,15.01.21.2002,Air Hangat Barat,Kabupaten,Kerinci,Jambi
1561,37166,Hamparan Pugu,15.01.21.2004,Air Hangat Barat,Kabupaten,Kerinci,Jambi
1562,37166,Kecil,15.01.21.2011,Air Hangat Barat,Kabupaten,Kerinci,Jambi
1563,37166,Koto Cayo,15.01.21.2010,Air Hangat Barat,Kabupaten,Kerinci,Jambi
1564,37166,Koto Datuk,15.01.21.2008,Air Hangat Barat,Kabupaten,Kerinci,Jambi
1565,37166,Koto Dua Baru,15.01.21.2009,Air Hangat Barat,Kabupaten,Kerinci,Jambi
1566,37166,Koto Mebai,15.01.21.2001,Air Hangat Barat,Kabupaten,Kerinci,Jambi
1567,37166,Koto Mudik,15.01.21.2006,Air Hangat Barat,Kabupaten,Kerinci,Jambi
1568,37166,Koto Tengah,15.01.21.2007,Air Hangat Barat,Kabupaten,Kerinci,Jambi
1569,37166,Pugu,15.01.21.2005,Air Hangat Barat,Kabupaten,Kerinci,Jambi
1570,37168,Air Tenang,15.01.05.2022,Air Hangat,Kabupaten,Kerinci,Jambi
1571,37168,Balai,15.01.05.2014,Air Hangat,Kabupaten,Kerinci,Jambi
1572,37168,Baru Semurup,15.01.05.2002,Air Hangat,Kabupaten,Kerinci,Jambi
1573,37168,Koto Di Air (Koto Diair),15.01.05.2012,Air Hangat,Kabupaten,Kerinci,Jambi
1574,37168,Koto Dua Lama,15.01.05.2004,Air Hangat,Kabupaten,Kerinci,Jambi
1575,37168,Koto Majidin Di Air,15.01.05.2038,Air Hangat,Kabupaten,Kerinci,Jambi
1576,37168,Koto Majidin Hilir,15.01.05.2015,Air Hangat,Kabupaten,Kerinci,Jambi
1577,37168,Koto Majidin Mudik,15.01.05.2029,Air Hangat,Kabupaten,Kerinci,Jambi
1578,37168,Muara Semerah,15.01.05.2024,Air Hangat,Kabupaten,Kerinci,Jambi
1579,37168,Muara Semerah Mudik,15.01.05.2035,Air Hangat,Kabupaten,Kerinci,Jambi
1580,37168,Pasar Semurup,15.01.05.2013,Air Hangat,Kabupaten,Kerinci,Jambi
1581,37168,Pendung Hilir,15.01.05.2016,Air Hangat,Kabupaten,Kerinci,Jambi
1582,37168,Pendung Mudik,15.01.05.2018,Air Hangat,Kabupaten,Kerinci,Jambi
1583,37168,Pendung Tengah,15.01.05.2039,Air Hangat,Kabupaten,Kerinci,Jambi
1584,37168,Sawahan Jaya (Sawakan Jaya),15.01.05.2037,Air Hangat,Kabupaten,Kerinci,Jambi
1585,37168,Sawahan Koto (Sawahan Koto Majidin),15.01.05.2036,Air Hangat,Kabupaten,Kerinci,Jambi