no,postal_code,urban,area_code,sub_district,dt2,city,province
1,73983,Kalasin,62.12.10.2003,Uut Murung,Kabupaten,Murung Raya,Kalimantan Tengah
2,73983,Tumbang Olong I (Tumbang Olong),62.12.10.2002,Uut Murung,Kabupaten,Murung Raya,Kalimantan Tengah
3,73983,Tumbang Olong II,62.12.10.2005,Uut Murung,Kabupaten,Murung Raya,Kalimantan Tengah
4,73983,Tumbang Tujang,62.12.10.2001,Uut Murung,Kabupaten,Murung Raya,Kalimantan Tengah
5,73983,Tumbang Tupus/Topus,62.12.10.2004,Uut Murung,Kabupaten,Murung Raya,Kalimantan Tengah
6,74358,Bukit Makmur,62.02.16.2006,Tualan Hulu,Kabupaten,Kotawaringin Timur,Kalimantan Tengah
7,74358,Cempaka Putih,62.02.16.2010,Tualan Hulu,Kabupaten,Kotawaringin Timur,Kalimantan Tengah
8,74358,Damar Makmur,62.02.16.2009,Tualan Hulu,Kabupaten,Kotawaringin Timur,Kalimantan Tengah
9,74358,Jati Waringin,62.02.16.2011,Tualan Hulu,Kabupaten,Kotawaringin Timur,Kalimantan Tengah
10,74358,Luwuk Sampun,62.02.16.2001,Tualan Hulu,Kabupaten,Kotawaringin Timur,Kalimantan Tengah
11,74358,Mekar Sari,62.02.16.2008,Tualan Hulu,Kabupaten,Kotawaringin Timur,Kalimantan Tengah
12,74358,Merah,62.02.16.2003,Tualan Hulu,Kabupaten,Kotawaringin Timur,Kalimantan Tengah
13,74358,Sebungsu,62.02.16.2005,Tualan Hulu,Kabupaten,Kotawaringin Timur,Kalimantan Tengah
14,74358,Tanjung Jorong,62.02.16.2004,Tualan Hulu,Kabupaten,Kotawaringin Timur,Kalimantan Tengah
15,74358,Tumbang Mujam,62.02.16.2002,Tualan Hulu,Kabupaten,Kotawaringin Timur,Kalimantan Tengah
16,74358,Wonosari,62.02.16.2007,Tualan Hulu,Kabupaten,Kotawaringin Timur,Kalimantan Tengah
17,73554,Aruk,62.03.10.2002,Timpah,Kabupaten,Kapuas,Kalimantan Tengah
18,73554,Batapah,62.03.10.2008,Timpah,Kabupaten,Kapuas,Kalimantan Tengah
19,73554,Danau Pantau,62.03.10.2009,Timpah,Kabupaten,Kapuas,Kalimantan Tengah
20,73554,Lawang Kajang,62.03.10.2003,Timpah,Kabupaten,Kapuas,Kalimantan Tengah
21,73554,Lawang Kamah,62.03.10.2006,Timpah,Kabupaten,Kapuas,Kalimantan Tengah
22,73554,Lungkuh Layang (Lungku Layang),62.03.10.2005,Timpah,Kabupaten,Kapuas,Kalimantan Tengah
23,73554,Petak Puti,62.03.10.2001,Timpah,Kabupaten,Kapuas,Kalimantan Tengah
24,73554,Timpah,62.03.10.2004,Timpah,Kabupaten,Kapuas,Kalimantan Tengah
25,73554,Tumbang Randang,62.03.10.2007,Timpah,Kabupaten,Kapuas,Kalimantan Tengah
26,73881,Benangin I / I,62.05.04.2007,Teweh Timur,Kabupaten,Barito Utara,Kalimantan Tengah
27,73881,Benangin II / 2,62.05.04.2005,Teweh Timur,Kabupaten,Barito Utara,Kalimantan Tengah
28,73881,Benangin III / 3,62.05.04.2004,Teweh Timur,Kabupaten,Barito Utara,Kalimantan Tengah
29,73881,Benangin V / 5,62.05.04.2006,Teweh Timur,Kabupaten,Barito Utara,Kalimantan Tengah
30,73881,Jamut,62.05.04.2013,Teweh Timur,Kabupaten,Barito Utara,Kalimantan Tengah
31,73881,Liju,62.05.04.2003,Teweh Timur,Kabupaten,Barito Utara,Kalimantan Tengah
32,73881,Mampuak I,62.05.04.2012,Teweh Timur,Kabupaten,Barito Utara,Kalimantan Tengah
33,73881,Mampuak II (Pantung),62.05.04.2015,Teweh Timur,Kabupaten,Barito Utara,Kalimantan Tengah
34,73881,Muara Wakat,62.05.04.2008,Teweh Timur,Kabupaten,Barito Utara,Kalimantan Tengah
35,73881,Sampirang I,62.05.04.2001,Teweh Timur,Kabupaten,Barito Utara,Kalimantan Tengah
36,73881,Sampirang II,62.05.04.2002,Teweh Timur,Kabupaten,Barito Utara,Kalimantan Tengah
37,73881,Sei/Sungai Liju,62.05.04.2014,Teweh Timur,Kabupaten,Barito Utara,Kalimantan Tengah
38,73814,Beringin Raya,62.05.05.2024,Teweh Tengah,Kabupaten,Barito Utara,Kalimantan Tengah
39,73814,Datai Nirui,62.05.05.2025,Teweh Tengah,Kabupaten,Barito Utara,Kalimantan Tengah
40,73812,Lanjas,62.05.05.1013,Teweh Tengah,Kabupaten,Barito Utara,Kalimantan Tengah
41,73814,Lemo I,62.05.05.2010,Teweh Tengah,Kabupaten,Barito Utara,Kalimantan Tengah
42,73814,Lemo II,62.05.05.2011,Teweh Tengah,Kabupaten,Barito Utara,Kalimantan Tengah
43,73811,Melayu,62.05.05.1014,Teweh Tengah,Kabupaten,Barito Utara,Kalimantan Tengah
44,73814,Pendreh/Pandreh,62.05.05.2012,Teweh Tengah,Kabupaten,Barito Utara,Kalimantan Tengah
45,73814,Rimba Sari,62.05.05.2017,Teweh Tengah,Kabupaten,Barito Utara,Kalimantan Tengah
46,73814,Sei/Sungai Rahayu I,62.05.05.2018,Teweh Tengah,Kabupaten,Barito Utara,Kalimantan Tengah
47,73814,Sei/Sungai Rahayu II,62.05.05.2022,Teweh Tengah,Kabupaten,Barito Utara,Kalimantan Tengah
48,73814,Bintang Ninggi I (Satu),62.05.08.2003,Teweh Selatan,Kabupaten,Barito Utara,Kalimantan Tengah
49,73814,Bintang Ninggi II (Dua),62.05.08.2004,Teweh Selatan,Kabupaten,Barito Utara,Kalimantan Tengah
50,73814,Bukit Sawit,62.05.08.2007,Teweh Selatan,Kabupaten,Barito Utara,Kalimantan Tengah
51,73814,Buntok Baru,62.05.08.2006,Teweh Selatan,Kabupaten,Barito Utara,Kalimantan Tengah
52,73814,Butong,62.05.08.2005,Teweh Selatan,Kabupaten,Barito Utara,Kalimantan Tengah
53,73814,Pandran Permai,62.05.08.2010,Teweh Selatan,Kabupaten,Barito Utara,Kalimantan Tengah
54,73814,Pandran Raya,62.05.08.2009,Teweh Selatan,Kabupaten,Barito Utara,Kalimantan Tengah
55,73814,Tawan Jaya,62.05.08.2008,Teweh Selatan,Kabupaten,Barito Utara,Kalimantan Tengah
56,73814,Terinsing/Trinsing,62.05.08.2002,Teweh Selatan,Kabupaten,Barito Utara,Kalimantan Tengah
57,73814,Trahean,62.05.08.2001,Teweh Selatan,Kabupaten,Barito Utara,Kalimantan Tengah
58,73881,Gandring,62.05.07.2010,Teweh Baru,Kabupaten,Barito Utara,Kalimantan Tengah
59,73814,Hajak,62.05.07.2005,Teweh Baru,Kabupaten,Barito Utara,Kalimantan Tengah
60,73813,Jambu,62.05.07.1002,Teweh Baru,Kabupaten,Barito Utara,Kalimantan Tengah
61,73814,Jingah,62.05.07.1001,Teweh Baru,Kabupaten,Barito Utara,Kalimantan Tengah
62,73881,Liang Buah (Liangbuah),62.05.07.2009,Teweh Baru,Kabupaten,Barito Utara,Kalimantan Tengah
63,73814,Liang Naga,62.05.07.2003,Teweh Baru,Kabupaten,Barito Utara,Kalimantan Tengah
64,73814,Malawaken,62.05.07.2006,Teweh Baru,Kabupaten,Barito Utara,Kalimantan Tengah
65,73881,Panaen,62.05.07.2008,Teweh Baru,Kabupaten,Barito Utara,Kalimantan Tengah
66,73814,Sabuh,62.05.07.2004,Teweh Baru,Kabupaten,Barito Utara,Kalimantan Tengah
67,73814,Sikui,62.05.07.2007,Teweh Baru,Kabupaten,Barito Utara,Kalimantan Tengah
68,74452,Bangkuang,62.06.03.2004,Tewang Sangalang Garing,Kabupaten,Katingan,Kalimantan Tengah
69,74452,Hapalam,62.06.03.2002,Tewang Sangalang Garing,Kabupaten,Katingan,Kalimantan Tengah
70,74452,Karya Unggang,62.06.03.2010,Tewang Sangalang Garing,Kabupaten,Katingan,Kalimantan Tengah
71,74452,Pendahara,62.06.03.1006,Tewang Sangalang Garing,Kabupaten,Katingan,Kalimantan Tengah
72,74452,Tarusan Danum,62.06.03.2005,Tewang Sangalang Garing,Kabupaten,Katingan,Kalimantan Tengah
73,74452,Tewang Baringin (Tewang Beringin),62.06.03.2001,Tewang Sangalang Garing,Kabupaten,Katingan,Kalimantan Tengah
74,74452,Tewang Manyangen,62.06.03.2009,Tewang Sangalang Garing,Kabupaten,Katingan,Kalimantan Tengah
75,74452,Tewang Rangas,62.06.03.2003,Tewang Sangalang Garing,Kabupaten,Katingan,Kalimantan Tengah
76,74452,Tewang Rangkang,62.06.03.2008,Tewang Sangalang Garing,Kabupaten,Katingan,Kalimantan Tengah
77,74452,Tumbang Tarusan (Tumbang Terusan),62.06.03.2007,Tewang Sangalang Garing,Kabupaten,Katingan,Kalimantan Tengah
78,74552,Batu Nyapau,62.10.03.2012,Tewah,Kabupaten,Gunung Mas,Kalimantan Tengah
79,74552,Batu Nyiwuh,62.10.03.2004,Tewah,Kabupaten,Gunung Mas,Kalimantan Tengah
80,74552,Karason Raya,62.10.03.2015,Tewah,Kabupaten,Gunung Mas,Kalimantan Tengah
81,74552,Kasintu,62.10.03.2003,Tewah,Kabupaten,Gunung Mas,Kalimantan Tengah
82,74552,Rangan Mihing,62.10.03.2016,Tewah,Kabupaten,Gunung Mas,Kalimantan Tengah
83,74552,Sandung Tambun,62.10.03.2008,Tewah,Kabupaten,Gunung Mas,Kalimantan Tengah
84,74552,Sarerangan,62.10.03.2001,Tewah,Kabupaten,Gunung Mas,Kalimantan Tengah
85,74552,Sei/Sungai Riang,62.10.03.2007,Tewah,Kabupaten,Gunung Mas,Kalimantan Tengah
86,74552,Sumur Mas,62.10.03.2011,Tewah,Kabupaten,Gunung Mas,Kalimantan Tengah
87,74552,Taja Urap (Tajau Urap),62.10.03.2013,Tewah,Kabupaten,Gunung Mas,Kalimantan Tengah
88,74552,Tanjung Untung,62.10.03.2009,Tewah,Kabupaten,Gunung Mas,Kalimantan Tengah
89,74552,Teluk Lawah,62.10.03.2014,Tewah,Kabupaten,Gunung Mas,Kalimantan Tengah
90,74552,Tewah,62.10.03.1005,Tewah,Kabupaten,Gunung Mas,Kalimantan Tengah
91,74552,Tumbang Habaon,62.10.03.2006,Tewah,Kabupaten,Gunung Mas,Kalimantan Tengah
92,74552,Tumbang Pajangei,62.10.03.2002,Tewah,Kabupaten,Gunung Mas,Kalimantan Tengah
93,74552,Upon Batu (Upun Batu),62.10.03.2010,Tewah,Kabupaten,Gunung Mas,Kalimantan Tengah
94,74364,Basawang,62.02.11.2002,Teluk Sampit,Kabupaten,Kotawaringin Timur,Kalimantan Tengah
95,74364,Kuin Permai,62.02.11.2006,Teluk Sampit,Kabupaten,Kotawaringin Timur,Kalimantan Tengah
96,74364,Lampuyang,62.02.11.2003,Teluk Sampit,Kabupaten,Kotawaringin Timur,Kalimantan Tengah
97,74364,Parebok,62.02.11.2001,Teluk Sampit,Kabupaten,Kotawaringin Timur,Kalimantan Tengah
98,74364,Regei Lestari,62.02.11.2005,Teluk Sampit,Kabupaten,Kotawaringin Timur,Kalimantan Tengah
99,74364,Ujung Pandaran,62.02.11.2004,Teluk Sampit,Kabupaten,Kotawaringin Timur,Kalimantan Tengah
100,74350,Biru Maju,62.02.14.2006,Telawang,Kabupaten,Kotawaringin Timur,Kalimantan Tengah
101,74350,Kenyala,62.02.14.2004,Telawang,Kabupaten,Kotawaringin Timur,Kalimantan Tengah
102,74350,Penyang (Peryang),62.02.14.2005,Telawang,Kabupaten,Kotawaringin Timur,Kalimantan Tengah
103,74350,Sebabi,62.02.14.2001,Telawang,Kabupaten,Kotawaringin Timur,Kalimantan Tengah
104,74350,Sumber Makmur,62.02.14.2003,Telawang,Kabupaten,Kotawaringin Timur,Kalimantan Tengah
105,74350,Tanah Putih,62.02.14.2002,Telawang,Kabupaten,Kotawaringin Timur,Kalimantan Tengah
106,74352,Agung Mulya (Agung Muya),62.02.17.2009,Telaga Antang,Kabupaten,Kotawaringin Timur,Kalimantan Tengah
107,74352,Batu Agung,62.02.17.2010,Telaga Antang,Kabupaten,Kotawaringin Timur,Kalimantan Tengah
108,74352,Beringin Agung,62.02.17.2008,Telaga Antang,Kabupaten,Kotawaringin Timur,Kalimantan Tengah
109,74356,Buana Mustika,62.02.17.2016,Telaga Antang,Kabupaten,Kotawaringin Timur,Kalimantan Tengah
110,74352,Bukit Indah,62.02.17.2011,Telaga Antang,Kabupaten,Kotawaringin Timur,Kalimantan Tengah
111,74352,Luwuk Kowan (Luwuk Kuwan),62.02.17.2002,Telaga Antang,Kabupaten,Kotawaringin Timur,Kalimantan Tengah
112,74352,Rantau Katang,62.02.17.2005,Telaga Antang,Kabupaten,Kotawaringin Timur,Kalimantan Tengah
113,74352,Rantau Sawang,62.02.17.2014,Telaga Antang,Kabupaten,Kotawaringin Timur,Kalimantan Tengah
114,74352,Rantau Suang,62.02.17.2013,Telaga Antang,Kabupaten,Kotawaringin Timur,Kalimantan Tengah
115,74352,Rantau Tampang,62.02.17.2003,Telaga Antang,Kabupaten,Kotawaringin Timur,Kalimantan Tengah
116,74356,Tanjung Harapan,62.02.17.2015,Telaga Antang,Kabupaten,Kotawaringin Timur,Kalimantan Tengah
117,74352,Tri Buana,62.02.17.2017,Telaga Antang,Kabupaten,Kotawaringin Timur,Kalimantan Tengah
118,74352,Tukang Langit,62.02.17.2007,Telaga Antang,Kabupaten,Kotawaringin Timur,Kalimantan Tengah
119,74352,Tumbang Bajanei,62.02.17.2018,Telaga Antang,Kabupaten,Kotawaringin Timur,Kalimantan Tengah
120,74352,Tumbang Boloi,62.02.17.2001,Telaga Antang,Kabupaten,Kotawaringin Timur,Kalimantan Tengah
121,74352,Tumbang Mangkup,62.02.17.2004,Telaga Antang,Kabupaten,Kotawaringin Timur,Kalimantan Tengah
122,74352,Tumbang Puan,62.02.17.2012,Telaga Antang,Kabupaten,Kotawaringin Timur,Kalimantan Tengah
123,74352,Tumbang Sangai,62.02.17.2006,Telaga Antang,Kabupaten,Kotawaringin Timur,Kalimantan Tengah
124,74461,Handiwung,62.06.11.2004,Tasik Payawan,Kabupaten,Katingan,Kalimantan Tengah
125,74461,Hiang/Hiyang Bana,62.06.11.2002,Tasik Payawan,Kabupaten,Katingan,Kalimantan Tengah
126,74461,Luwuk Kanan,62.06.11.2007,Tasik Payawan,Kabupaten,Katingan,Kalimantan Tengah
127,74461,Luwuk Kiri,62.06.11.2008,Tasik Payawan,Kabupaten,Katingan,Kalimantan Tengah
128,74461,Petak Bahandang,62.06.11.2003,Tasik Payawan,Kabupaten,Katingan,Kalimantan Tengah
129,74461,Talingke,62.06.11.2001,Tasik Payawan,Kabupaten,Katingan,Kalimantan Tengah
130,74461,Tewang Tampang,62.06.11.2006,Tasik Payawan,Kabupaten,Katingan,Kalimantan Tengah
131,74461,Tumbang Panggo,62.06.11.2005,Tasik Payawan,Kabupaten,Katingan,Kalimantan Tengah
132,73960,Datah Kotou,62.12.07.2005,Tanah Siang Selatan,Kabupaten,Murung Raya,Kalimantan Tengah
133,73960,Dirung Lingkin,62.12.07.2004,Tanah Siang Selatan,Kabupaten,Murung Raya,Kalimantan Tengah
134,73960,Olung Hanangan,62.12.07.2003,Tanah Siang Selatan,Kabupaten,Murung Raya,Kalimantan Tengah
135,73960,Olung Muro,62.12.07.2002,Tanah Siang Selatan,Kabupaten,Murung Raya,Kalimantan Tengah
136,73960,Oreng,62.12.07.2001,Tanah Siang Selatan,Kabupaten,Murung Raya,Kalimantan Tengah
137,73960,Puruk Kambang,62.12.07.2007,Tanah Siang Selatan,Kabupaten,Murung Raya,Kalimantan Tengah
138,73960,Tahujan Ontu,62.12.07.2006,Tanah Siang Selatan,Kabupaten,Murung Raya,Kalimantan Tengah
139,73961,Belawan,62.12.02.2009,Tanah Siang,Kabupaten,Murung Raya,Kalimantan Tengah
140,73961,Cangkang,62.12.02.2022,Tanah Siang,Kabupaten,Murung Raya,Kalimantan Tengah
141,73961,Dirung Bakung,62.12.02.2020,Tanah Siang,Kabupaten,Murung Raya,Kalimantan Tengah
142,73961,Doan Arung,62.12.02.2024,Tanah Siang,Kabupaten,Murung Raya,Kalimantan Tengah
143,73961,Kalang Kaluh,62.12.02.2011,Tanah Siang,Kabupaten,Murung Raya,Kalimantan Tengah
144,73961,Karali,62.12.02.2032,Tanah Siang,Kabupaten,Murung Raya,Kalimantan Tengah
145,73961,Kolam,62.12.02.2027,Tanah Siang,Kabupaten,Murung Raya,Kalimantan Tengah
146,73961,Konut,62.12.02.2008,Tanah Siang,Kabupaten,Murung Raya,Kalimantan Tengah
147,73961,Mahanyan,62.12.02.2019,Tanah Siang,Kabupaten,Murung Raya,Kalimantan Tengah
148,73961,Mangkolisoi,62.12.02.2010,Tanah Siang,Kabupaten,Murung Raya,Kalimantan Tengah
149,73961,Mantiat Pari,62.12.02.2012,Tanah Siang,Kabupaten,Murung Raya,Kalimantan Tengah
150,73961,Muwun,62.12.02.2025,Tanah Siang,Kabupaten,Murung Raya,Kalimantan Tengah
151,73961,Nono Kliwon (Nonokaliwon),62.12.02.2026,Tanah Siang,Kabupaten,Murung Raya,Kalimantan Tengah
152,73961,Olung Balo,62.12.02.2031,Tanah Siang,Kabupaten,Murung Raya,Kalimantan Tengah
153,73961,Olung Dojou,62.12.02.2023,Tanah Siang,Kabupaten,Murung Raya,Kalimantan Tengah
154,73961,Olung Nango,62.12.02.2018,Tanah Siang,Kabupaten,Murung Raya,Kalimantan Tengah
155,73961,Olung Siron,62.12.02.2016,Tanah Siang,Kabupaten,Murung Raya,Kalimantan Tengah
156,73961,Olung Soloi,62.12.02.2029,Tanah Siang,Kabupaten,Murung Raya,Kalimantan Tengah
157,73961,Olung Ulu,62.12.02.2013,Tanah Siang,Kabupaten,Murung Raya,Kalimantan Tengah
158,73961,Osom Tompok,62.12.02.2033,Tanah Siang,Kabupaten,Murung Raya,Kalimantan Tengah
159,73961,Puruk Batu,62.12.02.2015,Tanah Siang,Kabupaten,Murung Raya,Kalimantan Tengah
160,73961,Saripoi,62.12.02.1014,Tanah Siang,Kabupaten,Murung Raya,Kalimantan Tengah
161,73961,Saruhung,62.12.02.2028,Tanah Siang,Kabupaten,Murung Raya,Kalimantan Tengah
162,73961,Sei/Sungai Lunuk,62.12.02.2007,Tanah Siang,Kabupaten,Murung Raya,Kalimantan Tengah
163,73961,Tabulang,62.12.02.2021,Tanah Siang,Kabupaten,Murung Raya,Kalimantan Tengah
164,73961,Tino Talih,62.12.02.2017,Tanah Siang,Kabupaten,Murung Raya,Kalimantan Tengah
165,73961,Tokung,62.12.02.2030,Tanah Siang,Kabupaten,Murung Raya,Kalimantan Tengah
166,73582,Bandar Mekar,62.03.13.2007,Tamban Catur,Kabupaten,Kapuas,Kalimantan Tengah
167,73582,Bandaraya (Bandar Raya),62.03.13.2004,Tamban Catur,Kabupaten,Kapuas,Kalimantan Tengah
168,73582,Sidomulyo,62.03.13.2009,Tamban Catur,Kabupaten,Kapuas,Kalimantan Tengah
169,73582,Sidorejo,62.03.13.2005,Tamban Catur,Kabupaten,Kapuas,Kalimantan Tengah
170,73582,Tamban Baru Mekar,62.03.13.2003,Tamban Catur,Kabupaten,Kapuas,Kalimantan Tengah
171,73582,Tamban Baru Tengah,62.03.13.2002,Tamban Catur,Kabupaten,Kapuas,Kalimantan Tengah
172,73582,Tamban Baru Timur,62.03.13.2001,Tamban Catur,Kabupaten,Kapuas,Kalimantan Tengah
173,73582,Tamban Jaya (Tambun Jaya),62.03.13.2010,Tamban Catur,Kabupaten,Kapuas,Kalimantan Tengah
174,73582,Tamban Makmur (Tambun Makmur),62.03.13.2008,Tamban Catur,Kabupaten,Kapuas,Kalimantan Tengah
175,73582,Warna Sari,62.03.13.2006,Tamban Catur,Kabupaten,Kapuas,Kalimantan Tengah
176,73970,Batu Mirau,62.12.08.2001,Sungai Babuat,Kabupaten,Murung Raya,Kalimantan Tengah
177,73970,Tambelum,62.12.08.2002,Sungai Babuat,Kabupaten,Murung Raya,Kalimantan Tengah
178,73970,Tumbang Apat,62.12.08.2006,Sungai Babuat,Kabupaten,Murung Raya,Kalimantan Tengah
179,73970,Tumbang Bantian,62.12.08.2003,Sungai Babuat,Kabupaten,Murung Raya,Kalimantan Tengah
180,73970,Tumbang Kolon,62.12.08.2005,Sungai Babuat,Kabupaten,Murung Raya,Kalimantan Tengah
181,73970,Tumbang Saan,62.12.08.2004,Sungai Babuat,Kabupaten,Murung Raya,Kalimantan Tengah
182,73982,Batu Makap,62.12.05.2003,Sumber Barito,Kabupaten,Murung Raya,Kalimantan Tengah
183,73982,Kalapeh Baru,62.12.05.2001,Sumber Barito,Kabupaten,Murung Raya,Kalimantan Tengah
184,73982,Laas Baru,62.12.05.2007,Sumber Barito,Kabupaten,Murung Raya,Kalimantan Tengah
185,73982,Olong Liko,62.12.05.2005,Sumber Barito,Kabupaten,Murung Raya,Kalimantan Tengah
186,73982,Teluk/Telok Jolo,62.12.05.2006,Sumber Barito,Kabupaten,Murung Raya,Kalimantan Tengah
187,73982,Tumbang Kunyi,62.12.05.1004,Sumber Barito,Kabupaten,Murung Raya,Kalimantan Tengah
188,73982,Tumbang Masao,62.12.05.2002,Sumber Barito,Kabupaten,Murung Raya,Kalimantan Tengah
189,73982,Tumbang Molut (Tumbang Mulut),62.12.05.2018,Sumber Barito,Kabupaten,Murung Raya,Kalimantan Tengah
190,73982,Tumbang Tuan,62.12.05.2020,Sumber Barito,Kabupaten,Murung Raya,Kalimantan Tengah
191,74290,Rangkang Munduk,62.07.10.2007,Suling Tambun,Kabupaten,Seruyan,Kalimantan Tengah
192,74290,Rantau Betung,62.07.10.2009,Suling Tambun,Kabupaten,Seruyan,Kalimantan Tengah
193,74290,Tanjung Tukal,62.07.10.2008,Suling Tambun,Kabupaten,Seruyan,Kalimantan Tengah
194,74290,Tumbang Gugup,62.07.10.2006,Suling Tambun,Kabupaten,Seruyan,Kalimantan Tengah
195,74290,Tumbang Hentas,62.07.10.2003,Suling Tambun,Kabupaten,Seruyan,Kalimantan Tengah
196,74290,Tumbang Langkai,62.07.10.2004,Suling Tambun,Kabupaten,Seruyan,Kalimantan Tengah
197,74290,Tumbang Magin,62.07.10.2001,Suling Tambun,Kabupaten,Seruyan,Kalimantan Tengah
198,74290,Tumbang Salau,62.07.10.2005,Suling Tambun,Kabupaten,Seruyan,Kalimantan Tengah
199,74290,Tumbang Setoli,62.07.10.2002,Suling Tambun,Kabupaten,Seruyan,Kalimantan Tengah
200,74172,Kartamulia (Karta Mulya / Mulia),62.08.01.2005,Sukamara,Kabupaten,Sukamara,Kalimantan Tengah
201,74172,Mendawai,62.08.01.1003,Sukamara,Kabupaten,Sukamara,Kalimantan Tengah
202,74172,Natai Sedawak,62.08.01.2001,Sukamara,Kabupaten,Sukamara,Kalimantan Tengah
203,74172,Padang,62.08.01.1004,Sukamara,Kabupaten,Sukamara,Kalimantan Tengah
204,74172,Pangkalan Muntai,62.08.01.2007,Sukamara,Kabupaten,Sukamara,Kalimantan Tengah
205,74172,Petarikan,62.08.01.2008,Sukamara,Kabupaten,Sukamara,Kalimantan Tengah
206,74172,Pudu,62.08.01.2002,Sukamara,Kabupaten,Sukamara,Kalimantan Tengah
207,74172,Sukaraja,62.08.01.2006,Sukamara,Kabupaten,Sukamara,Kalimantan Tengah
208,74280,Ayawan,62.07.02.2011,Seruyan Tengah,Kabupaten,Seruyan,Kalimantan Tengah
209,74280,Batu Agung,62.07.02.2031,Seruyan Tengah,Kabupaten,Seruyan,Kalimantan Tengah
210,74280,Bukit Buluh/Buluk,62.07.02.2013,Seruyan Tengah,Kabupaten,Seruyan,Kalimantan Tengah
211,74280,Bumi Jaya (Bumi Ayu),62.07.02.2023,Seruyan Tengah,Kabupaten,Seruyan,Kalimantan Tengah
212,74280,Durian Tunggal,62.07.02.2015,Seruyan Tengah,Kabupaten,Seruyan,Kalimantan Tengah
213,74280,Gantung Pangayuh (Gantung Pengayuh),62.07.02.2008,Seruyan Tengah,Kabupaten,Seruyan,Kalimantan Tengah
214,74280,Mugi Panyuhu (Mugi Panyahu / Mugie Panyuhu),62.07.02.2012,Seruyan Tengah,Kabupaten,Seruyan,Kalimantan Tengah
215,74280,Panca Jaya,62.07.02.2026,Seruyan Tengah,Kabupaten,Seruyan,Kalimantan Tengah
216,74280,Pangke,62.07.02.2017,Seruyan Tengah,Kabupaten,Seruyan,Kalimantan Tengah
217,74280,Panyompa (Penyumpa),62.07.02.2018,Seruyan Tengah,Kabupaten,Seruyan,Kalimantan Tengah
218,74280,Rantau Pulut,62.07.02.1016,Seruyan Tengah,Kabupaten,Seruyan,Kalimantan Tengah
219,74280,Ringin Agung,62.07.02.2030,Seruyan Tengah,Kabupaten,Seruyan,Kalimantan Tengah
220,74280,Suka Jaya (Suka Ayu),62.07.02.2024,Seruyan Tengah,Kabupaten,Seruyan,Kalimantan Tengah
221,74280,Suka Maju,62.07.02.2033,Seruyan Tengah,Kabupaten,Seruyan,Kalimantan Tengah
222,74280,Suka Makmur,62.07.02.2032,Seruyan Tengah,Kabupaten,Seruyan,Kalimantan Tengah
223,74280,Suka Mandang,62.07.02.2010,Seruyan Tengah,Kabupaten,Seruyan,Kalimantan Tengah
224,74280,Sukorejo (Suku Rejo),62.07.02.2022,Seruyan Tengah,Kabupaten,Seruyan,Kalimantan Tengah
225,74280,Tangga Batu,62.07.02.2029,Seruyan Tengah,Kabupaten,Seruyan,Kalimantan Tengah
226,74280,Teluk Bayur,62.07.02.2009,Seruyan Tengah,Kabupaten,Seruyan,Kalimantan Tengah
227,74280,Tumbang Bai/Bei,62.07.02.2014,Seruyan Tengah,Kabupaten,Seruyan,Kalimantan Tengah
228,74260,Bangkal,62.07.07.2005,Seruyan Raya,Kabupaten,Seruyan,Kalimantan Tengah
229,74260,Lanpasa,62.07.07.2003,Seruyan Raya,Kabupaten,Seruyan,Kalimantan Tengah
230,74260,Salunuk (Selunuk),62.07.07.2002,Seruyan Raya,Kabupaten,Seruyan,Kalimantan Tengah
231,74260,Tabiku,62.07.07.2006,Seruyan Raya,Kabupaten,Seruyan,Kalimantan Tengah
232,74260,Terawan,62.07.07.2001,Seruyan Raya,Kabupaten,Seruyan,Kalimantan Tengah
233,74291,Buntut Sapau,62.07.05.2034,Seruyan Hulu,Kabupaten,Seruyan,Kalimantan Tengah
234,74291,Majang/Mojang Baru,62.07.05.2026,Seruyan Hulu,Kabupaten,Seruyan,Kalimantan Tengah
235,74291,Marandang,62.07.05.2023,Seruyan Hulu,Kabupaten,Seruyan,Kalimantan Tengah
236,74291,Mongoh Juoi,62.07.05.2028,Seruyan Hulu,Kabupaten,Seruyan,Kalimantan Tengah
237,74291,Rantau Panjang,62.07.05.2027,Seruyan Hulu,Kabupaten,Seruyan,Kalimantan Tengah
238,74291,Riam Batang,62.07.05.2036,Seruyan Hulu,Kabupaten,Seruyan,Kalimantan Tengah
239,74291,Sepundu Hantu,62.07.05.2030,Seruyan Hulu,Kabupaten,Seruyan,Kalimantan Tengah
240,74291,Tanjung Paku,62.07.05.2033,Seruyan Hulu,Kabupaten,Seruyan,Kalimantan Tengah
241,74291,Tumbang Bahan,62.07.05.2020,Seruyan Hulu,Kabupaten,Seruyan,Kalimantan Tengah
242,74291,Tumbang Darap,62.07.05.2040,Seruyan Hulu,Kabupaten,Seruyan,Kalimantan Tengah
243,74291,Tumbang Kalam,62.07.05.2021,Seruyan Hulu,Kabupaten,Seruyan,Kalimantan Tengah
244,74291,Tumbang Kasai,62.07.05.2039,Seruyan Hulu,Kabupaten,Seruyan,Kalimantan Tengah
245,74291,Tumbang Kubang,62.07.05.2031,Seruyan Hulu,Kabupaten,Seruyan,Kalimantan Tengah
246,74291,Tumbang Laku,62.07.05.2032,Seruyan Hulu,Kabupaten,Seruyan,Kalimantan Tengah
247,74291,Tumbang Manjul,62.07.05.2025,Seruyan Hulu,Kabupaten,Seruyan,Kalimantan Tengah
248,74291,Tumbang Sepan,62.07.05.2037,Seruyan Hulu,Kabupaten,Seruyan,Kalimantan Tengah
249,74291,Tumbang Setawai,62.07.05.2038,Seruyan Hulu,Kabupaten,Seruyan,Kalimantan Tengah
250,74291,Tumbang Suei,62.07.05.2024,Seruyan Hulu,Kabupaten,Seruyan,Kalimantan Tengah
251,74291,Tumbang Taberau,62.07.05.2035,Seruyan Hulu,Kabupaten,Seruyan,Kalimantan Tengah
252,74291,Tusuk Belawan,62.07.05.2022,Seruyan Hulu,Kabupaten,Seruyan,Kalimantan Tengah
253,74215,Bangun Harja/Harjo,62.07.06.2003,Seruyan Hilir Timur,Kabupaten,Seruyan,Kalimantan Tengah
254,74215,Halimaung Jaya,62.07.06.2002,Seruyan Hilir Timur,Kabupaten,Seruyan,Kalimantan Tengah
255,74215,Kartika Bhakti/Bakti,62.07.06.2004,Seruyan Hilir Timur,Kabupaten,Seruyan,Kalimantan Tengah
256,74215,Mekar Indah,62.07.06.2001,Seruyan Hilir Timur,Kabupaten,Seruyan,Kalimantan Tengah
257,74213,Pematang Panjang,62.07.06.2005,Seruyan Hilir Timur,Kabupaten,Seruyan,Kalimantan Tengah
258,74215,Sei/Sungai Bakau,62.07.06.2006,Seruyan Hilir Timur,Kabupaten,Seruyan,Kalimantan Tengah
259,74214,Baung,62.07.01.2010,Seruyan Hilir,Kabupaten,Seruyan,Kalimantan Tengah
260,74214,Jahitan,62.07.01.2009,Seruyan Hilir,Kabupaten,Seruyan,Kalimantan Tengah
261,74215,Kuala Pembuang Dua (II),62.07.01.1002,Seruyan Hilir,Kabupaten,Seruyan,Kalimantan Tengah
262,74215,Kuala Pembuang Satu (I),62.07.01.1001,Seruyan Hilir,Kabupaten,Seruyan,Kalimantan Tengah
263,74214,Muara Dua,62.07.01.2008,Seruyan Hilir,Kabupaten,Seruyan,Kalimantan Tengah
264,74213,Pematang Limau,62.07.01.2005,Seruyan Hilir,Kabupaten,Seruyan,Kalimantan Tengah
265,74215,Persil Raya (Persit Raya),62.07.01.2015,Seruyan Hilir,Kabupaten,Seruyan,Kalimantan Tengah
266,74215,Sei/Sungai Perlu,62.07.01.2006,Seruyan Hilir,Kabupaten,Seruyan,Kalimantan Tengah
267,74215,Sei/Sungai Urdang,62.07.01.2016,Seruyan Hilir,Kabupaten,Seruyan,Kalimantan Tengah
268,74214,Tanjung Rangas,62.07.01.2007,Seruyan Hilir,Kabupaten,Seruyan,Kalimantan Tengah
269,73981,Muara Joloi I,62.12.09.2003,Seribu Riam,Kabupaten,Murung Raya,Kalimantan Tengah
270,73981,Muara Joloi II,62.12.09.2004,Seribu Riam,Kabupaten,Murung Raya,Kalimantan Tengah
271,73981,Parahau,62.12.09.2005,Seribu Riam,Kabupaten,Murung Raya,Kalimantan Tengah
272,73981,Takajung,62.12.09.2007,Seribu Riam,Kabupaten,Murung Raya,Kalimantan Tengah
273,73981,Tumbang Jojang,62.12.09.2006,Seribu Riam,Kabupaten,Murung Raya,Kalimantan Tengah
274,73981,Tumbang Naan,62.12.09.2002,Seribu Riam,Kabupaten,Murung Raya,Kalimantan Tengah
275,73981,Tumbang Tuhan/Tohan,62.12.09.2001,Seribu Riam,Kabupaten,Murung Raya,Kalimantan Tengah
276,74315,Batuah,62.02.12.2003,Seranau,Kabupaten,Kotawaringin Timur,Kalimantan Tengah
277,74314,Ganepo,62.02.12.2005,Seranau,Kabupaten,Kotawaringin Timur,Kalimantan Tengah
278,74324,Mentaya Seberang,62.02.12.1001,Seranau,Kabupaten,Kotawaringin Timur,Kalimantan Tengah
279,74315,Seragam Jaya,62.02.12.2006,Seranau,Kabupaten,Kotawaringin Timur,Kalimantan Tengah
280,74314,Terantang,62.02.12.2002,Seranau,Kabupaten,Kotawaringin Timur,Kalimantan Tengah
281,74315,Terantang Hilir,62.02.12.2004,Seranau,Kabupaten,Kotawaringin Timur,Kalimantan Tengah
282,74570,Pamatang Limau (Pematang Limau),62.10.01.2011,Sepang (Sepang Simin),Kabupaten,Gunung Mas,Kalimantan Tengah
283,74570,Rabauh,62.10.01.2014,Sepang (Sepang Simin),Kabupaten,Gunung Mas,Kalimantan Tengah
284,74570,Sepang Kota,62.10.01.2002,Sepang (Sepang Simin),Kabupaten,Gunung Mas,Kalimantan Tengah
285,74570,Sepang Simin,62.10.01.1001,Sepang (Sepang Simin),Kabupaten,Gunung Mas,Kalimantan Tengah
286,74570,Tampelas,62.10.01.2012,Sepang (Sepang Simin),Kabupaten,Gunung Mas,Kalimantan Tengah
287,74570,Tanjung Karitak,62.10.01.2004,Sepang (Sepang Simin),Kabupaten,Gunung Mas,Kalimantan Tengah
288,74570,Tewai Baru,62.10.01.2003,Sepang (Sepang Simin),Kabupaten,Gunung Mas,Kalimantan Tengah
289,74165,Batu Hambawang,62.09.06.2007,Sematu Jaya,Kabupaten,Lamandau,Kalimantan Tengah
290,74165,Bina Bhakti,62.09.06.2001,Sematu Jaya,Kabupaten,Lamandau,Kalimantan Tengah
291,74165,Jangkar Prima,62.09.06.2004,Sematu Jaya,Kabupaten,Lamandau,Kalimantan Tengah
292,74165,Mekar Mulya,62.09.06.2003,Sematu Jaya,Kabupaten,Lamandau,Kalimantan Tengah
293,74165,Purwareja (Purworejo),62.09.06.2005,Sematu Jaya,Kabupaten,Lamandau,Kalimantan Tengah
294,74165,Rimba Jaya,62.09.06.2008,Sematu Jaya,Kabupaten,Lamandau,Kalimantan Tengah
295,74165,Tri Tunggal,62.09.06.2006,Sematu Jaya,Kabupaten,Lamandau,Kalimantan Tengah
296,74165,Wonorejo,62.09.06.2002,Sematu Jaya,Kabupaten,Lamandau,Kalimantan Tengah
297,73512,Murung Keramat,62.03.01.1006,Selat,Kabupaten,Kapuas,Kalimantan Tengah
298,73514,Panamas,62.03.01.1023,Selat,Kabupaten,Kapuas,Kalimantan Tengah
299,73516,Pulau Telo,62.03.01.2011,Selat,Kabupaten,Kapuas,Kalimantan Tengah
300,73516,Pulau Telo Baru,62.03.01.2020,Selat,Kabupaten,Kapuas,Kalimantan Tengah
301,73514,Selat Barat,62.03.01.1022,Selat,Kabupaten,Kapuas,Kalimantan Tengah
302,73516,Selat Dalam,62.03.01.1010,Selat,Kabupaten,Kapuas,Kalimantan Tengah
303,73513,Selat Hilir,62.03.01.1007,Selat,Kabupaten,Kapuas,Kalimantan Tengah
304,73515,Selat Hulu,62.03.01.1009,Selat,Kabupaten,Kapuas,Kalimantan Tengah
305,73514,Selat Tengah,62.03.01.1008,Selat,Kabupaten,Kapuas,Kalimantan Tengah
306,73516,Selat Utara,62.03.01.1021,Selat,Kabupaten,Kapuas,Kalimantan Tengah
307,74874,Mekar Jaya,62.11.08.2005,Sebangau Kuala,Kabupaten,Pulang Pisau,Kalimantan Tengah
308,74874,Paduran Mulya (Panduran Mulya),62.11.08.2002,Sebangau Kuala,Kabupaten,Pulang Pisau,Kalimantan Tengah
309,74874,Paduran Sebangau (Paduran Sabangau),62.11.08.2001,Sebangau Kuala,Kabupaten,Pulang Pisau,Kalimantan Tengah
310,74874,Sebangau Jaya,62.11.08.2006,Sebangau Kuala,Kabupaten,Pulang Pisau,Kalimantan Tengah
311,74874,Sebangau Mulya,62.11.08.2003,Sebangau Kuala,Kabupaten,Pulang Pisau,Kalimantan Tengah
312,74874,Sebangau Permai,62.11.08.2004,Sebangau Kuala,Kabupaten,Pulang Pisau,Kalimantan Tengah
313,74874,Sei/Sungai Bakau,62.11.08.2008,Sebangau Kuala,Kabupaten,Pulang Pisau,Kalimantan Tengah
314,74874,Sei/Sungai Hambawang,62.11.08.2007,Sebangau Kuala,Kabupaten,Pulang Pisau,Kalimantan Tengah
315,74451,Daya Manunggal,62.06.06.2020,Sanaman Mantikei (Senamang Mantikei),Kabupaten,Katingan,Kalimantan Tengah
316,74451,Dehes,62.06.06.2001,Sanaman Mantikei (Senamang Mantikei),Kabupaten,Katingan,Kalimantan Tengah
317,74451,Kamanto,62.06.06.2005,Sanaman Mantikei (Senamang Mantikei),Kabupaten,Katingan,Kalimantan Tengah
318,74451,Kuluk Habuhus,62.06.06.2006,Sanaman Mantikei (Senamang Mantikei),Kabupaten,Katingan,Kalimantan Tengah
319,74451,Rantau Bangkiang,62.06.06.2021,Sanaman Mantikei (Senamang Mantikei),Kabupaten,Katingan,Kalimantan Tengah
320,74451,Tumbang Atei,62.06.06.2012,Sanaman Mantikei (Senamang Mantikei),Kabupaten,Katingan,Kalimantan Tengah
321,74451,Tumbang Kaman,62.06.06.2003,Sanaman Mantikei (Senamang Mantikei),Kabupaten,Katingan,Kalimantan Tengah
322,74451,Tumbang Kanei/Kamei,62.06.06.2007,Sanaman Mantikei (Senamang Mantikei),Kabupaten,Katingan,Kalimantan Tengah
323,74451,Tumbang Kawei,62.06.06.2009,Sanaman Mantikei (Senamang Mantikei),Kabupaten,Katingan,Kalimantan Tengah
324,74451,Tumbang Labehu,62.06.06.2002,Sanaman Mantikei (Senamang Mantikei),Kabupaten,Katingan,Kalimantan Tengah
325,74451,Tumbang Mangara/Manggara,62.06.06.2010,Sanaman Mantikei (Senamang Mantikei),Kabupaten,Katingan,Kalimantan Tengah
326,74451,Tumbang Manggo,62.06.06.2004,Sanaman Mantikei (Senamang Mantikei),Kabupaten,Katingan,Kalimantan Tengah
327,74451,Tumbang Pangka,62.06.06.2011,Sanaman Mantikei (Senamang Mantikei),Kabupaten,Katingan,Kalimantan Tengah
328,74451,Tumbang Taranei/Karanei,62.06.06.2008,Sanaman Mantikei (Senamang Mantikei),Kabupaten,Katingan,Kalimantan Tengah
329,73114,Bereng Bengkel,62.71.04.1001,Sabangau (Sebangau),Kota,Palangkaraya,Kalimantan Tengah
330,73114,Danau Tundai,62.71.04.1005,Sabangau (Sebangau),Kota,Palangkaraya,Kalimantan Tengah
331,73114,Kalampangan,62.71.04.1002,Sabangau (Sebangau),Kota,Palangkaraya,Kalimantan Tengah
332,73114,Kameloh Baru,62.71.04.1004,Sabangau (Sebangau),Kota,Palangkaraya,Kalimantan Tengah
333,73113,Kereng Bangkirai,62.71.04.1003,Sabangau (Sebangau),Kota,Palangkaraya,Kalimantan Tengah
334,73113,Sabaru,62.71.04.1006,Sabangau (Sebangau),Kota,Palangkaraya,Kalimantan Tengah
335,74561,Batu Puter,62.10.10.2003,Rungan Hulu,Kabupaten,Gunung Mas,Kalimantan Tengah
336,74561,Hantapang,62.10.10.2006,Rungan Hulu,Kabupaten,Gunung Mas,Kalimantan Tengah
337,74561,Jangkit,62.10.10.2001,Rungan Hulu,Kabupaten,Gunung Mas,Kalimantan Tengah
338,74561,Sangal (Sanggal),62.10.10.2007,Rungan Hulu,Kabupaten,Gunung Mas,Kalimantan Tengah
339,74561,Sei/Sungai Antai,62.10.10.2005,Rungan Hulu,Kabupaten,Gunung Mas,Kalimantan Tengah
340,74561,Tumbang Lapan,62.10.10.2002,Rungan Hulu,Kabupaten,Gunung Mas,Kalimantan Tengah
341,74561,Tumbang Mujai,62.10.10.2012,Rungan Hulu,Kabupaten,Gunung Mas,Kalimantan Tengah
342,74561,Tumbang Rahuyan,62.10.10.1004,Rungan Hulu,Kabupaten,Gunung Mas,Kalimantan Tengah
343,74561,Tumbang Tue / Tuwe,62.10.10.2008,Rungan Hulu,Kabupaten,Gunung Mas,Kalimantan Tengah
344,74561,Hujung Pata,62.10.12.2001,Rungan Barat,Kabupaten,Gunung Mas,Kalimantan Tengah
345,74561,Jalemu Masulan,62.10.12.2004,Rungan Barat,Kabupaten,Gunung Mas,Kalimantan Tengah
346,74561,Jalemu Raya,62.10.12.2003,Rungan Barat,Kabupaten,Gunung Mas,Kalimantan Tengah
347,74562,Mangkawuk,62.10.12.2005,Rungan Barat,Kabupaten,Gunung Mas,Kalimantan Tengah
348,74561,Rabambang,62.10.12.1006,Rungan Barat,Kabupaten,Gunung Mas,Kalimantan Tengah
349,74561,Tajah Antang Raya,62.10.12.2007,Rungan Barat,Kabupaten,Gunung Mas,Kalimantan Tengah
350,74561,Tumbang Bahanei,62.10.12.2011,Rungan Barat,Kabupaten,Gunung Mas,Kalimantan Tengah
351,74561,Tumbang Jalemu Kajuei,62.10.12.2002,Rungan Barat,Kabupaten,Gunung Mas,Kalimantan Tengah
352,74561,Tumbang Kuayan,62.10.12.2008,Rungan Barat,Kabupaten,Gunung Mas,Kalimantan Tengah
353,74561,Tumbang Langgah,62.10.12.2009,Rungan Barat,Kabupaten,Gunung Mas,Kalimantan Tengah
354,74561,Tusang Raya,62.10.12.2010,Rungan Barat,Kabupaten,Gunung Mas,Kalimantan Tengah
355,74560,Bereng Baru,62.10.05.2022,Rungan,Kabupaten,Gunung Mas,Kalimantan Tengah
356,74560,Bereng Malaka,62.10.05.2023,Rungan,Kabupaten,Gunung Mas,Kalimantan Tengah
357,74560,Jakatan Raya,62.10.05.1021,Rungan,Kabupaten,Gunung Mas,Kalimantan Tengah
358,74560,Karya Bhakti (Karya Bakti),62.10.05.2027,Rungan,Kabupaten,Gunung Mas,Kalimantan Tengah
359,74560,Linau,62.10.05.2020,Rungan,Kabupaten,Gunung Mas,Kalimantan Tengah
360,74560,Luwuk Kantor,62.10.05.2016,Rungan,Kabupaten,Gunung Mas,Kalimantan Tengah
361,74560,Luwuk Langkuas,62.10.05.2017,Rungan,Kabupaten,Gunung Mas,Kalimantan Tengah
362,74560,Parempei,62.10.05.2019,Rungan,Kabupaten,Gunung Mas,Kalimantan Tengah
363,74560,Talangkas (Talangkah),62.10.05.2018,Rungan,Kabupaten,Gunung Mas,Kalimantan Tengah
364,74560,Tumbang Barengei/Baringei,62.10.05.2002,Rungan,Kabupaten,Gunung Mas,Kalimantan Tengah
365,74560,Tumbang Bunut,62.10.05.2014,Rungan,Kabupaten,Gunung Mas,Kalimantan Tengah
366,74560,Tumbang Jatuh/Jutuh,62.10.05.2001,Rungan,Kabupaten,Gunung Mas,Kalimantan Tengah
367,74560,Tumbang Kajuei (Tumbang Jelemu Kajuei),62.10.05.2015,Rungan,Kabupaten,Gunung Mas,Kalimantan Tengah
368,74560,Tumbang Malahoi/Malahui,62.10.05.2009,Rungan,Kabupaten,Gunung Mas,Kalimantan Tengah
369,73655,Baruyan,62.13.08.2005,Raren Batuah,Kabupaten,Barito Timur,Kalimantan Tengah
370,73655,Batuah,62.13.08.2003,Raren Batuah,Kabupaten,Barito Timur,Kalimantan Tengah
371,73655,Lenggang,62.13.08.2002,Raren Batuah,Kabupaten,Barito Timur,Kalimantan Tengah
372,73655,Malintut (Malintot),62.13.08.2007,Raren Batuah,Kabupaten,Barito Timur,Kalimantan Tengah
373,73655,Puri,62.13.08.2001,Raren Batuah,Kabupaten,Barito Timur,Kalimantan Tengah
374,73655,Sibung,62.13.08.2009,Raren Batuah,Kabupaten,Barito Timur,Kalimantan Tengah
375,73655,Tangkum,62.13.08.2008,Raren Batuah,Kabupaten,Barito Timur,Kalimantan Tengah
376,73655,Turan Amis,62.13.08.2006,Raren Batuah,Kabupaten,Barito Timur,Kalimantan Tengah
377,73655,Unsum,62.13.08.2004,Raren Batuah,Kabupaten,Barito Timur,Kalimantan Tengah
378,73229,Bukit Sua,62.71.05.1007,Rakumpit,Kota,Palangkaraya,Kalimantan Tengah
379,73229,Gaung Baru,62.71.05.1006,Rakumpit,Kota,Palangkaraya,Kalimantan Tengah
380,73229,Mungku Baru,62.71.05.1004,Rakumpit,Kota,Palangkaraya,Kalimantan Tengah
381,73229,Pager,62.71.05.1005,Rakumpit,Kota,Palangkaraya,Kalimantan Tengah
382,73228,Panjehang,62.71.05.1002,Rakumpit,Kota,Palangkaraya,Kalimantan Tengah
383,73229,Petuk Barunai (Petuk Berunai),62.71.05.1003,Rakumpit,Kota,Palangkaraya,Kalimantan Tengah
384,73227,Petuk Bukit,62.71.05.1001,Rakumpit,Kota,Palangkaraya,Kalimantan Tengah
385,73592,Anjir Palambang,62.03.06.2006,Pulau Petak,Kabupaten,Kapuas,Kalimantan Tengah
386,73592,Banama,62.03.06.2011,Pulau Petak,Kabupaten,Kapuas,Kalimantan Tengah
387,73592,Bunga Mawar,62.03.06.2002,Pulau Petak,Kabupaten,Kapuas,Kalimantan Tengah
388,73592,Handiwung,62.03.06.2005,Pulau Petak,Kabupaten,Kapuas,Kalimantan Tengah
389,73592,Mawar Mekar,62.03.06.2010,Pulau Petak,Kabupaten,Kapuas,Kalimantan Tengah
390,73592,Narahan,62.03.06.2004,Pulau Petak,Kabupaten,Kapuas,Kalimantan Tengah
391,73592,Narahan Baru,62.03.06.2012,Pulau Petak,Kabupaten,Kapuas,Kalimantan Tengah
392,73592,Palangkai,62.03.06.2007,Pulau Petak,Kabupaten,Kapuas,Kalimantan Tengah
393,73592,Saka Lagon (Sakalagun),62.03.06.2001,Pulau Petak,Kabupaten,Kapuas,Kalimantan Tengah
394,73592,Sei Tatas Hilir,62.03.06.2009,Pulau Petak,Kabupaten,Kapuas,Kalimantan Tengah
395,73592,Sei/Sungai Tatas,62.03.06.2003,Pulau Petak,Kabupaten,Kapuas,Kalimantan Tengah
396,73592,Teluk Palinget,62.03.06.2008,Pulau Petak,Kabupaten,Kapuas,Kalimantan Tengah
397,74453,Buntut Bali,62.06.04.2003,Pulau Malan,Kabupaten,Katingan,Kalimantan Tengah
398,74453,Dahian Tunggal,62.06.04.2009,Pulau Malan,Kabupaten,Katingan,Kalimantan Tengah
399,74453,Geragu,62.06.04.2012,Pulau Malan,Kabupaten,Katingan,Kalimantan Tengah
400,74453,Kuluk Bali,62.06.04.2004,Pulau Malan,Kabupaten,Katingan,Kalimantan Tengah
401,74453,Manduing Lama,62.06.04.2006,Pulau Malan,Kabupaten,Katingan,Kalimantan Tengah
402,74453,Manduing Taheta,62.06.04.2005,Pulau Malan,Kabupaten,Katingan,Kalimantan Tengah
403,74453,Tewang Darayu (Tewang Derayu),62.06.04.2002,Pulau Malan,Kabupaten,Katingan,Kalimantan Tengah
404,74453,Tewang Karangan,62.06.04.2010,Pulau Malan,Kabupaten,Katingan,Kalimantan Tengah
405,74453,Tewang Papari,62.06.04.2001,Pulau Malan,Kabupaten,Katingan,Kalimantan Tengah
406,74453,Tumbang Banjang,62.06.04.2007,Pulau Malan,Kabupaten,Katingan,Kalimantan Tengah
407,74453,Tumbang Lawang,62.06.04.2008,Pulau Malan,Kabupaten,Katingan,Kalimantan Tengah
408,74453,Tumbang Tanjung,62.06.04.2013,Pulau Malan,Kabupaten,Katingan,Kalimantan Tengah
409,74453,Tumbang Tungku,62.06.04.2011,Pulau Malan,Kabupaten,Katingan,Kalimantan Tengah
410,74453,Tura,62.06.04.2014,Pulau Malan,Kabupaten,Katingan,Kalimantan Tengah
411,74362,Babaung,62.02.09.2010,Pulau Hanaut,Kabupaten,Kotawaringin Timur,Kalimantan Tengah
412,74362,Babirah (Babriah),62.02.09.2008,Pulau Hanaut,Kabupaten,Kotawaringin Timur,Kalimantan Tengah
413,74362,Bamadu,62.02.09.2011,Pulau Hanaut,Kabupaten,Kotawaringin Timur,Kalimantan Tengah
414,74362,Bantian,62.02.09.2014,Pulau Hanaut,Kabupaten,Kotawaringin Timur,Kalimantan Tengah
415,74362,Bapinang Hilir,62.02.09.2002,Pulau Hanaut,Kabupaten,Kotawaringin Timur,Kalimantan Tengah
416,74362,Bapinang Hilir Laut,62.02.09.2003,Pulau Hanaut,Kabupaten,Kotawaringin Timur,Kalimantan Tengah
417,74362,Bapinang Hulu,62.02.09.2001,Pulau Hanaut,Kabupaten,Kotawaringin Timur,Kalimantan Tengah
418,74362,Hanaut,62.02.09.2007,Pulau Hanaut,Kabupaten,Kotawaringin Timur,Kalimantan Tengah
419,74362,Hantipan,62.02.09.2013,Pulau Hanaut,Kabupaten,Kotawaringin Timur,Kalimantan Tengah
420,74362,Makarti Jaya,62.02.09.2005,Pulau Hanaut,Kabupaten,Kotawaringin Timur,Kalimantan Tengah
421,74362,Penyaguan,62.02.09.2012,Pulau Hanaut,Kabupaten,Kotawaringin Timur,Kalimantan Tengah
422,74362,Rawa Sari,62.02.09.2006,Pulau Hanaut,Kabupaten,Kotawaringin Timur,Kalimantan Tengah
423,74362,Satiruk,62.02.09.2004,Pulau Hanaut,Kabupaten,Kotawaringin Timur,Kalimantan Tengah
424,74362,Serambut,62.02.09.2009,Pulau Hanaut,Kabupaten,Kotawaringin Timur,Kalimantan Tengah
425,74455,Batu Badak,62.06.12.2003,Petak Malai,Kabupaten,Katingan,Kalimantan Tengah
426,74455,Batu Tukan,62.06.12.2004,Petak Malai,Kabupaten,Katingan,Kalimantan Tengah
427,74455,Nusa Kutau,62.06.12.2006,Petak Malai,Kabupaten,Katingan,Kalimantan Tengah
428,74455,Tumbang Baraoi,62.06.12.2001,Petak Malai,Kabupaten,Katingan,Kalimantan Tengah
429,74455,Tumbang Habangoi/Habangei,62.06.12.2007,Petak Malai,Kabupaten,Katingan,Kalimantan Tengah
430,74455,Tumbang Jala,62.06.12.2002,Petak Malai,Kabupaten,Katingan,Kalimantan Tengah
431,74455,Tumbang Tangoi (Tumbang Tanggoi),62.06.12.2005,Petak Malai,Kabupaten,Katingan,Kalimantan Tengah
432,74174,Ajang,62.08.05.2003,Permata Kecubung,Kabupaten,Sukamara,Kalimantan Tengah
433,74174,Kenawan,62.08.05.2001,Permata Kecubung,Kabupaten,Sukamara,Kalimantan Tengah
434,74174,Laman Baru,62.08.05.2002,Permata Kecubung,Kabupaten,Sukamara,Kalimantan Tengah
435,74174,Natai Kondang,62.08.05.2006,Permata Kecubung,Kabupaten,Sukamara,Kalimantan Tengah
436,74174,Nibung Terjun,62.08.05.2005,Permata Kecubung,Kabupaten,Sukamara,Kalimantan Tengah
437,74174,Semantun,62.08.05.2004,Permata Kecubung,Kabupaten,Sukamara,Kalimantan Tengah
438,74174,Sembikuan (Sembi Kuan),62.08.05.2007,Permata Kecubung,Kabupaten,Sukamara,Kalimantan Tengah
439,73971,Baratu (Beratu),62.12.04.2009,Permata Intan,Kabupaten,Murung Raya,Kalimantan Tengah
440,73971,Juking Sopan (Juking Supan),62.12.04.2010,Permata Intan,Kabupaten,Murung Raya,Kalimantan Tengah
441,73971,Muara Babuat,62.12.04.2011,Permata Intan,Kabupaten,Murung Raya,Kalimantan Tengah
442,73971,Muara Bakanon,62.12.04.1004,Permata Intan,Kabupaten,Murung Raya,Kalimantan Tengah
443,73971,Pantai Laga,62.12.04.2008,Permata Intan,Kabupaten,Murung Raya,Kalimantan Tengah
444,73971,Purnama,62.12.04.2005,Permata Intan,Kabupaten,Murung Raya,Kalimantan Tengah
445,73971,Sei/Sungai Bakanon,62.12.04.2018,Permata Intan,Kabupaten,Murung Raya,Kalimantan Tengah
446,73971,Sei/Sungai Batang,62.12.04.2002,Permata Intan,Kabupaten,Murung Raya,Kalimantan Tengah
447,73971,Sei/Sungai Gula,62.12.04.2001,Permata Intan,Kabupaten,Murung Raya,Kalimantan Tengah
448,73971,Sei/Sungai Lobang,62.12.04.2007,Permata Intan,Kabupaten,Murung Raya,Kalimantan Tengah
449,73971,Tumbang Lahung,62.12.04.1006,Permata Intan,Kabupaten,Murung Raya,Kalimantan Tengah
450,73971,Tumbang Salio,62.12.04.2003,Permata Intan,Kabupaten,Murung Raya,Kalimantan Tengah
451,73653,Bambulung,62.13.06.2009,Pematang Karau,Kabupaten,Barito Timur,Kalimantan Tengah
452,73653,Bararawa,62.13.06.2008,Pematang Karau,Kabupaten,Barito Timur,Kalimantan Tengah
453,73653,Ketab (Ketap),62.13.06.2002,Pematang Karau,Kabupaten,Barito Timur,Kalimantan Tengah
454,73653,Kupang Bersih,62.13.06.2003,Pematang Karau,Kabupaten,Barito Timur,Kalimantan Tengah
455,73653,Lampeong,62.13.06.2007,Pematang Karau,Kabupaten,Barito Timur,Kalimantan Tengah
456,73653,Lebo,62.13.06.2010,Pematang Karau,Kabupaten,Barito Timur,Kalimantan Tengah
457,73653,Muara Palantau,62.13.06.2001,Pematang Karau,Kabupaten,Barito Timur,Kalimantan Tengah
458,73653,Muru Duyung,62.13.06.2011,Pematang Karau,Kabupaten,Barito Timur,Kalimantan Tengah
459,73653,Nagaleah,62.13.06.2006,Pematang Karau,Kabupaten,Barito Timur,Kalimantan Tengah
460,73653,Pinang Tunggal,62.13.06.2005,Pematang Karau,Kabupaten,Barito Timur,Kalimantan Tengah
461,73653,Sumber Rejo (Sumberejo),62.13.06.2013,Pematang Karau,Kabupaten,Barito Timur,Kalimantan Tengah
462,73653,Tumpung Ulung,62.13.06.2012,Pematang Karau,Kabupaten,Barito Timur,Kalimantan Tengah
463,73653,Tuyau,62.13.06.2004,Pematang Karau,Kabupaten,Barito Timur,Kalimantan Tengah
464,73671,Ampari Bura (Ampari Bora),62.13.03.2005,Patangkep Tutui,Kabupaten,Barito Timur,Kalimantan Tengah
465,73671,Bentot,62.13.03.2004,Patangkep Tutui,Kabupaten,Barito Timur,Kalimantan Tengah
466,73671,Betang Nalong,62.13.03.2008,Patangkep Tutui,Kabupaten,Barito Timur,Kalimantan Tengah
467,73671,Jango,62.13.03.2010,Patangkep Tutui,Kabupaten,Barito Timur,Kalimantan Tengah
468,73671,Kambitin,62.13.03.2002,Patangkep Tutui,Kabupaten,Barito Timur,Kalimantan Tengah
469,73671,Kotam,62.13.03.2006,Patangkep Tutui,Kabupaten,Barito Timur,Kalimantan Tengah
470,73671,Lalap,62.13.03.2011,Patangkep Tutui,Kabupaten,Barito Timur,Kalimantan Tengah
471,73671,Mawani (Muani),62.13.03.2009,Patangkep Tutui,Kabupaten,Barito Timur,Kalimantan Tengah
472,73671,Pulau Padang,62.13.03.2001,Patangkep Tutui,Kabupaten,Barito Timur,Kalimantan Tengah
473,73671,Ramania,62.13.03.2003,Patangkep Tutui,Kabupaten,Barito Timur,Kalimantan Tengah
474,73557,Balai Banjang,62.03.14.2005,Pasak Talawang,Kabupaten,Kapuas,Kalimantan Tengah
475,73557,Batu Sambung,62.03.14.2009,Pasak Talawang,Kabupaten,Kapuas,Kalimantan Tengah
476,73557,Dandang,62.03.14.2007,Pasak Talawang,Kabupaten,Kapuas,Kalimantan Tengah
477,73557,Hurung Kampin,62.03.14.2008,Pasak Talawang,Kabupaten,Kapuas,Kalimantan Tengah
478,73557,Jangkang,62.03.14.2001,Pasak Talawang,Kabupaten,Kapuas,Kalimantan Tengah
479,73557,Kaburan,62.03.14.2004,Pasak Talawang,Kabupaten,Kapuas,Kalimantan Tengah
480,73557,Sei/Sungai Ringin,62.03.14.2003,Pasak Talawang,Kabupaten,Kapuas,Kalimantan Tengah
481,73557,Tumbang Diring,62.03.14.2006,Pasak Talawang,Kabupaten,Kapuas,Kalimantan Tengah
482,73557,Tumbang Nusa,62.03.14.2010,Pasak Talawang,Kabupaten,Kapuas,Kalimantan Tengah
483,73557,Tumbang Tukun,62.03.14.2002,Pasak Talawang,Kabupaten,Kapuas,Kalimantan Tengah
484,74355,Bajarau,62.02.04.2019,Parenggean,Kabupaten,Kotawaringin Timur,Kalimantan Tengah
485,74355,Bandar Agung,62.02.04.2012,Parenggean,Kabupaten,Kotawaringin Timur,Kalimantan Tengah
486,74355,Barunang Miri,62.02.04.2007,Parenggean,Kabupaten,Kotawaringin Timur,Kalimantan Tengah
487,74355,Beringin Tunggal Jaya,62.02.04.2013,Parenggean,Kabupaten,Kotawaringin Timur,Kalimantan Tengah
488,74355,Bukit Harapan,62.02.04.2023,Parenggean,Kabupaten,Kotawaringin Timur,Kalimantan Tengah
489,74355,Kabuau,62.02.04.2002,Parenggean,Kabupaten,Kotawaringin Timur,Kalimantan Tengah
490,74355,Karang Sari,62.02.04.2016,Parenggean,Kabupaten,Kotawaringin Timur,Kalimantan Tengah
491,74355,Karang Tunggal,62.02.04.2011,Parenggean,Kabupaten,Kotawaringin Timur,Kalimantan Tengah
492,74355,Karya Bersama,62.02.04.2025,Parenggean,Kabupaten,Kotawaringin Timur,Kalimantan Tengah
493,74355,Manjalin,62.02.04.2024,Parenggean,Kabupaten,Kotawaringin Timur,Kalimantan Tengah
494,74355,Mekar Jaya,62.02.04.2010,Parenggean,Kabupaten,Kotawaringin Timur,Kalimantan Tengah
495,74355,Parenggean,62.02.04.1004,Parenggean,Kabupaten,Kotawaringin Timur,Kalimantan Tengah
496,74355,Sari Harapan,62.02.04.2015,Parenggean,Kabupaten,Kotawaringin Timur,Kalimantan Tengah
497,74355,Sumber Makmur,62.02.04.2009,Parenggean,Kabupaten,Kotawaringin Timur,Kalimantan Tengah
498,74355,Tehang,62.02.04.2001,Parenggean,Kabupaten,Kotawaringin Timur,Kalimantan Tengah
499,74170,Sei/Sungai Cabang Barat,62.08.04.2003,Pantai Lunci,Kabupaten,Sukamara,Kalimantan Tengah
500,74170,Sei/Sungai Damar,62.08.04.2001,Pantai Lunci,Kabupaten,Sukamara,Kalimantan Tengah
501,74170,Sei/Sungai Pasir,62.08.04.2004,Pantai Lunci,Kabupaten,Sukamara,Kalimantan Tengah
502,74170,Sei/Sungai Tabuk,62.08.04.2002,Pantai Lunci,Kabupaten,Sukamara,Kalimantan Tengah
503,74184,Kadipi Atas,62.01.05.2009,Pangkalan Lada,Kabupaten,Kotawaringin Barat,Kalimantan Tengah
504,74184,Lada Mandala Jaya,62.01.05.2003,Pangkalan Lada,Kabupaten,Kotawaringin Barat,Kalimantan Tengah
505,74184,Makarti Jaya,62.01.05.2004,Pangkalan Lada,Kabupaten,Kotawaringin Barat,Kalimantan Tengah
506,74184,Pandu Sanjaya,62.01.05.2002,Pangkalan Lada,Kabupaten,Kotawaringin Barat,Kalimantan Tengah
507,74184,Pangkalan Dewa,62.01.05.2008,Pangkalan Lada,Kabupaten,Kotawaringin Barat,Kalimantan Tengah
508,74184,Pangkalan Durin,62.01.05.2011,Pangkalan Lada,Kabupaten,Kotawaringin Barat,Kalimantan Tengah
509,74184,Pangkalan Tiga,62.01.05.2001,Pangkalan Lada,Kabupaten,Kotawaringin Barat,Kalimantan Tengah
510,74184,Purbasari,62.01.05.2006,Pangkalan Lada,Kabupaten,Kotawaringin Barat,Kalimantan Tengah
511,74184,Sei/Sungai Melawen,62.01.05.2010,Pangkalan Lada,Kabupaten,Kotawaringin Barat,Kalimantan Tengah
512,74184,Sei/Sungai Rangit Jaya,62.01.05.2007,Pangkalan Lada,Kabupaten,Kotawaringin Barat,Kalimantan Tengah
513,74184,Sumber Agung,62.01.05.2005,Pangkalan Lada,Kabupaten,Kotawaringin Barat,Kalimantan Tengah
514,74183,Amin Jaya,62.01.06.2007,Pangkalan Banteng,Kabupaten,Kotawaringin Barat,Kalimantan Tengah
515,74183,Arga Mulya,62.01.06.2008,Pangkalan Banteng,Kabupaten,Kotawaringin Barat,Kalimantan Tengah
516,74183,Berambai Makmur,62.01.06.2013,Pangkalan Banteng,Kabupaten,Kotawaringin Barat,Kalimantan Tengah
517,74183,Karang Mulya (Karangmulya),62.01.06.2003,Pangkalan Banteng,Kabupaten,Kotawaringin Barat,Kalimantan Tengah
518,74183,Karang Sari,62.01.06.2014,Pangkalan Banteng,Kabupaten,Kotawaringin Barat,Kalimantan Tengah
519,74183,Kebun Agung (Kebon Agung),62.01.06.2004,Pangkalan Banteng,Kabupaten,Kotawaringin Barat,Kalimantan Tengah
520,74183,Marga Mulya,62.01.06.2006,Pangkalan Banteng,Kabupaten,Kotawaringin Barat,Kalimantan Tengah
521,74183,Mulia/Mulya Jadi,62.01.06.2002,Pangkalan Banteng,Kabupaten,Kotawaringin Barat,Kalimantan Tengah
522,74183,Natai Kerbau,62.01.06.2009,Pangkalan Banteng,Kabupaten,Kotawaringin Barat,Kalimantan Tengah
523,74183,Pangkalan Banteng,62.01.06.2001,Pangkalan Banteng,Kabupaten,Kotawaringin Barat,Kalimantan Tengah
524,74183,Sei/Sungai Hijau,62.01.06.2011,Pangkalan Banteng,Kabupaten,Kotawaringin Barat,Kalimantan Tengah
525,74183,Sido Mulyo/Ponco Mulyo,62.01.06.2005,Pangkalan Banteng,Kabupaten,Kotawaringin Barat,Kalimantan Tengah
526,74183,Simpang Berambai,62.01.06.2010,Pangkalan Banteng,Kabupaten,Kotawaringin Barat,Kalimantan Tengah
527,74183,Sungai Bengkuang,62.01.06.2016,Pangkalan Banteng,Kabupaten,Kotawaringin Barat,Kalimantan Tengah
528,74183,Sungai Kuning,62.01.06.2017,Pangkalan Banteng,Kabupaten,Kotawaringin Barat,Kalimantan Tengah
529,74183,Sungai Pakit,62.01.06.2012,Pangkalan Banteng,Kabupaten,Kotawaringin Barat,Kalimantan Tengah
530,74183,Sungai Pulau,62.01.06.2015,Pangkalan Banteng,Kabupaten,Kotawaringin Barat,Kalimantan Tengah
531,74871,Belanti Siam,62.11.01.2011,Pandih Batu,Kabupaten,Pulang Pisau,Kalimantan Tengah
532,74871,Dandang,62.11.01.2001,Pandih Batu,Kabupaten,Pulang Pisau,Kalimantan Tengah
533,74871,Gadabung,62.11.01.2012,Pandih Batu,Kabupaten,Pulang Pisau,Kalimantan Tengah
534,74871,Kantan Atas,62.11.01.2015,Pandih Batu,Kabupaten,Pulang Pisau,Kalimantan Tengah
535,74871,Kantan Dalam,62.11.01.2014,Pandih Batu,Kabupaten,Pulang Pisau,Kalimantan Tengah
536,74871,Kantan Muara,62.11.01.2005,Pandih Batu,Kabupaten,Pulang Pisau,Kalimantan Tengah
537,74871,Karya Bersama,62.11.01.2016,Pandih Batu,Kabupaten,Pulang Pisau,Kalimantan Tengah
538,74871,Mulyasari (Mulia Sari),62.11.01.2013,Pandih Batu,Kabupaten,Pulang Pisau,Kalimantan Tengah
539,74871,Pangkoh Hilir,62.11.01.2003,Pandih Batu,Kabupaten,Pulang Pisau,Kalimantan Tengah
540,74871,Pangkoh Hulu,62.11.01.2004,Pandih Batu,Kabupaten,Pulang Pisau,Kalimantan Tengah
541,74871,Pangkoh Sari,62.11.01.2008,Pandih Batu,Kabupaten,Pulang Pisau,Kalimantan Tengah
542,74871,Pantik,62.11.01.2010,Pandih Batu,Kabupaten,Pulang Pisau,Kalimantan Tengah
543,74871,Sanggang,62.11.01.2009,Pandih Batu,Kabupaten,Pulang Pisau,Kalimantan Tengah
544,74871,Talio,62.11.01.2002,Pandih Batu,Kabupaten,Pulang Pisau,Kalimantan Tengah
545,74871,Talio Hulu,62.11.01.2007,Pandih Batu,Kabupaten,Pulang Pisau,Kalimantan Tengah
546,74871,Talio Muara,62.11.01.2006,Pandih Batu,Kabupaten,Pulang Pisau,Kalimantan Tengah
547,73654,Bantai Napu,62.13.09.2006,Paku,Kabupaten,Barito Timur,Kalimantan Tengah
548,73654,Gandrung,62.13.09.2009,Paku,Kabupaten,Barito Timur,Kalimantan Tengah
549,73654,Kalamus,62.13.09.2002,Paku,Kabupaten,Barito Timur,Kalimantan Tengah
550,73654,Kupang Baru,62.13.09.2011,Paku,Kabupaten,Barito Timur,Kalimantan Tengah
551,73654,Luau Jawuk,62.13.09.2012,Paku,Kabupaten,Barito Timur,Kalimantan Tengah
552,73654,Paku Beto,62.13.09.2008,Paku,Kabupaten,Barito Timur,Kalimantan Tengah
553,73654,Pangkan,62.13.09.2010,Paku,Kabupaten,Barito Timur,Kalimantan Tengah
554,73654,Patung,62.13.09.2004,Paku,Kabupaten,Barito Timur,Kalimantan Tengah
555,73654,Runggu Raya,62.13.09.2005,Paku,Kabupaten,Barito Timur,Kalimantan Tengah
556,73654,Simpang Bingkuang,62.13.09.2003,Paku,Kabupaten,Barito Timur,Kalimantan Tengah
557,73654,Tampa,62.13.09.2001,Paku,Kabupaten,Barito Timur,Kalimantan Tengah
558,73654,Tarinsing (Taringsing),62.13.09.2007,Paku,Kabupaten,Barito Timur,Kalimantan Tengah
559,73617,Balawa,62.13.07.2007,Paju Epat,Kabupaten,Barito Timur,Kalimantan Tengah
560,73617,Juru Banu,62.13.07.2001,Paju Epat,Kabupaten,Barito Timur,Kalimantan Tengah
561,73617,Kali Napu,62.13.07.2008,Paju Epat,Kabupaten,Barito Timur,Kalimantan Tengah
562,73617,Maipe,62.13.07.2005,Paju Epat,Kabupaten,Barito Timur,Kalimantan Tengah
563,73617,Murutuwu,62.13.07.2006,Paju Epat,Kabupaten,Barito Timur,Kalimantan Tengah
564,73617,Siong,62.13.07.2009,Paju Epat,Kabupaten,Barito Timur,Kalimantan Tengah
565,73617,Tampulangit,62.13.07.2003,Paju Epat,Kabupaten,Barito Timur,Kalimantan Tengah
566,73617,Telang (Telang Siong),62.13.07.2004,Paju Epat,Kabupaten,Barito Timur,Kalimantan Tengah
567,73617,Telang Baru,62.13.07.2002,Paju Epat,Kabupaten,Barito Timur,Kalimantan Tengah
568,73111,Langkai,62.71.01.1003,Pahandut,Kota,Palangkaraya,Kalimantan Tengah
569,73111,Pahandut,62.71.01.1001,Pahandut,Kota,Palangkaraya,Kalimantan Tengah
570,73111,Pahandut Seberang,62.71.01.1005,Pahandut,Kota,Palangkaraya,Kalimantan Tengah
571,73111,Panarung,62.71.01.1002,Pahandut,Kota,Palangkaraya,Kalimantan Tengah
572,73111,Tanjung Pinang,62.71.01.1006,Pahandut,Kota,Palangkaraya,Kalimantan Tengah
573,73111,Tumbang Rungan,62.71.01.1004,Pahandut,Kota,Palangkaraya,Kalimantan Tengah
574,73911,Bahitom/Bahintom,62.12.01.2008,Murung,Kabupaten,Murung Raya,Kalimantan Tengah
575,73911,Batu Putih,62.12.01.2003,Murung,Kabupaten,Murung Raya,Kalimantan Tengah
576,73911,Beriwit,62.12.01.1013,Murung,Kabupaten,Murung Raya,Kalimantan Tengah
577,73911,Danau Usung,62.12.01.2009,Murung,Kabupaten,Murung Raya,Kalimantan Tengah
578,73911,Dirung,62.12.01.2001,Murung,Kabupaten,Murung Raya,Kalimantan Tengah
579,73911,Jangin/Juking Pajang,62.12.01.2010,Murung,Kabupaten,Murung Raya,Kalimantan Tengah
580,73911,Malasan/Masalan,62.12.01.2002,Murung,Kabupaten,Murung Raya,Kalimantan Tengah
581,73911,Mangkahui,62.12.01.2004,Murung,Kabupaten,Murung Raya,Kalimantan Tengah
582,73911,Muara Bumban/Bamban,62.12.01.2014,Murung,Kabupaten,Murung Raya,Kalimantan Tengah
583,73911,Muara Ja'an (Muara Jaan),62.12.01.2007,Murung,Kabupaten,Murung Raya,Kalimantan Tengah
584,73911,Muara Sumpoi,62.12.01.2011,Murung,Kabupaten,Murung Raya,Kalimantan Tengah
585,73911,Muara Untu,62.12.01.2006,Murung,Kabupaten,Murung Raya,Kalimantan Tengah
586,73911,Panu'ut (Panuut / Panaout),62.12.01.2005,Murung,Kabupaten,Murung Raya,Kalimantan Tengah
587,73911,Penyang,62.12.01.2015,Murung,Kabupaten,Murung Raya,Kalimantan Tengah
588,73911,Puruk Cahu,62.12.01.1012,Murung,Kabupaten,Murung Raya,Kalimantan Tengah
589,73861,Kamawen,62.05.01.2010,Montallat (Montalat),Kabupaten,Barito Utara,Kalimantan Tengah
590,73861,Montallat I,62.05.01.1001,Montallat (Montalat),Kabupaten,Barito Utara,Kalimantan Tengah
591,73861,Montallat II,62.05.01.1002,Montallat (Montalat),Kabupaten,Barito Utara,Kalimantan Tengah
592,73861,Paring Lahung,62.05.01.2009,Montallat (Montalat),Kabupaten,Barito Utara,Kalimantan Tengah
593,73861,Pepas,62.05.01.2007,Montallat (Montalat),Kabupaten,Barito Utara,Kalimantan Tengah
594,73861,Rubei,62.05.01.2006,Montallat (Montalat),Kabupaten,Barito Utara,Kalimantan Tengah
595,73861,Ruji,62.05.01.2008,Montallat (Montalat),Kabupaten,Barito Utara,Kalimantan Tengah
596,73861,Sikan,62.05.01.2005,Montallat (Montalat),Kabupaten,Barito Utara,Kalimantan Tengah
597,73861,Tumpung Laung I,62.05.01.1003,Montallat (Montalat),Kabupaten,Barito Utara,Kalimantan Tengah
598,73861,Tumpung Laung II,62.05.01.1004,Montallat (Montalat),Kabupaten,Barito Utara,Kalimantan Tengah
599,74555,Bontoi (Buntui / Buntoi),62.10.09.2009,Miri Manasa,Kabupaten,Gunung Mas,Kalimantan Tengah
600,74555,Harowo (Harowu),62.10.09.2006,Miri Manasa,Kabupaten,Gunung Mas,Kalimantan Tengah
601,74555,Mangkuhung,62.10.09.2002,Miri Manasa,Kabupaten,Gunung Mas,Kalimantan Tengah
602,74555,Rangan Hiran,62.10.09.2005,Miri Manasa,Kabupaten,Gunung Mas,Kalimantan Tengah
603,74555,Tumbang Hatung (Tumbang Hantung),62.10.09.2011,Miri Manasa,Kabupaten,Gunung Mas,Kalimantan Tengah
604,74555,Tumbang Koroi,62.10.09.2010,Miri Manasa,Kabupaten,Gunung Mas,Kalimantan Tengah
605,74555,Tumbang Lapan,62.10.09.2008,Miri Manasa,Kabupaten,Gunung Mas,Kalimantan Tengah
606,74555,Tumbang Manyoi,62.10.09.2007,Miri Manasa,Kabupaten,Gunung Mas,Kalimantan Tengah
607,74555,Tumbang Masukih,62.10.09.2004,Miri Manasa,Kabupaten,Gunung Mas,Kalimantan Tengah
608,74555,Tumbang Napoi,62.10.09.1003,Miri Manasa,Kabupaten,Gunung Mas,Kalimantan Tengah
609,74555,Tumbang Siruk,62.10.09.2001,Miri Manasa,Kabupaten,Gunung Mas,Kalimantan Tengah
610,74571,Dahian Tambuk,62.10.07.2004,Mihing Raya,Kabupaten,Gunung Mas,Kalimantan Tengah
611,74571,Kampuri,62.10.07.1005,Mihing Raya,Kabupaten,Gunung Mas,Kalimantan Tengah
612,74571,Rangan Tate,62.10.07.2003,Mihing Raya,Kabupaten,Gunung Mas,Kalimantan Tengah
613,74571,Tumbang Danau,62.10.07.2006,Mihing Raya,Kabupaten,Gunung Mas,Kalimantan Tengah
614,74571,Tumbang Empas,62.10.07.2002,Mihing Raya,Kabupaten,Gunung Mas,Kalimantan Tengah
615,74571,Tuyun,62.10.07.2001,Mihing Raya,Kabupaten,Gunung Mas,Kalimantan Tengah
616,74164,Batu Ampar,62.09.05.2003,Menthobi Raya,Kabupaten,Lamandau,Kalimantan Tengah
617,74164,Bukit Harum,62.09.05.2011,Menthobi Raya,Kabupaten,Lamandau,Kalimantan Tengah
618,74164,Bukit Makmur,62.09.05.2006,Menthobi Raya,Kabupaten,Lamandau,Kalimantan Tengah
619,74164,Bukit Raya,62.09.05.2008,Menthobi Raya,Kabupaten,Lamandau,Kalimantan Tengah
620,74164,Lubuk Hiju,62.09.05.2004,Menthobi Raya,Kabupaten,Lamandau,Kalimantan Tengah
621,74164,Melata,62.09.05.2001,Menthobi Raya,Kabupaten,Lamandau,Kalimantan Tengah
622,74164,Modang Mas,62.09.05.2007,Menthobi Raya,Kabupaten,Lamandau,Kalimantan Tengah
623,74164,Mukti Manunggal,62.09.05.2009,Menthobi Raya,Kabupaten,Lamandau,Kalimantan Tengah
624,74164,Nanuah,62.09.05.2002,Menthobi Raya,Kabupaten,Lamandau,Kalimantan Tengah
625,74164,Sumber Jaya,62.09.05.2010,Menthobi Raya,Kabupaten,Lamandau,Kalimantan Tengah
626,74164,Topalan,62.09.05.2005,Menthobi Raya,Kabupaten,Lamandau,Kalimantan Tengah
627,74357,Baampah,62.02.03.2002,Mentaya Hulu,Kabupaten,Kotawaringin Timur,Kalimantan Tengah
628,74357,Bawan,62.02.03.2014,Mentaya Hulu,Kabupaten,Kotawaringin Timur,Kalimantan Tengah
629,74357,Kapuk,62.02.03.2031,Mentaya Hulu,Kabupaten,Kotawaringin Timur,Kalimantan Tengah
630,74357,Kawan Batu,62.02.03.2003,Mentaya Hulu,Kabupaten,Kotawaringin Timur,Kalimantan Tengah
631,74357,Kuala Kuayan,62.02.03.1012,Mentaya Hulu,Kabupaten,Kotawaringin Timur,Kalimantan Tengah
632,74357,Pahirangan,62.02.03.2006,Mentaya Hulu,Kabupaten,Kotawaringin Timur,Kalimantan Tengah
633,74357,Pantap,62.02.03.2032,Mentaya Hulu,Kabupaten,Kotawaringin Timur,Kalimantan Tengah
634,74357,Pemantang,62.02.03.2010,Mentaya Hulu,Kabupaten,Kotawaringin Timur,Kalimantan Tengah
635,74357,Penda Durian,62.02.03.2005,Mentaya Hulu,Kabupaten,Kotawaringin Timur,Kalimantan Tengah
636,74357,Santilik,62.02.03.2008,Mentaya Hulu,Kabupaten,Kotawaringin Timur,Kalimantan Tengah
637,74357,Satiung (Sationg),62.02.03.2007,Mentaya Hulu,Kabupaten,Kotawaringin Timur,Kalimantan Tengah
638,74357,Tangar,62.02.03.2001,Mentaya Hulu,Kabupaten,Kotawaringin Timur,Kalimantan Tengah
639,74357,Tangka Robah,62.02.03.2009,Mentaya Hulu,Kabupaten,Kotawaringin Timur,Kalimantan Tengah
640,74357,Tanjung Bantur (Tanjung Batur),62.02.03.2004,Mentaya Hulu,Kabupaten,Kotawaringin Timur,Kalimantan Tengah
641,74357,Tanjung Jariangau,62.02.03.2015,Mentaya Hulu,Kabupaten,Kotawaringin Timur,Kalimantan Tengah
642,74357,Tumbang Sapiri,62.02.03.2011,Mentaya Hulu,Kabupaten,Kotawaringin Timur,Kalimantan Tengah
643,74361,Bagendang Hilir,62.02.07.2002,Mentaya Hilir Utara,Kabupaten,Kotawaringin Timur,Kalimantan Tengah
644,74361,Bagendang Hulu,62.02.07.2005,Mentaya Hilir Utara,Kabupaten,Kotawaringin Timur,Kalimantan Tengah
645,74361,Bagendang Permai,62.02.07.2007,Mentaya Hilir Utara,Kabupaten,Kotawaringin Timur,Kalimantan Tengah
646,74361,Bagendang Tengah,62.02.07.2003,Mentaya Hilir Utara,Kabupaten,Kotawaringin Timur,Kalimantan Tengah
647,74361,Natai Baru,62.02.07.2004,Mentaya Hilir Utara,Kabupaten,Kotawaringin Timur,Kalimantan Tengah
648,74361,Pondok Damar,62.02.07.2001,Mentaya Hilir Utara,Kabupaten,Kotawaringin Timur,Kalimantan Tengah
649,74361,Sumber Makmur,62.02.07.2006,Mentaya Hilir Utara,Kabupaten,Kotawaringin Timur,Kalimantan Tengah
650,74363,Basirih Hilir,62.02.08.1009,Mentaya Hilir Selatan,Kabupaten,Kotawaringin Timur,Kalimantan Tengah
651,74363,Basirih Hulu,62.02.08.2011,Mentaya Hilir Selatan,Kabupaten,Kotawaringin Timur,Kalimantan Tengah
652,74363,Handil Sohor,62.02.08.2013,Mentaya Hilir Selatan,Kabupaten,Kotawaringin Timur,Kalimantan Tengah
653,74363,Jaya Karet,62.02.08.2012,Mentaya Hilir Selatan,Kabupaten,Kotawaringin Timur,Kalimantan Tengah
654,74363,Jaya Kelapa,62.02.08.2010,Mentaya Hilir Selatan,Kabupaten,Kotawaringin Timur,Kalimantan Tengah
655,74363,Samuda Besar,62.02.08.2006,Mentaya Hilir Selatan,Kabupaten,Kotawaringin Timur,Kalimantan Tengah
656,74363,Samuda Kecil,62.02.08.2007,Mentaya Hilir Selatan,Kabupaten,Kotawaringin Timur,Kalimantan Tengah
657,74363,Samuda Kota,62.02.08.1008,Mentaya Hilir Selatan,Kabupaten,Kotawaringin Timur,Kalimantan Tengah
658,74363,Sebamban (Sabamban),62.02.08.2005,Mentaya Hilir Selatan,Kabupaten,Kotawaringin Timur,Kalimantan Tengah
659,74363,Sei/Sungai Ijum Raya,62.02.08.2014,Mentaya Hilir Selatan,Kabupaten,Kotawaringin Timur,Kalimantan Tengah
660,74326,Bangkuang Makmur (Bengkuang Makmur),62.02.06.2011,Mentawa Baru Ketapang,Kabupaten,Kotawaringin Timur,Kalimantan Tengah
661,74326,Bapanggang Raya,62.02.06.2012,Mentawa Baru Ketapang,Kabupaten,Kotawaringin Timur,Kalimantan Tengah
662,74326,Bapeang,62.02.06.2006,Mentawa Baru Ketapang,Kabupaten,Kotawaringin Timur,Kalimantan Tengah
663,74326,Eka Bahurui,62.02.06.2008,Mentawa Baru Ketapang,Kabupaten,Kotawaringin Timur,Kalimantan Tengah
664,74325,Ketapang,62.02.06.1003,Mentawa Baru Ketapang,Kabupaten,Kotawaringin Timur,Kalimantan Tengah
665,74323,Mentawa Baru Hilir,62.02.06.1002,Mentawa Baru Ketapang,Kabupaten,Kotawaringin Timur,Kalimantan Tengah
666,74322,Mentawa Baru Hulu,62.02.06.1001,Mentawa Baru Ketapang,Kabupaten,Kotawaringin Timur,Kalimantan Tengah
667,74322,Pasir Putih,62.02.06.1009,Mentawa Baru Ketapang,Kabupaten,Kotawaringin Timur,Kalimantan Tengah
668,74326,Pelangsian,62.02.06.2005,Mentawa Baru Ketapang,Kabupaten,Kotawaringin Timur,Kalimantan Tengah
669,74321,Sawahan,62.02.06.1007,Mentawa Baru Ketapang,Kabupaten,Kotawaringin Timur,Kalimantan Tengah
670,74326,Telaga Baru,62.02.06.2010,Mentawa Baru Ketapang,Kabupaten,Kotawaringin Timur,Kalimantan Tengah
671,74464,Kampung Melayu,62.06.09.2003,Mendawai,Kabupaten,Katingan,Kalimantan Tengah
672,74464,Mekar Tani,62.06.09.2006,Mendawai,Kabupaten,Katingan,Kalimantan Tengah
673,74464,Mendawai,62.06.09.2001,Mendawai,Kabupaten,Katingan,Kalimantan Tengah
674,74464,Perigi (Parigi),62.06.09.2005,Mendawai,Kabupaten,Katingan,Kalimantan Tengah
675,74464,Teluk Sebulu,62.06.09.2002,Mendawai,Kabupaten,Katingan,Kalimantan Tengah
676,74464,Tewang/Tawang Kampung,62.06.09.2004,Mendawai,Kabupaten,Katingan,Kalimantan Tengah
677,74464,Tumbang Bulan,62.06.09.2007,Mendawai,Kabupaten,Katingan,Kalimantan Tengah
678,74456,Batu Panahan,62.06.07.2017,Marikit,Kabupaten,Katingan,Kalimantan Tengah
679,74456,Buntut Leleng,62.06.07.2003,Marikit,Kabupaten,Katingan,Kalimantan Tengah
680,74456,Kuluk Leleng,62.06.07.2004,Marikit,Kabupaten,Katingan,Kalimantan Tengah
681,74456,Rangan Burih,62.06.07.2012,Marikit,Kabupaten,Katingan,Kalimantan Tengah
682,74456,Rangan Surai (Rangan Surei),62.06.07.2008,Marikit,Kabupaten,Katingan,Kalimantan Tengah
683,74456,Rangan Tangko,62.06.07.2015,Marikit,Kabupaten,Katingan,Kalimantan Tengah
684,74456,Sabaung (Sebaung),62.06.07.2005,Marikit,Kabupaten,Katingan,Kalimantan Tengah
685,74456,Tumbang Bemban,62.06.07.2013,Marikit,Kabupaten,Katingan,Kalimantan Tengah
686,74456,Tumbang Dakei,62.06.07.2011,Marikit,Kabupaten,Katingan,Kalimantan Tengah
687,74456,Tumbang Hiran,62.06.07.2009,Marikit,Kabupaten,Katingan,Kalimantan Tengah
688,74456,Tumbang Lambi,62.06.07.2014,Marikit,Kabupaten,Katingan,Kalimantan Tengah
689,74456,Tumbang Malawan (Tumbang Susan - Malaman),62.06.07.2006,Marikit,Kabupaten,Katingan,Kalimantan Tengah
690,74456,Tumbang Mandurei,62.06.07.2001,Marikit,Kabupaten,Katingan,Kalimantan Tengah
691,74456,Tumbang Pahanei,62.06.07.2010,Marikit,Kabupaten,Katingan,Kalimantan Tengah
692,74456,Tumbang Paku,62.06.07.2002,Marikit,Kabupaten,Katingan,Kalimantan Tengah
693,74456,Tumbang Tabulus,62.06.07.2018,Marikit,Kabupaten,Katingan,Kalimantan Tengah
694,74456,Tumbang Taei,62.06.07.2007,Marikit,Kabupaten,Katingan,Kalimantan Tengah
695,74456,Tumbang Tundu,62.06.07.2016,Marikit,Kabupaten,Katingan,Kalimantan Tengah
696,74563,Luwuk Tukau,62.10.11.2004,Manuhing Raya (Mahuning Raya),Kabupaten,Gunung Mas,Kalimantan Tengah
697,74563,Putat Durei,62.10.11.2006,Manuhing Raya (Mahuning Raya),Kabupaten,Gunung Mas,Kalimantan Tengah
698,74563,Tehang,62.10.11.1005,Manuhing Raya (Mahuning Raya),Kabupaten,Gunung Mas,Kalimantan Tengah
699,74563,Tumbang Mantuhe,62.10.11.2007,Manuhing Raya (Mahuning Raya),Kabupaten,Gunung Mas,Kalimantan Tengah
700,74563,Tumbang Oroi,62.10.11.2003,Manuhing Raya (Mahuning Raya),Kabupaten,Gunung Mas,Kalimantan Tengah
701,74563,Tumbang Samui,62.10.11.2002,Manuhing Raya (Mahuning Raya),Kabupaten,Gunung Mas,Kalimantan Tengah
702,74562,Bangun Sari,62.10.06.2014,Manuhing,Kabupaten,Gunung Mas,Kalimantan Tengah
703,74562,Belawan Mulia (Belawan Mulya),62.10.06.2012,Manuhing,Kabupaten,Gunung Mas,Kalimantan Tengah
704,74562,Bereng Balawan (Bereng Belawan),62.10.06.2004,Manuhing,Kabupaten,Gunung Mas,Kalimantan Tengah
705,74562,Bereng Jun,62.10.06.2005,Manuhing,Kabupaten,Gunung Mas,Kalimantan Tengah
706,74562,Fajar Harapan,62.10.06.2015,Manuhing,Kabupaten,Gunung Mas,Kalimantan Tengah
707,74562,Gohong,62.10.06.2017,Manuhing,Kabupaten,Gunung Mas,Kalimantan Tengah
708,74562,Takaras,62.10.06.2006,Manuhing,Kabupaten,Gunung Mas,Kalimantan Tengah
709,74562,Tangki Dahuyan,62.10.06.2003,Manuhing,Kabupaten,Gunung Mas,Kalimantan Tengah
710,74562,Taringen,62.10.06.2013,Manuhing,Kabupaten,Gunung Mas,Kalimantan Tengah
711,74562,Tumbang Jalemu (Tumbang Jelemu),62.10.06.2018,Manuhing,Kabupaten,Gunung Mas,Kalimantan Tengah
712,74562,Tumbang Sepan (Tumbang Sepang),62.10.06.2002,Manuhing,Kabupaten,Gunung Mas,Kalimantan Tengah
713,74562,Tumbang Talaken,62.10.06.1001,Manuhing,Kabupaten,Gunung Mas,Kalimantan Tengah
714,73553,Bukit Batu (Bukit Baru),62.03.09.2019,Mantangai,Kabupaten,Kapuas,Kalimantan Tengah
715,73553,Danau Tawah/Rawah,62.03.09.2014,Mantangai,Kabupaten,Kapuas,Kalimantan Tengah
716,73553,Harapan Jaya,62.03.09.2035,Mantangai,Kabupaten,Kapuas,Kalimantan Tengah
717,73553,Humbang Raya,62.03.09.2021,Mantangai,Kabupaten,Kapuas,Kalimantan Tengah
718,73553,Kaladan Jaya,62.03.09.2028,Mantangai,Kabupaten,Kapuas,Kalimantan Tengah
719,73553,Kalumpang,62.03.09.2009,Mantangai,Kabupaten,Kapuas,Kalimantan Tengah
720,73553,Katimpun,62.03.09.2016,Mantangai,Kabupaten,Kapuas,Kalimantan Tengah
721,73553,Katunjung,62.03.09.2011,Mantangai,Kabupaten,Kapuas,Kalimantan Tengah
722,73553,Lahei Mangkutup,62.03.09.2012,Mantangai,Kabupaten,Kapuas,Kalimantan Tengah
723,73553,Lamunti,62.03.09.2004,Mantangai,Kabupaten,Kapuas,Kalimantan Tengah
724,73553,Lamunti Baru,62.03.09.2031,Mantangai,Kabupaten,Kapuas,Kalimantan Tengah
725,73553,Lamunti Permai,62.03.09.2025,Mantangai,Kabupaten,Kapuas,Kalimantan Tengah
726,73553,Lapetan (Lampetan),62.03.09.2024,Mantangai,Kabupaten,Kapuas,Kalimantan Tengah
727,73553,Mantangai Hilir,62.03.09.2006,Mantangai,Kabupaten,Kapuas,Kalimantan Tengah
728,73553,Mantangai Hulu,62.03.09.2008,Mantangai,Kabupaten,Kapuas,Kalimantan Tengah
729,73553,Mantangai Tengah,62.03.09.2007,Mantangai,Kabupaten,Kapuas,Kalimantan Tengah
730,73553,Manusup,62.03.09.2001,Mantangai,Kabupaten,Kapuas,Kalimantan Tengah
731,73553,Manusup Hilir,62.03.09.2017,Mantangai,Kabupaten,Kapuas,Kalimantan Tengah
732,73553,Manyahi,62.03.09.2026,Mantangai,Kabupaten,Kapuas,Kalimantan Tengah
733,73553,Muroi Raya,62.03.09.2015,Mantangai,Kabupaten,Kapuas,Kalimantan Tengah
734,73553,Pulau Kaladan,62.03.09.2005,Mantangai,Kabupaten,Kapuas,Kalimantan Tengah
735,73553,Rantau jaya,62.03.09.2029,Mantangai,Kabupaten,Kapuas,Kalimantan Tengah
736,73553,Sari Makmur,62.03.09.2037,Mantangai,Kabupaten,Kapuas,Kalimantan Tengah
737,73553,Sei Gawing,62.03.09.2020,Mantangai,Kabupaten,Kapuas,Kalimantan Tengah
738,73553,Sei Gita,62.03.09.2018,Mantangai,Kabupaten,Kapuas,Kalimantan Tengah
739,73553,Sei/Sungai Ahas,62.03.09.2010,Mantangai,Kabupaten,Kapuas,Kalimantan Tengah
740,73553,Sei/Sungai Kapar,62.03.09.2002,Mantangai,Kabupaten,Kapuas,Kalimantan Tengah
741,73553,Sekata Bangun,62.03.09.2036,Mantangai,Kabupaten,Kapuas,Kalimantan Tengah
742,73553,Sekata Makmur,62.03.09.2027,Mantangai,Kabupaten,Kapuas,Kalimantan Tengah
743,73553,Sidomulyo (Sido Mulyo),62.03.09.2034,Mantangai,Kabupaten,Kapuas,Kalimantan Tengah
744,73553,Sriwidadi (Sri Widadi),62.03.09.2032,Mantangai,Kabupaten,Kapuas,Kalimantan Tengah
745,73553,Suka Maju,62.03.09.2038,Mantangai,Kabupaten,Kapuas,Kalimantan Tengah
746,73553,Sumber Makmur,62.03.09.2033,Mantangai,Kabupaten,Kapuas,Kalimantan Tengah
747,73553,Tabore,62.03.09.2022,Mantangai,Kabupaten,Kapuas,Kalimantan Tengah
748,73553,Tarantang,62.03.09.2003,Mantangai,Kabupaten,Kapuas,Kalimantan Tengah
749,73553,Tumbang Mangkutup (Tumbang Mangkurup),62.03.09.2023,Mantangai,Kabupaten,Kapuas,Kalimantan Tengah
750,73553,Tumbang Muroi,62.03.09.2013,Mantangai,Kabupaten,Kapuas,Kalimantan Tengah
751,73553,Warga Mulya,62.03.09.2030,Mantangai,Kabupaten,Kapuas,Kalimantan Tengah
752,73556,Jakatan Masaha,62.03.15.2009,Mandau Talawang,Kabupaten,Kapuas,Kalimantan Tengah
753,73556,Karetau Manta'a (Karetau Mantaa),62.03.15.2004,Mandau Talawang,Kabupaten,Kapuas,Kalimantan Tengah
754,73556,Lawang Tamang,62.03.15.2003,Mandau Talawang,Kabupaten,Kapuas,Kalimantan Tengah
755,73556,Masaha,62.03.15.2001,Mandau Talawang,Kabupaten,Kapuas,Kalimantan Tengah
756,73556,Masupa Ria,62.03.15.2010,Mandau Talawang,Kabupaten,Kapuas,Kalimantan Tengah
757,73556,Sei/Sungai Pinang,62.03.15.2002,Mandau Talawang,Kabupaten,Kapuas,Kalimantan Tengah
758,73556,Tanjung Rendan,62.03.15.2008,Mandau Talawang,Kabupaten,Kapuas,Kalimantan Tengah
759,73556,Tumbang Bukoi/Bokoi,62.03.15.2005,Mandau Talawang,Kabupaten,Kapuas,Kalimantan Tengah
760,73556,Tumbang Manyarung,62.03.15.2007,Mandau Talawang,Kabupaten,Kapuas,Kalimantan Tengah
761,73556,Tumbang Tihis,62.03.15.2006,Mandau Talawang,Kabupaten,Kapuas,Kalimantan Tengah
762,74873,Badirih,62.11.06.2009,Maliku,Kabupaten,Pulang Pisau,Kalimantan Tengah
763,74873,Gandang,62.11.06.2008,Maliku,Kabupaten,Pulang Pisau,Kalimantan Tengah
764,74873,Gandang Barat,62.11.06.2014,Maliku,Kabupaten,Pulang Pisau,Kalimantan Tengah
765,74873,Garantung,62.11.06.2007,Maliku,Kabupaten,Pulang Pisau,Kalimantan Tengah
766,74873,Kanamit,62.11.06.2006,Maliku,Kabupaten,Pulang Pisau,Kalimantan Tengah
767,74873,Kanamit Barat,62.11.06.2004,Maliku,Kabupaten,Pulang Pisau,Kalimantan Tengah
768,74873,Kanamit Jaya,62.11.06.2013,Maliku,Kabupaten,Pulang Pisau,Kalimantan Tengah
769,74873,Maliku Baru,62.11.06.2011,Maliku,Kabupaten,Pulang Pisau,Kalimantan Tengah
770,74873,Maliku Mulya,62.11.06.2015,Maliku,Kabupaten,Pulang Pisau,Kalimantan Tengah
771,74873,Purwodadi,62.11.06.2002,Maliku,Kabupaten,Pulang Pisau,Kalimantan Tengah
772,74873,Sei/Sungai Baru Tewu,62.11.06.2005,Maliku,Kabupaten,Pulang Pisau,Kalimantan Tengah
773,74873,Sidodadi,62.11.06.2012,Maliku,Kabupaten,Pulang Pisau,Kalimantan Tengah
774,74873,Tahai Baru,62.11.06.2010,Maliku,Kabupaten,Pulang Pisau,Kalimantan Tengah
775,74873,Tahai Jaya,62.11.06.2001,Maliku,Kabupaten,Pulang Pisau,Kalimantan Tengah
776,74873,Wono Agung (Wonoagung),62.11.06.2003,Maliku,Kabupaten,Pulang Pisau,Kalimantan Tengah
777,73992,Batu Bua I,62.12.03.1031,Laung Tuhup,Kabupaten,Murung Raya,Kalimantan Tengah
778,73992,Batu Bua II,62.12.03.2032,Laung Tuhup,Kabupaten,Murung Raya,Kalimantan Tengah
779,73992,Batu Karang,62.12.03.2037,Laung Tuhup,Kabupaten,Murung Raya,Kalimantan Tengah
780,73992,Batu Tuhup,62.12.03.2001,Laung Tuhup,Kabupaten,Murung Raya,Kalimantan Tengah
781,73992,Beralang,62.12.03.2029,Laung Tuhup,Kabupaten,Murung Raya,Kalimantan Tengah
782,73992,Beras Balange (Beras Belange),62.12.03.2005,Laung Tuhup,Kabupaten,Murung Raya,Kalimantan Tengah
783,73992,Biha,62.12.03.2011,Laung Tuhup,Kabupaten,Murung Raya,Kalimantan Tengah
784,73992,Dirung Pinang,62.12.03.2013,Laung Tuhup,Kabupaten,Murung Raya,Kalimantan Tengah
785,73992,Dirung Pundu,62.12.03.2012,Laung Tuhup,Kabupaten,Murung Raya,Kalimantan Tengah
786,73992,Kalang Dohong (Kalang Duhung),62.12.03.2030,Laung Tuhup,Kabupaten,Murung Raya,Kalimantan Tengah
787,73992,Lakutan,62.12.03.2017,Laung Tuhup,Kabupaten,Murung Raya,Kalimantan Tengah
788,73992,Muara Laung I,62.12.03.1003,Laung Tuhup,Kabupaten,Murung Raya,Kalimantan Tengah
789,73992,Muara Laung II,62.12.03.2004,Laung Tuhup,Kabupaten,Murung Raya,Kalimantan Tengah
790,73992,Muara Maruwei I,62.12.03.2027,Laung Tuhup,Kabupaten,Murung Raya,Kalimantan Tengah
791,73992,Muara Maruwei II,62.12.03.2028,Laung Tuhup,Kabupaten,Murung Raya,Kalimantan Tengah
792,73992,Muara Tuhup,62.12.03.1006,Laung Tuhup,Kabupaten,Murung Raya,Kalimantan Tengah
793,73992,Muara Tupuh,62.12.03.2014,Laung Tuhup,Kabupaten,Murung Raya,Kalimantan Tengah
794,73992,Narui,62.12.03.2015,Laung Tuhup,Kabupaten,Murung Raya,Kalimantan Tengah
795,73992,Pelaci,62.12.03.2010,Laung Tuhup,Kabupaten,Murung Raya,Kalimantan Tengah
796,73992,Penda Siron,62.12.03.2026,Laung Tuhup,Kabupaten,Murung Raya,Kalimantan Tengah
797,73992,Tahujan Laung,62.12.03.2033,Laung Tuhup,Kabupaten,Murung Raya,Kalimantan Tengah
798,73992,Tawai Haui,62.12.03.2018,Laung Tuhup,Kabupaten,Murung Raya,Kalimantan Tengah
799,73992,Tumbang Bahan,62.12.03.2002,Laung Tuhup,Kabupaten,Murung Raya,Kalimantan Tengah
800,73992,Tumbang Bana,62.12.03.2016,Laung Tuhup,Kabupaten,Murung Raya,Kalimantan Tengah
801,73992,Tumbang Bondang,62.12.03.2034,Laung Tuhup,Kabupaten,Murung Raya,Kalimantan Tengah
802,73992,Tumbang Tonduk,62.12.03.2035,Laung Tuhup,Kabupaten,Murung Raya,Kalimantan Tengah
803,74660,Bakonsu,62.09.01.2009,Lamandau,Kabupaten,Lamandau,Kalimantan Tengah
804,74660,Cuhai,62.09.01.2003,Lamandau,Kabupaten,Lamandau,Kalimantan Tengah
805,74660,Karang Taba,62.09.01.2005,Lamandau,Kabupaten,Lamandau,Kalimantan Tengah
806,74660,Kawa,62.09.01.2004,Lamandau,Kabupaten,Lamandau,Kalimantan Tengah
807,74660,Penopa (Panopa),62.09.01.2006,Lamandau,Kabupaten,Lamandau,Kalimantan Tengah
808,74660,Samu Jaya,62.09.01.2022,Lamandau,Kabupaten,Lamandau,Kalimantan Tengah
809,74660,Sekoban,62.09.01.2008,Lamandau,Kabupaten,Lamandau,Kalimantan Tengah
810,74660,Suja,62.09.01.2007,Lamandau,Kabupaten,Lamandau,Kalimantan Tengah
811,74660,Sungai Tuat,62.09.01.2001,Lamandau,Kabupaten,Lamandau,Kalimantan Tengah
812,74660,Tanjung Beringin,62.09.01.2002,Lamandau,Kabupaten,Lamandau,Kalimantan Tengah
813,74660,Tapin Bini,62.09.01.1012,Lamandau,Kabupaten,Lamandau,Kalimantan Tengah
814,73853,Benao Hilir,62.05.09.2009,Lahei Barat,Kabupaten,Barito Utara,Kalimantan Tengah
815,73853,Benao Hulu,62.05.09.2010,Lahei Barat,Kabupaten,Barito Utara,Kalimantan Tengah
816,73853,Jangkang Baru,62.05.09.2005,Lahei Barat,Kabupaten,Barito Utara,Kalimantan Tengah
817,73853,Jangkang Lama,62.05.09.2006,Lahei Barat,Kabupaten,Barito Utara,Kalimantan Tengah
818,73853,Karamuan,62.05.09.2011,Lahei Barat,Kabupaten,Barito Utara,Kalimantan Tengah
819,73853,Luwe Hilir,62.05.09.2003,Lahei Barat,Kabupaten,Barito Utara,Kalimantan Tengah
820,73853,Luwe Hulu,62.05.09.2004,Lahei Barat,Kabupaten,Barito Utara,Kalimantan Tengah
821,73853,Nihan Hilir,62.05.09.2001,Lahei Barat,Kabupaten,Barito Utara,Kalimantan Tengah
822,73853,Nihan Hulu,62.05.09.2002,Lahei Barat,Kabupaten,Barito Utara,Kalimantan Tengah
823,73853,Papar Pujung,62.05.09.2007,Lahei Barat,Kabupaten,Barito Utara,Kalimantan Tengah
824,73853,Teluk Malewai,62.05.09.2008,Lahei Barat,Kabupaten,Barito Utara,Kalimantan Tengah
825,73852,Bengahon,62.05.06.2019,Lahei,Kabupaten,Barito Utara,Kalimantan Tengah
826,73852,Haragandang,62.05.06.2022,Lahei,Kabupaten,Barito Utara,Kalimantan Tengah
827,73852,Hurung Enep,62.05.06.2024,Lahei,Kabupaten,Barito Utara,Kalimantan Tengah
828,73852,Ipu,62.05.06.2001,Lahei,Kabupaten,Barito Utara,Kalimantan Tengah
829,73852,Juju Baru,62.05.06.2017,Lahei,Kabupaten,Barito Utara,Kalimantan Tengah
830,73852,Karendan,62.05.06.2023,Lahei,Kabupaten,Barito Utara,Kalimantan Tengah
831,73852,Lahei I,62.05.06.1015,Lahei,Kabupaten,Barito Utara,Kalimantan Tengah
832,73852,Lahei II,62.05.06.1016,Lahei,Kabupaten,Barito Utara,Kalimantan Tengah
833,73852,Muara Bakah,62.05.06.2014,Lahei,Kabupaten,Barito Utara,Kalimantan Tengah
834,73852,Muara Inu,62.05.06.2018,Lahei,Kabupaten,Barito Utara,Kalimantan Tengah
835,73852,Muara Pari,62.05.06.2021,Lahei,Kabupaten,Barito Utara,Kalimantan Tengah
836,73852,Mukut,62.05.06.2002,Lahei,Kabupaten,Barito Utara,Kalimantan Tengah
837,73852,Rahaden,62.05.06.2020,Lahei,Kabupaten,Barito Utara,Kalimantan Tengah
838,74511,Hurung Bunut,62.10.02.2009,Kurun,Kabupaten,Gunung Mas,Kalimantan Tengah
839,74511,Kurun (Kuala Kurun),62.10.02.1012,Kurun,Kabupaten,Gunung Mas,Kalimantan Tengah
840,74511,Penda Pilang,62.10.02.2014,Kurun,Kabupaten,Gunung Mas,Kalimantan Tengah
841,74511,Petak Bahandang,62.10.02.2002,Kurun,Kabupaten,Gunung Mas,Kalimantan Tengah
842,74511,Pilang Munduk,62.10.02.2011,Kurun,Kabupaten,Gunung Mas,Kalimantan Tengah
843,74511,Tanjung Riu,62.10.02.2003,Kurun,Kabupaten,Gunung Mas,Kalimantan Tengah
844,74511,Teluk Nyatu,62.10.02.2004,Kurun,Kabupaten,Gunung Mas,Kalimantan Tengah
845,74511,Tewang Pajangan,62.10.02.2006,Kurun,Kabupaten,Gunung Mas,Kalimantan Tengah
846,74511,Tumbang Anjir,62.10.02.1001,Kurun,Kabupaten,Gunung Mas,Kalimantan Tengah
847,74511,Tumbang Hakau,62.10.02.2010,Kurun,Kabupaten,Gunung Mas,Kalimantan Tengah
848,74511,Tumbang Lampaung/Lampahung,62.10.02.2005,Kurun,Kabupaten,Gunung Mas,Kalimantan Tengah
849,74511,Tumbang Manyangan,62.10.02.2013,Kurun,Kabupaten,Gunung Mas,Kalimantan Tengah
850,74511,Tumbang Miwan,62.10.02.2008,Kurun,Kabupaten,Gunung Mas,Kalimantan Tengah
851,74511,Tumbang Tambirah,62.10.02.2015,Kurun,Kabupaten,Gunung Mas,Kalimantan Tengah
852,74511,Tumbang Tariak,62.10.02.2007,Kurun,Kabupaten,Gunung Mas,Kalimantan Tengah
853,74181,Batu Belaman,62.01.01.2009,Kumai,Kabupaten,Kotawaringin Barat,Kalimantan Tengah
854,74181,Bumi Harjo,62.01.01.2017,Kumai,Kabupaten,Kotawaringin Barat,Kalimantan Tengah
855,74181,Candi,62.01.01.1011,Kumai,Kabupaten,Kotawaringin Barat,Kalimantan Tengah
856,74181,Keraya,62.01.01.2004,Kumai,Kabupaten,Kotawaringin Barat,Kalimantan Tengah
857,74181,Kubu,62.01.01.2007,Kumai,Kabupaten,Kotawaringin Barat,Kalimantan Tengah
858,74181,Kumai Hilir,62.01.01.1013,Kumai,Kabupaten,Kotawaringin Barat,Kalimantan Tengah
859,74181,Kumai Hulu,62.01.01.1012,Kumai,Kabupaten,Kotawaringin Barat,Kalimantan Tengah
860,74181,Pangkalan Satu,62.01.01.2032,Kumai,Kabupaten,Kotawaringin Barat,Kalimantan Tengah
861,74181,Sabuai (Sebuai),62.01.01.2003,Kumai,Kabupaten,Kotawaringin Barat,Kalimantan Tengah
862,74181,Sebuai Timur (Sabuai Timur),62.01.01.2034,Kumai,Kabupaten,Kotawaringin Barat,Kalimantan Tengah
863,74181,Sei/Sungai Bakau,62.01.01.2006,Kumai,Kabupaten,Kotawaringin Barat,Kalimantan Tengah
864,74181,Sei/Sungai Bedaun,62.01.01.2015,Kumai,Kabupaten,Kotawaringin Barat,Kalimantan Tengah
865,74181,Sei/Sungai Cabang,62.01.01.2001,Kumai,Kabupaten,Kotawaringin Barat,Kalimantan Tengah
866,74181,Sei/Sungai Kapitan,62.01.01.2008,Kumai,Kabupaten,Kotawaringin Barat,Kalimantan Tengah
867,74181,Sei/Sungai Sekonyer,62.01.01.2014,Kumai,Kabupaten,Kotawaringin Barat,Kalimantan Tengah
868,74181,Sei/Sungai Tendang,62.01.01.2010,Kumai,Kabupaten,Kotawaringin Barat,Kalimantan Tengah
869,74181,Teluk Bogam,62.01.01.2005,Kumai,Kabupaten,Kotawaringin Barat,Kalimantan Tengah
870,74181,Teluk Pulai,62.01.01.2002,Kumai,Kabupaten,Kotawaringin Barat,Kalimantan Tengah
871,74161,Babual Baboti,62.01.03.2001,Kotawaringin Lama,Kabupaten,Kotawaringin Barat,Kalimantan Tengah
872,74161,Dawak,62.01.03.2005,Kotawaringin Lama,Kabupaten,Kotawaringin Barat,Kalimantan Tengah
873,74161,Ipuh Bangun Jaya,62.01.03.2016,Kotawaringin Lama,Kabupaten,Kotawaringin Barat,Kalimantan Tengah
874,74161,Kinjil,62.01.03.2004,Kotawaringin Lama,Kabupaten,Kotawaringin Barat,Kalimantan Tengah
875,74161,Kondang,62.01.03.2011,Kotawaringin Lama,Kabupaten,Kotawaringin Barat,Kalimantan Tengah
876,74161,Kotawaringin Hilir (Kota Waringin Hilir),62.01.03.1008,Kotawaringin Lama,Kabupaten,Kotawaringin Barat,Kalimantan Tengah
877,74161,Kotawaringin Hulu,62.01.03.1007,Kotawaringin Lama,Kabupaten,Kotawaringin Barat,Kalimantan Tengah
878,74161,Lalang,62.01.03.2009,Kotawaringin Lama,Kabupaten,Kotawaringin Barat,Kalimantan Tengah
879,74161,Palih Baru,62.01.03.2015,Kotawaringin Lama,Kabupaten,Kotawaringin Barat,Kalimantan Tengah
880,74161,Riam Durian,62.01.03.2006,Kotawaringin Lama,Kabupaten,Kotawaringin Barat,Kalimantan Tengah
881,74161,Rungun,62.01.03.2010,Kotawaringin Lama,Kabupaten,Kotawaringin Barat,Kalimantan Tengah
882,74161,Sagu Suka Mulya (Sagu / Dusun Sukamulya),62.01.03.2017,Kotawaringin Lama,Kabupaten,Kotawaringin Barat,Kalimantan Tengah
883,74161,Sakabulin,62.01.03.2003,Kotawaringin Lama,Kabupaten,Kotawaringin Barat,Kalimantan Tengah
884,74161,Suka Jaya (Sukajaya),62.01.03.2012,Kotawaringin Lama,Kabupaten,Kotawaringin Barat,Kalimantan Tengah
885,74161,Suka Makmur,62.01.03.2013,Kotawaringin Lama,Kabupaten,Kotawaringin Barat,Kalimantan Tengah
886,74161,Sumber Mukti,62.01.03.2014,Kotawaringin Lama,Kabupaten,Kotawaringin Barat,Kalimantan Tengah
887,74161,Tempayung,62.01.03.2002,Kotawaringin Lama,Kabupaten,Kotawaringin Barat,Kalimantan Tengah
888,74353,Bajarum,62.02.01.2012,Kota Besi,Kabupaten,Kotawaringin Timur,Kalimantan Tengah
889,74353,Camba,62.02.01.2007,Kota Besi,Kabupaten,Kotawaringin Timur,Kalimantan Tengah
890,74353,Hanjalipan,62.02.01.2004,Kota Besi,Kabupaten,Kotawaringin Timur,Kalimantan Tengah
891,74353,Kandan,62.02.01.2008,Kota Besi,Kabupaten,Kotawaringin Timur,Kalimantan Tengah
892,74353,Kota Besi Hilir,62.02.01.1010,Kota Besi,Kabupaten,Kotawaringin Timur,Kalimantan Tengah
893,74353,Kota Besi Hulu,62.02.01.1009,Kota Besi,Kabupaten,Kotawaringin Timur,Kalimantan Tengah
894,74353,Palangan,62.02.01.2003,Kota Besi,Kabupaten,Kotawaringin Timur,Kalimantan Tengah
895,74353,Pamalian,62.02.01.2006,Kota Besi,Kabupaten,Kotawaringin Timur,Kalimantan Tengah
896,74353,Rasau Tumbuh,62.02.01.2015,Kota Besi,Kabupaten,Kotawaringin Timur,Kalimantan Tengah
897,74353,Simpur,62.02.01.2005,Kota Besi,Kabupaten,Kotawaringin Timur,Kalimantan Tengah
898,74353,Soren,62.02.01.2017,Kota Besi,Kabupaten,Kotawaringin Timur,Kalimantan Tengah
899,74454,Batu Badinding,62.06.05.2010,Katingan Tengah,Kabupaten,Katingan,Kalimantan Tengah
900,74454,Mirah Kalanaman,62.06.05.2012,Katingan Tengah,Kabupaten,Katingan,Kalimantan Tengah
901,74454,Napu Sahur,62.06.05.2008,Katingan Tengah,Kabupaten,Katingan,Kalimantan Tengah
902,74454,Petak Puti,62.06.05.2003,Katingan Tengah,Kabupaten,Katingan,Kalimantan Tengah
903,74454,Rantau Asem,62.06.05.2011,Katingan Tengah,Kabupaten,Katingan,Kalimantan Tengah
904,74454,Samba Bakumpai,62.06.05.2006,Katingan Tengah,Kabupaten,Katingan,Kalimantan Tengah
905,74454,Samba Danum,62.06.05.2005,Katingan Tengah,Kabupaten,Katingan,Kalimantan Tengah
906,74454,Samba Kahayan,62.06.05.1009,Katingan Tengah,Kabupaten,Katingan,Kalimantan Tengah
907,74454,Samba Katung,62.06.05.2007,Katingan Tengah,Kabupaten,Katingan,Kalimantan Tengah
908,74454,Telok,62.06.05.2004,Katingan Tengah,Kabupaten,Katingan,Kalimantan Tengah
909,74454,Tewang Panjang,62.06.05.2002,Katingan Tengah,Kabupaten,Katingan,Kalimantan Tengah
910,74454,Tumbang Hangei,62.06.05.2015,Katingan Tengah,Kabupaten,Katingan,Kalimantan Tengah
911,74454,Tumbang Kalemei (Tumbang Kalamei),62.06.05.2013,Katingan Tengah,Kabupaten,Katingan,Kalimantan Tengah
912,74454,Tumbang Lahang,62.06.05.2001,Katingan Tengah,Kabupaten,Katingan,Kalimantan Tengah
913,74454,Tumbang Marak,62.06.05.2014,Katingan Tengah,Kabupaten,Katingan,Kalimantan Tengah
914,74454,Tumbang Pariyei,62.06.05.2016,Katingan Tengah,Kabupaten,Katingan,Kalimantan Tengah
915,74463,Bakung Raya,62.06.10.2016,Katingan Kuala,Kabupaten,Katingan,Kalimantan Tengah
916,74463,Bangun Jaya (Mangun Jaya),62.06.10.2008,Katingan Kuala,Kabupaten,Katingan,Kalimantan Tengah
917,74463,Bumi Subur,62.06.10.2015,Katingan Kuala,Kabupaten,Katingan,Kalimantan Tengah
918,74463,Jaya Makmur,62.06.10.2005,Katingan Kuala,Kabupaten,Katingan,Kalimantan Tengah
919,74463,Kampung Baru,62.06.10.2007,Katingan Kuala,Kabupaten,Katingan,Kalimantan Tengah
920,74463,Kampung Keramat (Kampung Melayu),62.06.10.2003,Katingan Kuala,Kabupaten,Katingan,Kalimantan Tengah
921,74463,Kampung Tengah,62.06.10.2004,Katingan Kuala,Kabupaten,Katingan,Kalimantan Tengah
922,74463,Makmur Utama,62.06.10.2014,Katingan Kuala,Kabupaten,Katingan,Kalimantan Tengah
923,74463,Pegatan/Pagatan Hilir,62.06.10.1001,Katingan Kuala,Kabupaten,Katingan,Kalimantan Tengah
924,74463,Pegatan/Pagatan Hulu,62.06.10.1002,Katingan Kuala,Kabupaten,Katingan,Kalimantan Tengah
925,74463,Sebangau Jaya,62.06.10.2011,Katingan Kuala,Kabupaten,Katingan,Kalimantan Tengah
926,74463,Selat Baning,62.06.10.2013,Katingan Kuala,Kabupaten,Katingan,Kalimantan Tengah
927,74463,Setia Mulia,62.06.10.2009,Katingan Kuala,Kabupaten,Katingan,Kalimantan Tengah
928,74463,Singam Raya,62.06.10.2010,Katingan Kuala,Kabupaten,Katingan,Kalimantan Tengah
929,74463,Subur Indah,62.06.10.2006,Katingan Kuala,Kabupaten,Katingan,Kalimantan Tengah
930,74463,Sungai Kaki,62.06.10.2012,Katingan Kuala,Kabupaten,Katingan,Kalimantan Tengah
931,74458,Batu Bango,62.06.08.2012,Katingan Hulu,Kabupaten,Katingan,Kalimantan Tengah
932,74458,Dehes Asem,62.06.08.2004,Katingan Hulu,Kabupaten,Katingan,Kalimantan Tengah
933,74458,Kiham Batang,62.06.08.2001,Katingan Hulu,Kabupaten,Katingan,Kalimantan Tengah
934,74458,Kuluk Sepangi/Sapangi,62.06.08.2005,Katingan Hulu,Kabupaten,Katingan,Kalimantan Tengah
935,74458,Penda Tanggaring Baru (Penda Tangaring Baru),62.06.08.2031,Katingan Hulu,Kabupaten,Katingan,Kalimantan Tengah
936,74458,Penda Tanggaring Lama (Penda Tangaring Lama),62.06.08.2030,Katingan Hulu,Kabupaten,Katingan,Kalimantan Tengah
937,74458,Rangan Kawit,62.06.08.2003,Katingan Hulu,Kabupaten,Katingan,Kalimantan Tengah
938,74458,Rangan Ranjing,62.06.08.2010,Katingan Hulu,Kabupaten,Katingan,Kalimantan Tengah
939,74458,Rantau Bahai,62.06.08.2009,Katingan Hulu,Kabupaten,Katingan,Kalimantan Tengah
940,74458,Rantau Puka,62.06.08.2008,Katingan Hulu,Kabupaten,Katingan,Kalimantan Tengah
941,74458,Sei/Sungai Nanjan,62.06.08.2015,Katingan Hulu,Kabupaten,Katingan,Kalimantan Tengah
942,74458,Teluk Tampang (Telok Tampang),62.06.08.2032,Katingan Hulu,Kabupaten,Katingan,Kalimantan Tengah
943,74458,Tumbang Hangei II,62.06.08.2013,Katingan Hulu,Kabupaten,Katingan,Kalimantan Tengah
944,74458,Tumbang Jiga,62.06.08.2016,Katingan Hulu,Kabupaten,Katingan,Kalimantan Tengah
945,74458,Tumbang Kabayan/Kabayang,62.06.08.2002,Katingan Hulu,Kabupaten,Katingan,Kalimantan Tengah
946,74458,Tumbang Kuai,62.06.08.2006,Katingan Hulu,Kabupaten,Katingan,Kalimantan Tengah
947,74458,Tumbang Labaning,62.06.08.2011,Katingan Hulu,Kabupaten,Katingan,Kalimantan Tengah
948,74458,Tumbang Mahop/Mahup,62.06.08.2019,Katingan Hulu,Kabupaten,Katingan,Kalimantan Tengah
949,74458,Tumbang Manangei,62.06.08.2033,Katingan Hulu,Kabupaten,Katingan,Kalimantan Tengah
950,74458,Tumbang Mangketai,62.06.08.2017,Katingan Hulu,Kabupaten,Katingan,Kalimantan Tengah
951,74458,Tumbang Sabetung,62.06.08.2020,Katingan Hulu,Kabupaten,Katingan,Kalimantan Tengah
952,74458,Tumbang Salaman,62.06.08.2007,Katingan Hulu,Kabupaten,Katingan,Kalimantan Tengah
953,74458,Tumbang Sanamang (Tumbang Senamang I),62.06.08.1014,Katingan Hulu,Kabupaten,Katingan,Kalimantan Tengah
954,74413,Banut Kalanaman,62.06.02.2006,Katingan Hilir,Kabupaten,Katingan,Kalimantan Tengah
955,74413,Hampalit,62.06.02.2008,Katingan Hilir,Kabupaten,Katingan,Kalimantan Tengah
956,74413,Kasongan Baru,62.06.02.1003,Katingan Hilir,Kabupaten,Katingan,Kalimantan Tengah
957,74413,Kasongan Lama,62.06.02.1004,Katingan Hilir,Kabupaten,Katingan,Kalimantan Tengah
958,74413,Talangkah (Telangkah),62.06.02.2007,Katingan Hilir,Kabupaten,Katingan,Kalimantan Tengah
959,74413,Talian Kereng,62.06.02.2005,Katingan Hilir,Kabupaten,Katingan,Kalimantan Tengah
960,74413,Tewang Kadamba,62.06.02.2001,Katingan Hilir,Kabupaten,Katingan,Kalimantan Tengah
961,74413,Tumbang Liting,62.06.02.2002,Katingan Hilir,Kabupaten,Katingan,Kalimantan Tengah
962,73650,Dayu,62.13.10.2001,Karusen Janang,Kabupaten,Barito Timur,Kalimantan Tengah
963,73650,Ipu Mea,62.13.10.2003,Karusen Janang,Kabupaten,Barito Timur,Kalimantan Tengah
964,73650,Kandris,62.13.10.2007,Karusen Janang,Kabupaten,Barito Timur,Kalimantan Tengah
965,73650,Lagan,62.13.10.2004,Karusen Janang,Kabupaten,Barito Timur,Kalimantan Tengah
966,73650,Putut Tawuluh,62.13.10.2005,Karusen Janang,Kabupaten,Barito Timur,Kalimantan Tengah
967,73650,Simpang Naneng,62.13.10.2006,Karusen Janang,Kabupaten,Barito Timur,Kalimantan Tengah
968,73650,Wuran,62.13.10.2002,Karusen Janang,Kabupaten,Barito Timur,Kalimantan Tengah
969,73761,Babai,62.04.03.2004,Karau Kuala,Kabupaten,Barito Selatan,Kalimantan Tengah
970,73761,Bangkuang,62.04.03.1002,Karau Kuala,Kabupaten,Barito Selatan,Kalimantan Tengah
971,73761,Bintang Kurung,62.04.03.2010,Karau Kuala,Kabupaten,Barito Selatan,Kalimantan Tengah
972,73761,Janggi,62.04.03.2005,Karau Kuala,Kabupaten,Barito Selatan,Kalimantan Tengah
973,73761,Malitin,62.04.03.2006,Karau Kuala,Kabupaten,Barito Selatan,Kalimantan Tengah
974,73761,Muara Arai,62.04.03.2007,Karau Kuala,Kabupaten,Barito Selatan,Kalimantan Tengah
975,73761,Salat Baru (Selat Baru),62.04.03.2001,Karau Kuala,Kabupaten,Barito Selatan,Kalimantan Tengah
976,73761,Talio,62.04.03.2008,Karau Kuala,Kabupaten,Barito Selatan,Kalimantan Tengah
977,73761,Tampijak,62.04.03.2009,Karau Kuala,Kabupaten,Barito Selatan,Kalimantan Tengah
978,73761,Teluk Betung,62.04.03.2003,Karau Kuala,Kabupaten,Barito Selatan,Kalimantan Tengah
979,73761,Teluk Sampudau,62.04.03.2011,Karau Kuala,Kabupaten,Barito Selatan,Kalimantan Tengah
980,73581,Anjir Mambulau Barat,62.03.03.2006,Kapuas Timur,Kabupaten,Kapuas,Kalimantan Tengah
981,73581,Anjir Mambulau Tengah,62.03.03.2005,Kapuas Timur,Kabupaten,Kapuas,Kalimantan Tengah
982,73581,Anjir Mambulau Timur,62.03.03.2004,Kapuas Timur,Kabupaten,Kapuas,Kalimantan Tengah
983,73581,Anjir Serapat Barat,62.03.03.2003,Kapuas Timur,Kabupaten,Kapuas,Kalimantan Tengah
984,73581,Anjir Serapat Baru,62.03.03.2007,Kapuas Timur,Kabupaten,Kapuas,Kalimantan Tengah
985,73581,Anjir Serapat Tengah,62.03.03.2002,Kapuas Timur,Kabupaten,Kapuas,Kalimantan Tengah
986,73581,Anjir Serapat Timur,62.03.03.2001,Kapuas Timur,Kabupaten,Kapuas,Kalimantan Tengah
987,73555,Bajuh,62.03.11.2010,Kapuas Tengah,Kabupaten,Kapuas,Kalimantan Tengah
988,73555,Barunang,62.03.11.2011,Kapuas Tengah,Kabupaten,Kapuas,Kalimantan Tengah
989,73555,Buhut Jaya,62.03.11.2019,Kapuas Tengah,Kabupaten,Kapuas,Kalimantan Tengah
990,73555,Hurung Pukung,62.03.11.2021,Kapuas Tengah,Kabupaten,Kapuas,Kalimantan Tengah
991,73555,Karukus,62.03.11.2009,Kapuas Tengah,Kabupaten,Kapuas,Kalimantan Tengah
992,73555,Kayu Bulan,62.03.11.2002,Kapuas Tengah,Kabupaten,Kapuas,Kalimantan Tengah
993,73555,Kota Baru,62.03.11.2003,Kapuas Tengah,Kabupaten,Kapuas,Kalimantan Tengah
994,73555,Manis,62.03.11.2008,Kapuas Tengah,Kabupaten,Kapuas,Kalimantan Tengah
995,73555,Marapit (Merapit),62.03.11.2007,Kapuas Tengah,Kabupaten,Kapuas,Kalimantan Tengah
996,73555,Masaran,62.03.11.2001,Kapuas Tengah,Kabupaten,Kapuas,Kalimantan Tengah
997,73555,Penda Muntei,62.03.11.2004,Kapuas Tengah,Kabupaten,Kapuas,Kalimantan Tengah
998,73555,Pujon,62.03.11.2006,Kapuas Tengah,Kabupaten,Kapuas,Kalimantan Tengah
999,73555,Tapen,62.03.11.2005,Kapuas Tengah,Kabupaten,Kapuas,Kalimantan Tengah
1000,73594,Belawang,62.03.07.2006,Kapuas Murung,Kabupaten,Kapuas,Kalimantan Tengah
1001,73594,Bina Karya,62.03.07.2023,Kapuas Murung,Kabupaten,Kapuas,Kalimantan Tengah
1002,73594,Bina Mekar,62.03.07.2024,Kapuas Murung,Kabupaten,Kapuas,Kalimantan Tengah
1003,73594,Bina Sejahtera,62.03.07.2020,Kapuas Murung,Kabupaten,Kapuas,Kalimantan Tengah
1004,73594,Bumi Rahayu,62.03.07.2027,Kapuas Murung,Kabupaten,Kapuas,Kalimantan Tengah
1005,73594,Karya Bersama,62.03.07.2015,Kapuas Murung,Kabupaten,Kapuas,Kalimantan Tengah
1006,73594,Mampai,62.03.07.2004,Kapuas Murung,Kabupaten,Kapuas,Kalimantan Tengah
1007,73594,Manggala Permai (Mangala Permai),62.03.07.2028,Kapuas Murung,Kabupaten,Kapuas,Kalimantan Tengah
1008,73594,Muara Dadahup,62.03.07.2005,Kapuas Murung,Kabupaten,Kapuas,Kalimantan Tengah
1009,73594,Palangkau Baru,62.03.07.2010,Kapuas Murung,Kabupaten,Kapuas,Kalimantan Tengah
1010,73594,Palangkau Lama,62.03.07.2008,Kapuas Murung,Kabupaten,Kapuas,Kalimantan Tengah
1011,73594,Palingkau Asri,62.03.07.2017,Kapuas Murung,Kabupaten,Kapuas,Kalimantan Tengah
1012,73594,Palingkau Baru,62.03.07.1001,Kapuas Murung,Kabupaten,Kapuas,Kalimantan Tengah
1013,73594,Palingkau Jaya,62.03.07.2016,Kapuas Murung,Kabupaten,Kapuas,Kalimantan Tengah
1014,73594,Palingkau Lama,62.03.07.1002,Kapuas Murung,Kabupaten,Kapuas,Kalimantan Tengah
1015,73594,Palingkau Sejahtera,62.03.07.2018,Kapuas Murung,Kabupaten,Kapuas,Kalimantan Tengah
1016,73594,Rawa Subur,62.03.07.2025,Kapuas Murung,Kabupaten,Kapuas,Kalimantan Tengah
1017,73594,Saka Binjai,62.03.07.2019,Kapuas Murung,Kabupaten,Kapuas,Kalimantan Tengah
1018,73594,Suka Mukti,62.03.07.2022,Kapuas Murung,Kabupaten,Kapuas,Kalimantan Tengah
1019,73594,Suka Reja,62.03.07.2021,Kapuas Murung,Kabupaten,Kapuas,Kalimantan Tengah
1020,73594,Sumber Mulya (Sumber Mulia),62.03.07.2026,Kapuas Murung,Kabupaten,Kapuas,Kalimantan Tengah
1021,73594,Tajepan,62.03.07.2003,Kapuas Murung,Kabupaten,Kapuas,Kalimantan Tengah
1022,73594,Talekung Punei (Talekung Punai),62.03.07.2014,Kapuas Murung,Kabupaten,Kapuas,Kalimantan Tengah
1023,73583,Baranggau,62.03.04.2020,Kapuas Kuala,Kabupaten,Kapuas,Kalimantan Tengah
1024,73583,Batanjung,62.03.04.2001,Kapuas Kuala,Kabupaten,Kapuas,Kalimantan Tengah
1025,73583,Cemara Labat,62.03.04.2002,Kapuas Kuala,Kabupaten,Kapuas,Kalimantan Tengah
1026,73583,Lupak Dalam,62.03.04.2005,Kapuas Kuala,Kabupaten,Kapuas,Kalimantan Tengah
1027,73583,Lupak Timur,62.03.04.2014,Kapuas Kuala,Kabupaten,Kapuas,Kalimantan Tengah
1028,73583,Palampai,62.03.04.2003,Kapuas Kuala,Kabupaten,Kapuas,Kalimantan Tengah
1029,73583,Pematang,62.03.04.2018,Kapuas Kuala,Kabupaten,Kapuas,Kalimantan Tengah
1030,73583,Sei Bakut,62.03.04.2016,Kapuas Kuala,Kabupaten,Kapuas,Kalimantan Tengah
1031,73583,Sei/Sungai Teras,62.03.04.2004,Kapuas Kuala,Kabupaten,Kapuas,Kalimantan Tengah
1032,73583,Simpang Bunga Tanjung,62.03.04.2019,Kapuas Kuala,Kabupaten,Kapuas,Kalimantan Tengah
1033,73583,Tamban Baru Selatan (Tamban Baru Tengah),62.03.04.2008,Kapuas Kuala,Kabupaten,Kapuas,Kalimantan Tengah
1034,73583,Tamban Lupak,62.03.04.2011,Kapuas Kuala,Kabupaten,Kapuas,Kalimantan Tengah
1035,73583,Wargo Mulyo,62.03.04.2015,Kapuas Kuala,Kabupaten,Kapuas,Kalimantan Tengah
1036,74581,Barunang II (Baronang II),62.03.12.2013,Kapuas Hulu,Kabupaten,Kapuas,Kalimantan Tengah
1037,74581,Bulau Ngandung,62.03.12.2005,Kapuas Hulu,Kabupaten,Kapuas,Kalimantan Tengah
1038,74581,Dirung Koram,62.03.12.2021,Kapuas Hulu,Kabupaten,Kapuas,Kalimantan Tengah
1039,74581,Hurung Tabengan,62.03.12.2002,Kapuas Hulu,Kabupaten,Kapuas,Kalimantan Tengah
1040,74581,Hurung Tampang,62.03.12.2014,Kapuas Hulu,Kabupaten,Kapuas,Kalimantan Tengah
1041,74581,Jakatan Pari,62.03.12.2018,Kapuas Hulu,Kabupaten,Kapuas,Kalimantan Tengah
1042,74581,Katanjung,62.03.12.2016,Kapuas Hulu,Kabupaten,Kapuas,Kalimantan Tengah
1043,74581,Mampai Jaya,62.03.12.2022,Kapuas Hulu,Kabupaten,Kapuas,Kalimantan Tengah
1044,74581,Rahung Bungai,62.03.12.2003,Kapuas Hulu,Kabupaten,Kapuas,Kalimantan Tengah
1045,74581,Sei/Sungai Hanyo/Hanyu,62.03.12.2001,Kapuas Hulu,Kabupaten,Kapuas,Kalimantan Tengah
1046,74581,Supang,62.03.12.2015,Kapuas Hulu,Kabupaten,Kapuas,Kalimantan Tengah
1047,74581,Tangirang,62.03.12.2008,Kapuas Hulu,Kabupaten,Kapuas,Kalimantan Tengah
1048,74581,Tumbang Puroh/Puruh,62.03.12.2006,Kapuas Hulu,Kabupaten,Kapuas,Kalimantan Tengah
1049,74581,Tumbang Sirat,62.03.12.2019,Kapuas Hulu,Kabupaten,Kapuas,Kalimantan Tengah
1050,73525,Bakungin,62.03.02.2006,Kapuas Hilir,Kabupaten,Kapuas,Kalimantan Tengah
1051,73524,Barimba,62.03.02.1004,Kapuas Hilir,Kabupaten,Kapuas,Kalimantan Tengah
1052,73523,Dahirang,62.03.02.1003,Kapuas Hilir,Kabupaten,Kapuas,Kalimantan Tengah
1053,73522,Hampatung,62.03.02.1002,Kapuas Hilir,Kabupaten,Kapuas,Kalimantan Tengah
1054,73521,Mambulau,62.03.02.1001,Kapuas Hilir,Kabupaten,Kapuas,Kalimantan Tengah
1055,73525,Saka Batur,62.03.02.2008,Kapuas Hilir,Kabupaten,Kapuas,Kalimantan Tengah
1056,73525,Sei/Sungai Asam,62.03.02.2007,Kapuas Hilir,Kabupaten,Kapuas,Kalimantan Tengah
1057,73525,Sei/Sungai Pasah,62.03.02.1005,Kapuas Hilir,Kabupaten,Kapuas,Kalimantan Tengah
1058,73552,Anjir Kalampan,62.03.05.2003,Kapuas Barat,Kabupaten,Kapuas,Kalimantan Tengah
1059,73552,Basuta Raya,62.03.05.2012,Kapuas Barat,Kabupaten,Kapuas,Kalimantan Tengah
1060,73552,Maju Bersama,62.03.05.2011,Kapuas Barat,Kabupaten,Kapuas,Kalimantan Tengah
1061,73552,Mandomai,62.03.05.1004,Kapuas Barat,Kabupaten,Kapuas,Kalimantan Tengah
1062,73552,Pantai,62.03.05.2005,Kapuas Barat,Kabupaten,Kapuas,Kalimantan Tengah
1063,73552,Penda Katapi (Penda Ketapi),62.03.05.2007,Kapuas Barat,Kabupaten,Kapuas,Kalimantan Tengah
1064,73552,Saka Mangkahai,62.03.05.2002,Kapuas Barat,Kabupaten,Kapuas,Kalimantan Tengah
1065,73552,Saka Tamiang,62.03.05.2006,Kapuas Barat,Kabupaten,Kapuas,Kalimantan Tengah
1066,73552,Sei Pitung,62.03.05.2010,Kapuas Barat,Kabupaten,Kapuas,Kalimantan Tengah
1067,73552,Sei/Sungai Dusun,62.03.05.2009,Kapuas Barat,Kabupaten,Kapuas,Kalimantan Tengah
1068,73552,Sei/Sungai Kayu,62.03.05.2001,Kapuas Barat,Kabupaten,Kapuas,Kalimantan Tengah
1069,73552,Teluk Hiri,62.03.05.2008,Kapuas Barat,Kabupaten,Kapuas,Kalimantan Tengah
1070,74462,Asem Kumbang,62.06.01.2009,Kamipang,Kabupaten,Katingan,Kalimantan Tengah
1071,74462,Baun Bango,62.06.01.2008,Kamipang,Kabupaten,Katingan,Kalimantan Tengah
1072,74462,Galinggang,62.06.01.2001,Kamipang,Kabupaten,Katingan,Kalimantan Tengah
1073,74462,Jahanjang,62.06.01.2006,Kamipang,Kabupaten,Katingan,Kalimantan Tengah
1074,74462,Karuing,62.06.01.2005,Kamipang,Kabupaten,Katingan,Kalimantan Tengah
1075,74462,Parupuk,62.06.01.2004,Kamipang,Kabupaten,Katingan,Kalimantan Tengah
1076,74462,Tampelas,62.06.01.2002,Kamipang,Kabupaten,Katingan,Kalimantan Tengah
1077,74462,Telaga,62.06.01.2003,Kamipang,Kabupaten,Katingan,Kalimantan Tengah
1078,74462,Tumbang Runen,62.06.01.2007,Kamipang,Kabupaten,Katingan,Kalimantan Tengah
1079,74862,Bahu Palawa,62.11.03.2008,Kahayan Tengah,Kabupaten,Pulang Pisau,Kalimantan Tengah
1080,74862,Balukon (Balukun),62.11.03.2010,Kahayan Tengah,Kabupaten,Pulang Pisau,Kalimantan Tengah
1081,74862,Bereng Rambang (Bareng Rambang),62.11.03.2014,Kahayan Tengah,Kabupaten,Pulang Pisau,Kalimantan Tengah
1082,74862,Bukit Bamba,62.11.03.2011,Kahayan Tengah,Kabupaten,Pulang Pisau,Kalimantan Tengah
1083,74862,Bukit Liti,62.11.03.2007,Kahayan Tengah,Kabupaten,Pulang Pisau,Kalimantan Tengah
1084,74862,Bukit Rawi,62.11.03.2003,Kahayan Tengah,Kabupaten,Pulang Pisau,Kalimantan Tengah
1085,74862,Pamarunan,62.11.03.2009,Kahayan Tengah,Kabupaten,Pulang Pisau,Kalimantan Tengah
1086,74862,Parahangan,62.11.03.2013,Kahayan Tengah,Kabupaten,Pulang Pisau,Kalimantan Tengah
1087,74862,Penda Barania,62.11.03.2002,Kahayan Tengah,Kabupaten,Pulang Pisau,Kalimantan Tengah
1088,74862,Petuk Liti,62.11.03.2006,Kahayan Tengah,Kabupaten,Pulang Pisau,Kalimantan Tengah
1089,74862,Sigi,62.11.03.2005,Kahayan Tengah,Kabupaten,Pulang Pisau,Kalimantan Tengah
1090,74862,Tahawa,62.11.03.2012,Kahayan Tengah,Kabupaten,Pulang Pisau,Kalimantan Tengah
1091,74862,Tanjung Sangalang,62.11.03.2001,Kahayan Tengah,Kabupaten,Pulang Pisau,Kalimantan Tengah
1092,74862,Tuwung,62.11.03.2004,Kahayan Tengah,Kabupaten,Pulang Pisau,Kalimantan Tengah
1093,74872,Bahaur Basantan,62.11.02.1018,Kahayan Kuala,Kabupaten,Pulang Pisau,Kalimantan Tengah
1094,74872,Bahaur Batu Raya,62.11.02.2017,Kahayan Kuala,Kabupaten,Pulang Pisau,Kalimantan Tengah
1095,74872,Bahaur Hilir,62.11.02.2007,Kahayan Kuala,Kabupaten,Pulang Pisau,Kalimantan Tengah
1096,74872,Bahaur Hulu,62.11.02.2009,Kahayan Kuala,Kabupaten,Pulang Pisau,Kalimantan Tengah
1097,74872,Bahaur Hulu Permai,62.11.02.2016,Kahayan Kuala,Kabupaten,Pulang Pisau,Kalimantan Tengah
1098,74872,Bahaur Tengah,62.11.02.2008,Kahayan Kuala,Kabupaten,Pulang Pisau,Kalimantan Tengah
1099,74872,Cemantan (Camatan / Cematan),62.11.02.2001,Kahayan Kuala,Kabupaten,Pulang Pisau,Kalimantan Tengah
1100,74872,Kiapak,62.11.02.2003,Kahayan Kuala,Kabupaten,Pulang Pisau,Kalimantan Tengah
1101,74872,Sei/Sungai Barunai (Papuyu II),62.11.02.2002,Kahayan Kuala,Kabupaten,Pulang Pisau,Kalimantan Tengah
1102,74872,Sei/Sungai Pasanan (Papuyu I),62.11.02.2005,Kahayan Kuala,Kabupaten,Pulang Pisau,Kalimantan Tengah
1103,74872,Sei/Sungai Pudak (Papuyu III),62.11.02.2014,Kahayan Kuala,Kabupaten,Pulang Pisau,Kalimantan Tengah
1104,74872,Sei/Sungai Rungun,62.11.02.2006,Kahayan Kuala,Kabupaten,Pulang Pisau,Kalimantan Tengah
1105,74872,Tanjung Perawan,62.11.02.2015,Kahayan Kuala,Kabupaten,Pulang Pisau,Kalimantan Tengah
1106,74554,Batu Tangkoi (Batu Tangkui),62.10.04.2002,Kahayan Hulu Utara,Kabupaten,Gunung Mas,Kalimantan Tengah
1107,74554,Dandang,62.10.04.2019,Kahayan Hulu Utara,Kabupaten,Gunung Mas,Kalimantan Tengah
1108,74554,Penda Rangas,62.10.04.2005,Kahayan Hulu Utara,Kabupaten,Gunung Mas,Kalimantan Tengah
1109,74554,Teluk Kanduri,62.10.04.2029,Kahayan Hulu Utara,Kabupaten,Gunung Mas,Kalimantan Tengah
1110,74554,Tumbang Hamputung,62.10.04.2020,Kahayan Hulu Utara,Kabupaten,Gunung Mas,Kalimantan Tengah
1111,74554,Tumbang Korik/Kurik,62.10.04.2012,Kahayan Hulu Utara,Kabupaten,Gunung Mas,Kalimantan Tengah
1112,74554,Tumbang Miri,62.10.04.1001,Kahayan Hulu Utara,Kabupaten,Gunung Mas,Kalimantan Tengah
1113,74554,Tumbang Pasangon,62.10.04.2008,Kahayan Hulu Utara,Kabupaten,Gunung Mas,Kalimantan Tengah
1114,74554,Tumbang Ponyoi,62.10.04.2014,Kahayan Hulu Utara,Kabupaten,Gunung Mas,Kalimantan Tengah
1115,74554,Tumbang Sian,62.10.04.2006,Kahayan Hulu Utara,Kabupaten,Gunung Mas,Kalimantan Tengah
1116,74554,Tumbang Tajungan,62.10.04.2021,Kahayan Hulu Utara,Kabupaten,Gunung Mas,Kalimantan Tengah
1117,74554,Tumbang Takaoi (Takaoi),62.10.04.2028,Kahayan Hulu Utara,Kabupaten,Gunung Mas,Kalimantan Tengah
1118,74813,Anjir Pulang Pisau,62.11.05.2004,Kahayan Hilir,Kabupaten,Pulang Pisau,Kalimantan Tengah
1119,74831,Bereng,62.11.05.1016,Kahayan Hilir,Kabupaten,Pulang Pisau,Kalimantan Tengah
1120,74861,Buntoi,62.11.05.2001,Kahayan Hilir,Kabupaten,Pulang Pisau,Kalimantan Tengah
1121,74812,Gohong,62.11.05.2006,Kahayan Hilir,Kabupaten,Pulang Pisau,Kalimantan Tengah
1122,74821,Hanjak Maju,62.11.05.2017,Kahayan Hilir,Kabupaten,Pulang Pisau,Kalimantan Tengah
1123,74841,Kahayan Hilir,62.11.05.1005,Kahayan Hilir,Kabupaten,Pulang Pisau,Kalimantan Tengah
1124,74812,Kalawa,62.11.05.1015,Kahayan Hilir,Kabupaten,Pulang Pisau,Kalimantan Tengah
1125,74861,Mantaren I,62.11.05.2003,Kahayan Hilir,Kabupaten,Pulang Pisau,Kalimantan Tengah
1126,74861,Mantaren II,62.11.05.2014,Kahayan Hilir,Kabupaten,Pulang Pisau,Kalimantan Tengah
1127,74816,Mintin,62.11.05.2002,Kahayan Hilir,Kabupaten,Pulang Pisau,Kalimantan Tengah
1128,73763,Rangga Ilung,62.04.01.2004,Jenamas,Kabupaten,Barito Selatan,Kalimantan Tengah
1129,73763,Rantau Bahuang,62.04.01.2002,Jenamas,Kabupaten,Barito Selatan,Kalimantan Tengah
1130,73763,Rantau Kujang,62.04.01.1003,Jenamas,Kabupaten,Barito Selatan,Kalimantan Tengah
1131,73763,Tabatan,62.04.01.2005,Jenamas,Kabupaten,Barito Selatan,Kalimantan Tengah
1132,73763,Tampulang,62.04.01.2001,Jenamas,Kabupaten,Barito Selatan,Kalimantan Tengah
1133,74171,Kuala Jelai,62.08.02.1001,Jelai,Kabupaten,Sukamara,Kalimantan Tengah
1134,74171,Pulau Nibung,62.08.02.2002,Jelai,Kabupaten,Sukamara,Kalimantan Tengah
1135,74171,Sei/Sungai Baru,62.08.02.2003,Jelai,Kabupaten,Sukamara,Kalimantan Tengah
1136,74171,Sei/Sungai Bundung,62.08.02.2004,Jelai,Kabupaten,Sukamara,Kalimantan Tengah
1137,74171,Sei/Sungai Raja,62.08.02.2005,Jelai,Kabupaten,Sukamara,Kalimantan Tengah
1138,73112,Bukit Tunggal,62.71.03.1003,Jekan Raya,Kota,Palangkaraya,Kalimantan Tengah
1139,73111,Menteng,62.71.03.1002,Jekan Raya,Kota,Palangkaraya,Kalimantan Tengah
1140,73112,Palangka,62.71.03.1001,Jekan Raya,Kota,Palangkaraya,Kalimantan Tengah
1141,73118,Petuk Katimpun,62.71.03.1004,Jekan Raya,Kota,Palangkaraya,Kalimantan Tengah
1142,74816,Garung (Garong),62.11.07.2001,Jabiren Raya,Kabupaten,Pulang Pisau,Kalimantan Tengah
1143,74816,Henda,62.11.07.2002,Jabiren Raya,Kabupaten,Pulang Pisau,Kalimantan Tengah
1144,74816,Jabiren,62.11.07.2005,Jabiren Raya,Kabupaten,Pulang Pisau,Kalimantan Tengah
1145,74816,Pilang,62.11.07.2006,Jabiren Raya,Kabupaten,Pulang Pisau,Kalimantan Tengah
1146,74816,Sakakajang (Saka Kajang),62.11.07.2004,Jabiren Raya,Kabupaten,Pulang Pisau,Kalimantan Tengah
1147,74816,Simpur,62.11.07.2003,Jabiren Raya,Kabupaten,Pulang Pisau,Kalimantan Tengah
1148,74816,Tanjung Taruna,62.11.07.2008,Jabiren Raya,Kabupaten,Pulang Pisau,Kalimantan Tengah
1149,74816,Tumbang Nusa,62.11.07.2007,Jabiren Raya,Kabupaten,Pulang Pisau,Kalimantan Tengah
1150,74270,Bahaur,62.07.04.2003,Hanau,Kabupaten,Seruyan,Kalimantan Tengah
1151,74270,Derangga,62.07.04.2006,Hanau,Kabupaten,Seruyan,Kalimantan Tengah
1152,74270,Parang Batang,62.07.04.2002,Hanau,Kabupaten,Seruyan,Kalimantan Tengah
1153,74270,Paring Raya,62.07.04.2011,Hanau,Kabupaten,Seruyan,Kalimantan Tengah
1154,74270,Pembuang Hulu I,62.07.04.2004,Hanau,Kabupaten,Seruyan,Kalimantan Tengah
1155,74270,Pembuang Hulu II,62.07.04.2005,Hanau,Kabupaten,Seruyan,Kalimantan Tengah
1156,74270,Tanjung Hanau/Hana,62.07.04.2001,Hanau,Kabupaten,Seruyan,Kalimantan Tengah
1157,73862,Baliti,62.05.02.2005,Gunung Timang,Kabupaten,Barito Utara,Kalimantan Tengah
1158,73862,Batu Raya I (Baturaya I),62.05.02.2014,Gunung Timang,Kabupaten,Barito Utara,Kalimantan Tengah
1159,73862,Batu Raya II (Baturaya II),62.05.02.2015,Gunung Timang,Kabupaten,Barito Utara,Kalimantan Tengah
1160,73862,Jaman,62.05.02.2009,Gunung Timang,Kabupaten,Barito Utara,Kalimantan Tengah
1161,73862,Kandui,62.05.02.2007,Gunung Timang,Kabupaten,Barito Utara,Kalimantan Tengah
1162,73862,Ketapang,62.05.02.2003,Gunung Timang,Kabupaten,Barito Utara,Kalimantan Tengah
1163,73862,Majangkan,62.05.02.2006,Gunung Timang,Kabupaten,Barito Utara,Kalimantan Tengah
1164,73862,Malungai,62.05.02.2001,Gunung Timang,Kabupaten,Barito Utara,Kalimantan Tengah
1165,73862,Payang Ara,62.05.02.2008,Gunung Timang,Kabupaten,Barito Utara,Kalimantan Tengah
1166,73862,Pelari,62.05.02.2010,Gunung Timang,Kabupaten,Barito Utara,Kalimantan Tengah
1167,73862,Rarawa,62.05.02.2002,Gunung Timang,Kabupaten,Barito Utara,Kalimantan Tengah
1168,73862,Sangkorang (Sangkurang),62.05.02.2011,Gunung Timang,Kabupaten,Barito Utara,Kalimantan Tengah
1169,73862,Siwau,62.05.02.2012,Gunung Timang,Kabupaten,Barito Utara,Kalimantan Tengah
1170,73862,Tapen Raya,62.05.02.2016,Gunung Timang,Kabupaten,Barito Utara,Kalimantan Tengah
1171,73862,Tongka,62.05.02.2013,Gunung Timang,Kabupaten,Barito Utara,Kalimantan Tengah
1172,73862,Walur,62.05.02.2004,Gunung Timang,Kabupaten,Barito Utara,Kalimantan Tengah
1173,73871,Baok,62.05.03.2010,Gunung Purei,Kabupaten,Barito Utara,Kalimantan Tengah
1174,73871,Berong,62.05.03.2009,Gunung Purei,Kabupaten,Barito Utara,Kalimantan Tengah
1175,73871,Lampeong I,62.05.03.2006,Gunung Purei,Kabupaten,Barito Utara,Kalimantan Tengah
1176,73871,Lampeong II,62.05.03.2007,Gunung Purei,Kabupaten,Barito Utara,Kalimantan Tengah
1177,73871,Lawarang,62.05.03.2005,Gunung Purei,Kabupaten,Barito Utara,Kalimantan Tengah
1178,73871,Linon Besi I,62.05.03.2002,Gunung Purei,Kabupaten,Barito Utara,Kalimantan Tengah
1179,73871,Linon Besi II,62.05.03.2003,Gunung Purei,Kabupaten,Barito Utara,Kalimantan Tengah
1180,73871,Muara Mea,62.05.03.2004,Gunung Purei,Kabupaten,Barito Utara,Kalimantan Tengah
1181,73871,Payang,62.05.03.2008,Gunung Purei,Kabupaten,Barito Utara,Kalimantan Tengah
1182,73871,Tambaba,62.05.03.2011,Gunung Purei,Kabupaten,Barito Utara,Kalimantan Tengah
1183,73871,Tanjung Harapan,62.05.03.2001,Gunung Purei,Kabupaten,Barito Utara,Kalimantan Tengah
1184,73753,Baruang/Ekeng,62.04.05.2001,Gn. Bintang Awai (Gunung Bintang Awai),Kabupaten,Barito Selatan,Kalimantan Tengah
1185,73753,Bintang Ara,62.04.05.2011,Gn. Bintang Awai (Gunung Bintang Awai),Kabupaten,Barito Selatan,Kalimantan Tengah
1186,73753,Bipak Kali,62.04.05.2015,Gn. Bintang Awai (Gunung Bintang Awai),Kabupaten,Barito Selatan,Kalimantan Tengah
1187,73753,Gagutur,62.04.05.2005,Gn. Bintang Awai (Gunung Bintang Awai),Kabupaten,Barito Selatan,Kalimantan Tengah
1188,73753,Kayumban,62.04.05.2002,Gn. Bintang Awai (Gunung Bintang Awai),Kabupaten,Barito Selatan,Kalimantan Tengah
1189,73753,Malungai Raya,62.04.05.2016,Gn. Bintang Awai (Gunung Bintang Awai),Kabupaten,Barito Selatan,Kalimantan Tengah
1190,73753,Marga Jaya,62.04.05.2020,Gn. Bintang Awai (Gunung Bintang Awai),Kabupaten,Barito Selatan,Kalimantan Tengah
1191,73753,Muara Singan,62.04.05.2008,Gn. Bintang Awai (Gunung Bintang Awai),Kabupaten,Barito Selatan,Kalimantan Tengah
1192,73753,Muka Haji,62.04.05.2006,Gn. Bintang Awai (Gunung Bintang Awai),Kabupaten,Barito Selatan,Kalimantan Tengah
1193,73753,Ngurit,62.04.05.2013,Gn. Bintang Awai (Gunung Bintang Awai),Kabupaten,Barito Selatan,Kalimantan Tengah
1194,73753,Palo Rejo,62.04.05.2018,Gn. Bintang Awai (Gunung Bintang Awai),Kabupaten,Barito Selatan,Kalimantan Tengah
1195,73753,Patas I,62.04.05.2009,Gn. Bintang Awai (Gunung Bintang Awai),Kabupaten,Barito Selatan,Kalimantan Tengah
1196,73753,Patas II,62.04.05.2010,Gn. Bintang Awai (Gunung Bintang Awai),Kabupaten,Barito Selatan,Kalimantan Tengah
1197,73753,Ruhing Raya,62.04.05.2021,Gn. Bintang Awai (Gunung Bintang Awai),Kabupaten,Barito Selatan,Kalimantan Tengah
1198,73753,Sarimbuah,62.04.05.2004,Gn. Bintang Awai (Gunung Bintang Awai),Kabupaten,Barito Selatan,Kalimantan Tengah
1199,73753,Sei/Sungai Paken,62.04.05.2017,Gn. Bintang Awai (Gunung Bintang Awai),Kabupaten,Barito Selatan,Kalimantan Tengah
1200,73753,Sire,62.04.05.2007,Gn. Bintang Awai (Gunung Bintang Awai),Kabupaten,Barito Selatan,Kalimantan Tengah
1201,73753,Tabak Kanilan,62.04.05.2003,Gn. Bintang Awai (Gunung Bintang Awai),Kabupaten,Barito Selatan,Kalimantan Tengah
1202,73753,Ugang Sayu,62.04.05.2012,Gn. Bintang Awai (Gunung Bintang Awai),Kabupaten,Barito Selatan,Kalimantan Tengah
1203,73753,Wayun,62.04.05.2019,Gn. Bintang Awai (Gunung Bintang Awai),Kabupaten,Barito Selatan,Kalimantan Tengah
1204,73753,Wungkur Baru,62.04.05.2014,Gn. Bintang Awai (Gunung Bintang Awai),Kabupaten,Barito Selatan,Kalimantan Tengah
1205,73752,Bantai Bambure,62.04.04.2016,Dusun Utara,Kabupaten,Barito Selatan,Kalimantan Tengah
1206,73752,Bundar,62.04.04.2003,Dusun Utara,Kabupaten,Barito Selatan,Kalimantan Tengah
1207,73752,Danau Bambure,62.04.04.2013,Dusun Utara,Kabupaten,Barito Selatan,Kalimantan Tengah
1208,73752,Gunung Rantau,62.04.04.2018,Dusun Utara,Kabupaten,Barito Selatan,Kalimantan Tengah
1209,73752,Hingan,62.04.04.2012,Dusun Utara,Kabupaten,Barito Selatan,Kalimantan Tengah
1210,73752,Hulu Tampang,62.04.04.2015,Dusun Utara,Kabupaten,Barito Selatan,Kalimantan Tengah
1211,73752,Majundre,62.04.04.2002,Dusun Utara,Kabupaten,Barito Selatan,Kalimantan Tengah
1212,73752,Marawan Baru,62.04.04.2007,Dusun Utara,Kabupaten,Barito Selatan,Kalimantan Tengah
1213,73752,Marawan Lama,62.04.04.2006,Dusun Utara,Kabupaten,Barito Selatan,Kalimantan Tengah
1214,73752,Maruga,62.04.04.2011,Dusun Utara,Kabupaten,Barito Selatan,Kalimantan Tengah
1215,73752,Panarukan,62.04.04.2010,Dusun Utara,Kabupaten,Barito Selatan,Kalimantan Tengah
1216,73752,Pendang,62.04.04.1005,Dusun Utara,Kabupaten,Barito Selatan,Kalimantan Tengah
1217,73752,Rampa Mea,62.04.04.2017,Dusun Utara,Kabupaten,Barito Selatan,Kalimantan Tengah
1218,73752,Reong,62.04.04.2008,Dusun Utara,Kabupaten,Barito Selatan,Kalimantan Tengah
1219,73752,Sei/Sungai Telang,62.04.04.2001,Dusun Utara,Kabupaten,Barito Selatan,Kalimantan Tengah
1220,73752,Tamparak,62.04.04.2014,Dusun Utara,Kabupaten,Barito Selatan,Kalimantan Tengah
1221,73752,Tamparak Layung,62.04.04.2019,Dusun Utara,Kabupaten,Barito Selatan,Kalimantan Tengah
1222,73752,Tarusan,62.04.04.2009,Dusun Utara,Kabupaten,Barito Selatan,Kalimantan Tengah
1223,73752,Telekoi (Talekoi),62.04.04.2004,Dusun Utara,Kabupaten,Barito Selatan,Kalimantan Tengah
1224,73617,Didi,62.13.01.2009,Dusun Timur,Kabupaten,Barito Timur,Kalimantan Tengah
1225,73614,Dorong,62.13.01.2008,Dusun Timur,Kabupaten,Barito Timur,Kalimantan Tengah
1226,73618,Gumpa,62.13.01.2022,Dusun Timur,Kabupaten,Barito Timur,Kalimantan Tengah
1227,73618,Harara,62.13.01.2024,Dusun Timur,Kabupaten,Barito Timur,Kalimantan Tengah
1228,73615,Haringen,62.13.01.2011,Dusun Timur,Kabupaten,Barito Timur,Kalimantan Tengah
1229,73617,Jaar,62.13.01.2006,Dusun Timur,Kabupaten,Barito Timur,Kalimantan Tengah
1230,73617,Jaweten,62.13.01.2018,Dusun Timur,Kabupaten,Barito Timur,Kalimantan Tengah
1231,73617,Karang Langit,62.13.01.2010,Dusun Timur,Kabupaten,Barito Timur,Kalimantan Tengah
1232,73612,Magantis,62.13.01.2005,Dusun Timur,Kabupaten,Barito Timur,Kalimantan Tengah
1233,73618,Mangkarap (angkarap),62.13.01.2021,Dusun Timur,Kabupaten,Barito Timur,Kalimantan Tengah
1234,73618,Maragut,62.13.01.2020,Dusun Timur,Kabupaten,Barito Timur,Kalimantan Tengah
1235,73613,Matabu,62.13.01.2007,Dusun Timur,Kabupaten,Barito Timur,Kalimantan Tengah
1236,73618,Matarah,62.13.01.2019,Dusun Timur,Kabupaten,Barito Timur,Kalimantan Tengah
1237,73617,Pulau Patai,62.13.01.2003,Dusun Timur,Kabupaten,Barito Timur,Kalimantan Tengah
1238,73617,Sarapat (Ex. Harara),62.13.01.2004,Dusun Timur,Kabupaten,Barito Timur,Kalimantan Tengah
1239,73618,Sumur,62.13.01.2023,Dusun Timur,Kabupaten,Barito Timur,Kalimantan Tengah
1240,73617,Tamianglayang (Tamiang Layang),62.13.01.1012,Dusun Timur,Kabupaten,Barito Timur,Kalimantan Tengah
1241,73652,Ampah II (Ampah Dua),62.13.05.2010,Dusun Tengah,Kabupaten,Barito Timur,Kalimantan Tengah
1242,73652,Ampah Kota,62.13.05.1011,Dusun Tengah,Kabupaten,Barito Timur,Kalimantan Tengah
1243,73652,Muara Awang,62.13.05.2025,Dusun Tengah,Kabupaten,Barito Timur,Kalimantan Tengah
1244,73652,Netampin (Netapin),62.13.05.2018,Dusun Tengah,Kabupaten,Barito Timur,Kalimantan Tengah
1245,73652,Putai,62.13.05.2012,Dusun Tengah,Kabupaten,Barito Timur,Kalimantan Tengah
1246,73652,Rodok,62.13.05.2009,Dusun Tengah,Kabupaten,Barito Timur,Kalimantan Tengah
1247,73652,Saing,62.13.05.2008,Dusun Tengah,Kabupaten,Barito Timur,Kalimantan Tengah
1248,73652,Sumber Garunggung (Sumber Garonggong),62.13.05.2024,Dusun Tengah,Kabupaten,Barito Timur,Kalimantan Tengah
1249,73713,Baru,62.04.06.2004,Dusun Selatan,Kabupaten,Barito Selatan,Kalimantan Tengah
1250,73711,Buntok Kota,62.04.06.1008,Dusun Selatan,Kabupaten,Barito Selatan,Kalimantan Tengah
1251,73713,Danau Ganting,62.04.06.2001,Dusun Selatan,Kabupaten,Barito Selatan,Kalimantan Tengah
1252,73713,Danau Masura,62.04.06.2027,Dusun Selatan,Kabupaten,Barito Selatan,Kalimantan Tengah
1253,73713,Danau Sadar,62.04.06.2005,Dusun Selatan,Kabupaten,Barito Selatan,Kalimantan Tengah
1254,73713,Dangka,62.04.06.2026,Dusun Selatan,Kabupaten,Barito Selatan,Kalimantan Tengah
1255,73712,Hilir Seper (Hilir Sper),62.04.06.1007,Dusun Selatan,Kabupaten,Barito Selatan,Kalimantan Tengah
1256,73713,Jelapat,62.04.06.1006,Dusun Selatan,Kabupaten,Barito Selatan,Kalimantan Tengah
1257,73751,Kalahien,62.04.06.2020,Dusun Selatan,Kabupaten,Barito Selatan,Kalimantan Tengah
1258,73713,Lembeng,62.04.06.2015,Dusun Selatan,Kabupaten,Barito Selatan,Kalimantan Tengah
1259,73751,Mabuan,62.04.06.2019,Dusun Selatan,Kabupaten,Barito Selatan,Kalimantan Tengah
1260,73713,Madara,62.04.06.2017,Dusun Selatan,Kabupaten,Barito Selatan,Kalimantan Tengah
1261,73713,Mangaris,62.04.06.2011,Dusun Selatan,Kabupaten,Barito Selatan,Kalimantan Tengah
1262,73751,Muara Ripung,62.04.06.2016,Dusun Selatan,Kabupaten,Barito Selatan,Kalimantan Tengah
1263,73713,Muara Talang,62.04.06.2002,Dusun Selatan,Kabupaten,Barito Selatan,Kalimantan Tengah
1264,73713,Murung Paken,62.04.06.2018,Dusun Selatan,Kabupaten,Barito Selatan,Kalimantan Tengah
1265,73751,Pamait,62.04.06.2009,Dusun Selatan,Kabupaten,Barito Selatan,Kalimantan Tengah
1266,73713,Pamangka,62.04.06.2013,Dusun Selatan,Kabupaten,Barito Selatan,Kalimantan Tengah
1267,73751,Pararapak,62.04.06.2022,Dusun Selatan,Kabupaten,Barito Selatan,Kalimantan Tengah
1268,73751,Penda Asam,62.04.06.2021,Dusun Selatan,Kabupaten,Barito Selatan,Kalimantan Tengah
1269,73751,Sababilah,62.04.06.2010,Dusun Selatan,Kabupaten,Barito Selatan,Kalimantan Tengah
1270,73751,Sanggu,62.04.06.2014,Dusun Selatan,Kabupaten,Barito Selatan,Kalimantan Tengah
1271,73751,Tanjung Jawa,62.04.06.2024,Dusun Selatan,Kabupaten,Barito Selatan,Kalimantan Tengah
1272,73713,Telang Andrau,62.04.06.2025,Dusun Selatan,Kabupaten,Barito Selatan,Kalimantan Tengah
1273,73713,Teluk Mampun,62.04.06.2023,Dusun Selatan,Kabupaten,Barito Selatan,Kalimantan Tengah
1274,73713,Teluk Telaga,62.04.06.2003,Dusun Selatan,Kabupaten,Barito Selatan,Kalimantan Tengah
1275,73713,Tetei Lanan,62.04.06.2012,Dusun Selatan,Kabupaten,Barito Selatan,Kalimantan Tengah
1276,73762,Batampang,62.04.02.2009,Dusun Hilir,Kabupaten,Barito Selatan,Kalimantan Tengah
1277,73762,Batilap,62.04.02.2008,Dusun Hilir,Kabupaten,Barito Selatan,Kalimantan Tengah
1278,73762,Damparan,62.04.02.2006,Dusun Hilir,Kabupaten,Barito Selatan,Kalimantan Tengah
1279,73762,Kalanis,62.04.02.2004,Dusun Hilir,Kabupaten,Barito Selatan,Kalimantan Tengah
1280,73762,Lehai,62.04.02.2005,Dusun Hilir,Kabupaten,Barito Selatan,Kalimantan Tengah
1281,73762,Mahajandau/Mahanjau,62.04.02.2002,Dusun Hilir,Kabupaten,Barito Selatan,Kalimantan Tengah
1282,73762,Mangkatir,62.04.02.2010,Dusun Hilir,Kabupaten,Barito Selatan,Kalimantan Tengah
1283,73762,Mengkatip,62.04.02.1003,Dusun Hilir,Kabupaten,Barito Selatan,Kalimantan Tengah
1284,73762,Sei/Sungai Jaya,62.04.02.2001,Dusun Hilir,Kabupaten,Barito Selatan,Kalimantan Tengah
1285,73762,Teluk Timbau,62.04.02.2007,Dusun Hilir,Kabupaten,Barito Selatan,Kalimantan Tengah
1286,74665,Hulu Jojabo,62.09.02.2020,Delang,Kabupaten,Lamandau,Kalimantan Tengah
1287,74665,Kubung,62.09.02.2014,Delang,Kabupaten,Lamandau,Kalimantan Tengah
1288,74665,Kudangan,62.09.02.1017,Delang,Kabupaten,Lamandau,Kalimantan Tengah
1289,74665,Landau Kantu,62.09.02.2012,Delang,Kabupaten,Lamandau,Kalimantan Tengah
1290,74665,Lopus,62.09.02.2013,Delang,Kabupaten,Lamandau,Kalimantan Tengah
1291,74665,Nyalang,62.09.02.2010,Delang,Kabupaten,Lamandau,Kalimantan Tengah
1292,74665,Penyombaan (Penyobaan),62.09.02.2016,Delang,Kabupaten,Lamandau,Kalimantan Tengah
1293,74665,Riam Panahan (Riam Penahan),62.09.02.2004,Delang,Kabupaten,Lamandau,Kalimantan Tengah
1294,74665,Riam Tinggi,62.09.02.2011,Delang,Kabupaten,Lamandau,Kalimantan Tengah
1295,74665,Sekombulan,62.09.02.2015,Delang,Kabupaten,Lamandau,Kalimantan Tengah
1296,74665,Sepoyu (Sepoyo),62.09.02.2005,Delang,Kabupaten,Lamandau,Kalimantan Tengah
1297,74261,Banua Usang,62.07.03.2006,Danau Sembuluh,Kabupaten,Seruyan,Kalimantan Tengah
1298,74261,Cempaka Baru,62.07.03.2002,Danau Sembuluh,Kabupaten,Seruyan,Kalimantan Tengah
1299,74261,Palingkau,62.07.03.2003,Danau Sembuluh,Kabupaten,Seruyan,Kalimantan Tengah
1300,74261,Paren,62.07.03.2005,Danau Sembuluh,Kabupaten,Seruyan,Kalimantan Tengah
1301,74261,Sembuluh I (Satu),62.07.03.2013,Danau Sembuluh,Kabupaten,Seruyan,Kalimantan Tengah
1302,74261,Sembuluh II (Dua),62.07.03.2014,Danau Sembuluh,Kabupaten,Seruyan,Kalimantan Tengah
1303,74261,Telaga Pulang,62.07.03.2001,Danau Sembuluh,Kabupaten,Seruyan,Kalimantan Tengah
1304,74261,Ulak Batu,62.07.03.2004,Danau Sembuluh,Kabupaten,Seruyan,Kalimantan Tengah
1305,74271,Asam Baru,62.07.08.2001,Danau Seluluk,Kabupaten,Seruyan,Kalimantan Tengah
1306,74271,Panimba Raya,62.07.08.2005,Danau Seluluk,Kabupaten,Seruyan,Kalimantan Tengah
1307,74271,Rungau Raya (Rangau Raya),62.07.08.2006,Danau Seluluk,Kabupaten,Seruyan,Kalimantan Tengah
1308,74271,Tanjung Hara,62.07.08.2002,Danau Seluluk,Kabupaten,Seruyan,Kalimantan Tengah
1309,74271,Tanjung Paring,62.07.08.2003,Danau Seluluk,Kabupaten,Seruyan,Kalimantan Tengah
1310,74271,Tanjung Rangas II,62.07.08.2004,Danau Seluluk,Kabupaten,Seruyan,Kalimantan Tengah
1311,74553,Karetau Rambangun,62.10.08.2003,Damang Batu,Kabupaten,Gunung Mas,Kalimantan Tengah
1312,74553,Karetau Sarian,62.10.08.2004,Damang Batu,Kabupaten,Gunung Mas,Kalimantan Tengah
1313,74553,Lawang Kanji,62.10.08.2001,Damang Batu,Kabupaten,Gunung Mas,Kalimantan Tengah
1314,74553,Tumbang Anoi,62.10.08.2007,Damang Batu,Kabupaten,Gunung Mas,Kalimantan Tengah
1315,74553,Tumbang Mahuroi,62.10.08.2002,Damang Batu,Kabupaten,Gunung Mas,Kalimantan Tengah
1316,74553,Tumbang Maraya,62.10.08.2006,Damang Batu,Kabupaten,Gunung Mas,Kalimantan Tengah
1317,74553,Tumbang Marikoi,62.10.08.1008,Damang Batu,Kabupaten,Gunung Mas,Kalimantan Tengah
1318,74553,Tumbang Posu,62.10.08.2005,Damang Batu,Kabupaten,Gunung Mas,Kalimantan Tengah
1319,73593,Bentuk Jaya,62.03.16.2005,Dadahup,Kabupaten,Kapuas,Kalimantan Tengah
1320,73593,Bina Jaya,62.03.16.2003,Dadahup,Kabupaten,Kapuas,Kalimantan Tengah
1321,73593,Dadahup,62.03.16.2001,Dadahup,Kabupaten,Kapuas,Kalimantan Tengah
1322,73593,Dadahup Raya,62.03.16.2013,Dadahup,Kabupaten,Kapuas,Kalimantan Tengah
1323,73593,Harapan Baru,62.03.16.2004,Dadahup,Kabupaten,Kapuas,Kalimantan Tengah
1324,73593,Kahuripan Permai,62.03.16.2012,Dadahup,Kabupaten,Kapuas,Kalimantan Tengah
1325,73593,Manuntung,62.03.16.2008,Dadahup,Kabupaten,Kapuas,Kalimantan Tengah
1326,73593,Menteng Karya,62.03.16.2010,Dadahup,Kabupaten,Kapuas,Kalimantan Tengah
1327,73593,Petak Batuah,62.03.16.2007,Dadahup,Kabupaten,Kapuas,Kalimantan Tengah
1328,73593,Sumber Agung,62.03.16.2006,Dadahup,Kabupaten,Kapuas,Kalimantan Tengah
1329,73593,Sumber Alaska,62.03.16.2009,Dadahup,Kabupaten,Kapuas,Kalimantan Tengah
1330,73593,Tambak Bajai,62.03.16.2002,Dadahup,Kabupaten,Kapuas,Kalimantan Tengah
1331,73593,Tanjung Harapan,62.03.16.2011,Dadahup,Kabupaten,Kapuas,Kalimantan Tengah
1332,74359,Bukit Batu,62.02.13.2008,Cempaga Hulu,Kabupaten,Kotawaringin Timur,Kalimantan Tengah
1333,74359,Bukit Raya,62.02.13.2009,Cempaga Hulu,Kabupaten,Kotawaringin Timur,Kalimantan Tengah
1334,74359,Keruing,62.02.13.2002,Cempaga Hulu,Kabupaten,Kotawaringin Timur,Kalimantan Tengah
1335,74359,Pantai Harapan,62.02.13.2004,Cempaga Hulu,Kabupaten,Kotawaringin Timur,Kalimantan Tengah
1336,74359,Parit,62.02.13.2003,Cempaga Hulu,Kabupaten,Kotawaringin Timur,Kalimantan Tengah
1337,74359,Pelantaran,62.02.13.2005,Cempaga Hulu,Kabupaten,Kotawaringin Timur,Kalimantan Tengah
1338,74359,Pundu,62.02.13.2001,Cempaga Hulu,Kabupaten,Kotawaringin Timur,Kalimantan Tengah
1339,74359,Selucing,62.02.13.2010,Cempaga Hulu,Kabupaten,Kotawaringin Timur,Kalimantan Tengah
1340,74359,Sudan,62.02.13.2007,Cempaga Hulu,Kabupaten,Kotawaringin Timur,Kalimantan Tengah
1341,74359,Sungai Ubar Mandiri,62.02.13.2011,Cempaga Hulu,Kabupaten,Kotawaringin Timur,Kalimantan Tengah
1342,74359,Tumbang Koling/Kuling,62.02.13.2006,Cempaga Hulu,Kabupaten,Kotawaringin Timur,Kalimantan Tengah
1343,74354,Cempaka Mulia Barat,62.02.02.2009,Cempaga,Kabupaten,Kotawaringin Timur,Kalimantan Tengah
1344,74354,Cempaka Mulia Timur,62.02.02.2008,Cempaga,Kabupaten,Kotawaringin Timur,Kalimantan Tengah
1345,74354,Jemaras,62.02.02.2007,Cempaga,Kabupaten,Kotawaringin Timur,Kalimantan Tengah
1346,74354,Luwuk Bunter (Lubuk Bunter),62.02.02.2010,Cempaga,Kabupaten,Kotawaringin Timur,Kalimantan Tengah
1347,74354,Luwuk Ranggan (Lubuk Ranggan),62.02.02.2006,Cempaga,Kabupaten,Kotawaringin Timur,Kalimantan Tengah
1348,74354,Patai,62.02.02.2005,Cempaga,Kabupaten,Kotawaringin Timur,Kalimantan Tengah
1349,74354,Rubung Buyung,62.02.02.2004,Cempaga,Kabupaten,Kotawaringin Timur,Kalimantan Tengah
1350,74354,Sei/Sungai Paring,62.02.02.2011,Cempaga,Kabupaten,Kotawaringin Timur,Kalimantan Tengah
1351,74163,Batu Tunggal,62.09.04.2009,Bulik Timur,Kabupaten,Lamandau,Kalimantan Tengah
1352,74163,Bukit Jaya,62.09.04.2011,Bulik Timur,Kabupaten,Lamandau,Kalimantan Tengah
1353,74163,Merambang,62.09.04.2007,Bulik Timur,Kabupaten,Lamandau,Kalimantan Tengah
1354,74163,Nanga Kemujan,62.09.04.2010,Bulik Timur,Kabupaten,Lamandau,Kalimantan Tengah
1355,74163,Nanga Koring,62.09.04.2004,Bulik Timur,Kabupaten,Lamandau,Kalimantan Tengah
1356,74163,Nanga Palikodan,62.09.04.2001,Bulik Timur,Kabupaten,Lamandau,Kalimantan Tengah
1357,74163,Nuangan,62.09.04.2003,Bulik Timur,Kabupaten,Lamandau,Kalimantan Tengah
1358,74163,Pedongatan,62.09.04.2008,Bulik Timur,Kabupaten,Lamandau,Kalimantan Tengah
1359,74163,Sepondam,62.09.04.2006,Bulik Timur,Kabupaten,Lamandau,Kalimantan Tengah
1360,74163,Suka Maju (Sukamaju),62.09.04.2012,Bulik Timur,Kabupaten,Lamandau,Kalimantan Tengah
1361,74163,Sungkup,62.09.04.2002,Bulik Timur,Kabupaten,Lamandau,Kalimantan Tengah
1362,74163,Toka,62.09.04.2005,Bulik Timur,Kabupaten,Lamandau,Kalimantan Tengah
1363,74162,Arga Mulya (Argo Mulyo),62.09.03.2037,Bulik,Kabupaten,Lamandau,Kalimantan Tengah
1364,74162,Batu Kotam,62.09.03.2003,Bulik,Kabupaten,Lamandau,Kalimantan Tengah
1365,74162,Beruta (Baruta),62.09.03.2007,Bulik,Kabupaten,Lamandau,Kalimantan Tengah
1366,74162,Bukit Indah,62.09.03.2036,Bulik,Kabupaten,Lamandau,Kalimantan Tengah
1367,74162,Bumi Agung,62.09.03.2031,Bulik,Kabupaten,Lamandau,Kalimantan Tengah
1368,74162,Bunut,62.09.03.2006,Bulik,Kabupaten,Lamandau,Kalimantan Tengah
1369,74162,Guci,62.09.03.2002,Bulik,Kabupaten,Lamandau,Kalimantan Tengah
1370,74612,Kujan,62.09.03.2004,Bulik,Kabupaten,Lamandau,Kalimantan Tengah
1371,74611,Nanga Bulik,62.09.03.1005,Bulik,Kabupaten,Lamandau,Kalimantan Tengah
1372,74162,Nanga Pamalontian,62.09.03.2044,Bulik,Kabupaten,Lamandau,Kalimantan Tengah
1373,74162,Perigi Raya,62.09.03.2043,Bulik,Kabupaten,Lamandau,Kalimantan Tengah
1374,74162,Sumber Mulya,62.09.03.2032,Bulik,Kabupaten,Lamandau,Kalimantan Tengah
1375,74162,Sungai Mentawa,62.09.03.2001,Bulik,Kabupaten,Lamandau,Kalimantan Tengah
1376,74162,Tamiang,62.09.03.2008,Bulik,Kabupaten,Lamandau,Kalimantan Tengah
1377,74356,Lunuk Bagantung,62.02.15.2011,Bukit Santuai (Bukit Santuei),Kabupaten,Kotawaringin Timur,Kalimantan Tengah
1378,74356,Tanah Haluan,62.02.15.2003,Bukit Santuai (Bukit Santuei),Kabupaten,Kotawaringin Timur,Kalimantan Tengah
1379,74356,Tewai Hara (Tewei Hara),62.02.15.2007,Bukit Santuai (Bukit Santuei),Kabupaten,Kotawaringin Timur,Kalimantan Tengah
1380,74356,Tumbang Batu,62.02.15.2013,Bukit Santuai (Bukit Santuei),Kabupaten,Kotawaringin Timur,Kalimantan Tengah
1381,74356,Tumbang Getas,62.02.15.2006,Bukit Santuai (Bukit Santuei),Kabupaten,Kotawaringin Timur,Kalimantan Tengah
1382,74356,Tumbang Kamining/Kaminting,62.02.15.2002,Bukit Santuai (Bukit Santuei),Kabupaten,Kotawaringin Timur,Kalimantan Tengah
1383,74356,Tumbang Kania,62.02.15.2009,Bukit Santuai (Bukit Santuei),Kabupaten,Kotawaringin Timur,Kalimantan Tengah
1384,74356,Tumbang Payang,62.02.15.2008,Bukit Santuai (Bukit Santuei),Kabupaten,Kotawaringin Timur,Kalimantan Tengah
1385,74356,Tumbang Penyahuan,62.02.15.2004,Bukit Santuai (Bukit Santuei),Kabupaten,Kotawaringin Timur,Kalimantan Tengah
1386,74356,Tumbang Saluang,62.02.15.2014,Bukit Santuai (Bukit Santuei),Kabupaten,Kotawaringin Timur,Kalimantan Tengah
1387,74356,Tumbang Sapia,62.02.15.2005,Bukit Santuai (Bukit Santuei),Kabupaten,Kotawaringin Timur,Kalimantan Tengah
1388,74356,Tumbang Tawan,62.02.15.2010,Bukit Santuai (Bukit Santuei),Kabupaten,Kotawaringin Timur,Kalimantan Tengah
1389,74356,Tumbang Tilap,62.02.15.2001,Bukit Santuai (Bukit Santuei),Kabupaten,Kotawaringin Timur,Kalimantan Tengah
1390,74356,Tumbang Torung/Turung,62.02.15.2012,Bukit Santuai (Bukit Santuei),Kabupaten,Kotawaringin Timur,Kalimantan Tengah
1391,74457,Penda Nange,62.06.13.2011,Bukit Raya,Kabupaten,Katingan,Kalimantan Tengah
1392,74457,Rangan Bahekang,62.06.13.2007,Bukit Raya,Kabupaten,Katingan,Kalimantan Tengah
1393,74457,Rangan Rondan (Rongan Rondan),62.06.13.2006,Bukit Raya,Kabupaten,Katingan,Kalimantan Tengah
1394,74457,Rantau Pandan,62.06.13.2005,Bukit Raya,Kabupaten,Katingan,Kalimantan Tengah
1395,74457,Tanjung Batik,62.06.13.2010,Bukit Raya,Kabupaten,Katingan,Kalimantan Tengah
1396,74457,Tumbang Dahuei,62.06.13.2004,Bukit Raya,Kabupaten,Katingan,Kalimantan Tengah
1397,74457,Tumbang Gaei,62.06.13.2001,Bukit Raya,Kabupaten,Katingan,Kalimantan Tengah
1398,74457,Tumbang Kaburai,62.06.13.2009,Bukit Raya,Kabupaten,Katingan,Kalimantan Tengah
1399,74457,Tumbang Kajamei,62.06.13.2008,Bukit Raya,Kabupaten,Katingan,Kalimantan Tengah
1400,74457,Tumbang Karuei,62.06.13.2003,Bukit Raya,Kabupaten,Katingan,Kalimantan Tengah
1401,74457,Tumbang Kataei,62.06.13.2002,Bukit Raya,Kabupaten,Katingan,Kalimantan Tengah
1402,73224,Banturung,62.71.02.1003,Bukit Batu,Kota,Palangkaraya,Kalimantan Tengah
1403,73221,Habaring Hurung,62.71.02.1007,Bukit Batu,Kota,Palangkaraya,Kalimantan Tengah
1404,73226,Kanarakan,62.71.02.1006,Bukit Batu,Kota,Palangkaraya,Kalimantan Tengah
1405,73222,Marang,62.71.02.1001,Bukit Batu,Kota,Palangkaraya,Kalimantan Tengah
1406,73225,Sei/Sungai Gohong,62.71.02.1005,Bukit Batu,Kota,Palangkaraya,Kalimantan Tengah
1407,73221,Tangkiling,62.71.02.1004,Bukit Batu,Kota,Palangkaraya,Kalimantan Tengah
1408,73223,Tumbang Tahai,62.71.02.1002,Bukit Batu,Kota,Palangkaraya,Kalimantan Tengah
1409,74663,Bayat,62.09.07.2005,Belantikan Raya,Kabupaten,Lamandau,Kalimantan Tengah
1410,74663,Belibi (Balibi),62.09.07.2004,Belantikan Raya,Kabupaten,Lamandau,Kalimantan Tengah
1411,74663,Benuatan,62.09.07.2007,Belantikan Raya,Kabupaten,Lamandau,Kalimantan Tengah
1412,74663,Bintang Mangalih (Bintang Mengalih),62.09.07.2010,Belantikan Raya,Kabupaten,Lamandau,Kalimantan Tengah
1413,74663,Kahingai,62.09.07.2008,Belantikan Raya,Kabupaten,Lamandau,Kalimantan Tengah
1414,74663,Karang Besi,62.09.07.2006,Belantikan Raya,Kabupaten,Lamandau,Kalimantan Tengah
1415,74663,Nanga Belantikan,62.09.07.2001,Belantikan Raya,Kabupaten,Lamandau,Kalimantan Tengah
1416,74663,Nanga Matu,62.09.07.2009,Belantikan Raya,Kabupaten,Lamandau,Kalimantan Tengah
1417,74663,Petarikan,62.09.07.2011,Belantikan Raya,Kabupaten,Lamandau,Kalimantan Tengah
1418,74663,Sei/Sungai Buluh,62.09.07.2002,Belantikan Raya,Kabupaten,Lamandau,Kalimantan Tengah
1419,74663,Sumber Cahaya,62.09.07.2012,Belantikan Raya,Kabupaten,Lamandau,Kalimantan Tengah
1420,74663,Tangga Batu,62.09.07.2003,Belantikan Raya,Kabupaten,Lamandau,Kalimantan Tengah
1421,74281,Batu Menangis (Batu Manangis),62.07.09.2009,Batu Ampar,Kabupaten,Seruyan,Kalimantan Tengah
1422,74281,Derawa,62.07.09.2004,Batu Ampar,Kabupaten,Seruyan,Kalimantan Tengah
1423,74281,Durian Kait,62.07.09.2007,Batu Ampar,Kabupaten,Seruyan,Kalimantan Tengah
1424,74281,Kalang,62.07.09.2003,Batu Ampar,Kabupaten,Seruyan,Kalimantan Tengah
1425,74281,Sandul,62.07.09.2002,Batu Ampar,Kabupaten,Seruyan,Kalimantan Tengah
1426,74281,Sebabi,62.07.09.2001,Batu Ampar,Kabupaten,Seruyan,Kalimantan Tengah
1427,74281,Sehabu (Sahabu/Sebabu),62.07.09.2008,Batu Ampar,Kabupaten,Seruyan,Kalimantan Tengah
1428,74281,Suka Mulya,62.07.09.2006,Batu Ampar,Kabupaten,Seruyan,Kalimantan Tengah
1429,74281,Wana Tirta,62.07.09.2005,Batu Ampar,Kabupaten,Seruyan,Kalimantan Tengah
1430,74664,Batu Tambun,62.09.08.2001,Batang Kawa,Kabupaten,Lamandau,Kalimantan Tengah
1431,74664,Benakitan,62.09.08.2004,Batang Kawa,Kabupaten,Lamandau,Kalimantan Tengah
1432,74664,Ginih,62.09.08.2003,Batang Kawa,Kabupaten,Lamandau,Kalimantan Tengah
1433,74664,Jamuat (Jemuat),62.09.08.2009,Batang Kawa,Kabupaten,Lamandau,Kalimantan Tengah
1434,74664,Karang Mas,62.09.08.2007,Batang Kawa,Kabupaten,Lamandau,Kalimantan Tengah
1435,74664,Kina,62.09.08.2008,Batang Kawa,Kabupaten,Lamandau,Kalimantan Tengah
1436,74664,Kinipan,62.09.08.2002,Batang Kawa,Kabupaten,Lamandau,Kalimantan Tengah
1437,74664,Liku,62.09.08.2005,Batang Kawa,Kabupaten,Lamandau,Kalimantan Tengah
1438,74664,Mengkalang,62.09.08.2006,Batang Kawa,Kabupaten,Lamandau,Kalimantan Tengah
1439,73516,Bamban Raya,62.03.17.2010,Bataguh,Kabupaten,Kapuas,Kalimantan Tengah
1440,73516,Bangun Harjo,62.03.17.2011,Bataguh,Kabupaten,Kapuas,Kalimantan Tengah
1441,73516,Budi Mufakat,62.03.17.2015,Bataguh,Kabupaten,Kapuas,Kalimantan Tengah
1442,73511,Pulau Kupang,62.03.17.1001,Bataguh,Kabupaten,Kapuas,Kalimantan Tengah
1443,73516,Pulau Mambulau,62.03.17.2002,Bataguh,Kabupaten,Kapuas,Kalimantan Tengah
1444,73516,Sei Jangkit (Sei Jangkir),62.03.17.2004,Bataguh,Kabupaten,Kapuas,Kalimantan Tengah
1445,73516,Sei/Sungai Lunuk,62.03.17.2003,Bataguh,Kabupaten,Kapuas,Kalimantan Tengah
1446,73516,Tamban Luar,62.03.17.2005,Bataguh,Kabupaten,Kapuas,Kalimantan Tengah
1447,73516,Terusan Baguntan Raya,62.03.17.2012,Bataguh,Kabupaten,Kapuas,Kalimantan Tengah
1448,73516,Terusan Karya,62.03.17.2007,Bataguh,Kabupaten,Kapuas,Kalimantan Tengah
1449,73516,Terusan Makmur,62.03.17.2008,Bataguh,Kabupaten,Kapuas,Kalimantan Tengah
1450,73516,Terusan Mulya,62.03.17.2009,Bataguh,Kabupaten,Kapuas,Kalimantan Tengah
1451,73516,Terusan Raya,62.03.17.2006,Bataguh,Kabupaten,Kapuas,Kalimantan Tengah
1452,73516,Terusan Raya Barat,62.03.17.2013,Bataguh,Kabupaten,Kapuas,Kalimantan Tengah
1453,73516,Terusan Raya Hulu (Terusan Raya Hilir),62.03.17.2014,Bataguh,Kabupaten,Kapuas,Kalimantan Tengah
1454,73564,Basarang,62.03.08.2003,Basarang,Kabupaten,Kapuas,Kalimantan Tengah
1455,73564,Basarang Jaya,62.03.08.2009,Basarang,Kabupaten,Kapuas,Kalimantan Tengah
1456,73564,Basungkai,62.03.08.2004,Basarang,Kabupaten,Kapuas,Kalimantan Tengah
1457,73564,Batu Nindan,62.03.08.2008,Basarang,Kabupaten,Kapuas,Kalimantan Tengah
1458,73564,Batuah,62.03.08.2002,Basarang,Kabupaten,Kapuas,Kalimantan Tengah
1459,73564,Bungai Jaya,62.03.08.2010,Basarang,Kabupaten,Kapuas,Kalimantan Tengah
1460,73564,Lunuk Ramba,62.03.08.2007,Basarang,Kabupaten,Kapuas,Kalimantan Tengah
1461,73564,Maluen,62.03.08.2005,Basarang,Kabupaten,Kapuas,Kalimantan Tengah
1462,73564,Naning,62.03.08.2014,Basarang,Kabupaten,Kapuas,Kalimantan Tengah
1463,73564,Panarung,62.03.08.2011,Basarang,Kabupaten,Kapuas,Kalimantan Tengah
1464,73564,Pangkalan Rekan,62.03.08.2001,Basarang,Kabupaten,Kapuas,Kalimantan Tengah
1465,73564,Pangkalan Sari,62.03.08.2006,Basarang,Kabupaten,Kapuas,Kalimantan Tengah
1466,73564,Tambun Raya,62.03.08.2013,Basarang,Kabupaten,Kapuas,Kalimantan Tengah
1467,73564,Tarung Manuah,62.03.08.2012,Basarang,Kabupaten,Kapuas,Kalimantan Tengah
1468,73991,Batu Tojah,62.12.06.2009,Barito Tuhup Raya,Kabupaten,Murung Raya,Kalimantan Tengah
1469,73991,Bumban Tuhup,62.12.06.2001,Barito Tuhup Raya,Kabupaten,Murung Raya,Kalimantan Tengah
1470,73991,Cinta Budiman,62.12.06.2011,Barito Tuhup Raya,Kabupaten,Murung Raya,Kalimantan Tengah
1471,73991,Dirung Sararung/Sararong,62.12.06.2003,Barito Tuhup Raya,Kabupaten,Murung Raya,Kalimantan Tengah
1472,73991,Hingan Tokung,62.12.06.2005,Barito Tuhup Raya,Kabupaten,Murung Raya,Kalimantan Tengah
1473,73991,Kohong,62.12.06.2004,Barito Tuhup Raya,Kabupaten,Murung Raya,Kalimantan Tengah
1474,73991,Liang Nyaling,62.12.06.2006,Barito Tuhup Raya,Kabupaten,Murung Raya,Kalimantan Tengah
1475,73991,Makunjung,62.12.06.2002,Barito Tuhup Raya,Kabupaten,Murung Raya,Kalimantan Tengah
1476,73991,Tumbang Baloi,62.12.06.2010,Barito Tuhup Raya,Kabupaten,Murung Raya,Kalimantan Tengah
1477,73991,Tumbang Bauh,62.12.06.2007,Barito Tuhup Raya,Kabupaten,Murung Raya,Kalimantan Tengah
1478,73991,Tumbang Masalo,62.12.06.2008,Barito Tuhup Raya,Kabupaten,Murung Raya,Kalimantan Tengah
1479,73661,Bagok,62.13.02.2004,Banua Lima,Kabupaten,Barito Timur,Kalimantan Tengah
1480,73661,Bamban,62.13.02.2005,Banua Lima,Kabupaten,Barito Timur,Kalimantan Tengah
1481,73661,Banyu Landas,62.13.02.2003,Banua Lima,Kabupaten,Barito Timur,Kalimantan Tengah
1482,73661,Gudang Seng,62.13.02.2007,Banua Lima,Kabupaten,Barito Timur,Kalimantan Tengah
1483,73661,Kandris,62.13.02.2002,Banua Lima,Kabupaten,Barito Timur,Kalimantan Tengah
1484,73661,Pasar Panas/Taniran,62.13.02.1001,Banua Lima,Kabupaten,Barito Timur,Kalimantan Tengah
1485,73661,Tewah Pupuh,62.13.02.2006,Banua Lima,Kabupaten,Barito Timur,Kalimantan Tengah
1486,74863,Bawan,62.11.04.2010,Banama Tingang,Kabupaten,Pulang Pisau,Kalimantan Tengah
1487,74863,Goha (Guha),62.11.04.2009,Banama Tingang,Kabupaten,Pulang Pisau,Kalimantan Tengah
1488,74863,Hanua,62.11.04.2005,Banama Tingang,Kabupaten,Pulang Pisau,Kalimantan Tengah
1489,74863,Hurung,62.11.04.2004,Banama Tingang,Kabupaten,Pulang Pisau,Kalimantan Tengah
1490,74863,Kasali Baru,62.11.04.2015,Banama Tingang,Kabupaten,Pulang Pisau,Kalimantan Tengah
1491,74863,Lawang Uru,62.11.04.2003,Banama Tingang,Kabupaten,Pulang Pisau,Kalimantan Tengah
1492,74863,Manen Kaleka,62.11.04.2002,Banama Tingang,Kabupaten,Pulang Pisau,Kalimantan Tengah
1493,74863,Manen Paduran,62.11.04.2001,Banama Tingang,Kabupaten,Pulang Pisau,Kalimantan Tengah
1494,74863,Pahawan,62.11.04.2008,Banama Tingang,Kabupaten,Pulang Pisau,Kalimantan Tengah
1495,74863,Pandawei,62.11.04.2012,Banama Tingang,Kabupaten,Pulang Pisau,Kalimantan Tengah
1496,74863,Pangi,62.11.04.2013,Banama Tingang,Kabupaten,Pulang Pisau,Kalimantan Tengah
1497,74863,Ramang,62.11.04.2006,Banama Tingang,Kabupaten,Pulang Pisau,Kalimantan Tengah
1498,74863,Tambak,62.11.04.2007,Banama Tingang,Kabupaten,Pulang Pisau,Kalimantan Tengah
1499,74863,Tangkahen,62.11.04.2014,Banama Tingang,Kabupaten,Pulang Pisau,Kalimantan Tengah
1500,74863,Tumbang Tarusan,62.11.04.2011,Banama Tingang,Kabupaten,Pulang Pisau,Kalimantan Tengah
1501,74173,Air Dua,62.08.03.2002,Balai Riam,Kabupaten,Sukamara,Kalimantan Tengah
1502,74173,Balai Riam,62.08.03.2006,Balai Riam,Kabupaten,Sukamara,Kalimantan Tengah
1503,74173,Bangun Jaya,62.08.03.2012,Balai Riam,Kabupaten,Sukamara,Kalimantan Tengah
1504,74173,Bukit Sungkai,62.08.03.2013,Balai Riam,Kabupaten,Sukamara,Kalimantan Tengah
1505,74173,Jihing,62.08.03.2001,Balai Riam,Kabupaten,Sukamara,Kalimantan Tengah
1506,74173,Lupu Peruca,62.08.03.2005,Balai Riam,Kabupaten,Sukamara,Kalimantan Tengah
1507,74173,Pempaning,62.08.03.2007,Balai Riam,Kabupaten,Sukamara,Kalimantan Tengah
1508,74173,Sekuningan Baru,62.08.03.2011,Balai Riam,Kabupaten,Sukamara,Kalimantan Tengah
1509,74312,Baamang Barat,62.02.05.1008,Baamang,Kabupaten,Kotawaringin Timur,Kalimantan Tengah
1510,74311,Baamang Hilir,62.02.05.1001,Baamang,Kabupaten,Kotawaringin Timur,Kalimantan Tengah
1511,74313,Baamang Hulu,62.02.05.1003,Baamang,Kabupaten,Kotawaringin Timur,Kalimantan Tengah
1512,74312,Baamang Tengah,62.02.05.1002,Baamang,Kabupaten,Kotawaringin Timur,Kalimantan Tengah
1513,74312,Tanah Mas,62.02.05.1007,Baamang,Kabupaten,Kotawaringin Timur,Kalimantan Tengah
1514,74316,Tinduk,62.02.05.2006,Baamang,Kabupaten,Kotawaringin Timur,Kalimantan Tengah
1515,73681,Ampari,62.13.04.2006,Awang,Kabupaten,Barito Timur,Kalimantan Tengah
1516,73681,Apar Batu,62.13.04.2007,Awang,Kabupaten,Barito Timur,Kalimantan Tengah
1517,73681,Bangkirayen,62.13.04.2002,Awang,Kabupaten,Barito Timur,Kalimantan Tengah
1518,73681,Biwan,62.13.04.2008,Awang,Kabupaten,Barito Timur,Kalimantan Tengah
1519,73681,Danau,62.13.04.2010,Awang,Kabupaten,Barito Timur,Kalimantan Tengah
1520,73681,Hayaping,62.13.04.2003,Awang,Kabupaten,Barito Timur,Kalimantan Tengah
1521,73681,Janah Jari,62.13.04.2001,Awang,Kabupaten,Barito Timur,Kalimantan Tengah
1522,73681,Janah Mansiwui,62.13.04.2009,Awang,Kabupaten,Barito Timur,Kalimantan Tengah
1523,73681,Pianggu,62.13.04.2011,Awang,Kabupaten,Barito Timur,Kalimantan Tengah
1524,73681,Tangkan,62.13.04.2004,Awang,Kabupaten,Barito Timur,Kalimantan Tengah
1525,73681,Wungkur Nanakan,62.13.04.2005,Awang,Kabupaten,Barito Timur,Kalimantan Tengah
1526,74152,Gandis,62.01.04.2004,Arut Utara,Kabupaten,Kotawaringin Barat,Kalimantan Tengah
1527,74152,Kerabu,62.01.04.2005,Arut Utara,Kabupaten,Kotawaringin Barat,Kalimantan Tengah
1528,74152,Nanga Mua,62.01.04.2001,Arut Utara,Kabupaten,Kotawaringin Barat,Kalimantan Tengah
1529,74152,Panahan,62.01.04.2010,Arut Utara,Kabupaten,Kotawaringin Barat,Kalimantan Tengah
1530,74152,Pandau,62.01.04.2008,Arut Utara,Kabupaten,Kotawaringin Barat,Kalimantan Tengah
1531,74152,Pangkut,62.01.04.1002,Arut Utara,Kabupaten,Kotawaringin Barat,Kalimantan Tengah
1532,74152,Penyombaan (Penyobaan),62.01.04.2007,Arut Utara,Kabupaten,Kotawaringin Barat,Kalimantan Tengah
1533,74152,Riam,62.01.04.2009,Arut Utara,Kabupaten,Kotawaringin Barat,Kalimantan Tengah
1534,74152,Sambi,62.01.04.2006,Arut Utara,Kabupaten,Kotawaringin Barat,Kalimantan Tengah
1535,74152,Sukarami (Sukaramai),62.01.04.2003,Arut Utara,Kabupaten,Kotawaringin Barat,Kalimantan Tengah
1536,74152,Sungai Dau,62.01.04.2011,Arut Utara,Kabupaten,Kotawaringin Barat,Kalimantan Tengah
1537,74113,Baru,62.01.02.1009,Arut Selatan,Kabupaten,Kotawaringin Barat,Kalimantan Tengah
1538,74117,Kenambui,62.01.02.2011,Arut Selatan,Kabupaten,Kotawaringin Barat,Kalimantan Tengah
1539,74117,Kumpai Batu Atas,62.01.02.2015,Arut Selatan,Kabupaten,Kotawaringin Barat,Kalimantan Tengah
1540,74117,Kumpai Batu Bawah,62.01.02.2014,Arut Selatan,Kabupaten,Kotawaringin Barat,Kalimantan Tengah
1541,74112,Madurejo,62.01.02.1005,Arut Selatan,Kabupaten,Kotawaringin Barat,Kalimantan Tengah
1542,74117,Medang Sari (Medangsari),62.01.02.2017,Arut Selatan,Kabupaten,Kotawaringin Barat,Kalimantan Tengah
1543,74115,Mendawai,62.01.02.1003,Arut Selatan,Kabupaten,Kotawaringin Barat,Kalimantan Tengah
1544,74117,Mendawai Seberang,62.01.02.1002,Arut Selatan,Kabupaten,Kotawaringin Barat,Kalimantan Tengah
1545,74117,Natai Baru,62.01.02.2018,Arut Selatan,Kabupaten,Kotawaringin Barat,Kalimantan Tengah
1546,74117,Natai Raya,62.01.02.2016,Arut Selatan,Kabupaten,Kotawaringin Barat,Kalimantan Tengah
1547,74117,Pasir Panjang,62.01.02.2004,Arut Selatan,Kabupaten,Kotawaringin Barat,Kalimantan Tengah
1548,74114,Raja,62.01.02.1007,Arut Selatan,Kabupaten,Kotawaringin Barat,Kalimantan Tengah
1549,74116,Raja Seberang,62.01.02.1008,Arut Selatan,Kabupaten,Kotawaringin Barat,Kalimantan Tengah
1550,74117,Rangda,62.01.02.2010,Arut Selatan,Kabupaten,Kotawaringin Barat,Kalimantan Tengah
1551,74117,Runtu,62.01.02.2012,Arut Selatan,Kabupaten,Kotawaringin Barat,Kalimantan Tengah
1552,74111,Sidorejo,62.01.02.1006,Arut Selatan,Kabupaten,Kotawaringin Barat,Kalimantan Tengah
1553,74117,Sulung (Sulung Kenambui / Kanam Bui),62.01.02.2020,Arut Selatan,Kabupaten,Kotawaringin Barat,Kalimantan Tengah
1554,74117,Tanjung Putri,62.01.02.2001,Arut Selatan,Kabupaten,Kotawaringin Barat,Kalimantan Tengah
1555,74117,Tanjung Terantang,62.01.02.2019,Arut Selatan,Kabupaten,Kotawaringin Barat,Kalimantan Tengah
1556,74117,Umpang,62.01.02.2013,Arut Selatan,Kabupaten,Kotawaringin Barat,Kalimantan Tengah
1557,74352,Bhakti Karya (Bakti Karya),62.02.10.2028,Antang Kalang,Kabupaten,Kotawaringin Timur,Kalimantan Tengah
1558,74352,Buntut Nusa,62.02.10.2016,Antang Kalang,Kabupaten,Kotawaringin Timur,Kalimantan Tengah
1559,74352,Gunung Makmur,62.02.10.2025,Antang Kalang,Kabupaten,Kotawaringin Timur,Kalimantan Tengah
1560,74352,Kuluk Telawang,62.02.10.2002,Antang Kalang,Kabupaten,Kotawaringin Timur,Kalimantan Tengah
1561,74352,Mulya Agung,62.02.10.2027,Antang Kalang,Kabupaten,Kotawaringin Timur,Kalimantan Tengah
1562,74352,Sungai Hanya,62.02.10.2007,Antang Kalang,Kabupaten,Kotawaringin Timur,Kalimantan Tengah
1563,74352,Sungai Puring,62.02.10.2003,Antang Kalang,Kabupaten,Kotawaringin Timur,Kalimantan Tengah
1564,74352,Tumbang Gagu,62.02.10.2017,Antang Kalang,Kabupaten,Kotawaringin Timur,Kalimantan Tengah
1565,74352,Tumbang Hejan,62.02.10.2006,Antang Kalang,Kabupaten,Kotawaringin Timur,Kalimantan Tengah
1566,74352,Tumbang Kalang,62.02.10.2001,Antang Kalang,Kabupaten,Kotawaringin Timur,Kalimantan Tengah
1567,74352,Tumbang Manya,62.02.10.2021,Antang Kalang,Kabupaten,Kotawaringin Timur,Kalimantan Tengah
1568,74352,Tumbang Ngahan,62.02.10.2004,Antang Kalang,Kabupaten,Kotawaringin Timur,Kalimantan Tengah
1569,74352,Tumbang Ramei (Tumbang Ramai),62.02.10.2005,Antang Kalang,Kabupaten,Kotawaringin Timur,Kalimantan Tengah
1570,74352,Tumbang Sepayang (Tumbang Sepanyang),62.02.10.2008,Antang Kalang,Kabupaten,Kotawaringin Timur,Kalimantan Tengah
1571,74352,Waringin Agung,62.02.10.2029,Antang Kalang,Kabupaten,Kotawaringin Timur,Kalimantan Tengah