no,postal_code,urban,area_code,sub_district,dt2,city,province
1,70560,Babat Raya,63.04.16.2007,Wanaraya,Kabupaten,Barito Kuala,Kalimantan Selatan
2,70560,Dwipasari (Dwi Pasari),63.04.16.2013,Wanaraya,Kabupaten,Barito Kuala,Kalimantan Selatan
3,70560,Kolam Kanan,63.04.16.2008,Wanaraya,Kabupaten,Barito Kuala,Kalimantan Selatan
4,70560,Kolam Kiri,63.04.16.2001,Wanaraya,Kabupaten,Barito Kuala,Kalimantan Selatan
5,70560,Kolam Makmur,63.04.16.2010,Wanaraya,Kabupaten,Barito Kuala,Kalimantan Selatan
6,70560,Pinang Habang,63.04.16.2005,Wanaraya,Kabupaten,Barito Kuala,Kalimantan Selatan
7,70560,Roham Raya,63.04.16.2002,Wanaraya,Kabupaten,Barito Kuala,Kalimantan Selatan
8,70560,Sidomulyo (Sido Mulyo),63.04.16.2009,Wanaraya,Kabupaten,Barito Kuala,Kalimantan Selatan
9,70560,Simpang Jaya,63.04.16.2003,Wanaraya,Kabupaten,Barito Kuala,Kalimantan Selatan
10,70560,Sumber Rahayu,63.04.16.2012,Wanaraya,Kabupaten,Barito Kuala,Kalimantan Selatan
11,70560,Surya Kanta,63.04.16.2011,Wanaraya,Kabupaten,Barito Kuala,Kalimantan Selatan
12,70560,Tumih,63.04.16.2004,Wanaraya,Kabupaten,Barito Kuala,Kalimantan Selatan
13,70560,Waringin Kencana,63.04.16.2006,Wanaraya,Kabupaten,Barito Kuala,Kalimantan Selatan
14,71575,Bilas,63.09.10.2001,Upau,Kabupaten,Tabalong,Kalimantan Selatan
15,71575,Kaong,63.09.10.2002,Upau,Kabupaten,Tabalong,Kalimantan Selatan
16,71575,Kinarum,63.09.10.2004,Upau,Kabupaten,Tabalong,Kalimantan Selatan
17,71575,Masingai I,63.09.10.2006,Upau,Kabupaten,Tabalong,Kalimantan Selatan
18,71575,Masingai II,63.09.10.2005,Upau,Kabupaten,Tabalong,Kalimantan Selatan
19,71575,Pangelak,63.09.10.2003,Upau,Kabupaten,Tabalong,Kalimantan Selatan
20,72270,Batu Bulan,63.10.12.2008,Teluk Kepayang,Kabupaten,Tanah Bumbu,Kalimantan Selatan
21,72270,Dadap Kusan Raya,63.10.12.2010,Teluk Kepayang,Kabupaten,Tanah Bumbu,Kalimantan Selatan
22,72270,Darasan Binjai,63.10.12.2005,Teluk Kepayang,Kabupaten,Tanah Bumbu,Kalimantan Selatan
23,72270,Guntung,63.10.12.2002,Teluk Kepayang,Kabupaten,Tanah Bumbu,Kalimantan Selatan
24,72270,Hati'if (Hati If),63.10.12.2007,Teluk Kepayang,Kabupaten,Tanah Bumbu,Kalimantan Selatan
25,72270,Mangkalapi,63.10.12.2003,Teluk Kepayang,Kabupaten,Tanah Bumbu,Kalimantan Selatan
26,72270,Tamunih,63.10.12.2009,Teluk Kepayang,Kabupaten,Tanah Bumbu,Kalimantan Selatan
27,72270,Tapus,63.10.12.2006,Teluk Kepayang,Kabupaten,Tanah Bumbu,Kalimantan Selatan
28,72270,Teluk Kepayang,63.10.12.2001,Teluk Kepayang,Kabupaten,Tanah Bumbu,Kalimantan Selatan
29,72270,Tibarau Panjang (Timbarau Panjang),63.10.12.2004,Teluk Kepayang,Kabupaten,Tanah Bumbu,Kalimantan Selatan
30,71292,Ambutun,63.06.03.2004,Telaga Langsat,Kabupaten,Hulu Sungai Selatan,Kalimantan Selatan
31,71292,Gumbil,63.06.03.2009,Telaga Langsat,Kabupaten,Hulu Sungai Selatan,Kalimantan Selatan
32,71292,Hamak,63.06.03.2005,Telaga Langsat,Kabupaten,Hulu Sungai Selatan,Kalimantan Selatan
33,71292,Hamak Timur,63.06.03.2006,Telaga Langsat,Kabupaten,Hulu Sungai Selatan,Kalimantan Selatan
34,71292,Hamak Utara,63.06.03.2007,Telaga Langsat,Kabupaten,Hulu Sungai Selatan,Kalimantan Selatan
35,71292,Lok Binuang,63.06.03.2001,Telaga Langsat,Kabupaten,Hulu Sungai Selatan,Kalimantan Selatan
36,71292,Longawang,63.06.03.2010,Telaga Langsat,Kabupaten,Hulu Sungai Selatan,Kalimantan Selatan
37,71292,Mandala,63.06.03.2003,Telaga Langsat,Kabupaten,Hulu Sungai Selatan,Kalimantan Selatan
38,71292,Pakuan Timur,63.06.03.2008,Telaga Langsat,Kabupaten,Hulu Sungai Selatan,Kalimantan Selatan
39,71292,Pandulangan,63.06.03.2011,Telaga Langsat,Kabupaten,Hulu Sungai Selatan,Kalimantan Selatan
40,71292,Telaga Langsat,63.06.03.2002,Telaga Langsat,Kabupaten,Hulu Sungai Selatan,Kalimantan Selatan
41,70673,Lok Tanah (Loktanah),63.03.18.2002,Telaga Bauntung,Kabupaten,Banjar,Kalimantan Selatan
42,70673,Rampah,63.03.18.2004,Telaga Bauntung,Kabupaten,Banjar,Kalimantan Selatan
43,70673,Rantau Bujur,63.03.18.2001,Telaga Bauntung,Kabupaten,Banjar,Kalimantan Selatan
44,70673,Telaga Baru,63.03.18.2003,Telaga Bauntung,Kabupaten,Banjar,Kalimantan Selatan
45,71667,Ajung,63.11.08.2011,Tebing Tinggi,Kabupaten,Balangan,Kalimantan Selatan
46,71667,Auh,63.11.08.2007,Tebing Tinggi,Kabupaten,Balangan,Kalimantan Selatan
47,71667,Dayak Pitap,63.11.08.2001,Tebing Tinggi,Kabupaten,Balangan,Kalimantan Selatan
48,71667,Gunung Batu,63.11.08.2008,Tebing Tinggi,Kabupaten,Balangan,Kalimantan Selatan
49,71667,Ju'uh (Ju Uh),63.11.08.2004,Tebing Tinggi,Kabupaten,Balangan,Kalimantan Selatan
50,71667,Kambiyain,63.11.08.2012,Tebing Tinggi,Kabupaten,Balangan,Kalimantan Selatan
51,71667,Langkap,63.11.08.2009,Tebing Tinggi,Kabupaten,Balangan,Kalimantan Selatan
52,71667,Mayanau,63.11.08.2005,Tebing Tinggi,Kabupaten,Balangan,Kalimantan Selatan
53,71667,Simpang Bumbuan,63.11.08.2006,Tebing Tinggi,Kabupaten,Balangan,Kalimantan Selatan
54,71667,Simpang Nadung/Nadong,63.11.08.2010,Tebing Tinggi,Kabupaten,Balangan,Kalimantan Selatan
55,71667,Sungsum,63.11.08.2003,Tebing Tinggi,Kabupaten,Balangan,Kalimantan Selatan
56,71667,Tebing Tinggi,63.11.08.2002,Tebing Tinggi,Kabupaten,Balangan,Kalimantan Selatan
57,70650,Bangkal Tengah,63.03.19.2002,Tatah Makmur,Kabupaten,Banjar,Kalimantan Selatan
58,70650,Jaruju,63.03.19.2011,Tatah Makmur,Kabupaten,Banjar,Kalimantan Selatan
59,70650,Jaruju Laut,63.03.19.2012,Tatah Makmur,Kabupaten,Banjar,Kalimantan Selatan
60,70650,Layap Baru,63.03.19.2003,Tatah Makmur,Kabupaten,Banjar,Kalimantan Selatan
61,70650,Mekar Sari,63.03.19.2005,Tatah Makmur,Kabupaten,Banjar,Kalimantan Selatan
62,70650,Pandan Sari,63.03.19.2006,Tatah Makmur,Kabupaten,Banjar,Kalimantan Selatan
63,70650,Pemangkih Baru,63.03.19.2009,Tatah Makmur,Kabupaten,Banjar,Kalimantan Selatan
64,70650,Pemangkih Darat,63.03.19.2008,Tatah Makmur,Kabupaten,Banjar,Kalimantan Selatan
65,70650,Pemangkih Tengah,63.03.19.2010,Tatah Makmur,Kabupaten,Banjar,Kalimantan Selatan
66,70650,Taibah Raya,63.03.19.2013,Tatah Makmur,Kabupaten,Banjar,Kalimantan Selatan
67,70650,Tampang Awang,63.03.19.2007,Tatah Makmur,Kabupaten,Banjar,Kalimantan Selatan
68,70650,Tatah Bangkal,63.03.19.2001,Tatah Makmur,Kabupaten,Banjar,Kalimantan Selatan
69,70650,Tatah Layap,63.03.19.2004,Tatah Makmur,Kabupaten,Banjar,Kalimantan Selatan
70,71114,Antasan Hilir (Antasari Hilir),63.05.04.2013,Tapin Utara,Kabupaten,Tapin,Kalimantan Selatan
71,71114,Antasari,63.05.04.2006,Tapin Utara,Kabupaten,Tapin,Kalimantan Selatan
72,71114,Badaun,63.05.04.2016,Tapin Utara,Kabupaten,Tapin,Kalimantan Selatan
73,71114,Banua Halar Hulu (Banua Hanyar Hulu),63.05.04.2015,Tapin Utara,Kabupaten,Tapin,Kalimantan Selatan
74,71114,Banua Halat Kanan,63.05.04.2010,Tapin Utara,Kabupaten,Tapin,Kalimantan Selatan
75,71114,Banua Halat Kiri,63.05.04.2009,Tapin Utara,Kabupaten,Tapin,Kalimantan Selatan
76,71114,Banua Hanyar,63.05.04.2008,Tapin Utara,Kabupaten,Tapin,Kalimantan Selatan
77,71114,Jingah Babaris,63.05.04.2007,Tapin Utara,Kabupaten,Tapin,Kalimantan Selatan
78,71114,Kakaran,63.05.04.2012,Tapin Utara,Kabupaten,Tapin,Kalimantan Selatan
79,71114,Keramat,63.05.04.2005,Tapin Utara,Kabupaten,Tapin,Kalimantan Selatan
80,71113,Kupang,63.05.04.1002,Tapin Utara,Kabupaten,Tapin,Kalimantan Selatan
81,71114,Lumbu Raya,63.05.04.2014,Tapin Utara,Kabupaten,Tapin,Kalimantan Selatan
82,71114,Perintis Raya,63.05.04.2011,Tapin Utara,Kabupaten,Tapin,Kalimantan Selatan
83,71114,Rangda Malingkung,63.05.04.1001,Tapin Utara,Kabupaten,Tapin,Kalimantan Selatan
84,71112,Rantau Kanan,63.05.04.1003,Tapin Utara,Kabupaten,Tapin,Kalimantan Selatan
85,71111,Rantau Kiwa,63.05.04.1004,Tapin Utara,Kabupaten,Tapin,Kalimantan Selatan
86,71161,Andhika,63.05.03.2010,Tapin Tengah,Kabupaten,Tapin,Kalimantan Selatan
87,71161,Batang Lantik,63.05.03.2014,Tapin Tengah,Kabupaten,Tapin,Kalimantan Selatan
88,71161,Hiyung,63.05.03.2009,Tapin Tengah,Kabupaten,Tapin,Kalimantan Selatan
89,71161,Kepayang,63.05.03.2013,Tapin Tengah,Kabupaten,Tapin,Kalimantan Selatan
90,71161,Labung,63.05.03.2002,Tapin Tengah,Kabupaten,Tapin,Kalimantan Selatan
91,71161,Mandurian,63.05.03.2003,Tapin Tengah,Kabupaten,Tapin,Kalimantan Selatan
92,71161,Mandurian Hilir,63.05.03.2015,Tapin Tengah,Kabupaten,Tapin,Kalimantan Selatan
93,71161,Pandahan,63.05.03.2007,Tapin Tengah,Kabupaten,Tapin,Kalimantan Selatan
94,71161,Pandulangan,63.05.03.2001,Tapin Tengah,Kabupaten,Tapin,Kalimantan Selatan
95,71161,Papagan Makmur,63.05.03.2017,Tapin Tengah,Kabupaten,Tapin,Kalimantan Selatan
96,71161,Pematang Karangan,63.05.03.2006,Tapin Tengah,Kabupaten,Tapin,Kalimantan Selatan
97,71161,Pematang Karangan Hilir,63.05.03.2008,Tapin Tengah,Kabupaten,Tapin,Kalimantan Selatan
98,71161,Pematang Karangan Hulu,63.05.03.2005,Tapin Tengah,Kabupaten,Tapin,Kalimantan Selatan
99,71161,Sei/Sungai Bahalang,63.05.03.2016,Tapin Tengah,Kabupaten,Tapin,Kalimantan Selatan
100,71161,Serawi,63.05.03.2004,Tapin Tengah,Kabupaten,Tapin,Kalimantan Selatan
101,71161,Sukaramai,63.05.03.2011,Tapin Tengah,Kabupaten,Tapin,Kalimantan Selatan
102,71161,Tirik,63.05.03.2012,Tapin Tengah,Kabupaten,Tapin,Kalimantan Selatan
103,71181,Cempaka,63.05.02.2011,Tapin Selatan,Kabupaten,Tapin,Kalimantan Selatan
104,71181,Harapan Masa,63.05.02.2012,Tapin Selatan,Kabupaten,Tapin,Kalimantan Selatan
105,71181,Hatiwin,63.05.02.2017,Tapin Selatan,Kabupaten,Tapin,Kalimantan Selatan
106,71181,Lawahan,63.05.02.2006,Tapin Selatan,Kabupaten,Tapin,Kalimantan Selatan
107,71181,Rumintin,63.05.02.2009,Tapin Selatan,Kabupaten,Tapin,Kalimantan Selatan
108,71181,Sawang,63.05.02.2005,Tapin Selatan,Kabupaten,Tapin,Kalimantan Selatan
109,71181,Suato Tatakan,63.05.02.2002,Tapin Selatan,Kabupaten,Tapin,Kalimantan Selatan
110,71181,Tambarangan,63.05.02.1004,Tapin Selatan,Kabupaten,Tapin,Kalimantan Selatan
111,71181,Tandui,63.05.02.2016,Tapin Selatan,Kabupaten,Tapin,Kalimantan Selatan
112,71181,Tatakan,63.05.02.2001,Tapin Selatan,Kabupaten,Tapin,Kalimantan Selatan
113,71181,Timbaan,63.05.02.2007,Tapin Selatan,Kabupaten,Tapin,Kalimantan Selatan
114,71561,Barimbun,63.09.03.2005,Tanta,Kabupaten,Tabalong,Kalimantan Selatan
115,71561,Lukbayur (Luk Bayur),63.09.03.2002,Tanta,Kabupaten,Tabalong,Kalimantan Selatan
116,71561,Mangkusip,63.09.03.2006,Tanta,Kabupaten,Tabalong,Kalimantan Selatan
117,71561,Murung Baru,63.09.03.2001,Tanta,Kabupaten,Tabalong,Kalimantan Selatan
118,71561,Padang Panjang,63.09.03.2010,Tanta,Kabupaten,Tabalong,Kalimantan Selatan
119,71561,Padangin,63.09.03.2012,Tanta,Kabupaten,Tabalong,Kalimantan Selatan
120,71561,Pamarangan Kanan,63.09.03.2007,Tanta,Kabupaten,Tabalong,Kalimantan Selatan
121,71561,Puain Kanan,63.09.03.2011,Tanta,Kabupaten,Tabalong,Kalimantan Selatan
122,71561,"Pulau Kuu (Pulau Ku,U / Kuu)",63.09.03.2008,Tanta,Kabupaten,Tabalong,Kalimantan Selatan
123,71561,Tamiyang,63.09.03.2013,Tanta,Kabupaten,Tabalong,Kalimantan Selatan
124,71561,Tanta,63.09.03.2009,Tanta,Kabupaten,Tabalong,Kalimantan Selatan
125,71561,Tanta Hulu,63.09.03.2014,Tanta,Kabupaten,Tabalong,Kalimantan Selatan
126,71561,Walangkir,63.09.03.2003,Tanta,Kabupaten,Tabalong,Kalimantan Selatan
127,71561,Warukin,63.09.03.2004,Tanta,Kabupaten,Tabalong,Kalimantan Selatan
128,71514,Agung,63.09.04.1003,Tanjung,Kabupaten,Tabalong,Kalimantan Selatan
129,71515,Banyu Tajun,63.09.04.2005,Tanjung,Kabupaten,Tabalong,Kalimantan Selatan
130,71515,Garunggung,63.09.04.2012,Tanjung,Kabupaten,Tabalong,Kalimantan Selatan
131,71515,Hikun,63.09.04.1004,Tanjung,Kabupaten,Tabalong,Kalimantan Selatan
132,71512,Jangkung,63.09.04.1001,Tanjung,Kabupaten,Tabalong,Kalimantan Selatan
133,71515,Juai,63.09.04.2008,Tanjung,Kabupaten,Tabalong,Kalimantan Selatan
134,71515,Kambitin,63.09.04.2010,Tanjung,Kabupaten,Tabalong,Kalimantan Selatan
135,71515,Kambitin Raya,63.09.04.2015,Tanjung,Kabupaten,Tabalong,Kalimantan Selatan
136,71515,Kitang,63.09.04.2013,Tanjung,Kabupaten,Tabalong,Kalimantan Selatan
137,71515,Mahe Seberang,63.09.04.2009,Tanjung,Kabupaten,Tabalong,Kalimantan Selatan
138,71515,Pamarangan Kiwa,63.09.04.2006,Tanjung,Kabupaten,Tabalong,Kalimantan Selatan
139,71515,Puain Kiwa,63.09.04.2007,Tanjung,Kabupaten,Tabalong,Kalimantan Selatan
140,71515,Sei/Sungai Pimping,63.09.04.2014,Tanjung,Kabupaten,Tabalong,Kalimantan Selatan
141,71513,Tanjung,63.09.04.1002,Tanjung,Kabupaten,Tabalong,Kalimantan Selatan
142,71515,Wayau,63.09.04.2011,Tanjung,Kabupaten,Tabalong,Kalimantan Selatan
143,70854,Bingkulu,63.01.08.2005,Tambang Ulang,Kabupaten,Tanah Laut,Kalimantan Selatan
144,70854,Gunung Raja,63.01.08.2006,Tambang Ulang,Kabupaten,Tanah Laut,Kalimantan Selatan
145,70854,Kayu Abang,63.01.08.2008,Tambang Ulang,Kabupaten,Tanah Laut,Kalimantan Selatan
146,70854,Martadah,63.01.08.2003,Tambang Ulang,Kabupaten,Tanah Laut,Kalimantan Selatan
147,70854,Martadah Baru,63.01.08.2009,Tambang Ulang,Kabupaten,Tanah Laut,Kalimantan Selatan
148,70854,Pulau Sari,63.01.08.2007,Tambang Ulang,Kabupaten,Tanah Laut,Kalimantan Selatan
149,70854,Sei/Sungai Jelai,63.01.08.2004,Tambang Ulang,Kabupaten,Tanah Laut,Kalimantan Selatan
150,70854,Sei/Sungai Pinang,63.01.08.2002,Tambang Ulang,Kabupaten,Tanah Laut,Kalimantan Selatan
151,70854,Tambang Ulang,63.01.08.2001,Tambang Ulang,Kabupaten,Tanah Laut,Kalimantan Selatan
152,70566,Damsari,63.04.02.2012,Tamban,Kabupaten,Barito Kuala,Kalimantan Selatan
153,70566,Jelapat Baru,63.04.02.2014,Tamban,Kabupaten,Barito Kuala,Kalimantan Selatan
154,70566,Jelapat I,63.04.02.2007,Tamban,Kabupaten,Barito Kuala,Kalimantan Selatan
155,70566,Koanda,63.04.02.2011,Tamban,Kabupaten,Barito Kuala,Kalimantan Selatan
156,70566,Purwosari Baru,63.04.02.2009,Tamban,Kabupaten,Barito Kuala,Kalimantan Selatan
157,70566,Purwosari I,63.04.02.2002,Tamban,Kabupaten,Barito Kuala,Kalimantan Selatan
158,70566,Purwosari II,63.04.02.2001,Tamban,Kabupaten,Barito Kuala,Kalimantan Selatan
159,70566,Sekata Baru,63.04.02.2010,Tamban,Kabupaten,Barito Kuala,Kalimantan Selatan
160,70566,Sidorejo,63.04.02.2013,Tamban,Kabupaten,Barito Kuala,Kalimantan Selatan
161,70566,Tamban Bangun,63.04.02.2003,Tamban,Kabupaten,Barito Kuala,Kalimantan Selatan
162,70566,Tamban Bangun Baru,63.04.02.2015,Tamban,Kabupaten,Barito Kuala,Kalimantan Selatan
163,70566,Tamban Kecil,63.04.02.2005,Tamban,Kabupaten,Barito Kuala,Kalimantan Selatan
164,70566,Tamban Muara,63.04.02.2004,Tamban,Kabupaten,Barito Kuala,Kalimantan Selatan
165,70566,Tamban Muara Baru,63.04.02.2008,Tamban,Kabupaten,Barito Kuala,Kalimantan Selatan
166,70566,Tamban Sari Baru,63.04.02.2016,Tamban,Kabupaten,Barito Kuala,Kalimantan Selatan
167,70566,Tinggiran II Luar (Tinggiran Luar II),63.04.02.2006,Tamban,Kabupaten,Barito Kuala,Kalimantan Selatan
168,70861,Banua lawas (Benua Lawas),63.01.01.2001,Takisung,Kabupaten,Tanah Laut,Kalimantan Selatan
169,70861,Banua Tengah (Benua Tengah),63.01.01.2006,Takisung,Kabupaten,Tanah Laut,Kalimantan Selatan
170,70861,Batilai,63.01.01.2009,Takisung,Kabupaten,Tanah Laut,Kalimantan Selatan
171,70861,Gunung Makmur,63.01.01.2005,Takisung,Kabupaten,Tanah Laut,Kalimantan Selatan
172,70861,Kuala Tambangan,63.01.01.2003,Takisung,Kabupaten,Tanah Laut,Kalimantan Selatan
173,70861,Pagatan Besar (Pegatan Besar),63.01.01.2008,Takisung,Kabupaten,Tanah Laut,Kalimantan Selatan
174,70861,Ranggang,63.01.01.2007,Takisung,Kabupaten,Tanah Laut,Kalimantan Selatan
175,70861,Ranggang Dalam,63.01.01.2010,Takisung,Kabupaten,Tanah Laut,Kalimantan Selatan
176,70861,Sumber Makmur,63.01.01.2012,Takisung,Kabupaten,Tanah Laut,Kalimantan Selatan
177,70861,Tabanio,63.01.01.2002,Takisung,Kabupaten,Tanah Laut,Kalimantan Selatan
178,70861,Takisung,63.01.01.2004,Takisung,Kabupaten,Tanah Laut,Kalimantan Selatan
179,70861,Telaga Langsat,63.01.01.2011,Takisung,Kabupaten,Tanah Laut,Kalimantan Selatan
180,70567,Beringin Kencana,63.04.01.2013,Tabunganen,Kabupaten,Barito Kuala,Kalimantan Selatan
181,70567,Karya Baru,63.04.01.2006,Tabunganen,Kabupaten,Barito Kuala,Kalimantan Selatan
182,70567,Kuala Lupak,63.04.01.2001,Tabunganen,Kabupaten,Barito Kuala,Kalimantan Selatan
183,70567,Sei/Sungai Jingah Besar,63.04.01.2009,Tabunganen,Kabupaten,Barito Kuala,Kalimantan Selatan
184,70567,Sei/Sungai Telan Besar,63.04.01.2002,Tabunganen,Kabupaten,Barito Kuala,Kalimantan Selatan
185,70567,Sei/Sungai Telan Kecil,63.04.01.2003,Tabunganen,Kabupaten,Barito Kuala,Kalimantan Selatan
186,70567,Sei/Sungai Telan Muara,63.04.01.2012,Tabunganen,Kabupaten,Barito Kuala,Kalimantan Selatan
187,70567,Sei/Sungai Teras Dalam,63.04.01.2008,Tabunganen,Kabupaten,Barito Kuala,Kalimantan Selatan
188,70567,Sei/Sungai Teras Luar,63.04.01.2011,Tabunganen,Kabupaten,Barito Kuala,Kalimantan Selatan
189,70567,Tabunganen Kecil,63.04.01.2010,Tabunganen,Kabupaten,Barito Kuala,Kalimantan Selatan
190,70567,Tabunganen Muara,63.04.01.2004,Tabunganen,Kabupaten,Barito Kuala,Kalimantan Selatan
191,70567,Tabunganen Perumus (Tabunganen Pemurus),63.04.01.2007,Tabunganen,Kabupaten,Barito Kuala,Kalimantan Selatan
192,70567,Tabunganen Tengah,63.04.01.2005,Tabunganen,Kabupaten,Barito Kuala,Kalimantan Selatan
193,70567,Tanggul Rejo,63.04.01.2014,Tabunganen,Kabupaten,Barito Kuala,Kalimantan Selatan
194,70553,Bandar Karya,63.04.12.2008,Tabukan,Kabupaten,Barito Kuala,Kalimantan Selatan
195,70553,Karya Indah,63.04.12.2007,Tabukan,Kabupaten,Barito Kuala,Kalimantan Selatan
196,70553,Karya Jadi,63.04.12.2010,Tabukan,Kabupaten,Barito Kuala,Kalimantan Selatan
197,70553,Karya Makmur,63.04.12.2009,Tabukan,Kabupaten,Barito Kuala,Kalimantan Selatan
198,70553,Muara Pulau,63.04.12.2006,Tabukan,Kabupaten,Barito Kuala,Kalimantan Selatan
199,70553,Pantang Baru,63.04.12.2011,Tabukan,Kabupaten,Barito Kuala,Kalimantan Selatan
200,70553,Pantang Raya,63.04.12.2001,Tabukan,Kabupaten,Barito Kuala,Kalimantan Selatan
201,70553,Rantau Bamban,63.04.12.2004,Tabukan,Kabupaten,Barito Kuala,Kalimantan Selatan
202,70553,Tabukan Raya,63.04.12.2002,Tabukan,Kabupaten,Barito Kuala,Kalimantan Selatan
203,70553,Tamba Jaya,63.04.12.2005,Tabukan,Kabupaten,Barito Kuala,Kalimantan Selatan
204,70553,Teluk Tamba,63.04.12.2003,Tabukan,Kabupaten,Barito Kuala,Kalimantan Selatan
205,71456,Banua Hanyar,63.08.10.2012,Sungai Tabukan,Kabupaten,Hulu Sungai Utara,Kalimantan Selatan
206,71456,Galagah,63.08.10.2004,Sungai Tabukan,Kabupaten,Hulu Sungai Utara,Kalimantan Selatan
207,71456,Galagah Hulu,63.08.10.2003,Sungai Tabukan,Kabupaten,Hulu Sungai Utara,Kalimantan Selatan
208,71456,Gampa Raya,63.08.10.2011,Sungai Tabukan,Kabupaten,Hulu Sungai Utara,Kalimantan Selatan
209,71456,Hilir Mesjid,63.08.10.2010,Sungai Tabukan,Kabupaten,Hulu Sungai Utara,Kalimantan Selatan
210,71456,Nelayan,63.08.10.2002,Sungai Tabukan,Kabupaten,Hulu Sungai Utara,Kalimantan Selatan
211,71456,Pasar Sabtu,63.08.10.2008,Sungai Tabukan,Kabupaten,Hulu Sungai Utara,Kalimantan Selatan
212,71456,Pematang Benteng,63.08.10.2006,Sungai Tabukan,Kabupaten,Hulu Sungai Utara,Kalimantan Selatan
213,71456,Pematang Benteng Hilir,63.08.10.2007,Sungai Tabukan,Kabupaten,Hulu Sungai Utara,Kalimantan Selatan
214,71456,Rantau Bujur Darat,63.08.10.2016,Sungai Tabukan,Kabupaten,Hulu Sungai Utara,Kalimantan Selatan
215,71456,Rantau Bujur Hilir,63.08.10.2015,Sungai Tabukan,Kabupaten,Hulu Sungai Utara,Kalimantan Selatan
216,71456,Rantau Bujur Hulu,63.08.10.2013,Sungai Tabukan,Kabupaten,Hulu Sungai Utara,Kalimantan Selatan
217,71456,Rantau Bujur Tengah,63.08.10.2014,Sungai Tabukan,Kabupaten,Hulu Sungai Utara,Kalimantan Selatan
218,71456,Sei/Sungai Haji,63.08.10.2009,Sungai Tabukan,Kabupaten,Hulu Sungai Utara,Kalimantan Selatan
219,71456,Sei/Sungai Tabukan,63.08.10.2001,Sungai Tabukan,Kabupaten,Hulu Sungai Utara,Kalimantan Selatan
220,71456,Teluk Cati,63.08.10.2005,Sungai Tabukan,Kabupaten,Hulu Sungai Utara,Kalimantan Selatan
221,71456,Tembalang Raya (Tambalang Raya),63.08.10.2017,Sungai Tabukan,Kabupaten,Hulu Sungai Utara,Kalimantan Selatan
222,70653,Abumbun Jaya,63.03.04.2021,Sungai Tabuk,Kabupaten,Banjar,Kalimantan Selatan
223,70653,Gudang Hirang,63.03.04.2005,Sungai Tabuk,Kabupaten,Banjar,Kalimantan Selatan
224,70653,Gudang Tengah,63.03.04.2012,Sungai Tabuk,Kabupaten,Banjar,Kalimantan Selatan
225,70653,Keliling Benteng Ilir,63.03.04.2014,Sungai Tabuk,Kabupaten,Banjar,Kalimantan Selatan
226,70653,Liok Baintan Dalam (Lok Baintan Dalam),63.03.04.2017,Sungai Tabuk,Kabupaten,Banjar,Kalimantan Selatan
227,70653,Lok Baintan,63.03.04.2004,Sungai Tabuk,Kabupaten,Banjar,Kalimantan Selatan
228,70653,Lok Buntar (Lokbuntar),63.03.04.2011,Sungai Tabuk,Kabupaten,Banjar,Kalimantan Selatan
229,70653,Paku Alam,63.03.04.2016,Sungai Tabuk,Kabupaten,Banjar,Kalimantan Selatan
230,70653,Pejambuan,63.03.04.2013,Sungai Tabuk,Kabupaten,Banjar,Kalimantan Selatan
231,70653,Pemakuan,63.03.04.2008,Sungai Tabuk,Kabupaten,Banjar,Kalimantan Selatan
232,70653,Pematang Panjang,63.03.04.2018,Sungai Tabuk,Kabupaten,Banjar,Kalimantan Selatan
233,70653,Pembantanan,63.03.04.2007,Sungai Tabuk,Kabupaten,Banjar,Kalimantan Selatan
234,70653,Sei/Sungai Bakung,63.03.04.2002,Sungai Tabuk,Kabupaten,Banjar,Kalimantan Selatan
235,70653,Sei/Sungai Bangkal,63.03.04.2019,Sungai Tabuk,Kabupaten,Banjar,Kalimantan Selatan
236,70653,Sei/Sungai Lulut,63.03.04.1001,Sungai Tabuk,Kabupaten,Banjar,Kalimantan Selatan
237,70653,Sei/Sungai Pinang Baru,63.03.04.2015,Sungai Tabuk,Kabupaten,Banjar,Kalimantan Selatan
238,70653,Sei/Sungai Tabuk Keramat,63.03.04.2010,Sungai Tabuk,Kabupaten,Banjar,Kalimantan Selatan
239,70653,Sei/Sungai Tabuk Kota,63.03.04.2009,Sungai Tabuk,Kabupaten,Banjar,Kalimantan Selatan
240,70653,Sei/Sungai Tandipah,63.03.04.2003,Sungai Tabuk,Kabupaten,Banjar,Kalimantan Selatan
241,70653,Sungai Pinang (Sei / Sungai Pinang Lama),63.03.04.2006,Sungai Tabuk,Kabupaten,Banjar,Kalimantan Selatan
242,70653,Tajau Landung,63.03.04.2020,Sungai Tabuk,Kabupaten,Banjar,Kalimantan Selatan
243,71271,Asam,63.06.01.2014,Sungai Raya,Kabupaten,Hulu Sungai Selatan,Kalimantan Selatan
244,71271,Baru,63.06.01.2012,Sungai Raya,Kabupaten,Hulu Sungai Selatan,Kalimantan Selatan
245,71271,Batang Kulur Kanan,63.06.01.2011,Sungai Raya,Kabupaten,Hulu Sungai Selatan,Kalimantan Selatan
246,71271,Batang Kulur Kiri,63.06.01.2009,Sungai Raya,Kabupaten,Hulu Sungai Selatan,Kalimantan Selatan
247,71271,Batang Kulur Tengah,63.06.01.2010,Sungai Raya,Kabupaten,Hulu Sungai Selatan,Kalimantan Selatan
248,71271,Bumi Berkat (Bumi Barkat),63.06.01.2008,Sungai Raya,Kabupaten,Hulu Sungai Selatan,Kalimantan Selatan
249,71271,Hamalau,63.06.01.2001,Sungai Raya,Kabupaten,Hulu Sungai Selatan,Kalimantan Selatan
250,71271,Hariti,63.06.01.2006,Sungai Raya,Kabupaten,Hulu Sungai Selatan,Kalimantan Selatan
251,71271,Ida Manggala,63.06.01.2007,Sungai Raya,Kabupaten,Hulu Sungai Selatan,Kalimantan Selatan
252,71271,Karasikan,63.06.01.2003,Sungai Raya,Kabupaten,Hulu Sungai Selatan,Kalimantan Selatan
253,71271,Paring Agung,63.06.01.2017,Sungai Raya,Kabupaten,Hulu Sungai Selatan,Kalimantan Selatan
254,71271,Sarang Halang,63.06.01.2016,Sungai Raya,Kabupaten,Hulu Sungai Selatan,Kalimantan Selatan
255,71271,Sei/Sungai Kali,63.06.01.2015,Sungai Raya,Kabupaten,Hulu Sungai Selatan,Kalimantan Selatan
256,71271,Sei/Sungai Raya Selatan,63.06.01.2005,Sungai Raya,Kabupaten,Hulu Sungai Selatan,Kalimantan Selatan
257,71271,Sei/Sungai Raya Utara,63.06.01.2004,Sungai Raya,Kabupaten,Hulu Sungai Selatan,Kalimantan Selatan
258,71271,Tamiyang,63.06.01.2013,Sungai Raya,Kabupaten,Hulu Sungai Selatan,Kalimantan Selatan
259,71271,Tanah Bangkang,63.06.01.2018,Sungai Raya,Kabupaten,Hulu Sungai Selatan,Kalimantan Selatan
260,71271,Telaga Bidadari,63.06.01.2002,Sungai Raya,Kabupaten,Hulu Sungai Selatan,Kalimantan Selatan
261,70678,Belimbing Baru,63.03.10.2011,Sungai Pinang,Kabupaten,Banjar,Kalimantan Selatan
262,70678,Belimbing Lama,63.03.10.2006,Sungai Pinang,Kabupaten,Banjar,Kalimantan Selatan
263,70678,Hakim Makmur,63.03.10.2015,Sungai Pinang,Kabupaten,Banjar,Kalimantan Selatan
264,70678,Kahelaan,63.03.10.2003,Sungai Pinang,Kabupaten,Banjar,Kalimantan Selatan
265,70678,Kupang Rejo,63.03.10.2001,Sungai Pinang,Kabupaten,Banjar,Kalimantan Selatan
266,70678,Pakutik,63.03.10.2012,Sungai Pinang,Kabupaten,Banjar,Kalimantan Selatan
267,70678,Rantau Bakula,63.03.10.2005,Sungai Pinang,Kabupaten,Banjar,Kalimantan Selatan
268,70678,Rantau Nangka,63.03.10.2004,Sungai Pinang,Kabupaten,Banjar,Kalimantan Selatan
269,70678,Sei/Sungai Pinang,63.03.10.2002,Sungai Pinang,Kabupaten,Banjar,Kalimantan Selatan
270,70678,Sumber Baru,63.03.10.2010,Sungai Pinang,Kabupaten,Banjar,Kalimantan Selatan
271,70678,Sumber Harapan,63.03.10.2013,Sungai Pinang,Kabupaten,Banjar,Kalimantan Selatan
272,71455,Banyu Tajun Dalam,63.08.03.2029,Sungai Pandan,Kabupaten,Hulu Sungai Utara,Kalimantan Selatan
273,71455,Banyu Tajun Hilir,63.08.03.2003,Sungai Pandan,Kabupaten,Hulu Sungai Utara,Kalimantan Selatan
274,71455,Banyu Tajun Hulu,63.08.03.2004,Sungai Pandan,Kabupaten,Hulu Sungai Utara,Kalimantan Selatan
275,71455,Banyu Tajun Pangkalan,63.08.03.2005,Sungai Pandan,Kabupaten,Hulu Sungai Utara,Kalimantan Selatan
276,71455,Hambuku Hulu,63.08.03.2010,Sungai Pandan,Kabupaten,Hulu Sungai Utara,Kalimantan Selatan
277,71455,Hambuku Pasar,63.08.03.2044,Sungai Pandan,Kabupaten,Hulu Sungai Utara,Kalimantan Selatan
278,71455,Hambuku Tengah,63.08.03.2011,Sungai Pandan,Kabupaten,Hulu Sungai Utara,Kalimantan Selatan
279,71455,Hanbuku Raya (Hambuku Raya),63.08.03.2032,Sungai Pandan,Kabupaten,Hulu Sungai Utara,Kalimantan Selatan
280,71455,Jalan Lurus,63.08.03.2041,Sungai Pandan,Kabupaten,Hulu Sungai Utara,Kalimantan Selatan
281,71455,Murung Asam,63.08.03.2039,Sungai Pandan,Kabupaten,Hulu Sungai Utara,Kalimantan Selatan
282,71455,Padang Bangkal,63.08.03.2043,Sungai Pandan,Kabupaten,Hulu Sungai Utara,Kalimantan Selatan
283,71455,Pandulangan,63.08.03.2014,Sungai Pandan,Kabupaten,Hulu Sungai Utara,Kalimantan Selatan
284,71455,Pangkalan Sari,63.08.03.2045,Sungai Pandan,Kabupaten,Hulu Sungai Utara,Kalimantan Selatan
285,71455,Pondok Babaris,63.08.03.2021,Sungai Pandan,Kabupaten,Hulu Sungai Utara,Kalimantan Selatan
286,71455,Putat Atas /Tatau,63.08.03.2026,Sungai Pandan,Kabupaten,Hulu Sungai Utara,Kalimantan Selatan
287,71455,Rantau Karau Hilir,63.08.03.2001,Sungai Pandan,Kabupaten,Hulu Sungai Utara,Kalimantan Selatan
288,71455,Rantau Karau Hulu,63.08.03.2002,Sungai Pandan,Kabupaten,Hulu Sungai Utara,Kalimantan Selatan
289,71455,Rantau Karau Raya,63.08.03.2046,Sungai Pandan,Kabupaten,Hulu Sungai Utara,Kalimantan Selatan
290,71455,Rantau Karau Tengah,63.08.03.2035,Sungai Pandan,Kabupaten,Hulu Sungai Utara,Kalimantan Selatan
291,71455,Sei/Sungai Kuini,63.08.03.2033,Sungai Pandan,Kabupaten,Hulu Sungai Utara,Kalimantan Selatan
292,71455,Sei/Sungai Pandan Hilir,63.08.03.2007,Sungai Pandan,Kabupaten,Hulu Sungai Utara,Kalimantan Selatan
293,71455,Sei/Sungai Pandan Hulu,63.08.03.2015,Sungai Pandan,Kabupaten,Hulu Sungai Utara,Kalimantan Selatan
294,71455,Sei/Sungai Pandan Tengah,63.08.03.2031,Sungai Pandan,Kabupaten,Hulu Sungai Utara,Kalimantan Selatan
295,71455,Sei/Sungai Pinang,63.08.03.2024,Sungai Pandan,Kabupaten,Hulu Sungai Utara,Kalimantan Selatan
296,71455,Sei/Sungai Sandung,63.08.03.2006,Sungai Pandan,Kabupaten,Hulu Sungai Utara,Kalimantan Selatan
297,71455,Tambalang,63.08.03.2009,Sungai Pandan,Kabupaten,Hulu Sungai Utara,Kalimantan Selatan
298,71455,Tambalang Kecil,63.08.03.2025,Sungai Pandan,Kabupaten,Hulu Sungai Utara,Kalimantan Selatan
299,71455,Tambalang Tengah,63.08.03.2037,Sungai Pandan,Kabupaten,Hulu Sungai Utara,Kalimantan Selatan
300,71455,Tapus Dalam,63.08.03.2034,Sungai Pandan,Kabupaten,Hulu Sungai Utara,Kalimantan Selatan
301,71455,Tatah Laban,63.08.03.2040,Sungai Pandan,Kabupaten,Hulu Sungai Utara,Kalimantan Selatan
302,71455,Teluk Betung,63.08.03.2008,Sungai Pandan,Kabupaten,Hulu Sungai Utara,Kalimantan Selatan
303,71455,Teluk Mesjid,63.08.03.2038,Sungai Pandan,Kabupaten,Hulu Sungai Utara,Kalimantan Selatan
304,71455,Teluk Sinar,63.08.03.2042,Sungai Pandan,Kabupaten,Hulu Sungai Utara,Kalimantan Selatan
305,72274,Batu Meranti,63.10.03.2012,Sungai Loban,Kabupaten,Tanah Bumbu,Kalimantan Selatan
306,72274,Biduri Bersujud,63.10.03.2016,Sungai Loban,Kabupaten,Tanah Bumbu,Kalimantan Selatan
307,72274,Damar Indah,63.10.03.2019,Sungai Loban,Kabupaten,Tanah Bumbu,Kalimantan Selatan
308,72274,Dwi Marga Utama,63.10.03.2010,Sungai Loban,Kabupaten,Tanah Bumbu,Kalimantan Selatan
309,72274,Kerta Buana,63.10.03.2011,Sungai Loban,Kabupaten,Tanah Bumbu,Kalimantan Selatan
310,72274,Marga Mulya,63.10.03.2006,Sungai Loban,Kabupaten,Tanah Bumbu,Kalimantan Selatan
311,72274,Sari Mulya,63.10.03.2001,Sungai Loban,Kabupaten,Tanah Bumbu,Kalimantan Selatan
312,72274,Sari Utama,63.10.03.2007,Sungai Loban,Kabupaten,Tanah Bumbu,Kalimantan Selatan
313,72274,Sebamban Baru,63.10.03.2004,Sungai Loban,Kabupaten,Tanah Bumbu,Kalimantan Selatan
314,72274,Sebamban Lama,63.10.03.2003,Sungai Loban,Kabupaten,Tanah Bumbu,Kalimantan Selatan
315,72274,Sumber Makmur,63.10.03.2015,Sungai Loban,Kabupaten,Tanah Bumbu,Kalimantan Selatan
316,72274,Sumber Sari,63.10.03.2017,Sungai Loban,Kabupaten,Tanah Bumbu,Kalimantan Selatan
317,72274,Sungaidua Laut (Sungai Dua Laut),63.10.03.2005,Sungai Loban,Kabupaten,Tanah Bumbu,Kalimantan Selatan
318,72274,Sungailoban (Sungai Loban),63.10.03.2002,Sungai Loban,Kabupaten,Tanah Bumbu,Kalimantan Selatan
319,72274,Tri Martani,63.10.03.2014,Sungai Loban,Kabupaten,Tanah Bumbu,Kalimantan Selatan
320,72274,Tri Mulya,63.10.03.2008,Sungai Loban,Kabupaten,Tanah Bumbu,Kalimantan Selatan
321,72274,Wanasari,63.10.03.2018,Sungai Loban,Kabupaten,Tanah Bumbu,Kalimantan Selatan
322,72167,Buluh Kuning,63.02.15.2001,Sungai Durian (Sungaidurian),Kabupaten,Kotabaru,Kalimantan Selatan
323,72167,Gendang Timburu,63.02.15.2002,Sungai Durian (Sungaidurian),Kabupaten,Kotabaru,Kalimantan Selatan
324,72167,Manunggul Baru,63.02.15.2007,Sungai Durian (Sungaidurian),Kabupaten,Kotabaru,Kalimantan Selatan
325,72167,Manunggul Lama,63.02.15.2004,Sungai Durian (Sungaidurian),Kabupaten,Kotabaru,Kalimantan Selatan
326,72167,Rantau Buda (Rantau Budha),63.02.15.2006,Sungai Durian (Sungaidurian),Kabupaten,Kotabaru,Kalimantan Selatan
327,72167,Rantau Jaya,63.02.15.2009,Sungai Durian (Sungaidurian),Kabupaten,Kotabaru,Kalimantan Selatan
328,72167,Terombong Sari (Terobong Sari),63.02.15.2008,Sungai Durian (Sungaidurian),Kabupaten,Kotabaru,Kalimantan Selatan
329,71261,Amparaya,63.06.06.2004,Simpur,Kabupaten,Hulu Sungai Selatan,Kalimantan Selatan
330,71261,Garunggang,63.06.06.2003,Simpur,Kabupaten,Hulu Sungai Selatan,Kalimantan Selatan
331,71261,Kapuh,63.06.06.2011,Simpur,Kabupaten,Hulu Sungai Selatan,Kalimantan Selatan
332,71261,Panjampang Bahagia,63.06.06.2005,Simpur,Kabupaten,Hulu Sungai Selatan,Kalimantan Selatan
333,71261,Pantai Ulin,63.06.06.2007,Simpur,Kabupaten,Hulu Sungai Selatan,Kalimantan Selatan
334,71261,Simpur,63.06.06.2002,Simpur,Kabupaten,Hulu Sungai Selatan,Kalimantan Selatan
335,71261,Tebing Tinggi,63.06.06.2001,Simpur,Kabupaten,Hulu Sungai Selatan,Kalimantan Selatan
336,71261,Ulin,63.06.06.2006,Simpur,Kabupaten,Hulu Sungai Selatan,Kalimantan Selatan
337,71261,Wasah Hilir,63.06.06.2010,Simpur,Kabupaten,Hulu Sungai Selatan,Kalimantan Selatan
338,71261,Wasah Hulu,63.06.06.2008,Simpur,Kabupaten,Hulu Sungai Selatan,Kalimantan Selatan
339,71261,Wasah Tengah,63.06.06.2009,Simpur,Kabupaten,Hulu Sungai Selatan,Kalimantan Selatan
340,72213,Baroqah,63.10.06.2009,Simpang Empat,Kabupaten,Tanah Bumbu,Kalimantan Selatan
341,72213,Batu Ampar,63.10.06.2006,Simpang Empat,Kabupaten,Tanah Bumbu,Kalimantan Selatan
342,70673,Batu Balian,63.03.08.2017,Simpang Empat,Kabupaten,Banjar,Kalimantan Selatan
343,70673,Berkat Mulia (Berkat Mulya),63.03.08.2019,Simpang Empat,Kabupaten,Banjar,Kalimantan Selatan
344,72213,Bersujud,63.10.06.2010,Simpang Empat,Kabupaten,Tanah Bumbu,Kalimantan Selatan
345,70673,Cabi,63.03.08.2018,Simpang Empat,Kabupaten,Banjar,Kalimantan Selatan
346,72213,Gunungantasari (Gunung Antasari),63.10.06.2012,Simpang Empat,Kabupaten,Tanah Bumbu,Kalimantan Selatan
347,72213,Gunungbesar (Gunung Besar),63.10.06.2007,Simpang Empat,Kabupaten,Tanah Bumbu,Kalimantan Selatan
348,72213,Hidayah Makmur,63.10.06.2013,Simpang Empat,Kabupaten,Tanah Bumbu,Kalimantan Selatan
349,72212,Kampung Baru,63.10.06.1001,Simpang Empat,Kabupaten,Tanah Bumbu,Kalimantan Selatan
350,72211,Kupang Berkah Jaya,63.10.06.2015,Simpang Empat,Kabupaten,Tanah Bumbu,Kalimantan Selatan
351,70673,Lawiran,63.03.08.2014,Simpang Empat,Kabupaten,Banjar,Kalimantan Selatan
352,70673,Lok Cantung (Lokcantung),63.03.08.2007,Simpang Empat,Kabupaten,Banjar,Kalimantan Selatan
353,72211,Mekar Sari,63.10.06.2004,Simpang Empat,Kabupaten,Tanah Bumbu,Kalimantan Selatan
354,70673,Paku,63.03.08.2005,Simpang Empat,Kabupaten,Banjar,Kalimantan Selatan
355,70673,Paring Tali,63.03.08.2022,Simpang Empat,Kabupaten,Banjar,Kalimantan Selatan
356,70673,Pasar Lama,63.03.08.2025,Simpang Empat,Kabupaten,Banjar,Kalimantan Selatan
357,72213,Plajau Mulia,63.10.06.2014,Simpang Empat,Kabupaten,Tanah Bumbu,Kalimantan Selatan
358,72213,Pulau Burung,63.10.06.2008,Simpang Empat,Kabupaten,Tanah Bumbu,Kalimantan Selatan
359,72211,Sari Gadung,63.10.06.2003,Simpang Empat,Kabupaten,Tanah Bumbu,Kalimantan Selatan
360,70673,Sei/Sungai Langsat,63.03.08.2011,Simpang Empat,Kabupaten,Banjar,Kalimantan Selatan
361,70673,Sei/Sungai Raya,63.03.08.2009,Simpang Empat,Kabupaten,Banjar,Kalimantan Selatan
362,70653,Sei/Sungai Tabuk,63.03.08.2026,Simpang Empat,Kabupaten,Banjar,Kalimantan Selatan
363,72213,Sejahtera,63.10.06.2011,Simpang Empat,Kabupaten,Tanah Bumbu,Kalimantan Selatan
364,70673,Simpang Empat,63.03.08.2006,Simpang Empat,Kabupaten,Banjar,Kalimantan Selatan
365,70673,Sungai Baru (Sungkai Baru),63.03.08.2021,Simpang Empat,Kabupaten,Banjar,Kalimantan Selatan
366,72211,Sungaidua (Sungai Dua),63.10.06.2005,Simpang Empat,Kabupaten,Tanah Bumbu,Kalimantan Selatan
367,70673,Sungkai,63.03.08.2010,Simpang Empat,Kabupaten,Banjar,Kalimantan Selatan
368,70673,Tanah Intan,63.03.08.2008,Simpang Empat,Kabupaten,Banjar,Kalimantan Selatan
369,72213,Tungkaran Pangeran,63.10.06.1002,Simpang Empat,Kabupaten,Tanah Bumbu,Kalimantan Selatan
370,72276,Al Kautsar,63.10.04.2023,Satui,Kabupaten,Tanah Bumbu,Kalimantan Selatan
371,72276,Berakat Mufakat,63.10.04.2029,Satui,Kabupaten,Tanah Bumbu,Kalimantan Selatan
372,72276,Beruntung Raya,63.10.04.2028,Satui,Kabupaten,Tanah Bumbu,Kalimantan Selatan
373,72276,Jombang,63.10.04.2006,Satui,Kabupaten,Tanah Bumbu,Kalimantan Selatan
374,72276,Makmur Jaya,63.10.04.2030,Satui,Kabupaten,Tanah Bumbu,Kalimantan Selatan
375,72276,Makmur Mulia (Mulya Makmur),63.10.04.2024,Satui,Kabupaten,Tanah Bumbu,Kalimantan Selatan
376,72276,Pandamaran Jaya,63.10.04.2026,Satui,Kabupaten,Tanah Bumbu,Kalimantan Selatan
377,72276,Satui Barat,63.10.04.2008,Satui,Kabupaten,Tanah Bumbu,Kalimantan Selatan
378,72276,Satui Timur,63.10.04.2004,Satui,Kabupaten,Tanah Bumbu,Kalimantan Selatan
379,72276,Sejahtera Mulia,63.10.04.2022,Satui,Kabupaten,Tanah Bumbu,Kalimantan Selatan
380,72276,Sekapuk,63.10.04.2009,Satui,Kabupaten,Tanah Bumbu,Kalimantan Selatan
381,72276,Setarap,63.10.04.2003,Satui,Kabupaten,Tanah Bumbu,Kalimantan Selatan
382,72276,Sido Rejo,63.10.04.2027,Satui,Kabupaten,Tanah Bumbu,Kalimantan Selatan
383,72276,Sinar Bulan,63.10.04.2025,Satui,Kabupaten,Tanah Bumbu,Kalimantan Selatan
384,72276,Sumber Arum,63.10.04.2019,Satui,Kabupaten,Tanah Bumbu,Kalimantan Selatan
385,72276,Sumber Makmur,63.10.04.2012,Satui,Kabupaten,Tanah Bumbu,Kalimantan Selatan
386,72276,Sungaicuka (Sungai Cuka),63.10.04.2005,Satui,Kabupaten,Tanah Bumbu,Kalimantan Selatan
387,72276,Sungaidanau (Sungai Danau),63.10.04.2010,Satui,Kabupaten,Tanah Bumbu,Kalimantan Selatan
388,72276,Tegal Sari,63.10.04.2013,Satui,Kabupaten,Tanah Bumbu,Kalimantan Selatan
389,72276,Wonorejo,63.10.04.2011,Satui,Kabupaten,Tanah Bumbu,Kalimantan Selatan
390,72166,Banjarsari (Banjar Sari),63.02.12.2009,Sampanahan,Kabupaten,Kotabaru,Kalimantan Selatan
391,72166,Basuang,63.02.12.2003,Sampanahan,Kabupaten,Kotabaru,Kalimantan Selatan
392,72166,Gunung Batu Besar,63.02.12.2004,Sampanahan,Kabupaten,Kotabaru,Kalimantan Selatan
393,72166,Papaan,63.02.12.2007,Sampanahan,Kabupaten,Kotabaru,Kalimantan Selatan
394,72166,Rampa Manunggul,63.02.12.2006,Sampanahan,Kabupaten,Kotabaru,Kalimantan Selatan
395,72166,Sampanahan,63.02.12.2005,Sampanahan,Kabupaten,Kotabaru,Kalimantan Selatan
396,72166,Sampanahan Hilir,63.02.12.2008,Sampanahan,Kabupaten,Kotabaru,Kalimantan Selatan
397,72166,Sepapah,63.02.12.2001,Sampanahan,Kabupaten,Kotabaru,Kalimantan Selatan
398,72166,Sukamaju (Suka Maju),63.02.12.2010,Sampanahan,Kabupaten,Kotabaru,Kalimantan Selatan
399,72166,Sungai Betung,63.02.12.2002,Sampanahan,Kabupaten,Kotabaru,Kalimantan Selatan
400,70677,Baliangin,63.03.16.2002,Sambung Makmur,Kabupaten,Banjar,Kalimantan Selatan
401,70677,Batang Banyu,63.03.16.2004,Sambung Makmur,Kabupaten,Banjar,Kalimantan Selatan
402,70677,Batu Tanam,63.03.16.2006,Sambung Makmur,Kabupaten,Banjar,Kalimantan Selatan
403,70677,Gunung Batu,63.03.16.2003,Sambung Makmur,Kabupaten,Banjar,Kalimantan Selatan
404,70677,Madurejo,63.03.16.2001,Sambung Makmur,Kabupaten,Banjar,Kalimantan Selatan
405,70677,Pasar Baru,63.03.16.2007,Sambung Makmur,Kabupaten,Banjar,Kalimantan Selatan
406,70677,Sei/Sungai Lurus,63.03.16.2005,Sambung Makmur,Kabupaten,Banjar,Kalimantan Selatan
407,71185,Kambang Habang Baru,63.05.11.2006,Salam Babaris,Kabupaten,Tapin,Kalimantan Selatan
408,71185,Kambang Habang Lama,63.05.11.2003,Salam Babaris,Kabupaten,Tapin,Kalimantan Selatan
409,71185,Pantai Cabe,63.05.11.2004,Salam Babaris,Kabupaten,Tapin,Kalimantan Selatan
410,71185,Salam Babaris,63.05.11.2001,Salam Babaris,Kabupaten,Tapin,Kalimantan Selatan
411,71185,Suato Baru,63.05.11.2005,Salam Babaris,Kabupaten,Tapin,Kalimantan Selatan
412,71185,Suato Lama,63.05.11.2002,Salam Babaris,Kabupaten,Tapin,Kalimantan Selatan
413,70561,Danda Jaya,63.04.07.2009,Rantau Badauh,Kabupaten,Barito Kuala,Kalimantan Selatan
414,70561,Pindahan Baru,63.04.07.2002,Rantau Badauh,Kabupaten,Barito Kuala,Kalimantan Selatan
415,70561,Sei/Sungai Bamban,63.04.07.2008,Rantau Badauh,Kabupaten,Barito Kuala,Kalimantan Selatan
416,70561,Sei/Sungai Gampa,63.04.07.2004,Rantau Badauh,Kabupaten,Barito Kuala,Kalimantan Selatan
417,70561,Sei/Sungai Gampa Asahi,63.04.07.2003,Rantau Badauh,Kabupaten,Barito Kuala,Kalimantan Selatan
418,70561,Sei/Sungai Pantai,63.04.07.2001,Rantau Badauh,Kabupaten,Barito Kuala,Kalimantan Selatan
419,70561,Sei/Sungai Sahurai,63.04.07.2005,Rantau Badauh,Kabupaten,Barito Kuala,Kalimantan Selatan
420,70561,Simpang Arya (Simpang Arja),63.04.07.2006,Rantau Badauh,Kabupaten,Barito Kuala,Kalimantan Selatan
421,70561,Sinar Baru,63.04.07.2007,Rantau Badauh,Kabupaten,Barito Kuala,Kalimantan Selatan
422,72115,Baharu Selatan,63.02.22.1009,Pulaulaut Sigam,Kabupaten,Kotabaru,Kalimantan Selatan
423,72112,Baharu Utara,63.02.22.2004,Pulaulaut Sigam,Kabupaten,Kotabaru,Kalimantan Selatan
424,72112,Batuah,63.02.22.2003,Pulaulaut Sigam,Kabupaten,Kotabaru,Kalimantan Selatan
425,72114,Gedambaan,63.02.22.2006,Pulaulaut Sigam,Kabupaten,Kotabaru,Kalimantan Selatan
426,72111,Hilir Muara,63.02.22.2002,Pulaulaut Sigam,Kabupaten,Kotabaru,Kalimantan Selatan
427,72111,Kotabaru Hilir,63.02.22.1011,Pulaulaut Sigam,Kabupaten,Kotabaru,Kalimantan Selatan
428,72113,Kotabaru Tengah,63.02.22.1010,Pulaulaut Sigam,Kabupaten,Kotabaru,Kalimantan Selatan
429,72114,Sarang Tiung,63.02.22.2007,Pulaulaut Sigam,Kabupaten,Kotabaru,Kalimantan Selatan
430,72113,Sebatung,63.02.22.2001,Pulaulaut Sigam,Kabupaten,Kotabaru,Kalimantan Selatan
431,72112,Sigam,63.02.22.2008,Pulaulaut Sigam,Kabupaten,Kotabaru,Kalimantan Selatan
432,72112,Tirawan,63.02.22.2005,Pulaulaut Sigam,Kabupaten,Kotabaru,Kalimantan Selatan
433,72181,Labuan Barat,63.02.01.2001,Pulau Sembilan (Pulausembilan),Kabupaten,Kotabaru,Kalimantan Selatan
434,72181,Maradapan,63.02.01.2003,Pulau Sembilan (Pulausembilan),Kabupaten,Kotabaru,Kalimantan Selatan
435,72181,Tanjung Nyiur (Tanjungnyiur),63.02.01.2005,Pulau Sembilan (Pulausembilan),Kabupaten,Kotabaru,Kalimantan Selatan
436,72181,Teluk Sungai,63.02.01.2002,Pulau Sembilan (Pulausembilan),Kabupaten,Kotabaru,Kalimantan Selatan
437,72181,Tengah,63.02.01.2004,Pulau Sembilan (Pulausembilan),Kabupaten,Kotabaru,Kalimantan Selatan
438,72155,Balambus,63.02.05.2006,Pulau Sebuku (Pulausebuku),Kabupaten,Kotabaru,Kalimantan Selatan
439,72155,Kanibungan,63.02.05.2002,Pulau Sebuku (Pulausebuku),Kabupaten,Kotabaru,Kalimantan Selatan
440,72155,Mandin,63.02.05.2003,Pulau Sebuku (Pulausebuku),Kabupaten,Kotabaru,Kalimantan Selatan
441,72155,Rampa,63.02.05.2007,Pulau Sebuku (Pulausebuku),Kabupaten,Kotabaru,Kalimantan Selatan
442,72155,Sekapung,63.02.05.2001,Pulau Sebuku (Pulausebuku),Kabupaten,Kotabaru,Kalimantan Selatan
443,72155,Serakaman (Sarakaman),63.02.05.2004,Pulau Sebuku (Pulausebuku),Kabupaten,Kotabaru,Kalimantan Selatan
444,72155,Sungai Bali,63.02.05.2005,Pulau Sebuku (Pulausebuku),Kabupaten,Kotabaru,Kalimantan Selatan
445,72155,Ujung,63.02.05.2008,Pulau Sebuku (Pulausebuku),Kabupaten,Kotabaru,Kalimantan Selatan
446,72116,Dirgahayu,63.02.06.2015,Pulau Laut Utara (Pulaulaut Utara),Kabupaten,Kotabaru,Kalimantan Selatan
447,72114,Gunung Sari,63.02.06.2025,Pulau Laut Utara (Pulaulaut Utara),Kabupaten,Kotabaru,Kalimantan Selatan
448,72114,Gunung Ulin,63.02.06.2022,Pulau Laut Utara (Pulaulaut Utara),Kabupaten,Kotabaru,Kalimantan Selatan
449,72114,Kotabaru Hulu,63.02.06.1001,Pulau Laut Utara (Pulaulaut Utara),Kabupaten,Kotabaru,Kalimantan Selatan
450,72114,Megasari (Mega Sari),63.02.06.2009,Pulau Laut Utara (Pulaulaut Utara),Kabupaten,Kotabaru,Kalimantan Selatan
451,72114,Rampa,63.02.06.2012,Pulau Laut Utara (Pulaulaut Utara),Kabupaten,Kotabaru,Kalimantan Selatan
452,72114,Sebelimbingan,63.02.06.2010,Pulau Laut Utara (Pulaulaut Utara),Kabupaten,Kotabaru,Kalimantan Selatan
453,72117,Semayap,63.02.06.2014,Pulau Laut Utara (Pulaulaut Utara),Kabupaten,Kotabaru,Kalimantan Selatan
454,72114,Stagen,63.02.06.2011,Pulau Laut Utara (Pulaulaut Utara),Kabupaten,Kotabaru,Kalimantan Selatan
455,72114,Sungai Taib,63.02.06.2013,Pulau Laut Utara (Pulaulaut Utara),Kabupaten,Kotabaru,Kalimantan Selatan
456,72152,Batu Tunau,63.02.04.2001,Pulau Laut Timur (Pulaulaut Timur),Kabupaten,Kotabaru,Kalimantan Selatan
457,72152,Bekambit,63.02.04.2003,Pulau Laut Timur (Pulaulaut Timur),Kabupaten,Kotabaru,Kalimantan Selatan
458,72152,Bekambit Asri,63.02.04.2014,Pulau Laut Timur (Pulaulaut Timur),Kabupaten,Kotabaru,Kalimantan Selatan
459,72152,Berangas,63.02.04.2007,Pulau Laut Timur (Pulaulaut Timur),Kabupaten,Kotabaru,Kalimantan Selatan
460,72152,Betung,63.02.04.2009,Pulau Laut Timur (Pulaulaut Timur),Kabupaten,Kotabaru,Kalimantan Selatan
461,72152,Karangsari Indah (Karang Sari Indah),63.02.04.2013,Pulau Laut Timur (Pulaulaut Timur),Kabupaten,Kotabaru,Kalimantan Selatan
462,72152,Kulipak,63.02.04.2012,Pulau Laut Timur (Pulaulaut Timur),Kabupaten,Kotabaru,Kalimantan Selatan
463,72152,Langkang Baru,63.02.04.2004,Pulau Laut Timur (Pulaulaut Timur),Kabupaten,Kotabaru,Kalimantan Selatan
464,72152,Langkang Lama,63.02.04.2005,Pulau Laut Timur (Pulaulaut Timur),Kabupaten,Kotabaru,Kalimantan Selatan
465,72152,Sejakah,63.02.04.2002,Pulau Laut Timur (Pulaulaut Timur),Kabupaten,Kotabaru,Kalimantan Selatan
466,72152,Sungai Limau,63.02.04.2006,Pulau Laut Timur (Pulaulaut Timur),Kabupaten,Kotabaru,Kalimantan Selatan
467,72152,Tanjung Pengharapan,63.02.04.2008,Pulau Laut Timur (Pulaulaut Timur),Kabupaten,Kotabaru,Kalimantan Selatan
468,72152,Teluk Gosong,63.02.04.2011,Pulau Laut Timur (Pulaulaut Timur),Kabupaten,Kotabaru,Kalimantan Selatan
469,72152,Teluk Mesjid,63.02.04.2010,Pulau Laut Timur (Pulaulaut Timur),Kabupaten,Kotabaru,Kalimantan Selatan
470,72156,Mekarpura (Mekar Pura),63.02.16.2003,Pulau Laut Tengah (Pulaulaut Tengah),Kabupaten,Kotabaru,Kalimantan Selatan
471,72156,Pantai Baru (Pantaibaru),63.02.16.2006,Pulau Laut Tengah (Pulaulaut Tengah),Kabupaten,Kotabaru,Kalimantan Selatan
472,72156,Salino,63.02.16.2007,Pulau Laut Tengah (Pulaulaut Tengah),Kabupaten,Kotabaru,Kalimantan Selatan
473,72156,Selaru,63.02.16.2004,Pulau Laut Tengah (Pulaulaut Tengah),Kabupaten,Kotabaru,Kalimantan Selatan
474,72156,Semisir,63.02.16.2001,Pulau Laut Tengah (Pulaulaut Tengah),Kabupaten,Kotabaru,Kalimantan Selatan
475,72156,Sungai Pasir,63.02.16.2002,Pulau Laut Tengah (Pulaulaut Tengah),Kabupaten,Kotabaru,Kalimantan Selatan
476,72156,Sungup Kanan,63.02.16.2005,Pulau Laut Tengah (Pulaulaut Tengah),Kabupaten,Kotabaru,Kalimantan Selatan
477,72151,Bandar Raya,63.02.21.2009,Pulau Laut Tanjung Selayar,Kabupaten,Kotabaru,Kalimantan Selatan
478,72151,Bangun Rejo,63.02.21.2010,Pulau Laut Tanjung Selayar,Kabupaten,Kotabaru,Kalimantan Selatan
479,72151,Gosong Panjang,63.02.21.2006,Pulau Laut Tanjung Selayar,Kabupaten,Kotabaru,Kalimantan Selatan
480,72151,Kampung Baru,63.02.21.2007,Pulau Laut Tanjung Selayar,Kabupaten,Kotabaru,Kalimantan Selatan
481,72151,Tanjung Kunyit,63.02.21.2004,Pulau Laut Tanjung Selayar,Kabupaten,Kotabaru,Kalimantan Selatan
482,72151,Tanjung Pelayar,63.02.21.2001,Pulau Laut Tanjung Selayar,Kabupaten,Kotabaru,Kalimantan Selatan
483,72151,Tanjung Sungkai,63.02.21.2002,Pulau Laut Tanjung Selayar,Kabupaten,Kotabaru,Kalimantan Selatan
484,72151,Tanjung Tengah,63.02.21.2003,Pulau Laut Tanjung Selayar,Kabupaten,Kotabaru,Kalimantan Selatan
485,72151,Tata Mekar,63.02.21.2008,Pulau Laut Tanjung Selayar,Kabupaten,Kotabaru,Kalimantan Selatan
486,72151,Teluk Tamiang (Teluk Tamiyang),63.02.21.2005,Pulau Laut Tanjung Selayar,Kabupaten,Kotabaru,Kalimantan Selatan
487,72157,Alle-Alle,63.02.03.2011,Pulau Laut Selatan (Pulaulaut Selatan),Kabupaten,Kotabaru,Kalimantan Selatan
488,72157,Labuan Mas,63.02.03.2015,Pulau Laut Selatan (Pulaulaut Selatan),Kabupaten,Kotabaru,Kalimantan Selatan
489,72157,Sungai Bahim,63.02.03.2007,Pulau Laut Selatan (Pulaulaut Selatan),Kabupaten,Kotabaru,Kalimantan Selatan
490,72157,Sungai Bulan,63.02.03.2013,Pulau Laut Selatan (Pulaulaut Selatan),Kabupaten,Kotabaru,Kalimantan Selatan
491,72157,Tanjung Seloka,63.02.03.2008,Pulau Laut Selatan (Pulaulaut Selatan),Kabupaten,Kotabaru,Kalimantan Selatan
492,72157,Tanjung Seloka Utara,63.02.03.2016,Pulau Laut Selatan (Pulaulaut Selatan),Kabupaten,Kotabaru,Kalimantan Selatan
493,72157,Tanjung Serudung,63.02.03.2009,Pulau Laut Selatan (Pulaulaut Selatan),Kabupaten,Kotabaru,Kalimantan Selatan
494,72157,Teluk Sirih,63.02.03.2006,Pulau Laut Selatan (Pulaulaut Selatan),Kabupaten,Kotabaru,Kalimantan Selatan
495,72154,Kerayaan Utara,63.02.20.2004,Pulau Laut Kepulauan (Pulaulaut Kepulauan),Kabupaten,Kotabaru,Kalimantan Selatan
496,72154,Oka-Oka,63.02.20.2009,Pulau Laut Kepulauan (Pulaulaut Kepulauan),Kabupaten,Kotabaru,Kalimantan Selatan
497,72154,Pulau Kerasian,63.02.20.2005,Pulau Laut Kepulauan (Pulaulaut Kepulauan),Kabupaten,Kotabaru,Kalimantan Selatan
498,72154,Pulau Kerayaan,63.02.20.2003,Pulau Laut Kepulauan (Pulaulaut Kepulauan),Kabupaten,Kotabaru,Kalimantan Selatan
499,72154,Pulau Kerumputan,63.02.20.2006,Pulau Laut Kepulauan (Pulaulaut Kepulauan),Kabupaten,Kotabaru,Kalimantan Selatan
500,72154,Tanjung Lalak Selatan,63.02.20.2002,Pulau Laut Kepulauan (Pulaulaut Kepulauan),Kabupaten,Kotabaru,Kalimantan Selatan
501,72154,Tanjung Lalak Utara,63.02.20.2001,Pulau Laut Kepulauan (Pulaulaut Kepulauan),Kabupaten,Kotabaru,Kalimantan Selatan
502,72154,Teluk Aru,63.02.20.2007,Pulau Laut Kepulauan (Pulaulaut Kepulauan),Kabupaten,Kotabaru,Kalimantan Selatan
503,72154,Teluk Kemuning,63.02.20.2008,Pulau Laut Kepulauan (Pulaulaut Kepulauan),Kabupaten,Kotabaru,Kalimantan Selatan
504,72153,Gemuruh,63.02.02.2015,Pulau Laut Barat (Pulaulaut Barat),Kabupaten,Kotabaru,Kalimantan Selatan
505,72153,Lontar Selatan,63.02.02.2005,Pulau Laut Barat (Pulaulaut Barat),Kabupaten,Kotabaru,Kalimantan Selatan
506,72153,Lontar Timur,63.02.02.2006,Pulau Laut Barat (Pulaulaut Barat),Kabupaten,Kotabaru,Kalimantan Selatan
507,72153,Lontar Utara,63.02.02.2018,Pulau Laut Barat (Pulaulaut Barat),Kabupaten,Kotabaru,Kalimantan Selatan
508,72153,Sebanti,63.02.02.2007,Pulau Laut Barat (Pulaulaut Barat),Kabupaten,Kotabaru,Kalimantan Selatan
509,72153,Semaras,63.02.02.2009,Pulau Laut Barat (Pulaulaut Barat),Kabupaten,Kotabaru,Kalimantan Selatan
510,72153,Sepagar,63.02.02.2008,Pulau Laut Barat (Pulaulaut Barat),Kabupaten,Kotabaru,Kalimantan Selatan
511,72153,Subur Makmur,63.02.02.2022,Pulau Laut Barat (Pulaulaut Barat),Kabupaten,Kotabaru,Kalimantan Selatan
512,72153,Sumber Sari,63.02.02.2021,Pulau Laut Barat (Pulaulaut Barat),Kabupaten,Kotabaru,Kalimantan Selatan
513,72153,Tapian Balai (Tepian Balai),63.02.02.2017,Pulau Laut Barat (Pulaulaut Barat),Kabupaten,Kotabaru,Kalimantan Selatan
514,72153,Terangkih (Terangkeh),63.02.02.2012,Pulau Laut Barat (Pulaulaut Barat),Kabupaten,Kotabaru,Kalimantan Selatan
515,71554,Halangan,63.09.09.2006,Pugaan,Kabupaten,Tabalong,Kalimantan Selatan
516,71554,Jirak,63.09.09.2005,Pugaan,Kabupaten,Tabalong,Kalimantan Selatan
517,71554,Pampanan,63.09.09.2002,Pugaan,Kabupaten,Tabalong,Kalimantan Selatan
518,71554,Pugaan,63.09.09.2001,Pugaan,Kabupaten,Tabalong,Kalimantan Selatan
519,71554,Sei/Sungai Rukam I,63.09.09.2004,Pugaan,Kabupaten,Tabalong,Kalimantan Selatan
520,71554,Sei/Sungai Rukam II,63.09.09.2003,Pugaan,Kabupaten,Tabalong,Kalimantan Selatan
521,71554,Tamunti,63.09.09.2007,Pugaan,Kabupaten,Tabalong,Kalimantan Selatan
522,71191,Balawaian,63.05.08.2006,Piani,Kabupaten,Tapin,Kalimantan Selatan
523,71191,Baramban,63.05.08.2007,Piani,Kabupaten,Tapin,Kalimantan Selatan
524,71191,Batu Ampar,63.05.08.2003,Piani,Kabupaten,Tapin,Kalimantan Selatan
525,71191,Batung,63.05.08.2005,Piani,Kabupaten,Tapin,Kalimantan Selatan
526,71191,Buniin Jaya (Buni In Jaya),63.05.08.2008,Piani,Kabupaten,Tapin,Kalimantan Selatan
527,71191,Harakit,63.05.08.2004,Piani,Kabupaten,Tapin,Kalimantan Selatan
528,71191,Miawa,63.05.08.2002,Piani,Kabupaten,Tapin,Kalimantan Selatan
529,71191,Pipitak Jaya,63.05.08.2001,Piani,Kabupaten,Tapin,Kalimantan Selatan
530,70674,Alimukim,63.03.09.2007,Pengaron (Pengarom),Kabupaten,Banjar,Kalimantan Selatan
531,70674,Antaraku,63.03.09.2009,Pengaron (Pengarom),Kabupaten,Banjar,Kalimantan Selatan
532,70674,Ati'im (Ati Im),63.03.09.2006,Pengaron (Pengarom),Kabupaten,Banjar,Kalimantan Selatan
533,70674,Benteng,63.03.09.2005,Pengaron (Pengarom),Kabupaten,Banjar,Kalimantan Selatan
534,70674,Kertak Empat,63.03.09.2015,Pengaron (Pengarom),Kabupaten,Banjar,Kalimantan Selatan
535,70674,Lobang Baru,63.03.09.2003,Pengaron (Pengarom),Kabupaten,Banjar,Kalimantan Selatan
536,70674,Lok Tunggul (Loktunggul),63.03.09.2002,Pengaron (Pengarom),Kabupaten,Banjar,Kalimantan Selatan
537,70674,Lumpangi,63.03.09.2018,Pengaron (Pengarom),Kabupaten,Banjar,Kalimantan Selatan
538,70674,Mangkauk,63.03.09.2010,Pengaron (Pengarom),Kabupaten,Banjar,Kalimantan Selatan
539,70674,Maniapun,63.03.09.2001,Pengaron (Pengarom),Kabupaten,Banjar,Kalimantan Selatan
540,70674,Pengaron,63.03.09.2004,Pengaron (Pengarom),Kabupaten,Banjar,Kalimantan Selatan
541,70674,Penyiuran (Panyiuran),63.03.09.2008,Pengaron (Pengarom),Kabupaten,Banjar,Kalimantan Selatan
542,70815,Ambungan,63.01.03.2024,Pelaihari,Kabupaten,Tanah Laut,Kalimantan Selatan
543,70814,Angsau,63.01.03.1004,Pelaihari,Kabupaten,Tanah Laut,Kalimantan Selatan
544,70815,Atu Atu,63.01.03.2012,Pelaihari,Kabupaten,Tanah Laut,Kalimantan Selatan
545,70815,Bumi Jaya,63.01.03.2006,Pelaihari,Kabupaten,Tanah Laut,Kalimantan Selatan
546,70815,Guntung Besar,63.01.03.2025,Pelaihari,Kabupaten,Tanah Laut,Kalimantan Selatan
547,70815,Kampung Baru,63.01.03.2026,Pelaihari,Kabupaten,Tanah Laut,Kalimantan Selatan
548,70812,Karang Taruna,63.01.03.1002,Pelaihari,Kabupaten,Tanah Laut,Kalimantan Selatan
549,70815,Pabahanan,63.01.03.1005,Pelaihari,Kabupaten,Tanah Laut,Kalimantan Selatan
550,70815,Panggung,63.01.03.2015,Pelaihari,Kabupaten,Tanah Laut,Kalimantan Selatan
551,70815,Panggung Baru,63.01.03.2020,Pelaihari,Kabupaten,Tanah Laut,Kalimantan Selatan
552,70815,Panjaratan,63.01.03.2011,Pelaihari,Kabupaten,Tanah Laut,Kalimantan Selatan
553,70815,Pelaihari,63.01.03.1003,Pelaihari,Kabupaten,Tanah Laut,Kalimantan Selatan
554,70815,Pemuda,63.01.03.2029,Pelaihari,Kabupaten,Tanah Laut,Kalimantan Selatan
555,70815,Sarang Halang,63.01.03.1001,Pelaihari,Kabupaten,Tanah Laut,Kalimantan Selatan
556,70815,Sei/Sungai Riam,63.01.03.2008,Pelaihari,Kabupaten,Tanah Laut,Kalimantan Selatan
557,70815,Sumber Mulia,63.01.03.2027,Pelaihari,Kabupaten,Tanah Laut,Kalimantan Selatan
558,70815,Tampang,63.01.03.2009,Pelaihari,Kabupaten,Tanah Laut,Kalimantan Selatan
559,70815,Telaga,63.01.03.2010,Pelaihari,Kabupaten,Tanah Laut,Kalimantan Selatan
560,70815,Tungkaran,63.01.03.2016,Pelaihari,Kabupaten,Tanah Laut,Kalimantan Selatan
561,70815,Ujung Batu,63.01.03.2017,Pelaihari,Kabupaten,Tanah Laut,Kalimantan Selatan
562,71662,Baruh Bahinu Dalam,63.11.07.2004,Paringin Selatan,Kabupaten,Balangan,Kalimantan Selatan
563,71662,Baruh Bahinu Luar,63.11.07.2002,Paringin Selatan,Kabupaten,Balangan,Kalimantan Selatan
564,71618,Batu Piring,63.11.07.1001,Paringin Selatan,Kabupaten,Balangan,Kalimantan Selatan
565,71662,Binjai,63.11.07.2008,Paringin Selatan,Kabupaten,Balangan,Kalimantan Selatan
566,71617,Bungin,63.11.07.2010,Paringin Selatan,Kabupaten,Balangan,Kalimantan Selatan
567,71662,Galumbang (Galombang),63.11.07.2006,Paringin Selatan,Kabupaten,Balangan,Kalimantan Selatan
568,71662,Halubau,63.11.07.2007,Paringin Selatan,Kabupaten,Balangan,Kalimantan Selatan
569,71662,Halubau Utara,63.11.07.2012,Paringin Selatan,Kabupaten,Balangan,Kalimantan Selatan
570,71662,Inan,63.11.07.2003,Paringin Selatan,Kabupaten,Balangan,Kalimantan Selatan
571,71662,Lingsir,63.11.07.2015,Paringin Selatan,Kabupaten,Balangan,Kalimantan Selatan
572,71662,Maradap,63.11.07.2011,Paringin Selatan,Kabupaten,Balangan,Kalimantan Selatan
573,71662,Murung Abuin,63.11.07.2009,Paringin Selatan,Kabupaten,Balangan,Kalimantan Selatan
574,71662,Murung Jambu,63.11.07.2013,Paringin Selatan,Kabupaten,Balangan,Kalimantan Selatan
575,71662,Panggung,63.11.07.2005,Paringin Selatan,Kabupaten,Balangan,Kalimantan Selatan
576,71662,Tarangan,63.11.07.2016,Paringin Selatan,Kabupaten,Balangan,Kalimantan Selatan
577,71662,Telaga Purun,63.11.07.2014,Paringin Selatan,Kabupaten,Balangan,Kalimantan Selatan
578,71662,Babayau,63.11.06.2024,Paringin,Kabupaten,Balangan,Kalimantan Selatan
579,71662,Balang,63.11.06.2005,Paringin,Kabupaten,Balangan,Kalimantan Selatan
580,71662,Balida,63.11.06.2034,Paringin,Kabupaten,Balangan,Kalimantan Selatan
581,71662,Dahai,63.11.06.2017,Paringin,Kabupaten,Balangan,Kalimantan Selatan
582,71662,Hujan Mas,63.11.06.2022,Paringin,Kabupaten,Balangan,Kalimantan Selatan
583,71662,Kalahiang,63.11.06.2006,Paringin,Kabupaten,Balangan,Kalimantan Selatan
584,71662,Lamida Bawah,63.11.06.2015,Paringin,Kabupaten,Balangan,Kalimantan Selatan
585,71662,Lasung Batu,63.11.06.2007,Paringin,Kabupaten,Balangan,Kalimantan Selatan
586,71616,Layap,63.11.06.2009,Paringin,Kabupaten,Balangan,Kalimantan Selatan
587,71662,Lok Batung,63.11.06.2014,Paringin,Kabupaten,Balangan,Kalimantan Selatan
588,71614,Mangkayahu,63.11.06.2013,Paringin,Kabupaten,Balangan,Kalimantan Selatan
589,71662,Murung Ilung,63.11.06.2012,Paringin,Kabupaten,Balangan,Kalimantan Selatan
590,71662,Paran,63.11.06.2008,Paringin,Kabupaten,Balangan,Kalimantan Selatan
591,71662,Paringin Kota,63.11.06.1023,Paringin,Kabupaten,Balangan,Kalimantan Selatan
592,71662,Paringin Timur,63.11.06.1019,Paringin,Kabupaten,Balangan,Kalimantan Selatan
593,71662,Sungai Ketapi,63.11.06.2038,Paringin,Kabupaten,Balangan,Kalimantan Selatan
594,70675,Angkipih,63.03.17.2004,Paramasan (Peramasan),Kabupaten,Banjar,Kalimantan Selatan
595,70675,Paramasan Atas (Peramasan Atas),63.03.17.2001,Paramasan (Peramasan),Kabupaten,Banjar,Kalimantan Selatan
596,70675,Paramasan Bawah (Peramasan Bawah),63.03.17.2002,Paramasan (Peramasan),Kabupaten,Banjar,Kalimantan Selatan
597,70675,Remo,63.03.17.2003,Paramasan (Peramasan),Kabupaten,Banjar,Kalimantan Selatan
598,70871,Batakan,63.01.06.2005,Panyipatan,Kabupaten,Tanah Laut,Kalimantan Selatan
599,70871,Batu Mulya,63.01.06.2009,Panyipatan,Kabupaten,Tanah Laut,Kalimantan Selatan
600,70871,Batu Tungku,63.01.06.2001,Panyipatan,Kabupaten,Tanah Laut,Kalimantan Selatan
601,70871,Bumi Asih,63.01.06.2010,Panyipatan,Kabupaten,Tanah Laut,Kalimantan Selatan
602,70871,Kandangan Baru,63.01.06.2003,Panyipatan,Kabupaten,Tanah Laut,Kalimantan Selatan
603,70871,Kandangan Lama,63.01.06.2004,Panyipatan,Kabupaten,Tanah Laut,Kalimantan Selatan
604,70871,Kuringkit,63.01.06.2006,Panyipatan,Kabupaten,Tanah Laut,Kalimantan Selatan
605,70871,Panyipatan,63.01.06.2002,Panyipatan,Kabupaten,Tanah Laut,Kalimantan Selatan
606,70871,Suka Ramah,63.01.06.2008,Panyipatan,Kabupaten,Tanah Laut,Kalimantan Selatan
607,70871,Tanjung Dewa,63.01.06.2007,Panyipatan,Kabupaten,Tanah Laut,Kalimantan Selatan
608,71352,Banua Asam,63.07.05.2014,Pandawan,Kabupaten,Hulu Sungai Tengah,Kalimantan Selatan
609,71352,Banua Batung,63.07.05.2004,Pandawan,Kabupaten,Hulu Sungai Tengah,Kalimantan Selatan
610,71352,Banua Hanyar,63.07.05.2002,Pandawan,Kabupaten,Hulu Sungai Tengah,Kalimantan Selatan
611,71352,Banua Supanggal,63.07.05.2012,Pandawan,Kabupaten,Hulu Sungai Tengah,Kalimantan Selatan
612,71352,Buluan,63.07.05.2019,Pandawan,Kabupaten,Hulu Sungai Tengah,Kalimantan Selatan
613,71352,Hilir Banua,63.07.05.2018,Pandawan,Kabupaten,Hulu Sungai Tengah,Kalimantan Selatan
614,71352,Hulu Rasau,63.07.05.2013,Pandawan,Kabupaten,Hulu Sungai Tengah,Kalimantan Selatan
615,71352,Jaranih,63.07.05.2001,Pandawan,Kabupaten,Hulu Sungai Tengah,Kalimantan Selatan
616,71352,Jatuh,63.07.05.2005,Pandawan,Kabupaten,Hulu Sungai Tengah,Kalimantan Selatan
617,71352,Kambat Selatan,63.07.05.2008,Pandawan,Kabupaten,Hulu Sungai Tengah,Kalimantan Selatan
618,71352,Kambat Utara,63.07.05.2011,Pandawan,Kabupaten,Hulu Sungai Tengah,Kalimantan Selatan
619,71352,Kayu Rabah,63.07.05.2009,Pandawan,Kabupaten,Hulu Sungai Tengah,Kalimantan Selatan
620,71352,Mahang Matang Landung,63.07.05.2007,Pandawan,Kabupaten,Hulu Sungai Tengah,Kalimantan Selatan
621,71352,Mahang Putat,63.07.05.2016,Pandawan,Kabupaten,Hulu Sungai Tengah,Kalimantan Selatan
622,71352,Mahang Sei/Sungai Hanyar,63.07.05.2017,Pandawan,Kabupaten,Hulu Sungai Tengah,Kalimantan Selatan
623,71352,Masiraan,63.07.05.2015,Pandawan,Kabupaten,Hulu Sungai Tengah,Kalimantan Selatan
624,71352,Matang Ginalun,63.07.05.2020,Pandawan,Kabupaten,Hulu Sungai Tengah,Kalimantan Selatan
625,71352,Palajau,63.07.05.2003,Pandawan,Kabupaten,Hulu Sungai Tengah,Kalimantan Selatan
626,71352,Pandawan,63.07.05.2006,Pandawan,Kabupaten,Hulu Sungai Tengah,Kalimantan Selatan
627,71352,Setiap,63.07.05.2010,Pandawan,Kabupaten,Hulu Sungai Tengah,Kalimantan Selatan
628,71352,Walatung,63.07.05.2021,Pandawan,Kabupaten,Hulu Sungai Tengah,Kalimantan Selatan
629,72169,Bakau,63.02.13.2006,Pamukan Utara,Kabupaten,Kotabaru,Kalimantan Selatan
630,72169,Balaimea,63.02.13.2009,Pamukan Utara,Kabupaten,Kotabaru,Kalimantan Selatan
631,72169,Bepara,63.02.13.2002,Pamukan Utara,Kabupaten,Kotabaru,Kalimantan Selatan
632,72169,Betung,63.02.13.2004,Pamukan Utara,Kabupaten,Kotabaru,Kalimantan Selatan
633,72169,Binturung,63.02.13.2007,Pamukan Utara,Kabupaten,Kotabaru,Kalimantan Selatan
634,72169,Harapan Baru,63.02.13.2008,Pamukan Utara,Kabupaten,Kotabaru,Kalimantan Selatan
635,72169,Kalian,63.02.13.2011,Pamukan Utara,Kabupaten,Kotabaru,Kalimantan Selatan
636,72169,Lintang Jaya,63.02.13.2015,Pamukan Utara,Kabupaten,Kotabaru,Kalimantan Selatan
637,72169,Mulyoharjo (Mulyo Harjo),63.02.13.2012,Pamukan Utara,Kabupaten,Kotabaru,Kalimantan Selatan
638,72169,Pamukan Indah,63.02.13.2013,Pamukan Utara,Kabupaten,Kotabaru,Kalimantan Selatan
639,72169,Sekayu Baru,63.02.13.2005,Pamukan Utara,Kabupaten,Kotabaru,Kalimantan Selatan
640,72169,Tamiang (Tamiyang),63.02.13.2010,Pamukan Utara,Kabupaten,Kotabaru,Kalimantan Selatan
641,72169,Wonorejo,63.02.13.2014,Pamukan Utara,Kabupaten,Kotabaru,Kalimantan Selatan
642,72168,Gunung Calang,63.02.11.2002,Pamukan Selatan,Kabupaten,Kotabaru,Kalimantan Selatan
643,72168,Mulyodadi,63.02.11.2010,Pamukan Selatan,Kabupaten,Kotabaru,Kalimantan Selatan
644,72168,Pondok Labu,63.02.11.2009,Pamukan Selatan,Kabupaten,Kotabaru,Kalimantan Selatan
645,72168,Rampa Cengal (Rampacengal),63.02.11.2007,Pamukan Selatan,Kabupaten,Kotabaru,Kalimantan Selatan
646,72168,Sakadoyan,63.02.11.2006,Pamukan Selatan,Kabupaten,Kotabaru,Kalimantan Selatan
647,72168,Sakalimau,63.02.11.2004,Pamukan Selatan,Kabupaten,Kotabaru,Kalimantan Selatan
648,72168,Sekandis,63.02.11.2001,Pamukan Selatan,Kabupaten,Kotabaru,Kalimantan Selatan
649,72168,Sesulung,63.02.11.2008,Pamukan Selatan,Kabupaten,Kotabaru,Kalimantan Selatan
650,72168,Sukadana,63.02.11.2011,Pamukan Selatan,Kabupaten,Kotabaru,Kalimantan Selatan
651,72168,Talusi,63.02.11.2003,Pamukan Selatan,Kabupaten,Kotabaru,Kalimantan Selatan
652,72168,Tanjung Samalantakan,63.02.11.2005,Pamukan Selatan,Kabupaten,Kotabaru,Kalimantan Selatan
653,72169,Batuah,63.02.19.2005,Pamukan Barat,Kabupaten,Kotabaru,Kalimantan Selatan
654,72169,Mangka,63.02.19.2004,Pamukan Barat,Kabupaten,Kotabaru,Kalimantan Selatan
655,72169,Marga Jaya,63.02.19.2003,Pamukan Barat,Kabupaten,Kotabaru,Kalimantan Selatan
656,72169,Mayang Sari,63.02.19.2002,Pamukan Barat,Kabupaten,Kotabaru,Kalimantan Selatan
657,72169,Sengayam,63.02.19.2001,Pamukan Barat,Kabupaten,Kotabaru,Kalimantan Selatan
658,71451,Ambahai,63.08.09.2003,Paminggir,Kabupaten,Hulu Sungai Utara,Kalimantan Selatan
659,71451,Bararawa,63.08.09.2005,Paminggir,Kabupaten,Hulu Sungai Utara,Kalimantan Selatan
660,71451,Pal Batu,63.08.09.2006,Paminggir,Kabupaten,Hulu Sungai Utara,Kalimantan Selatan
661,71451,Paminggir,63.08.09.2001,Paminggir,Kabupaten,Hulu Sungai Utara,Kalimantan Selatan
662,71451,Paminggir Seberang,63.08.09.2002,Paminggir,Kabupaten,Hulu Sungai Utara,Kalimantan Selatan
663,71451,Sapala,63.08.09.2004,Paminggir,Kabupaten,Hulu Sungai Utara,Kalimantan Selatan
664,71451,Tampakang,63.08.09.2007,Paminggir,Kabupaten,Hulu Sungai Utara,Kalimantan Selatan
665,71281,Batu Bini,63.06.02.2010,Padang Batung,Kabupaten,Hulu Sungai Selatan,Kalimantan Selatan
666,71281,Batu Laki,63.06.02.2015,Padang Batung,Kabupaten,Hulu Sungai Selatan,Kalimantan Selatan
667,71281,Durian Rabung,63.06.02.2013,Padang Batung,Kabupaten,Hulu Sungai Selatan,Kalimantan Selatan
668,71281,Jambu Hulu,63.06.02.2006,Padang Batung,Kabupaten,Hulu Sungai Selatan,Kalimantan Selatan
669,71281,Jelatang (Jalatang),63.06.02.2014,Padang Batung,Kabupaten,Hulu Sungai Selatan,Kalimantan Selatan
670,71281,Jembatan Merah,63.06.02.2009,Padang Batung,Kabupaten,Hulu Sungai Selatan,Kalimantan Selatan
671,71281,Kaliring,63.06.02.2005,Padang Batung,Kabupaten,Hulu Sungai Selatan,Kalimantan Selatan
672,71281,Karang Jawa,63.06.02.2002,Padang Batung,Kabupaten,Hulu Sungai Selatan,Kalimantan Selatan
673,71281,Karang Jawa Muka,63.06.02.2001,Padang Batung,Kabupaten,Hulu Sungai Selatan,Kalimantan Selatan
674,71281,Madang,63.06.02.2012,Padang Batung,Kabupaten,Hulu Sungai Selatan,Kalimantan Selatan
675,71281,Malilingin,63.06.02.2017,Padang Batung,Kabupaten,Hulu Sungai Selatan,Kalimantan Selatan
676,71281,Malutu,63.06.02.2016,Padang Batung,Kabupaten,Hulu Sungai Selatan,Kalimantan Selatan
677,71281,Mawangi,63.06.02.2011,Padang Batung,Kabupaten,Hulu Sungai Selatan,Kalimantan Selatan
678,71281,Padang Batung,63.06.02.2008,Padang Batung,Kabupaten,Hulu Sungai Selatan,Kalimantan Selatan
679,71281,Pahampangan,63.06.02.2007,Padang Batung,Kabupaten,Hulu Sungai Selatan,Kalimantan Selatan
680,71281,Pandulangan,63.06.02.2004,Padang Batung,Kabupaten,Hulu Sungai Selatan,Kalimantan Selatan
681,71281,Tabihi,63.06.02.2003,Padang Batung,Kabupaten,Hulu Sungai Selatan,Kalimantan Selatan
682,71571,Belimbing,63.09.06.1002,Murung Pudak,Kabupaten,Tabalong,Kalimantan Selatan
683,71571,Belimbing Raya,63.09.06.1001,Murung Pudak,Kabupaten,Tabalong,Kalimantan Selatan
684,71571,Kapar,63.09.06.2007,Murung Pudak,Kabupaten,Tabalong,Kalimantan Selatan
685,71571,Kasiau,63.09.06.2005,Murung Pudak,Kabupaten,Tabalong,Kalimantan Selatan
686,71571,Kasiau Raya,63.09.06.2010,Murung Pudak,Kabupaten,Tabalong,Kalimantan Selatan
687,71571,Mabu'un (Mabuun),63.09.06.1006,Murung Pudak,Kabupaten,Tabalong,Kalimantan Selatan
688,71571,Maburai,63.09.06.2004,Murung Pudak,Kabupaten,Tabalong,Kalimantan Selatan
689,71571,Masukau,63.09.06.2008,Murung Pudak,Kabupaten,Tabalong,Kalimantan Selatan
690,71571,Pembataan,63.09.06.1009,Murung Pudak,Kabupaten,Tabalong,Kalimantan Selatan
691,71571,Sulingan,63.09.06.1003,Murung Pudak,Kabupaten,Tabalong,Kalimantan Selatan
692,71573,Binjai,63.09.07.2009,Muara Uya,Kabupaten,Tabalong,Kalimantan Selatan
693,71573,Kampung Baru,63.09.07.2011,Muara Uya,Kabupaten,Tabalong,Kalimantan Selatan
694,71573,Kupang Nunding,63.09.07.2001,Muara Uya,Kabupaten,Tabalong,Kalimantan Selatan
695,71573,Lumbang,63.09.07.2006,Muara Uya,Kabupaten,Tabalong,Kalimantan Selatan
696,71573,Mangkupum,63.09.07.2002,Muara Uya,Kabupaten,Tabalong,Kalimantan Selatan
697,71573,Muara Uya,63.09.07.2005,Muara Uya,Kabupaten,Tabalong,Kalimantan Selatan
698,71573,Palapi (Pelapi),63.09.07.2010,Muara Uya,Kabupaten,Tabalong,Kalimantan Selatan
699,71573,Pasar Batu,63.09.07.2003,Muara Uya,Kabupaten,Tabalong,Kalimantan Selatan
700,71573,Ribang,63.09.07.2013,Muara Uya,Kabupaten,Tabalong,Kalimantan Selatan
701,71573,Salikung,63.09.07.2012,Muara Uya,Kabupaten,Tabalong,Kalimantan Selatan
702,71573,Santuun,63.09.07.2007,Muara Uya,Kabupaten,Tabalong,Kalimantan Selatan
703,71573,Sei/Sungai Kumap,63.09.07.2014,Muara Uya,Kabupaten,Tabalong,Kalimantan Selatan
704,71573,Simpung Layung,63.09.07.2008,Muara Uya,Kabupaten,Tabalong,Kalimantan Selatan
705,71573,Uwie,63.09.07.2004,Muara Uya,Kabupaten,Tabalong,Kalimantan Selatan
706,71555,Harus,63.09.08.2007,Muara Harus,Kabupaten,Tabalong,Kalimantan Selatan
707,71555,Madang,63.09.08.2001,Muara Harus,Kabupaten,Tabalong,Kalimantan Selatan
708,71555,Manduin,63.09.08.2005,Muara Harus,Kabupaten,Tabalong,Kalimantan Selatan
709,71555,Mantuil,63.09.08.2006,Muara Harus,Kabupaten,Tabalong,Kalimantan Selatan
710,71555,Murung Karangan,63.09.08.2003,Muara Harus,Kabupaten,Tabalong,Kalimantan Selatan
711,71555,Padangin,63.09.08.2004,Muara Harus,Kabupaten,Tabalong,Kalimantan Selatan
712,71555,Tanta Ringin (Tantaringin),63.09.08.2002,Muara Harus,Kabupaten,Tabalong,Kalimantan Selatan
713,70568,Indah Sari,63.04.13.2009,Mekarsari (Mekar Sari),Kabupaten,Barito Kuala,Kalimantan Selatan
714,70568,Jelapat II,63.04.13.2005,Mekarsari (Mekar Sari),Kabupaten,Barito Kuala,Kalimantan Selatan
715,70568,Karang Mekar,63.04.13.2008,Mekarsari (Mekar Sari),Kabupaten,Barito Kuala,Kalimantan Selatan
716,70568,Mekarsari (Mekar Sari),63.04.13.2001,Mekarsari (Mekar Sari),Kabupaten,Barito Kuala,Kalimantan Selatan
717,70568,Tamban Raya,63.04.13.2002,Mekarsari (Mekar Sari),Kabupaten,Barito Kuala,Kalimantan Selatan
718,70568,Tamban Raya Baru,63.04.13.2006,Mekarsari (Mekar Sari),Kabupaten,Barito Kuala,Kalimantan Selatan
719,70568,Tinggiran Baru,63.04.13.2007,Mekarsari (Mekar Sari),Kabupaten,Barito Kuala,Kalimantan Selatan
720,70568,Tinggiran Darat,63.04.13.2004,Mekarsari (Mekar Sari),Kabupaten,Barito Kuala,Kalimantan Selatan
721,70568,Tinggiran Tengah,63.04.13.2003,Mekarsari (Mekar Sari),Kabupaten,Barito Kuala,Kalimantan Selatan
722,70672,Baru,63.03.12.2001,Mataraman,Kabupaten,Banjar,Kalimantan Selatan
723,70672,Bawahan Pasar,63.03.12.2002,Mataraman,Kabupaten,Banjar,Kalimantan Selatan
724,70672,Bawahan Seberang,63.03.12.2003,Mataraman,Kabupaten,Banjar,Kalimantan Selatan
725,70672,Bawahan Selan,63.03.12.2008,Mataraman,Kabupaten,Banjar,Kalimantan Selatan
726,70672,Gunung Ulin,63.03.12.2014,Mataraman,Kabupaten,Banjar,Kalimantan Selatan
727,70672,Lok Tamu,63.03.12.2011,Mataraman,Kabupaten,Banjar,Kalimantan Selatan
728,70672,Mangkalawat (Mangka Lawat),63.03.12.2013,Mataraman,Kabupaten,Banjar,Kalimantan Selatan
729,70672,Mataraman,63.03.12.2006,Mataraman,Kabupaten,Banjar,Kalimantan Selatan
730,70672,Pasiraman,63.03.12.2010,Mataraman,Kabupaten,Banjar,Kalimantan Selatan
731,70672,Pematang Danau,63.03.12.2004,Mataraman,Kabupaten,Banjar,Kalimantan Selatan
732,70672,Sei/Sungai Jati,63.03.12.2012,Mataraman,Kabupaten,Banjar,Kalimantan Selatan
733,70672,Simpang Tiga,63.03.12.2007,Mataraman,Kabupaten,Banjar,Kalimantan Selatan
734,70672,Surian,63.03.12.2005,Mataraman,Kabupaten,Banjar,Kalimantan Selatan
735,70672,Takuti,63.03.12.2009,Mataraman,Kabupaten,Banjar,Kalimantan Selatan
736,70672,Tanah Abang,63.03.12.2015,Mataraman,Kabupaten,Banjar,Kalimantan Selatan
737,70617,Akar Baru,63.03.15.2012,Martapura Timur,Kabupaten,Banjar,Kalimantan Selatan
738,70617,Akar Begantung Ulu (Akar Bagantung),63.03.15.2007,Martapura Timur,Kabupaten,Banjar,Kalimantan Selatan
739,70617,Antasan Senor,63.03.15.2003,Martapura Timur,Kabupaten,Banjar,Kalimantan Selatan
740,70617,Antasan Senor Ilir,63.03.15.2020,Martapura Timur,Kabupaten,Banjar,Kalimantan Selatan
741,70617,Dalam Pagar,63.03.15.2008,Martapura Timur,Kabupaten,Banjar,Kalimantan Selatan
742,70617,Dalam Pagar Ulu,63.03.15.2013,Martapura Timur,Kabupaten,Banjar,Kalimantan Selatan
743,70617,Keramat,63.03.15.2002,Martapura Timur,Kabupaten,Banjar,Kalimantan Selatan
744,70617,Keramat Baru,63.03.15.2018,Martapura Timur,Kabupaten,Banjar,Kalimantan Selatan
745,70617,Mekar,63.03.15.2015,Martapura Timur,Kabupaten,Banjar,Kalimantan Selatan
746,70617,Melayu (Melayu Ulu),63.03.15.2005,Martapura Timur,Kabupaten,Banjar,Kalimantan Selatan
747,70617,Melayu Ilir,63.03.15.2006,Martapura Timur,Kabupaten,Banjar,Kalimantan Selatan
748,70617,Melayu Tengah,63.03.15.2011,Martapura Timur,Kabupaten,Banjar,Kalimantan Selatan
749,70617,Pekauman,63.03.15.2001,Martapura Timur,Kabupaten,Banjar,Kalimantan Selatan
750,70617,Pekauman Dalam,63.03.15.2019,Martapura Timur,Kabupaten,Banjar,Kalimantan Selatan
751,70617,Pekauman Ulu,63.03.15.2014,Martapura Timur,Kabupaten,Banjar,Kalimantan Selatan
752,70617,Pematang Baru,63.03.15.2010,Martapura Timur,Kabupaten,Banjar,Kalimantan Selatan
753,70617,Sei/Sungai Kitano,63.03.15.2017,Martapura Timur,Kabupaten,Banjar,Kalimantan Selatan
754,70617,Tambak Anyar,63.03.15.2004,Martapura Timur,Kabupaten,Banjar,Kalimantan Selatan
755,70617,Tambak Anyar Ilir,63.03.15.2016,Martapura Timur,Kabupaten,Banjar,Kalimantan Selatan
756,70617,Tambak Anyar Ulu,63.03.15.2009,Martapura Timur,Kabupaten,Banjar,Kalimantan Selatan
757,70618,Antasan Sutun,63.03.14.2007,Martapura Barat,Kabupaten,Banjar,Kalimantan Selatan
758,70618,Keliling Benteng Tengah,63.03.14.2010,Martapura Barat,Kabupaten,Banjar,Kalimantan Selatan
759,70618,Keliling Benteng Ulu,63.03.14.2006,Martapura Barat,Kabupaten,Banjar,Kalimantan Selatan
760,70618,Panggalaman (Penggalaman),63.03.14.2005,Martapura Barat,Kabupaten,Banjar,Kalimantan Selatan
761,70618,Sei/Sungai Batang,63.03.14.2002,Martapura Barat,Kabupaten,Banjar,Kalimantan Selatan
762,70618,Sei/Sungai Batang Ilir,63.03.14.2003,Martapura Barat,Kabupaten,Banjar,Kalimantan Selatan
763,70618,Sungai Ranggas,63.03.14.2004,Martapura Barat,Kabupaten,Banjar,Kalimantan Selatan
764,70618,Sungai Ranggas Hambuku,63.03.14.2009,Martapura Barat,Kabupaten,Banjar,Kalimantan Selatan
765,70618,Sungai Ranggas Tengah,63.03.14.2013,Martapura Barat,Kabupaten,Banjar,Kalimantan Selatan
766,70618,Sungai Ranggas Ulu,63.03.14.2008,Martapura Barat,Kabupaten,Banjar,Kalimantan Selatan
767,70618,Tangkas,63.03.14.2012,Martapura Barat,Kabupaten,Banjar,Kalimantan Selatan
768,70618,Telok Selong,63.03.14.2001,Martapura Barat,Kabupaten,Banjar,Kalimantan Selatan
769,70618,Teluk Selong Ulu (Telok Selong Ulu),63.03.14.2011,Martapura Barat,Kabupaten,Banjar,Kalimantan Selatan
770,70619,Bincau,63.03.05.2012,Martapura (Martapura Kota),Kabupaten,Banjar,Kalimantan Selatan
771,70619,Bincau Muara,63.03.05.2040,Martapura (Martapura Kota),Kabupaten,Banjar,Kalimantan Selatan
772,70612,Cindai Alus,63.03.05.2034,Martapura (Martapura Kota),Kabupaten,Banjar,Kalimantan Selatan
773,70619,Indra Sari,63.03.05.2052,Martapura (Martapura Kota),Kabupaten,Banjar,Kalimantan Selatan
774,70614,Jawa,63.03.05.1002,Martapura (Martapura Kota),Kabupaten,Banjar,Kalimantan Selatan
775,70615,Jawa Laut,63.03.05.2054,Martapura (Martapura Kota),Kabupaten,Banjar,Kalimantan Selatan
776,70611,Keraton,63.03.05.1001,Martapura (Martapura Kota),Kabupaten,Banjar,Kalimantan Selatan
777,70619,Labuan Tabu,63.03.05.2051,Martapura (Martapura Kota),Kabupaten,Banjar,Kalimantan Selatan
778,70617,Murung Kenanga,63.03.05.2013,Martapura (Martapura Kota),Kabupaten,Banjar,Kalimantan Selatan
779,70616,Murung Keraton,63.03.05.1004,Martapura (Martapura Kota),Kabupaten,Banjar,Kalimantan Selatan
780,70619,Pasayangan (Pesayangan),63.03.05.1003,Martapura (Martapura Kota),Kabupaten,Banjar,Kalimantan Selatan
781,70619,Pasayangan Barat,63.03.05.2057,Martapura (Martapura Kota),Kabupaten,Banjar,Kalimantan Selatan
782,70619,Pasayangan Selatan,63.03.05.2010,Martapura (Martapura Kota),Kabupaten,Banjar,Kalimantan Selatan
783,70619,Pasayangan Utara,63.03.05.2056,Martapura (Martapura Kota),Kabupaten,Banjar,Kalimantan Selatan
784,71213,Sei/Sungai Paring,63.03.05.1005,Martapura (Martapura Kota),Kabupaten,Banjar,Kalimantan Selatan
785,70612,Sei/Sungai Sipai,63.03.05.2009,Martapura (Martapura Kota),Kabupaten,Banjar,Kalimantan Selatan
786,70619,Sekumpul,63.03.05.1059,Martapura (Martapura Kota),Kabupaten,Banjar,Kalimantan Selatan
787,70619,Tambak Baru,63.03.05.2016,Martapura (Martapura Kota),Kabupaten,Banjar,Kalimantan Selatan
788,70619,Tambak Baru Ilir,63.03.05.2058,Martapura (Martapura Kota),Kabupaten,Banjar,Kalimantan Selatan
789,70619,Tambak Baru Ulu,63.03.05.2037,Martapura (Martapura Kota),Kabupaten,Banjar,Kalimantan Selatan
790,70613,Tanjung Rema,63.03.05.2011,Martapura (Martapura Kota),Kabupaten,Banjar,Kalimantan Selatan
791,70613,Tanjung Rema Darat,63.03.05.1055,Martapura (Martapura Kota),Kabupaten,Banjar,Kalimantan Selatan
792,70615,Tunggul Irang,63.03.05.2015,Martapura (Martapura Kota),Kabupaten,Banjar,Kalimantan Selatan
793,70615,Tunggul Irang Ilir,63.03.05.2042,Martapura (Martapura Kota),Kabupaten,Banjar,Kalimantan Selatan
794,70615,Tunggul Irang Ulu,63.03.05.2043,Martapura (Martapura Kota),Kabupaten,Banjar,Kalimantan Selatan
795,70619,Tungkaran,63.03.05.2036,Martapura (Martapura Kota),Kabupaten,Banjar,Kalimantan Selatan
796,70511,Antar Baru,63.04.15.2006,Marabahan,Kabupaten,Barito Kuala,Kalimantan Selatan
797,70511,Antar Jaya,63.04.15.2007,Marabahan,Kabupaten,Barito Kuala,Kalimantan Selatan
798,70511,Antar Raya,63.04.15.2008,Marabahan,Kabupaten,Barito Kuala,Kalimantan Selatan
799,70511,Bagus,63.04.15.2004,Marabahan,Kabupaten,Barito Kuala,Kalimantan Selatan
800,70511,Baliuk,63.04.15.2005,Marabahan,Kabupaten,Barito Kuala,Kalimantan Selatan
801,70513,Karya Maju,63.04.15.2010,Marabahan,Kabupaten,Barito Kuala,Kalimantan Selatan
802,70511,Marabahan Kota,63.04.15.1001,Marabahan,Kabupaten,Barito Kuala,Kalimantan Selatan
803,70511,Penghulu,63.04.15.2003,Marabahan,Kabupaten,Barito Kuala,Kalimantan Selatan
804,70511,Sido Makmur (Sidomakmur),63.04.15.2009,Marabahan,Kabupaten,Barito Kuala,Kalimantan Selatan
805,70513,Ulu Benteng,63.04.15.1002,Marabahan,Kabupaten,Barito Kuala,Kalimantan Selatan
806,72211,Bulu Rejo,63.10.08.2005,Mantewe,Kabupaten,Tanah Bumbu,Kalimantan Selatan
807,72211,Dukuh Rejo,63.10.08.2002,Mantewe,Kabupaten,Tanah Bumbu,Kalimantan Selatan
808,72211,Emil Baru,63.10.08.2010,Mantewe,Kabupaten,Tanah Bumbu,Kalimantan Selatan
809,72211,Gunungraya (Gunung Raya),63.10.08.2014,Mantewe,Kabupaten,Tanah Bumbu,Kalimantan Selatan
810,72211,Maju Mulyo,63.10.08.2012,Mantewe,Kabupaten,Tanah Bumbu,Kalimantan Selatan
811,72211,Mantewe,63.10.08.2001,Mantewe,Kabupaten,Tanah Bumbu,Kalimantan Selatan
812,72211,Mentawakan Mulia,63.10.08.2011,Mantewe,Kabupaten,Tanah Bumbu,Kalimantan Selatan
813,72211,Rejosari,63.10.08.2003,Mantewe,Kabupaten,Tanah Bumbu,Kalimantan Selatan
814,72211,Sari Mulya (Sati Mulia),63.10.08.2009,Mantewe,Kabupaten,Tanah Bumbu,Kalimantan Selatan
815,72211,Sepakat,63.10.08.2008,Mantewe,Kabupaten,Tanah Bumbu,Kalimantan Selatan
816,72211,Sido Mulyo,63.10.08.2006,Mantewe,Kabupaten,Tanah Bumbu,Kalimantan Selatan
817,72211,Suka Damai (Sukadamai),63.10.08.2004,Mantewe,Kabupaten,Tanah Bumbu,Kalimantan Selatan
818,70580,Antasan Segera (Antasan Segara),63.04.06.2017,Mandastana,Kabupaten,Barito Kuala,Kalimantan Selatan
819,70580,Bangkit Baru,63.04.06.2016,Mandastana,Kabupaten,Barito Kuala,Kalimantan Selatan
820,70580,Karang Bunga,63.04.06.2020,Mandastana,Kabupaten,Barito Kuala,Kalimantan Selatan
821,70580,Karang Indah,63.04.06.2021,Mandastana,Kabupaten,Barito Kuala,Kalimantan Selatan
822,70580,Lokrawa (Lok Rawa),63.04.06.2014,Mandastana,Kabupaten,Barito Kuala,Kalimantan Selatan
823,70580,Pantai Hambawang,63.04.06.2006,Mandastana,Kabupaten,Barito Kuala,Kalimantan Selatan
824,70580,Puntik Dalam,63.04.06.2004,Mandastana,Kabupaten,Barito Kuala,Kalimantan Selatan
825,70580,Puntik Luar,63.04.06.2003,Mandastana,Kabupaten,Barito Kuala,Kalimantan Selatan
826,70580,Puntik Tengah,63.04.06.2011,Mandastana,Kabupaten,Barito Kuala,Kalimantan Selatan
827,70580,Sei/Sungai Ramania,63.04.06.2015,Mandastana,Kabupaten,Barito Kuala,Kalimantan Selatan
828,70580,Tabing Rimbah,63.04.06.2005,Mandastana,Kabupaten,Barito Kuala,Kalimantan Selatan
829,70580,Tanipah,63.04.06.2002,Mandastana,Kabupaten,Barito Kuala,Kalimantan Selatan
830,70580,Tatah Alayung,63.04.06.2009,Mandastana,Kabupaten,Barito Kuala,Kalimantan Selatan
831,70580,Terantang,63.04.06.2001,Mandastana,Kabupaten,Barito Kuala,Kalimantan Selatan
832,71282,Halunuk,63.06.10.2001,Loksado,Kabupaten,Hulu Sungai Selatan,Kalimantan Selatan
833,71282,Haratai,63.06.10.2010,Loksado,Kabupaten,Hulu Sungai Selatan,Kalimantan Selatan
834,71282,Hulu Banyu,63.06.10.2005,Loksado,Kabupaten,Hulu Sungai Selatan,Kalimantan Selatan
835,71282,Kamawakan,63.06.10.2007,Loksado,Kabupaten,Hulu Sungai Selatan,Kalimantan Selatan
836,71282,Lok Lahung,63.06.10.2008,Loksado,Kabupaten,Hulu Sungai Selatan,Kalimantan Selatan
837,71282,Loksado,63.06.10.2009,Loksado,Kabupaten,Hulu Sungai Selatan,Kalimantan Selatan
838,71282,Lumpangi,63.06.10.2003,Loksado,Kabupaten,Hulu Sungai Selatan,Kalimantan Selatan
839,71282,Malinau,63.06.10.2004,Loksado,Kabupaten,Hulu Sungai Selatan,Kalimantan Selatan
840,71282,Panggungan,63.06.10.2002,Loksado,Kabupaten,Hulu Sungai Selatan,Kalimantan Selatan
841,71282,Tumingki,63.06.10.2006,Loksado,Kabupaten,Hulu Sungai Selatan,Kalimantan Selatan
842,71282,Ulang (Muara Ulang),63.06.10.2011,Loksado,Kabupaten,Hulu Sungai Selatan,Kalimantan Selatan
843,71154,Ayunan Papan,63.05.10.2009,Lokpaikat,Kabupaten,Tapin,Kalimantan Selatan
844,71154,Bataratat,63.05.10.2004,Lokpaikat,Kabupaten,Tapin,Kalimantan Selatan
845,71154,Binderang,63.05.10.2001,Lokpaikat,Kabupaten,Tapin,Kalimantan Selatan
846,71154,Bitahan,63.05.10.1007,Lokpaikat,Kabupaten,Tapin,Kalimantan Selatan
847,71154,Bitahan Baru,63.05.10.2005,Lokpaikat,Kabupaten,Tapin,Kalimantan Selatan
848,71154,Budi Mulya,63.05.10.2008,Lokpaikat,Kabupaten,Tapin,Kalimantan Selatan
849,71154,Lokpaikat,63.05.10.2003,Lokpaikat,Kabupaten,Tapin,Kalimantan Selatan
850,71154,Parandakan,63.05.10.2002,Lokpaikat,Kabupaten,Tapin,Kalimantan Selatan
851,71154,Puncak Harapan,63.05.10.2006,Lokpaikat,Kabupaten,Tapin,Kalimantan Selatan
852,71392,Abung,63.07.11.2008,Limpasu,Kabupaten,Hulu Sungai Tengah,Kalimantan Selatan
853,71392,Abung Surapati,63.07.11.2005,Limpasu,Kabupaten,Hulu Sungai Tengah,Kalimantan Selatan
854,71392,Hawang,63.07.11.2009,Limpasu,Kabupaten,Hulu Sungai Tengah,Kalimantan Selatan
855,71392,Kabang,63.07.11.2004,Limpasu,Kabupaten,Hulu Sungai Tengah,Kalimantan Selatan
856,71392,Karatungan,63.07.11.2006,Limpasu,Kabupaten,Hulu Sungai Tengah,Kalimantan Selatan
857,71392,Karau,63.07.11.2002,Limpasu,Kabupaten,Hulu Sungai Tengah,Kalimantan Selatan
858,71392,Limpasu,63.07.11.2003,Limpasu,Kabupaten,Hulu Sungai Tengah,Kalimantan Selatan
859,71392,Pauh,63.07.11.2007,Limpasu,Kabupaten,Hulu Sungai Tengah,Kalimantan Selatan
860,71392,Tapuk,63.07.11.2001,Limpasu,Kabupaten,Hulu Sungai Tengah,Kalimantan Selatan
861,70722,Landasan Ulin Barat,63.72.06.1001,Liang Anggang,Kota,Banjarbaru,Kalimantan Selatan
862,70724,Landasan Ulin Selatan,63.72.06.1004,Liang Anggang,Kota,Banjarbaru,Kalimantan Selatan
863,70723,Landasan Ulin Tengah,63.72.06.1002,Liang Anggang,Kota,Banjarbaru,Kalimantan Selatan
864,70724,Landasan Ulin Utara,63.72.06.1003,Liang Anggang,Kota,Banjarbaru,Kalimantan Selatan
865,70724,Guntung Manggis,63.72.02.1005,Landasan Ulin,Kota,Banjarbaru,Kalimantan Selatan
866,70721,Guntung Payung,63.72.02.1004,Landasan Ulin,Kota,Banjarbaru,Kalimantan Selatan
867,70724,Landasan Ulin Timur,63.72.02.1003,Landasan Ulin,Kota,Banjarbaru,Kalimantan Selatan
868,70724,Syamsudin Noor,63.72.02.1006,Landasan Ulin,Kota,Banjarbaru,Kalimantan Selatan
869,71661,Batu Merah,63.11.05.2004,Lampihong,Kabupaten,Balangan,Kalimantan Selatan
870,71661,Hilir Pasar,63.11.05.2022,Lampihong,Kabupaten,Balangan,Kalimantan Selatan
871,71661,Jimamun,63.11.05.2020,Lampihong,Kabupaten,Balangan,Kalimantan Selatan
872,71661,Jungkal,63.11.05.2018,Lampihong,Kabupaten,Balangan,Kalimantan Selatan
873,71661,Kandang Jaya,63.11.05.2026,Lampihong,Kabupaten,Balangan,Kalimantan Selatan
874,71661,Kupang,63.11.05.2014,Lampihong,Kabupaten,Balangan,Kalimantan Selatan
875,71661,Kusambi Hilir,63.11.05.2010,Lampihong,Kabupaten,Balangan,Kalimantan Selatan
876,71661,Kusambi Hulu,63.11.05.2009,Lampihong,Kabupaten,Balangan,Kalimantan Selatan
877,71661,Lajar,63.11.05.2008,Lampihong,Kabupaten,Balangan,Kalimantan Selatan
878,71661,Lampihong Kanan,63.11.05.2005,Lampihong,Kabupaten,Balangan,Kalimantan Selatan
879,71661,Lampihong Kiri,63.11.05.2007,Lampihong,Kabupaten,Balangan,Kalimantan Selatan
880,71661,Lampihong Selatan,63.11.05.2006,Lampihong,Kabupaten,Balangan,Kalimantan Selatan
881,71661,Lok Hamawang,63.11.05.2013,Lampihong,Kabupaten,Balangan,Kalimantan Selatan
882,71661,Lok Panginangan,63.11.05.2017,Lampihong,Kabupaten,Balangan,Kalimantan Selatan
883,71661,Matang Hanau,63.11.05.2016,Lampihong,Kabupaten,Balangan,Kalimantan Selatan
884,71661,Matang Lurus,63.11.05.2012,Lampihong,Kabupaten,Balangan,Kalimantan Selatan
885,71661,Mundar,63.11.05.2027,Lampihong,Kabupaten,Balangan,Kalimantan Selatan
886,71661,Panaitan,63.11.05.2002,Lampihong,Kabupaten,Balangan,Kalimantan Selatan
887,71661,Pimping,63.11.05.2021,Lampihong,Kabupaten,Balangan,Kalimantan Selatan
888,71661,Pupuyuan,63.11.05.2024,Lampihong,Kabupaten,Balangan,Kalimantan Selatan
889,71661,Sei/Sungai Awang,63.11.05.2025,Lampihong,Kabupaten,Balangan,Kalimantan Selatan
890,71661,Sei/Sungai Tabuk,63.11.05.2019,Lampihong,Kabupaten,Balangan,Kalimantan Selatan
891,71661,Simpang Tiga,63.11.05.2011,Lampihong,Kabupaten,Balangan,Kalimantan Selatan
892,71661,Tampang,63.11.05.2015,Lampihong,Kabupaten,Balangan,Kalimantan Selatan
893,71661,Tanah Habang Kanan,63.11.05.2003,Lampihong,Kabupaten,Balangan,Kalimantan Selatan
894,71661,Tanah Habang Kiri,63.11.05.2001,Lampihong,Kabupaten,Balangan,Kalimantan Selatan
895,71661,Teluk Karya,63.11.05.2023,Lampihong,Kabupaten,Balangan,Kalimantan Selatan
896,71362,Banua Kupang,63.07.04.2003,Labuan Amas Utara,Kabupaten,Hulu Sungai Tengah,Kalimantan Selatan
897,71362,Binjai Pemangkih,63.07.04.2007,Labuan Amas Utara,Kabupaten,Hulu Sungai Tengah,Kalimantan Selatan
898,71362,Binjai Pirua,63.07.04.2016,Labuan Amas Utara,Kabupaten,Hulu Sungai Tengah,Kalimantan Selatan
899,71362,Kadundung,63.07.04.2012,Labuan Amas Utara,Kabupaten,Hulu Sungai Tengah,Kalimantan Selatan
900,71362,Kasarangan,63.07.04.2002,Labuan Amas Utara,Kabupaten,Hulu Sungai Tengah,Kalimantan Selatan
901,71362,Mantaas,63.07.04.2010,Labuan Amas Utara,Kabupaten,Hulu Sungai Tengah,Kalimantan Selatan
902,71362,Pahalatan,63.07.04.2009,Labuan Amas Utara,Kabupaten,Hulu Sungai Tengah,Kalimantan Selatan
903,71362,Parumahan (Perumahan),63.07.04.2001,Labuan Amas Utara,Kabupaten,Hulu Sungai Tengah,Kalimantan Selatan
904,71362,Pemangkih,63.07.04.2005,Labuan Amas Utara,Kabupaten,Hulu Sungai Tengah,Kalimantan Selatan
905,71362,Pemangkih Seberang,63.07.04.2006,Labuan Amas Utara,Kabupaten,Hulu Sungai Tengah,Kalimantan Selatan
906,71362,Ranatu Kaminting (Rantau Keminting),63.07.04.2004,Labuan Amas Utara,Kabupaten,Hulu Sungai Tengah,Kalimantan Selatan
907,71362,Rantau Bujur,63.07.04.2015,Labuan Amas Utara,Kabupaten,Hulu Sungai Tengah,Kalimantan Selatan
908,71362,Samhurang (Kupang Samhurang),63.07.04.2008,Labuan Amas Utara,Kabupaten,Hulu Sungai Tengah,Kalimantan Selatan
909,71362,Sei/Sungai Buluh,63.07.04.2011,Labuan Amas Utara,Kabupaten,Hulu Sungai Tengah,Kalimantan Selatan
910,71362,Tabat,63.07.04.2014,Labuan Amas Utara,Kabupaten,Hulu Sungai Tengah,Kalimantan Selatan
911,71362,Tungkup,63.07.04.2013,Labuan Amas Utara,Kabupaten,Hulu Sungai Tengah,Kalimantan Selatan
912,71361,Bangkal,63.07.03.2011,Labuan Amas Selatan,Kabupaten,Hulu Sungai Tengah,Kalimantan Selatan
913,71361,Banua Kepayang (Benua Kepayang),63.07.03.2007,Labuan Amas Selatan,Kabupaten,Hulu Sungai Tengah,Kalimantan Selatan
914,71361,Batang Bahalang,63.07.03.2017,Labuan Amas Selatan,Kabupaten,Hulu Sungai Tengah,Kalimantan Selatan
915,71361,Durian Gantang,63.07.03.2009,Labuan Amas Selatan,Kabupaten,Hulu Sungai Tengah,Kalimantan Selatan
916,71361,Guha,63.07.03.2010,Labuan Amas Selatan,Kabupaten,Hulu Sungai Tengah,Kalimantan Selatan
917,71361,Jamil,63.07.03.2013,Labuan Amas Selatan,Kabupaten,Hulu Sungai Tengah,Kalimantan Selatan
918,71361,Mahang Baru,63.07.03.2002,Labuan Amas Selatan,Kabupaten,Hulu Sungai Tengah,Kalimantan Selatan
919,71361,Mundar,63.07.03.2003,Labuan Amas Selatan,Kabupaten,Hulu Sungai Tengah,Kalimantan Selatan
920,71361,Murung Ta'al (Murung Taal),63.07.03.2015,Labuan Amas Selatan,Kabupaten,Hulu Sungai Tengah,Kalimantan Selatan
921,71361,Panggang Marak,63.07.03.2012,Labuan Amas Selatan,Kabupaten,Hulu Sungai Tengah,Kalimantan Selatan
922,71361,Pantai Hambawang Barat,63.07.03.1001,Labuan Amas Selatan,Kabupaten,Hulu Sungai Tengah,Kalimantan Selatan
923,71361,Pantai Hambawang Timur,63.07.03.2006,Labuan Amas Selatan,Kabupaten,Hulu Sungai Tengah,Kalimantan Selatan
924,71361,Sei/Sungai Jaranih,63.07.03.2018,Labuan Amas Selatan,Kabupaten,Hulu Sungai Tengah,Kalimantan Selatan
925,71361,Sei/Sungai Rangas,63.07.03.2016,Labuan Amas Selatan,Kabupaten,Hulu Sungai Tengah,Kalimantan Selatan
926,71361,Ta'al (Taal),63.07.03.2008,Labuan Amas Selatan,Kabupaten,Hulu Sungai Tengah,Kalimantan Selatan
927,71361,Tabudarat Hilir,63.07.03.2004,Labuan Amas Selatan,Kabupaten,Hulu Sungai Tengah,Kalimantan Selatan
928,71361,Tabudarat Hulu,63.07.03.2005,Labuan Amas Selatan,Kabupaten,Hulu Sungai Tengah,Kalimantan Selatan
929,71361,Taras Padang,63.07.03.2014,Labuan Amas Selatan,Kabupaten,Hulu Sungai Tengah,Kalimantan Selatan
930,72273,Api-Api,63.10.11.2006,Kusan Tengah,Kabupaten,Tanah Bumbu,Kalimantan Selatan
931,72273,Batarang,63.10.11.2009,Kusan Tengah,Kabupaten,Tanah Bumbu,Kalimantan Selatan
932,72273,Manurung,63.10.11.2008,Kusan Tengah,Kabupaten,Tanah Bumbu,Kalimantan Selatan
933,72273,Mekar Jaya,63.10.11.2010,Kusan Tengah,Kabupaten,Tanah Bumbu,Kalimantan Selatan
934,72273,Pakatellu,63.10.11.2007,Kusan Tengah,Kabupaten,Tanah Bumbu,Kalimantan Selatan
935,72273,Pulau Tanjung,63.10.11.2011,Kusan Tengah,Kabupaten,Tanah Bumbu,Kalimantan Selatan
936,72273,Salimuran,63.10.11.2013,Kusan Tengah,Kabupaten,Tanah Bumbu,Kalimantan Selatan
937,72273,Saring Sungai Binjai,63.10.11.2002,Kusan Tengah,Kabupaten,Tanah Bumbu,Kalimantan Selatan
938,72273,Saring Sungai Bubu,63.10.11.2001,Kusan Tengah,Kabupaten,Tanah Bumbu,Kalimantan Selatan
939,72273,Satiung,63.10.11.2005,Kusan Tengah,Kabupaten,Tanah Bumbu,Kalimantan Selatan
940,72273,Sepunggur,63.10.11.2003,Kusan Tengah,Kabupaten,Tanah Bumbu,Kalimantan Selatan
941,72273,Serdangan,63.10.11.2004,Kusan Tengah,Kabupaten,Tanah Bumbu,Kalimantan Selatan
942,72273,UPT Karya Bakti (Karya Bhakti),63.10.11.2012,Kusan Tengah,Kabupaten,Tanah Bumbu,Kalimantan Selatan
943,72270,Anjir Baru,63.10.05.2003,Kusan Hulu,Kabupaten,Tanah Bumbu,Kalimantan Selatan
944,72270,Bakarangan,63.10.05.2015,Kusan Hulu,Kabupaten,Tanah Bumbu,Kalimantan Selatan
945,72270,Binawara,63.10.05.2004,Kusan Hulu,Kabupaten,Tanah Bumbu,Kalimantan Selatan
946,72270,Harapan Jaya,63.10.05.2020,Kusan Hulu,Kabupaten,Tanah Bumbu,Kalimantan Selatan
947,72270,Karang Mulya,63.10.05.2019,Kusan Hulu,Kabupaten,Tanah Bumbu,Kalimantan Selatan
948,72270,Karang Sari (Karang Sari Indah),63.10.05.2022,Kusan Hulu,Kabupaten,Tanah Bumbu,Kalimantan Selatan
949,72270,Lasung,63.10.05.2001,Kusan Hulu,Kabupaten,Tanah Bumbu,Kalimantan Selatan
950,72270,Manuntung,63.10.05.2002,Kusan Hulu,Kabupaten,Tanah Bumbu,Kalimantan Selatan
951,72270,Pacakan,63.10.05.2005,Kusan Hulu,Kabupaten,Tanah Bumbu,Kalimantan Selatan
952,72270,Sungai Rukam,63.10.05.2012,Kusan Hulu,Kabupaten,Tanah Bumbu,Kalimantan Selatan
953,72270,Wonorejo,63.10.05.2021,Kusan Hulu,Kabupaten,Tanah Bumbu,Kalimantan Selatan
954,72273,Baru Gelang,63.10.02.2011,Kusan Hilir,Kabupaten,Tanah Bumbu,Kalimantan Selatan
955,72273,Batuah,63.10.02.2010,Kusan Hilir,Kabupaten,Tanah Bumbu,Kalimantan Selatan
956,72273,Beringin,63.10.02.2032,Kusan Hilir,Kabupaten,Tanah Bumbu,Kalimantan Selatan
957,72273,Betung,63.10.02.2002,Kusan Hilir,Kabupaten,Tanah Bumbu,Kalimantan Selatan
958,72273,Gusunge,63.10.02.2029,Kusan Hilir,Kabupaten,Tanah Bumbu,Kalimantan Selatan
959,72273,Juku Eja,63.10.02.2027,Kusan Hilir,Kabupaten,Tanah Bumbu,Kalimantan Selatan
960,72273,Kampung Baru,63.10.02.2008,Kusan Hilir,Kabupaten,Tanah Bumbu,Kalimantan Selatan
961,72273,Kota Pagatan,63.10.02.1001,Kusan Hilir,Kabupaten,Tanah Bumbu,Kalimantan Selatan
962,72273,Muara Pagatan,63.10.02.2007,Kusan Hilir,Kabupaten,Tanah Bumbu,Kalimantan Selatan
963,72273,Muara Pagatan Tengah,63.10.02.2021,Kusan Hilir,Kabupaten,Tanah Bumbu,Kalimantan Selatan
964,72273,Mudalang,63.10.02.2019,Kusan Hilir,Kabupaten,Tanah Bumbu,Kalimantan Selatan
965,72273,Pagaruyung (Pagar Ruyung),63.10.02.2006,Kusan Hilir,Kabupaten,Tanah Bumbu,Kalimantan Selatan
966,72273,Pasar Baru,63.10.02.2009,Kusan Hilir,Kabupaten,Tanah Bumbu,Kalimantan Selatan
967,72273,Pejala,63.10.02.2005,Kusan Hilir,Kabupaten,Tanah Bumbu,Kalimantan Selatan
968,72273,Penyolongan,63.10.02.2031,Kusan Hilir,Kabupaten,Tanah Bumbu,Kalimantan Selatan
969,72273,Pulau Salak,63.10.02.2012,Kusan Hilir,Kabupaten,Tanah Bumbu,Kalimantan Selatan
970,72273,Pulau Satu,63.10.02.2022,Kusan Hilir,Kabupaten,Tanah Bumbu,Kalimantan Selatan
971,72273,Rantau Panjang Hilir,63.10.02.2034,Kusan Hilir,Kabupaten,Tanah Bumbu,Kalimantan Selatan
972,72273,Rantau Panjang Hulu,63.10.02.2030,Kusan Hilir,Kabupaten,Tanah Bumbu,Kalimantan Selatan
973,72273,Sungai Lembu,63.10.02.2003,Kusan Hilir,Kabupaten,Tanah Bumbu,Kalimantan Selatan
974,72273,Tanette,63.10.02.2020,Kusan Hilir,Kabupaten,Tanah Bumbu,Kalimantan Selatan
975,72273,Wiritasi,63.10.02.2004,Kusan Hilir,Kabupaten,Tanah Bumbu,Kalimantan Selatan
976,70552,Asia Baru,63.04.11.2008,Kuripan,Kabupaten,Barito Kuala,Kalimantan Selatan
977,70552,Jambu,63.04.11.2002,Kuripan,Kabupaten,Barito Kuala,Kalimantan Selatan
978,70552,Jambu Baru,63.04.11.2001,Kuripan,Kabupaten,Barito Kuala,Kalimantan Selatan
979,70552,Jarenang,63.04.11.2004,Kuripan,Kabupaten,Barito Kuala,Kalimantan Selatan
980,70552,Kabuau,63.04.11.2003,Kuripan,Kabupaten,Barito Kuala,Kalimantan Selatan
981,70552,Kuripan,63.04.11.2006,Kuripan,Kabupaten,Barito Kuala,Kalimantan Selatan
982,70552,Rimbun Tulang,63.04.11.2009,Kuripan,Kabupaten,Barito Kuala,Kalimantan Selatan
983,70552,Tabatan,63.04.11.2005,Kuripan,Kabupaten,Barito Kuala,Kalimantan Selatan
984,70552,Tabatan Baru,63.04.11.2007,Kuripan,Kabupaten,Barito Kuala,Kalimantan Selatan
985,70851,Bawah Layung,63.01.04.2003,Kurau,Kabupaten,Tanah Laut,Kalimantan Selatan
986,70851,Handil Negara,63.01.04.2006,Kurau,Kabupaten,Tanah Laut,Kalimantan Selatan
987,70851,Kali Besar,63.01.04.2005,Kurau,Kabupaten,Tanah Laut,Kalimantan Selatan
988,70851,Kurau,63.01.04.2008,Kurau,Kabupaten,Tanah Laut,Kalimantan Selatan
989,70851,Maluka Baulin (Maluka Bualin),63.01.04.2002,Kurau,Kabupaten,Tanah Laut,Kalimantan Selatan
990,70851,Padang Luas,63.01.04.2007,Kurau,Kabupaten,Tanah Laut,Kalimantan Selatan
991,70851,Raden,63.01.04.2018,Kurau,Kabupaten,Tanah Laut,Kalimantan Selatan
992,70851,Sarikandi,63.01.04.2019,Kurau,Kabupaten,Tanah Laut,Kalimantan Selatan
993,70851,Sungai Bakau (Sei Bakau),63.01.04.2001,Kurau,Kabupaten,Tanah Laut,Kalimantan Selatan
994,70851,Tambak Karya,63.01.04.2017,Kurau,Kabupaten,Tanah Laut,Kalimantan Selatan
995,70851,Tambak Sarinan/Sarinah,63.01.04.2004,Kurau,Kabupaten,Tanah Laut,Kalimantan Selatan
996,72272,Giri Mulya,63.10.10.2001,Kuranji,Kabupaten,Tanah Bumbu,Kalimantan Selatan
997,72274,Indra Lokajaya (Indra Loka Jaya),63.10.10.2005,Kuranji,Kabupaten,Tanah Bumbu,Kalimantan Selatan
998,72274,Karang Intan,63.10.10.2006,Kuranji,Kabupaten,Tanah Bumbu,Kalimantan Selatan
999,72272,Kuranji,63.10.10.2002,Kuranji,Kabupaten,Tanah Bumbu,Kalimantan Selatan
1000,72272,Mustika,63.10.10.2004,Kuranji,Kabupaten,Tanah Bumbu,Kalimantan Selatan
1001,72272,Ringkit,63.10.10.2007,Kuranji,Kabupaten,Tanah Bumbu,Kalimantan Selatan
1002,72272,Waringin Tunggal,63.10.10.2003,Kuranji,Kabupaten,Tanah Bumbu,Kalimantan Selatan
1003,70883,Bukit Mulia,63.01.07.2011,Kintap,Kabupaten,Tanah Laut,Kalimantan Selatan
1004,70883,Kebun Raya,63.01.07.2012,Kintap,Kabupaten,Tanah Laut,Kalimantan Selatan
1005,70883,Kintap,63.01.07.2002,Kintap,Kabupaten,Tanah Laut,Kalimantan Selatan
1006,70883,Kintap Kecil,63.01.07.2008,Kintap,Kabupaten,Tanah Laut,Kalimantan Selatan
1007,70883,Kintap Pura (Kintapura),63.01.07.2003,Kintap,Kabupaten,Tanah Laut,Kalimantan Selatan
1008,70883,Mekar Raya (Mekarsari),63.01.07.2013,Kintap,Kabupaten,Tanah Laut,Kalimantan Selatan
1009,70883,Muara Kintap,63.01.07.2006,Kintap,Kabupaten,Tanah Laut,Kalimantan Selatan
1010,70883,Pandan Sari (Pandansari),63.01.07.2001,Kintap,Kabupaten,Tanah Laut,Kalimantan Selatan
1011,70883,Pasir Putih,63.01.07.2009,Kintap,Kabupaten,Tanah Laut,Kalimantan Selatan
1012,70883,Riam Adungan,63.01.07.2005,Kintap,Kabupaten,Tanah Laut,Kalimantan Selatan
1013,70883,Salaman,63.01.07.2007,Kintap,Kabupaten,Tanah Laut,Kalimantan Selatan
1014,70883,Sebamban Baru,63.01.07.2014,Kintap,Kabupaten,Tanah Laut,Kalimantan Selatan
1015,70883,Sei/Sungai Cuka,63.01.07.2004,Kintap,Kabupaten,Tanah Laut,Kalimantan Selatan
1016,70883,Sumber Jaya,63.01.07.2010,Kintap,Kabupaten,Tanah Laut,Kalimantan Selatan
1017,70654,Belayung Baru,63.03.02.2017,Kertak Hanyar,Kabupaten,Banjar,Kalimantan Selatan
1018,70654,Benua Hanyar (Banua Hanyar),63.03.02.2021,Kertak Hanyar,Kabupaten,Banjar,Kalimantan Selatan
1019,70654,Kertak Hanyar I,63.03.02.1001,Kertak Hanyar,Kabupaten,Banjar,Kalimantan Selatan
1020,70654,Kertak Hanyar II (Kertakhanyar II),63.03.02.2010,Kertak Hanyar,Kabupaten,Banjar,Kalimantan Selatan
1021,70654,Manarap Baru,63.03.02.2009,Kertak Hanyar,Kabupaten,Banjar,Kalimantan Selatan
1022,70654,Manarap Lama,63.03.02.1008,Kertak Hanyar,Kabupaten,Banjar,Kalimantan Selatan
1023,70654,Manarap Tengah,63.03.02.2016,Kertak Hanyar,Kabupaten,Banjar,Kalimantan Selatan
1024,70654,Mandarsari (Mandar Sari),63.03.02.1015,Kertak Hanyar,Kabupaten,Banjar,Kalimantan Selatan
1025,70654,Mekar Raya,63.03.02.2022,Kertak Hanyar,Kabupaten,Banjar,Kalimantan Selatan
1026,70654,Pasar Kamis (Pasar Kemis),63.03.02.2014,Kertak Hanyar,Kabupaten,Banjar,Kalimantan Selatan
1027,70654,Pemangkih Laut (Pemangkih Baru),63.03.02.2005,Kertak Hanyar,Kabupaten,Banjar,Kalimantan Selatan
1028,70654,Sei/Sungai Lakum,63.03.02.2007,Kertak Hanyar,Kabupaten,Banjar,Kalimantan Selatan
1029,70654,Simpang Empat,63.03.02.2006,Kertak Hanyar,Kabupaten,Banjar,Kalimantan Selatan
1030,72165,Mangga,63.02.10.2004,Kelumpang Utara,Kabupaten,Kotabaru,Kalimantan Selatan
1031,72165,Pudi,63.02.10.2003,Kelumpang Utara,Kabupaten,Kotabaru,Kalimantan Selatan
1032,72165,Pudi Seberang,63.02.10.2006,Kelumpang Utara,Kabupaten,Kotabaru,Kalimantan Selatan
1033,72165,Sulangkit,63.02.10.2007,Kelumpang Utara,Kabupaten,Kotabaru,Kalimantan Selatan
1034,72165,Sungai Hanyar,63.02.10.2001,Kelumpang Utara,Kabupaten,Kotabaru,Kalimantan Selatan
1035,72165,Sungai Seluang,63.02.10.2002,Kelumpang Utara,Kabupaten,Kotabaru,Kalimantan Selatan
1036,72165,Wilas,63.02.10.2005,Kelumpang Utara,Kabupaten,Kotabaru,Kalimantan Selatan
1037,72164,Geronggang,63.02.09.2017,Kelumpang Tengah,Kabupaten,Kotabaru,Kalimantan Selatan
1038,72164,Sang-Sang,63.02.09.2007,Kelumpang Tengah,Kabupaten,Kotabaru,Kalimantan Selatan
1039,72164,Sebuli,63.02.09.2004,Kelumpang Tengah,Kabupaten,Kotabaru,Kalimantan Selatan
1040,72164,Sembilang,63.02.09.2005,Kelumpang Tengah,Kabupaten,Kotabaru,Kalimantan Selatan
1041,72164,Senakin,63.02.09.2014,Kelumpang Tengah,Kabupaten,Kotabaru,Kalimantan Selatan
1042,72164,Senakin Seberang,63.02.09.2013,Kelumpang Tengah,Kabupaten,Kotabaru,Kalimantan Selatan
1043,72164,Sungai Pinang,63.02.09.2011,Kelumpang Tengah,Kabupaten,Kotabaru,Kalimantan Selatan
1044,72164,Sungai Punggawa,63.02.09.2002,Kelumpang Tengah,Kabupaten,Kotabaru,Kalimantan Selatan
1045,72164,Tamiang Bakung,63.02.09.2006,Kelumpang Tengah,Kabupaten,Kotabaru,Kalimantan Selatan
1046,72164,Tanah Rata,63.02.09.2003,Kelumpang Tengah,Kabupaten,Kotabaru,Kalimantan Selatan
1047,72164,Tanjung Batu,63.02.09.2001,Kelumpang Tengah,Kabupaten,Kotabaru,Kalimantan Selatan
1048,72164,Tanjung Selayar,63.02.09.2012,Kelumpang Tengah,Kabupaten,Kotabaru,Kalimantan Selatan
1049,72164,Tebing Tinggi,63.02.09.2016,Kelumpang Tengah,Kabupaten,Kotabaru,Kalimantan Selatan
1050,72160,Bumi Asih,63.02.07.2017,Kelumpang Selatan,Kabupaten,Kotabaru,Kalimantan Selatan
1051,72160,Pantai,63.02.07.2007,Kelumpang Selatan,Kabupaten,Kotabaru,Kalimantan Selatan
1052,72160,Pantai Baru,63.02.07.2016,Kelumpang Selatan,Kabupaten,Kotabaru,Kalimantan Selatan
1053,72160,Pembelacanan (Pembelancanan),63.02.07.2005,Kelumpang Selatan,Kabupaten,Kotabaru,Kalimantan Selatan
1054,72160,Sangking Baru,63.02.07.2009,Kelumpang Selatan,Kabupaten,Kotabaru,Kalimantan Selatan
1055,72160,Suka Maju,63.02.07.2014,Kelumpang Selatan,Kabupaten,Kotabaru,Kalimantan Selatan
1056,72160,Sungai Kupang Jaya,63.02.07.2015,Kelumpang Selatan,Kabupaten,Kotabaru,Kalimantan Selatan
1057,72160,Sungai Nipah,63.02.07.2006,Kelumpang Selatan,Kabupaten,Kotabaru,Kalimantan Selatan
1058,72160,Tanjung Pangga,63.02.07.2004,Kelumpang Selatan,Kabupaten,Kotabaru,Kalimantan Selatan
1059,72162,Bangkalaan Dayak,63.02.08.2006,Kelumpang Hulu,Kabupaten,Kotabaru,Kalimantan Selatan
1060,72162,Bangkalaan Melayu,63.02.08.2005,Kelumpang Hulu,Kabupaten,Kotabaru,Kalimantan Selatan
1061,72162,Banua Lawas,63.02.08.2003,Kelumpang Hulu,Kabupaten,Kotabaru,Kalimantan Selatan
1062,72162,Cantung Kiri Hilir,63.02.08.2001,Kelumpang Hulu,Kabupaten,Kotabaru,Kalimantan Selatan
1063,72162,Karang Liwar,63.02.08.2008,Kelumpang Hulu,Kabupaten,Kotabaru,Kalimantan Selatan
1064,72162,Karang Payau,63.02.08.2002,Kelumpang Hulu,Kabupaten,Kotabaru,Kalimantan Selatan
1065,72162,Laburan,63.02.08.2007,Kelumpang Hulu,Kabupaten,Kotabaru,Kalimantan Selatan
1066,72162,Mangkirana,63.02.08.2009,Kelumpang Hulu,Kabupaten,Kotabaru,Kalimantan Selatan
1067,72162,Sidomulyo (Sido Mulyo),63.02.08.2010,Kelumpang Hulu,Kabupaten,Kotabaru,Kalimantan Selatan
1068,72162,Sungai Kupang,63.02.08.2004,Kelumpang Hulu,Kabupaten,Kotabaru,Kalimantan Selatan
1069,72161,Langadai,63.02.17.2003,Kelumpang Hilir,Kabupaten,Kotabaru,Kalimantan Selatan
1070,72161,Mandala,63.02.17.2007,Kelumpang Hilir,Kabupaten,Kotabaru,Kalimantan Selatan
1071,72161,Pelajau Baru,63.02.17.2005,Kelumpang Hilir,Kabupaten,Kotabaru,Kalimantan Selatan
1072,72161,Pulau Panci,63.02.17.2004,Kelumpang Hilir,Kabupaten,Kotabaru,Kalimantan Selatan
1073,72161,Sahapi,63.02.17.2009,Kelumpang Hilir,Kabupaten,Kotabaru,Kalimantan Selatan
1074,72161,Serongga,63.02.17.2001,Kelumpang Hilir,Kabupaten,Kotabaru,Kalimantan Selatan
1075,72161,Tarjun,63.02.17.2002,Kelumpang Hilir,Kabupaten,Kotabaru,Kalimantan Selatan
1076,72161,Tegal Rejo,63.02.17.2006,Kelumpang Hilir,Kabupaten,Kotabaru,Kalimantan Selatan
1077,72161,Telagasari (Telaga Sari),63.02.17.2008,Kelumpang Hilir,Kabupaten,Kotabaru,Kalimantan Selatan
1078,72164,Batang Kulur,63.02.18.2003,Kelumpang Barat,Kabupaten,Kotabaru,Kalimantan Selatan
1079,72164,Bungkukan,63.02.18.2002,Kelumpang Barat,Kabupaten,Kotabaru,Kalimantan Selatan
1080,72167,Magalau Hilir,63.02.18.2005,Kelumpang Barat,Kabupaten,Kotabaru,Kalimantan Selatan
1081,72167,Magalau Hulu,63.02.18.2006,Kelumpang Barat,Kabupaten,Kotabaru,Kalimantan Selatan
1082,72164,Siayuh (Si Ayuh),63.02.18.2001,Kelumpang Barat,Kabupaten,Kotabaru,Kalimantan Selatan
1083,72164,Tanjung Sari,63.02.18.2004,Kelumpang Barat,Kabupaten,Kotabaru,Kalimantan Selatan
1084,71552,Ampukung,63.09.02.2002,Kelua (Klua),Kabupaten,Tabalong,Kalimantan Selatan
1085,71552,Bahungin,63.09.02.2012,Kelua (Klua),Kabupaten,Tabalong,Kalimantan Selatan
1086,71552,Binturu,63.09.02.2005,Kelua (Klua),Kabupaten,Tabalong,Kalimantan Selatan
1087,71552,Karangan Putih,63.09.02.2011,Kelua (Klua),Kabupaten,Tabalong,Kalimantan Selatan
1088,71552,Masintan,63.09.02.2008,Kelua (Klua),Kabupaten,Tabalong,Kalimantan Selatan
1089,71552,Paliat,63.09.02.2010,Kelua (Klua),Kabupaten,Tabalong,Kalimantan Selatan
1090,71552,Pasar Panas,63.09.02.2007,Kelua (Klua),Kabupaten,Tabalong,Kalimantan Selatan
1091,71552,Pudak Setegal (Pudak Stegal),63.09.02.2006,Kelua (Klua),Kabupaten,Tabalong,Kalimantan Selatan
1092,71552,Pulau,63.09.02.1001,Kelua (Klua),Kabupaten,Tabalong,Kalimantan Selatan
1093,71552,Sei/Sungai Buluh,63.09.02.2004,Kelua (Klua),Kabupaten,Tabalong,Kalimantan Selatan
1094,71552,Takulat,63.09.02.2009,Kelua (Klua),Kabupaten,Tabalong,Kalimantan Selatan
1095,71552,Telaga Itar (Telagaitar),63.09.02.2003,Kelua (Klua),Kabupaten,Tabalong,Kalimantan Selatan
1096,70661,Abirau,63.03.06.2023,Karang Intan,Kabupaten,Banjar,Kalimantan Selatan
1097,70661,Awang Bangkal Barat,63.03.06.2014,Karang Intan,Kabupaten,Banjar,Kalimantan Selatan
1098,70661,Awang Bangkal Timur,63.03.06.2015,Karang Intan,Kabupaten,Banjar,Kalimantan Selatan
1099,70661,Balau,63.03.06.2026,Karang Intan,Kabupaten,Banjar,Kalimantan Selatan
1100,70661,Biih,63.03.06.2009,Karang Intan,Kabupaten,Banjar,Kalimantan Selatan
1101,70661,Jingah Habang Hilir (Jingah Habang Ilir),63.03.06.2019,Karang Intan,Kabupaten,Banjar,Kalimantan Selatan
1102,70661,Jingah Habang Hulu (Jingah Habang Ulu),63.03.06.2005,Karang Intan,Kabupaten,Banjar,Kalimantan Selatan
1103,70661,Karang Intan,63.03.06.2003,Karang Intan,Kabupaten,Banjar,Kalimantan Selatan
1104,70661,Kiram,63.03.06.2001,Karang Intan,Kabupaten,Banjar,Kalimantan Selatan
1105,70661,Lihung,63.03.06.2008,Karang Intan,Kabupaten,Banjar,Kalimantan Selatan
1106,70661,Lok Tangga (Loktangga),63.03.06.2007,Karang Intan,Kabupaten,Banjar,Kalimantan Selatan
1107,70661,Mali Mali,63.03.06.2006,Karang Intan,Kabupaten,Banjar,Kalimantan Selatan
1108,70661,Mandi Kapau Barat,63.03.06.2025,Karang Intan,Kabupaten,Banjar,Kalimantan Selatan
1109,70661,Mandiangin Barat (Mandi Angin Barat),63.03.06.2002,Karang Intan,Kabupaten,Banjar,Kalimantan Selatan
1110,70661,Mandiangin Timur (Mandi Angin Timur),63.03.06.2017,Karang Intan,Kabupaten,Banjar,Kalimantan Selatan
1111,70661,Mandikapau Timur (Mandi Kapau Timur),63.03.06.2013,Karang Intan,Kabupaten,Banjar,Kalimantan Selatan
1112,70661,Padang Panjang,63.03.06.2021,Karang Intan,Kabupaten,Banjar,Kalimantan Selatan
1113,70661,Pandak Daun,63.03.06.2004,Karang Intan,Kabupaten,Banjar,Kalimantan Selatan
1114,70661,Panyambaran (Penyambaran),63.03.06.2010,Karang Intan,Kabupaten,Banjar,Kalimantan Selatan
1115,70661,Pasar Lama,63.03.06.2018,Karang Intan,Kabupaten,Banjar,Kalimantan Selatan
1116,70661,Pulau Nyiur,63.03.06.2024,Karang Intan,Kabupaten,Banjar,Kalimantan Selatan
1117,70661,Sei/Sungai Alang,63.03.06.2011,Karang Intan,Kabupaten,Banjar,Kalimantan Selatan
1118,70661,Sei/Sungai Arfat,63.03.06.2020,Karang Intan,Kabupaten,Banjar,Kalimantan Selatan
1119,70661,Sei/Sungai Asam,63.03.06.2012,Karang Intan,Kabupaten,Banjar,Kalimantan Selatan
1120,70661,Sei/Sungai Besar,63.03.06.2016,Karang Intan,Kabupaten,Banjar,Kalimantan Selatan
1121,70661,Sei/Sungai Landas,63.03.06.2022,Karang Intan,Kabupaten,Banjar,Kalimantan Selatan
1122,72211,Batu Licin Irigasi (Batulicin Irigasi),63.10.07.2006,Karang Bintang,Kabupaten,Tanah Bumbu,Kalimantan Selatan
1123,72211,Karang Bintang,63.10.07.2001,Karang Bintang,Kabupaten,Tanah Bumbu,Kalimantan Selatan
1124,72211,Karang Nunggal,63.10.07.2013,Karang Bintang,Kabupaten,Tanah Bumbu,Kalimantan Selatan
1125,72211,Karang Rejo,63.10.07.2012,Karang Bintang,Kabupaten,Tanah Bumbu,Kalimantan Selatan
1126,72211,Madu Retno,63.10.07.2010,Karang Bintang,Kabupaten,Tanah Bumbu,Kalimantan Selatan
1127,72211,Maju Sejahtera,63.10.07.2011,Karang Bintang,Kabupaten,Tanah Bumbu,Kalimantan Selatan
1128,72211,Manunggal,63.10.07.2007,Karang Bintang,Kabupaten,Tanah Bumbu,Kalimantan Selatan
1129,72211,Pandan Sari,63.10.07.2002,Karang Bintang,Kabupaten,Tanah Bumbu,Kalimantan Selatan
1130,72211,Pematang Ulin,63.10.07.2005,Karang Bintang,Kabupaten,Tanah Bumbu,Kalimantan Selatan
1131,72211,Rejo Winangun,63.10.07.2003,Karang Bintang,Kabupaten,Tanah Bumbu,Kalimantan Selatan
1132,72211,Selaselilau (Sela Selilau),63.10.07.2004,Karang Bintang,Kabupaten,Tanah Bumbu,Kalimantan Selatan
1133,72211,Sumber Wangi,63.10.07.2009,Karang Bintang,Kabupaten,Tanah Bumbu,Kalimantan Selatan
1134,71213,Amawang Kanan,63.06.05.2016,Kandangan,Kabupaten,Hulu Sungai Selatan,Kalimantan Selatan
1135,71213,Amawang Kiri,63.06.05.2014,Kandangan,Kabupaten,Hulu Sungai Selatan,Kalimantan Selatan
1136,71213,Amawang Kiri Muka,63.06.05.2015,Kandangan,Kabupaten,Hulu Sungai Selatan,Kalimantan Selatan
1137,71217,Baluti,63.06.05.2018,Kandangan,Kabupaten,Hulu Sungai Selatan,Kalimantan Selatan
1138,71217,Bangkau,63.06.05.2010,Kandangan,Kabupaten,Hulu Sungai Selatan,Kalimantan Selatan
1139,71213,Bariang,63.06.05.2013,Kandangan,Kabupaten,Hulu Sungai Selatan,Kalimantan Selatan
1140,71215,Gambah Dalam,63.06.05.2007,Kandangan,Kabupaten,Hulu Sungai Selatan,Kalimantan Selatan
1141,71215,Gambah Dalam Barat,63.06.05.2008,Kandangan,Kabupaten,Hulu Sungai Selatan,Kalimantan Selatan
1142,71216,Gambah Luar,63.06.05.2005,Kandangan,Kabupaten,Hulu Sungai Selatan,Kalimantan Selatan
1143,71216,Gambah Luar Muka,63.06.05.2006,Kandangan,Kabupaten,Hulu Sungai Selatan,Kalimantan Selatan
1144,71214,Jambu Hilir,63.06.05.1004,Kandangan,Kabupaten,Hulu Sungai Selatan,Kalimantan Selatan
1145,71213,Kandangan Barat,63.06.05.1003,Kandangan,Kabupaten,Hulu Sungai Selatan,Kalimantan Selatan
1146,71211,Kandangan Kota,63.06.05.1001,Kandangan,Kabupaten,Hulu Sungai Selatan,Kalimantan Selatan
1147,71214,Kandangan Utara,63.06.05.1002,Kandangan,Kabupaten,Hulu Sungai Selatan,Kalimantan Selatan
1148,71213,Lungau,63.06.05.2011,Kandangan,Kabupaten,Hulu Sungai Selatan,Kalimantan Selatan
1149,71217,Sei/Sungai Kupang,63.06.05.2009,Kandangan,Kabupaten,Hulu Sungai Selatan,Kalimantan Selatan
1150,71213,Sei/Sungai Paring,63.06.05.2012,Kandangan,Kabupaten,Hulu Sungai Selatan,Kalimantan Selatan
1151,71214,Tibung Raya,63.06.05.2017,Kandangan,Kabupaten,Hulu Sungai Selatan,Kalimantan Selatan
1152,71262,Bago Tanggul,63.06.09.2003,Kalumpang (Kelumpang),Kabupaten,Hulu Sungai Selatan,Kalimantan Selatan
1153,71262,Balanti,63.06.09.2005,Kalumpang (Kelumpang),Kabupaten,Hulu Sungai Selatan,Kalimantan Selatan
1154,71262,Balimau,63.06.09.2001,Kalumpang (Kelumpang),Kabupaten,Hulu Sungai Selatan,Kalimantan Selatan
1155,71262,Kalumpang (Kelumpang),63.06.09.2006,Kalumpang (Kelumpang),Kabupaten,Hulu Sungai Selatan,Kalimantan Selatan
1156,71262,Karang Bulan,63.06.09.2004,Kalumpang (Kelumpang),Kabupaten,Hulu Sungai Selatan,Kalimantan Selatan
1157,71262,Karang Paci,63.06.09.2002,Kalumpang (Kelumpang),Kabupaten,Hulu Sungai Selatan,Kalimantan Selatan
1158,71262,Sirih,63.06.09.2008,Kalumpang (Kelumpang),Kabupaten,Hulu Sungai Selatan,Kalimantan Selatan
1159,71262,Sirih Hulu,63.06.09.2009,Kalumpang (Kelumpang),Kabupaten,Hulu Sungai Selatan,Kalimantan Selatan
1160,71262,Tambingkar,63.06.09.2007,Kalumpang (Kelumpang),Kabupaten,Hulu Sungai Selatan,Kalimantan Selatan
1161,71665,Bata,63.11.01.2005,Juai,Kabupaten,Balangan,Kalimantan Selatan
1162,71665,Buntu Karau,63.11.01.2004,Juai,Kabupaten,Balangan,Kalimantan Selatan
1163,71665,Galumbang,63.11.01.2006,Juai,Kabupaten,Balangan,Kalimantan Selatan
1164,71665,Gulinggang,63.11.01.2017,Juai,Kabupaten,Balangan,Kalimantan Selatan
1165,71665,Hamarung,63.11.01.2002,Juai,Kabupaten,Balangan,Kalimantan Selatan
1166,71665,Hukai,63.11.01.2015,Juai,Kabupaten,Balangan,Kalimantan Selatan
1167,71665,Juai,63.11.01.2003,Juai,Kabupaten,Balangan,Kalimantan Selatan
1168,71665,Lalayau,63.11.01.2013,Juai,Kabupaten,Balangan,Kalimantan Selatan
1169,71665,Marias,63.11.01.2012,Juai,Kabupaten,Balangan,Kalimantan Selatan
1170,71665,Mihu,63.11.01.2014,Juai,Kabupaten,Balangan,Kalimantan Selatan
1171,71665,Muara Ninian,63.11.01.2001,Juai,Kabupaten,Balangan,Kalimantan Selatan
1172,71665,Mungkur Uyam,63.11.01.2018,Juai,Kabupaten,Balangan,Kalimantan Selatan
1173,71665,Pamurus,63.11.01.2011,Juai,Kabupaten,Balangan,Kalimantan Selatan
1174,71665,Panimbaan,63.11.01.2019,Juai,Kabupaten,Balangan,Kalimantan Selatan
1175,71665,Sei/Sungai Batung,63.11.01.2007,Juai,Kabupaten,Balangan,Kalimantan Selatan
1176,71665,Sirap,63.11.01.2008,Juai,Kabupaten,Balangan,Kalimantan Selatan
1177,71665,Sumber Rejeki,63.11.01.2021,Juai,Kabupaten,Balangan,Kalimantan Selatan
1178,71665,Tawahan,63.11.01.2016,Juai,Kabupaten,Balangan,Kalimantan Selatan
1179,71665,Teluk Bayur,63.11.01.2010,Juai,Kabupaten,Balangan,Kalimantan Selatan
1180,71665,Tigarun,63.11.01.2009,Juai,Kabupaten,Balangan,Kalimantan Selatan
1181,71665,Wonorejo,63.11.01.2020,Juai,Kabupaten,Balangan,Kalimantan Selatan
1182,70881,Alur,63.01.02.2007,Jorong,Kabupaten,Tanah Laut,Kalimantan Selatan
1183,70881,Asam Asam,63.01.02.2003,Jorong,Kabupaten,Tanah Laut,Kalimantan Selatan
1184,70881,Asam Jaya,63.01.02.2010,Jorong,Kabupaten,Tanah Laut,Kalimantan Selatan
1185,70881,Asri Mulya (Asri Mulia),63.01.02.2008,Jorong,Kabupaten,Tanah Laut,Kalimantan Selatan
1186,70881,Batalang,63.01.02.2004,Jorong,Kabupaten,Tanah Laut,Kalimantan Selatan
1187,70881,Jorong,63.01.02.2002,Jorong,Kabupaten,Tanah Laut,Kalimantan Selatan
1188,70881,Karang Rejo,63.01.02.2009,Jorong,Kabupaten,Tanah Laut,Kalimantan Selatan
1189,70881,Muara Asam Asam,63.01.02.2006,Jorong,Kabupaten,Tanah Laut,Kalimantan Selatan
1190,70881,Sabuhur,63.01.02.2001,Jorong,Kabupaten,Tanah Laut,Kalimantan Selatan
1191,70881,Simpang Empat Sungai Baru (Sungaibaru),63.01.02.2011,Jorong,Kabupaten,Tanah Laut,Kalimantan Selatan
1192,70881,Swarangan,63.01.02.2005,Jorong,Kabupaten,Tanah Laut,Kalimantan Selatan
1193,70581,Bahandang,63.04.17.2003,Jejangkit,Kabupaten,Barito Kuala,Kalimantan Selatan
1194,70581,Cahaya Baru,63.04.17.2005,Jejangkit,Kabupaten,Barito Kuala,Kalimantan Selatan
1195,70581,Jejangkit Barat,63.04.17.2002,Jejangkit,Kabupaten,Barito Kuala,Kalimantan Selatan
1196,70581,Jejangkit Muara,63.04.17.2007,Jejangkit,Kabupaten,Barito Kuala,Kalimantan Selatan
1197,70581,Jejangkit Pasar,63.04.17.2006,Jejangkit,Kabupaten,Barito Kuala,Kalimantan Selatan
1198,70581,Jejangkit Timur,63.04.17.2004,Jejangkit,Kabupaten,Barito Kuala,Kalimantan Selatan
1199,70581,Sampurna,63.04.17.2001,Jejangkit,Kabupaten,Barito Kuala,Kalimantan Selatan
1200,71574,Garagata,63.09.11.2008,Jaro,Kabupaten,Tabalong,Kalimantan Selatan
1201,71574,Jaro,63.09.11.2003,Jaro,Kabupaten,Tabalong,Kalimantan Selatan
1202,71574,Lano,63.09.11.2006,Jaro,Kabupaten,Tabalong,Kalimantan Selatan
1203,71574,Muang,63.09.11.2005,Jaro,Kabupaten,Tabalong,Kalimantan Selatan
1204,71574,Nalui,63.09.11.2009,Jaro,Kabupaten,Tabalong,Kalimantan Selatan
1205,71574,Namun,63.09.11.2002,Jaro,Kabupaten,Tabalong,Kalimantan Selatan
1206,71574,Purui,63.09.11.2007,Jaro,Kabupaten,Tabalong,Kalimantan Selatan
1207,71574,Solan,63.09.11.2004,Jaro,Kabupaten,Tabalong,Kalimantan Selatan
1208,71574,Teratau,63.09.11.2001,Jaro,Kabupaten,Tabalong,Kalimantan Selatan
1209,71472,Bayur,63.08.08.2004,Haur Gading,Kabupaten,Hulu Sungai Utara,Kalimantan Selatan
1210,71472,Haur Gading,63.08.08.2010,Haur Gading,Kabupaten,Hulu Sungai Utara,Kalimantan Selatan
1211,71472,Jingah Bujur,63.08.08.2009,Haur Gading,Kabupaten,Hulu Sungai Utara,Kalimantan Selatan
1212,71472,Keramat/Karamat,63.08.08.2011,Haur Gading,Kabupaten,Hulu Sungai Utara,Kalimantan Selatan
1213,71472,Loksoga/Lok Suga,63.08.08.2005,Haur Gading,Kabupaten,Hulu Sungai Utara,Kalimantan Selatan
1214,71472,Palimbang Sari (Palimbangan Sari),63.08.08.2003,Haur Gading,Kabupaten,Hulu Sungai Utara,Kalimantan Selatan
1215,71472,Palimbangan,63.08.08.2001,Haur Gading,Kabupaten,Hulu Sungai Utara,Kalimantan Selatan
1216,71472,Palimbangan Gusti,63.08.08.2002,Haur Gading,Kabupaten,Hulu Sungai Utara,Kalimantan Selatan
1217,71472,Panawakan,63.08.08.2018,Haur Gading,Kabupaten,Hulu Sungai Utara,Kalimantan Selatan
1218,71472,Pihaung,63.08.08.2007,Haur Gading,Kabupaten,Hulu Sungai Utara,Kalimantan Selatan
1219,71472,Pulantani/Polantani,63.08.08.2013,Haur Gading,Kabupaten,Hulu Sungai Utara,Kalimantan Selatan
1220,71472,Sei/Sungai Binuang,63.08.08.2008,Haur Gading,Kabupaten,Hulu Sungai Utara,Kalimantan Selatan
1221,71472,Sei/Sungai Limas,63.08.08.2006,Haur Gading,Kabupaten,Hulu Sungai Utara,Kalimantan Selatan
1222,71472,Taluk Haur (Teluk Haur),63.08.08.2017,Haur Gading,Kabupaten,Hulu Sungai Utara,Kalimantan Selatan
1223,71472,Tambak Sari Panji,63.08.08.2012,Haur Gading,Kabupaten,Hulu Sungai Utara,Kalimantan Selatan
1224,71472,Tangkawang,63.08.08.2015,Haur Gading,Kabupaten,Hulu Sungai Utara,Kalimantan Selatan
1225,71472,Tuhuran,63.08.08.2016,Haur Gading,Kabupaten,Hulu Sungai Utara,Kalimantan Selatan
1226,71472,Waringin,63.08.08.2014,Haur Gading,Kabupaten,Hulu Sungai Utara,Kalimantan Selatan
1227,71184,Asam Randah,63.05.12.2007,Hatungun,Kabupaten,Tapin,Kalimantan Selatan
1228,71184,Bagak,63.05.12.2008,Hatungun,Kabupaten,Tapin,Kalimantan Selatan
1229,71184,Batu Hapu,63.05.12.2005,Hatungun,Kabupaten,Tapin,Kalimantan Selatan
1230,71184,Burakai,63.05.12.2004,Hatungun,Kabupaten,Tapin,Kalimantan Selatan
1231,71184,Hatungun,63.05.12.2003,Hatungun,Kabupaten,Tapin,Kalimantan Selatan
1232,71184,Kambang Kuning,63.05.12.2006,Hatungun,Kabupaten,Tapin,Kalimantan Selatan
1233,71184,Matang Batas,63.05.12.2002,Hatungun,Kabupaten,Tapin,Kalimantan Selatan
1234,71184,Tarungin,63.05.12.2001,Hatungun,Kabupaten,Tapin,Kalimantan Selatan
1235,71363,Andang,63.07.01.2004,Haruyan,Kabupaten,Hulu Sungai Tengah,Kalimantan Selatan
1236,71363,Barikin,63.07.01.2003,Haruyan,Kabupaten,Hulu Sungai Tengah,Kalimantan Selatan
1237,71363,Batu Panggung,63.07.01.2010,Haruyan,Kabupaten,Hulu Sungai Tengah,Kalimantan Selatan
1238,71363,Hapulang,63.07.01.2012,Haruyan,Kabupaten,Hulu Sungai Tengah,Kalimantan Selatan
1239,71363,Haruyan,63.07.01.2006,Haruyan,Kabupaten,Hulu Sungai Tengah,Kalimantan Selatan
1240,71363,Haruyan Seberang,63.07.01.2007,Haruyan,Kabupaten,Hulu Sungai Tengah,Kalimantan Selatan
1241,71363,Lok Buntar (Lokbuntar),63.07.01.2013,Haruyan,Kabupaten,Hulu Sungai Tengah,Kalimantan Selatan
1242,71363,Mangunang,63.07.01.2011,Haruyan,Kabupaten,Hulu Sungai Tengah,Kalimantan Selatan
1243,71363,Mangunang Seberang,63.07.01.2015,Haruyan,Kabupaten,Hulu Sungai Tengah,Kalimantan Selatan
1244,71363,Pandanu,63.07.01.2016,Haruyan,Kabupaten,Hulu Sungai Tengah,Kalimantan Selatan
1245,71363,Panggung,63.07.01.2002,Haruyan,Kabupaten,Hulu Sungai Tengah,Kalimantan Selatan
1246,71363,Pengambau Hilir Dalam,63.07.01.2005,Haruyan,Kabupaten,Hulu Sungai Tengah,Kalimantan Selatan
1247,71363,Pengambau Hilir Luar (Pangambau Hilir Luar),63.07.01.2001,Haruyan,Kabupaten,Hulu Sungai Tengah,Kalimantan Selatan
1248,71363,Pengambau Hulu,63.07.01.2008,Haruyan,Kabupaten,Hulu Sungai Tengah,Kalimantan Selatan
1249,71363,Sei/Sungai Harang,63.07.01.2009,Haruyan,Kabupaten,Hulu Sungai Tengah,Kalimantan Selatan
1250,71363,Tabat Padang,63.07.01.2014,Haruyan,Kabupaten,Hulu Sungai Tengah,Kalimantan Selatan
1251,71363,Teluk Mesjid,63.07.01.2017,Haruyan,Kabupaten,Hulu Sungai Tengah,Kalimantan Selatan
1252,71570,Bongkang,63.09.05.2003,Haruai,Kabupaten,Tabalong,Kalimantan Selatan
1253,71570,Catur Karya,63.09.05.2021,Haruai,Kabupaten,Tabalong,Kalimantan Selatan
1254,71570,Halong,63.09.05.2005,Haruai,Kabupaten,Tabalong,Kalimantan Selatan
1255,71570,Hayup,63.09.05.2007,Haruai,Kabupaten,Tabalong,Kalimantan Selatan
1256,71570,Kembang Kuning (Kembangkuning),63.09.05.2011,Haruai,Kabupaten,Tabalong,Kalimantan Selatan
1257,71570,Lok Batu,63.09.05.2014,Haruai,Kabupaten,Tabalong,Kalimantan Selatan
1258,71570,Mahe Pasar,63.09.05.2013,Haruai,Kabupaten,Tabalong,Kalimantan Selatan
1259,71570,Marindi,63.09.05.2001,Haruai,Kabupaten,Tabalong,Kalimantan Selatan
1260,71570,Nawin,63.09.05.2004,Haruai,Kabupaten,Tabalong,Kalimantan Selatan
1261,71570,Seradang,63.09.05.2012,Haruai,Kabupaten,Tabalong,Kalimantan Selatan
1262,71570,Suput,63.09.05.2015,Haruai,Kabupaten,Tabalong,Kalimantan Selatan
1263,71570,Surian,63.09.05.2018,Haruai,Kabupaten,Tabalong,Kalimantan Selatan
1264,71570,Wirang,63.09.05.2002,Haruai,Kabupaten,Tabalong,Kalimantan Selatan
1265,71372,Alat,63.07.09.2002,Hantakan,Kabupaten,Hulu Sungai Tengah,Kalimantan Selatan
1266,71372,Batu Tunggal,63.07.09.2005,Hantakan,Kabupaten,Hulu Sungai Tengah,Kalimantan Selatan
1267,71372,Bulayak,63.07.09.2004,Hantakan,Kabupaten,Hulu Sungai Tengah,Kalimantan Selatan
1268,71372,Datar Ajab,63.07.09.2010,Hantakan,Kabupaten,Hulu Sungai Tengah,Kalimantan Selatan
1269,71372,Hantakan,63.07.09.2001,Hantakan,Kabupaten,Hulu Sungai Tengah,Kalimantan Selatan
1270,71372,Haruyan Dayak,63.07.09.2008,Hantakan,Kabupaten,Hulu Sungai Tengah,Kalimantan Selatan
1271,71372,Hinas Kanan,63.07.09.2011,Hantakan,Kabupaten,Hulu Sungai Tengah,Kalimantan Selatan
1272,71372,Kindingan,63.07.09.2009,Hantakan,Kabupaten,Hulu Sungai Tengah,Kalimantan Selatan
1273,71372,Murung B,63.07.09.2003,Hantakan,Kabupaten,Hulu Sungai Tengah,Kalimantan Selatan
1274,71372,Pasting,63.07.09.2006,Hantakan,Kabupaten,Hulu Sungai Tengah,Kalimantan Selatan
1275,71372,Patikalain,63.07.09.2012,Hantakan,Kabupaten,Hulu Sungai Tengah,Kalimantan Selatan
1276,71372,Tilahan,63.07.09.2007,Hantakan,Kabupaten,Hulu Sungai Tengah,Kalimantan Selatan
1277,72163,Cantung Kanan,63.02.14.2003,Hampang,Kabupaten,Kotabaru,Kalimantan Selatan
1278,72163,Cantung Kiri Hulu,63.02.14.2002,Hampang,Kabupaten,Kotabaru,Kalimantan Selatan
1279,72163,Hampang,63.02.14.2001,Hampang,Kabupaten,Kotabaru,Kalimantan Selatan
1280,72163,Hulu Sampanahan,63.02.14.2008,Hampang,Kabupaten,Kotabaru,Kalimantan Selatan
1281,72163,Lalapin,63.02.14.2005,Hampang,Kabupaten,Kotabaru,Kalimantan Selatan
1282,72163,Limbungan,63.02.14.2009,Hampang,Kabupaten,Kotabaru,Kalimantan Selatan
1283,72163,Limbur,63.02.14.2007,Hampang,Kabupaten,Kotabaru,Kalimantan Selatan
1284,72163,Muara Orie,63.02.14.2004,Hampang,Kabupaten,Kotabaru,Kalimantan Selatan
1285,72163,Peramasan Dua Kali Sanga,63.02.14.2006,Hampang,Kabupaten,Kotabaru,Kalimantan Selatan
1286,71666,Aniungan,63.11.02.2016,Halong,Kabupaten,Balangan,Kalimantan Selatan
1287,71666,Bangkal,63.11.02.2002,Halong,Kabupaten,Balangan,Kalimantan Selatan
1288,71666,Baruh Panyambaran,63.11.02.2022,Halong,Kabupaten,Balangan,Kalimantan Selatan
1289,71666,Binjai Punggal,63.11.02.2013,Halong,Kabupaten,Balangan,Kalimantan Selatan
1290,71666,Binju,63.11.02.2017,Halong,Kabupaten,Balangan,Kalimantan Selatan
1291,71666,Binuang Santang,63.11.02.2015,Halong,Kabupaten,Balangan,Kalimantan Selatan
1292,71666,Buntu Pilanduk (Buntut Pilanduk),63.11.02.2009,Halong,Kabupaten,Balangan,Kalimantan Selatan
1293,71666,Gunung Riut,63.11.02.2010,Halong,Kabupaten,Balangan,Kalimantan Selatan
1294,71666,Halong,63.11.02.2005,Halong,Kabupaten,Balangan,Kalimantan Selatan
1295,71666,Hauwai (Ha Uwai),63.11.02.2001,Halong,Kabupaten,Balangan,Kalimantan Selatan
1296,71666,Kapul,63.11.02.2011,Halong,Kabupaten,Balangan,Kalimantan Selatan
1297,71666,Karya,63.11.02.2018,Halong,Kabupaten,Balangan,Kalimantan Selatan
1298,71666,Liyu,63.11.02.2014,Halong,Kabupaten,Balangan,Kalimantan Selatan
1299,71666,Mamantang,63.11.02.2012,Halong,Kabupaten,Balangan,Kalimantan Selatan
1300,71666,Mamigang,63.11.02.2026,Halong,Kabupaten,Balangan,Kalimantan Selatan
1301,71666,Mantuyan,63.11.02.2003,Halong,Kabupaten,Balangan,Kalimantan Selatan
1302,71666,Marajai,63.11.02.2020,Halong,Kabupaten,Balangan,Kalimantan Selatan
1303,71666,Mauya,63.11.02.2023,Halong,Kabupaten,Balangan,Kalimantan Selatan
1304,71666,Padang Raya,63.11.02.2024,Halong,Kabupaten,Balangan,Kalimantan Selatan
1305,71666,Puyun,63.11.02.2008,Halong,Kabupaten,Balangan,Kalimantan Selatan
1306,71666,Sumber Agung,63.11.02.2025,Halong,Kabupaten,Balangan,Kalimantan Selatan
1307,71666,Suryatama,63.11.02.2021,Halong,Kabupaten,Balangan,Kalimantan Selatan
1308,71666,Tabuan,63.11.02.2004,Halong,Kabupaten,Balangan,Kalimantan Selatan
1309,71666,Uren,63.11.02.2019,Halong,Kabupaten,Balangan,Kalimantan Selatan
1310,70652,Banyu Hirang,63.03.03.2009,Gambut,Kabupaten,Banjar,Kalimantan Selatan
1311,70652,Gambut,63.03.03.1001,Gambut,Kabupaten,Banjar,Kalimantan Selatan
1312,70652,Gambut Barat,63.03.03.1014,Gambut,Kabupaten,Banjar,Kalimantan Selatan
1313,70652,Guntung Papuyu,63.03.03.2003,Gambut,Kabupaten,Banjar,Kalimantan Selatan
1314,70652,Guntung Ujung,63.03.03.2010,Gambut,Kabupaten,Banjar,Kalimantan Selatan
1315,70652,Kayu Bawang,63.03.03.2008,Gambut,Kabupaten,Banjar,Kalimantan Selatan
1316,70652,Keladan Baru,63.03.03.2013,Gambut,Kabupaten,Banjar,Kalimantan Selatan
1317,70652,Makmur,63.03.03.2004,Gambut,Kabupaten,Banjar,Kalimantan Selatan
1318,70652,Malintang,63.03.03.2007,Gambut,Kabupaten,Banjar,Kalimantan Selatan
1319,70652,Malintang Baru,63.03.03.2012,Gambut,Kabupaten,Banjar,Kalimantan Selatan
1320,70652,Sei/Sungai Kupang,63.03.03.2002,Gambut,Kabupaten,Banjar,Kalimantan Selatan
1321,70652,Tambak Sirang Baru,63.03.03.2011,Gambut,Kabupaten,Banjar,Kalimantan Selatan
1322,70652,Tambak Sirang Darat,63.03.03.2005,Gambut,Kabupaten,Banjar,Kalimantan Selatan
1323,70652,Tambak Sirang Laut,63.03.03.2006,Gambut,Kabupaten,Banjar,Kalimantan Selatan
1324,71453,Baru,63.08.01.2009,Danau Panggang,Kabupaten,Hulu Sungai Utara,Kalimantan Selatan
1325,71453,Bitin,63.08.01.2010,Danau Panggang,Kabupaten,Hulu Sungai Utara,Kalimantan Selatan
1326,71453,Danau Panggang,63.08.01.2004,Danau Panggang,Kabupaten,Hulu Sungai Utara,Kalimantan Selatan
1327,71453,Darussalam,63.08.01.2015,Danau Panggang,Kabupaten,Hulu Sungai Utara,Kalimantan Selatan
1328,71453,Longkong (Long Kong),63.08.01.2017,Danau Panggang,Kabupaten,Hulu Sungai Utara,Kalimantan Selatan
1329,71453,Manarap,63.08.01.2011,Danau Panggang,Kabupaten,Hulu Sungai Utara,Kalimantan Selatan
1330,71453,Manarap Hulu,63.08.01.2023,Danau Panggang,Kabupaten,Hulu Sungai Utara,Kalimantan Selatan
1331,71453,Palukahan,63.08.01.2020,Danau Panggang,Kabupaten,Hulu Sungai Utara,Kalimantan Selatan
1332,71453,Pandamaan,63.08.01.2008,Danau Panggang,Kabupaten,Hulu Sungai Utara,Kalimantan Selatan
1333,71453,Pararain,63.08.01.2012,Danau Panggang,Kabupaten,Hulu Sungai Utara,Kalimantan Selatan
1334,71453,Rintisan,63.08.01.2019,Danau Panggang,Kabupaten,Hulu Sungai Utara,Kalimantan Selatan
1335,71453,Sarang Burung,63.08.01.2016,Danau Panggang,Kabupaten,Hulu Sungai Utara,Kalimantan Selatan
1336,71453,Sei/Sungai Namang,63.08.01.2003,Danau Panggang,Kabupaten,Hulu Sungai Utara,Kalimantan Selatan
1337,71453,Sei/Sungai Panangah,63.08.01.2022,Danau Panggang,Kabupaten,Hulu Sungai Utara,Kalimantan Selatan
1338,71453,Telaga Mas,63.08.01.2013,Danau Panggang,Kabupaten,Hulu Sungai Utara,Kalimantan Selatan
1339,71453,Teluk Mesjid,63.08.01.2021,Danau Panggang,Kabupaten,Hulu Sungai Utara,Kalimantan Selatan
1340,71253,Balah Paikat (Belah Paikat),63.06.08.2008,Daha Utara,Kabupaten,Hulu Sungai Selatan,Kalimantan Selatan
1341,71253,Baruh Kembang,63.06.08.2012,Daha Utara,Kabupaten,Hulu Sungai Selatan,Kalimantan Selatan
1342,71253,Hakurung,63.06.08.2019,Daha Utara,Kabupaten,Hulu Sungai Selatan,Kalimantan Selatan
1343,71253,Hamayung,63.06.08.2016,Daha Utara,Kabupaten,Hulu Sungai Selatan,Kalimantan Selatan
1344,71253,Hamayung Utara,63.06.08.2017,Daha Utara,Kabupaten,Hulu Sungai Selatan,Kalimantan Selatan
1345,71253,Mandala Murung Mesjid,63.06.08.2011,Daha Utara,Kabupaten,Hulu Sungai Selatan,Kalimantan Selatan
1346,71253,Murung Raya,63.06.08.2007,Daha Utara,Kabupaten,Hulu Sungai Selatan,Kalimantan Selatan
1347,71253,Paharangan,63.06.08.2018,Daha Utara,Kabupaten,Hulu Sungai Selatan,Kalimantan Selatan
1348,71253,Pakan Dalam,63.06.08.2004,Daha Utara,Kabupaten,Hulu Sungai Selatan,Kalimantan Selatan
1349,71253,Pakapuran Kecil,63.06.08.2001,Daha Utara,Kabupaten,Hulu Sungai Selatan,Kalimantan Selatan
1350,71253,Pandak Daun,63.06.08.2006,Daha Utara,Kabupaten,Hulu Sungai Selatan,Kalimantan Selatan
1351,71253,Panggandingan,63.06.08.2002,Daha Utara,Kabupaten,Hulu Sungai Selatan,Kalimantan Selatan
1352,71253,Paramaian,63.06.08.2005,Daha Utara,Kabupaten,Hulu Sungai Selatan,Kalimantan Selatan
1353,71253,Pasungkan,63.06.08.2014,Daha Utara,Kabupaten,Hulu Sungai Selatan,Kalimantan Selatan
1354,71253,Sei/Sungai Garuda,63.06.08.2009,Daha Utara,Kabupaten,Hulu Sungai Selatan,Kalimantan Selatan
1355,71253,Sei/Sungai Mandala,63.06.08.2010,Daha Utara,Kabupaten,Hulu Sungai Selatan,Kalimantan Selatan
1356,71253,Tambak Bitin,63.06.08.2003,Daha Utara,Kabupaten,Hulu Sungai Selatan,Kalimantan Selatan
1357,71253,Teluk Haur (Taluk Haur),63.06.08.2013,Daha Utara,Kabupaten,Hulu Sungai Selatan,Kalimantan Selatan
1358,71253,Teluk Kabak (Teluk Labak),63.06.08.2015,Daha Utara,Kabupaten,Hulu Sungai Selatan,Kalimantan Selatan
1359,71251,Banjarbaru (Banjar Baru),63.06.07.2004,Daha Selatan,Kabupaten,Hulu Sungai Selatan,Kalimantan Selatan
1360,71251,Banua Hanyar,63.06.07.2013,Daha Selatan,Kabupaten,Hulu Sungai Selatan,Kalimantan Selatan
1361,71251,Baruh Jaya,63.06.07.2015,Daha Selatan,Kabupaten,Hulu Sungai Selatan,Kalimantan Selatan
1362,71251,Bayanan,63.06.07.2005,Daha Selatan,Kabupaten,Hulu Sungai Selatan,Kalimantan Selatan
1363,71251,Habirau,63.06.07.2010,Daha Selatan,Kabupaten,Hulu Sungai Selatan,Kalimantan Selatan
1364,71251,Habirau Tengah,63.06.07.2011,Daha Selatan,Kabupaten,Hulu Sungai Selatan,Kalimantan Selatan
1365,71251,Muning Baru,63.06.07.2001,Daha Selatan,Kabupaten,Hulu Sungai Selatan,Kalimantan Selatan
1366,71251,Muning Dalam,63.06.07.2002,Daha Selatan,Kabupaten,Hulu Sungai Selatan,Kalimantan Selatan
1367,71251,Muning Tengah,63.06.07.2003,Daha Selatan,Kabupaten,Hulu Sungai Selatan,Kalimantan Selatan
1368,71251,Pandan Sari,63.06.07.2006,Daha Selatan,Kabupaten,Hulu Sungai Selatan,Kalimantan Selatan
1369,71251,Parigi,63.06.07.2012,Daha Selatan,Kabupaten,Hulu Sungai Selatan,Kalimantan Selatan
1370,71251,Pihanin Raya,63.06.07.2007,Daha Selatan,Kabupaten,Hulu Sungai Selatan,Kalimantan Selatan
1371,71251,Samuda,63.06.07.2016,Daha Selatan,Kabupaten,Hulu Sungai Selatan,Kalimantan Selatan
1372,71251,Sei/Sungai Pinang,63.06.07.2009,Daha Selatan,Kabupaten,Hulu Sungai Selatan,Kalimantan Selatan
1373,71251,Tambangan,63.06.07.2014,Daha Selatan,Kabupaten,Hulu Sungai Selatan,Kalimantan Selatan
1374,71251,Tumbukan Banyu,63.06.07.2008,Daha Selatan,Kabupaten,Hulu Sungai Selatan,Kalimantan Selatan
1375,71252,Badaun,63.06.11.2004,Daha Barat,Kabupaten,Hulu Sungai Selatan,Kalimantan Selatan
1376,71252,Bajayau,63.06.11.2005,Daha Barat,Kabupaten,Hulu Sungai Selatan,Kalimantan Selatan
1377,71252,Bajayau Lama,63.06.11.2007,Daha Barat,Kabupaten,Hulu Sungai Selatan,Kalimantan Selatan
1378,71252,Bajayau Tengah,63.06.11.2006,Daha Barat,Kabupaten,Hulu Sungai Selatan,Kalimantan Selatan
1379,71252,Baru,63.06.11.2002,Daha Barat,Kabupaten,Hulu Sungai Selatan,Kalimantan Selatan
1380,71252,Siang Gantung,63.06.11.2001,Daha Barat,Kabupaten,Hulu Sungai Selatan,Kalimantan Selatan
1381,71252,Tanjung Selor,63.06.11.2003,Daha Barat,Kabupaten,Hulu Sungai Selatan,Kalimantan Selatan
1382,70676,Alalak Padang,63.03.20.2006,Cintapuri Darussalam,Kabupaten,Banjar,Kalimantan Selatan
1383,70676,Benua Anyar,63.03.20.2005,Cintapuri Darussalam,Kabupaten,Banjar,Kalimantan Selatan
1384,70676,Cintapuri,63.03.20.2003,Cintapuri Darussalam,Kabupaten,Banjar,Kalimantan Selatan
1385,70676,Garis Hanyar,63.03.20.2002,Cintapuri Darussalam,Kabupaten,Banjar,Kalimantan Selatan
1386,70676,Karya Makmur,63.03.20.2009,Cintapuri Darussalam,Kabupaten,Banjar,Kalimantan Selatan
1387,70676,Keramat Mina,63.03.20.2001,Cintapuri Darussalam,Kabupaten,Banjar,Kalimantan Selatan
1388,70676,Makmur Karya,63.03.20.2007,Cintapuri Darussalam,Kabupaten,Banjar,Kalimantan Selatan
1389,70676,Simpang Lima,63.03.20.2008,Cintapuri Darussalam,Kabupaten,Banjar,Kalimantan Selatan
1390,70676,Sindang Jaya,63.03.20.2010,Cintapuri Darussalam,Kabupaten,Banjar,Kalimantan Selatan
1391,70676,Sumber Sari,63.03.20.2011,Cintapuri Darussalam,Kabupaten,Banjar,Kalimantan Selatan
1392,70676,Surian Hanyar,63.03.20.2004,Cintapuri Darussalam,Kabupaten,Banjar,Kalimantan Selatan
1393,70571,Badandan,63.04.09.2006,Cerbon,Kabupaten,Barito Kuala,Kalimantan Selatan
1394,70571,Bantuil,63.04.09.2005,Cerbon,Kabupaten,Barito Kuala,Kalimantan Selatan
1395,70571,Sawahan,63.04.09.2004,Cerbon,Kabupaten,Barito Kuala,Kalimantan Selatan
1396,70571,Sei/Sungai Kambat,63.04.09.2001,Cerbon,Kabupaten,Barito Kuala,Kalimantan Selatan
1397,70571,Sei/Sungai Rasau,63.04.09.2002,Cerbon,Kabupaten,Barito Kuala,Kalimantan Selatan
1398,70571,Sei/Sungai Raya,63.04.09.2008,Cerbon,Kabupaten,Barito Kuala,Kalimantan Selatan
1399,70571,Sei/Sungai Tunjang,63.04.09.2007,Cerbon,Kabupaten,Barito Kuala,Kalimantan Selatan
1400,70571,Simpang Nungki,63.04.09.2003,Cerbon,Kabupaten,Barito Kuala,Kalimantan Selatan
1401,70732,Bangkal,63.72.03.1002,Cempaka,Kota,Banjarbaru,Kalimantan Selatan
1402,70733,Cempaka,63.72.03.1004,Cempaka,Kota,Banjarbaru,Kalimantan Selatan
1403,70731,Palam,63.72.03.1001,Cempaka,Kota,Banjarbaru,Kalimantan Selatan
1404,70734,Sei/Sungai Tiung,63.72.03.1003,Cempaka,Kota,Banjarbaru,Kalimantan Selatan
1405,71171,Batalas,63.05.06.2005,Candi Laras Utara,Kabupaten,Tapin,Kalimantan Selatan
1406,71171,Buas Buas,63.05.06.2007,Candi Laras Utara,Kabupaten,Tapin,Kalimantan Selatan
1407,71171,Buas Buas Hilir,63.05.06.2012,Candi Laras Utara,Kabupaten,Tapin,Kalimantan Selatan
1408,71171,Keladan (Kaladan),63.05.06.2001,Candi Laras Utara,Kabupaten,Tapin,Kalimantan Selatan
1409,71171,Margasari Hilir (Margasari Ilir),63.05.06.2004,Candi Laras Utara,Kabupaten,Tapin,Kalimantan Selatan
1410,71171,Pariok,63.05.06.2003,Candi Laras Utara,Kabupaten,Tapin,Kalimantan Selatan
1411,71171,Rawana,63.05.06.2006,Candi Laras Utara,Kabupaten,Tapin,Kalimantan Selatan
1412,71171,Rawana Hulu,63.05.06.2013,Candi Laras Utara,Kabupaten,Tapin,Kalimantan Selatan
1413,71171,Sawaja,63.05.06.2010,Candi Laras Utara,Kabupaten,Tapin,Kalimantan Selatan
1414,71171,Sei/Sungai Puting,63.05.06.2009,Candi Laras Utara,Kabupaten,Tapin,Kalimantan Selatan
1415,71171,Sungai Selai (Sei / Sungai Salai),63.05.06.2002,Candi Laras Utara,Kabupaten,Tapin,Kalimantan Selatan
1416,71171,Sungai Selai Hilir (Sei / Sungai Salai Hilir),63.05.06.2011,Candi Laras Utara,Kabupaten,Tapin,Kalimantan Selatan
1417,71171,Teluk Haur,63.05.06.2008,Candi Laras Utara,Kabupaten,Tapin,Kalimantan Selatan
1418,71162,Baringin A,63.05.05.2003,Candi Laras Selatan,Kabupaten,Tapin,Kalimantan Selatan
1419,71162,Baringin B,63.05.05.2008,Candi Laras Selatan,Kabupaten,Tapin,Kalimantan Selatan
1420,71162,Baulin,63.05.05.2011,Candi Laras Selatan,Kabupaten,Tapin,Kalimantan Selatan
1421,71162,Candi Laras,63.05.05.2002,Candi Laras Selatan,Kabupaten,Tapin,Kalimantan Selatan
1422,71162,Marampiau,63.05.05.2004,Candi Laras Selatan,Kabupaten,Tapin,Kalimantan Selatan
1423,71162,Marampiau Hilir,63.05.05.2009,Candi Laras Selatan,Kabupaten,Tapin,Kalimantan Selatan
1424,71162,Margasari Hulu (Margasari Ulu),63.05.05.2001,Candi Laras Selatan,Kabupaten,Tapin,Kalimantan Selatan
1425,71162,Pabaungan Hilir,63.05.05.2005,Candi Laras Selatan,Kabupaten,Tapin,Kalimantan Selatan
1426,71162,Pabaungan Hulu,63.05.05.2006,Candi Laras Selatan,Kabupaten,Tapin,Kalimantan Selatan
1427,71162,Pabaungan Pantai,63.05.05.2012,Candi Laras Selatan,Kabupaten,Tapin,Kalimantan Selatan
1428,71162,Sei/Sungai Rutas,63.05.05.2007,Candi Laras Selatan,Kabupaten,Tapin,Kalimantan Selatan
1429,71162,Sei/Sungai Rutas Hulu,63.05.05.2010,Candi Laras Selatan,Kabupaten,Tapin,Kalimantan Selatan
1430,71153,Banua Padang,63.05.09.2002,Bungur,Kabupaten,Tapin,Kalimantan Selatan
1431,71153,Banua Padang Hilir,63.05.09.2004,Bungur,Kabupaten,Tapin,Kalimantan Selatan
1432,71153,Bungur,63.05.09.2003,Bungur,Kabupaten,Tapin,Kalimantan Selatan
1433,71153,Bungur Baru,63.05.09.2009,Bungur,Kabupaten,Tapin,Kalimantan Selatan
1434,71153,Hangui,63.05.09.2006,Bungur,Kabupaten,Tapin,Kalimantan Selatan
1435,71153,Kalumpang,63.05.09.2001,Bungur,Kabupaten,Tapin,Kalimantan Selatan
1436,71153,Linuh,63.05.09.2012,Bungur,Kabupaten,Tapin,Kalimantan Selatan
1437,71153,Paring Guling,63.05.09.2011,Bungur,Kabupaten,Tapin,Kalimantan Selatan
1438,71153,Purut,63.05.09.2008,Bungur,Kabupaten,Tapin,Kalimantan Selatan
1439,71153,Rantau Bujur,63.05.09.2007,Bungur,Kabupaten,Tapin,Kalimantan Selatan
1440,71153,Shabah,63.05.09.2005,Bungur,Kabupaten,Tapin,Kalimantan Selatan
1441,71153,Timbung,63.05.09.2010,Bungur,Kabupaten,Tapin,Kalimantan Selatan
1442,70853,Bumi Harapan,63.01.11.2003,Bumi Makmur,Kabupaten,Tanah Laut,Kalimantan Selatan
1443,70853,Handil Babirik,63.01.11.2001,Bumi Makmur,Kabupaten,Tanah Laut,Kalimantan Selatan
1444,70853,Handil Birayang Atas,63.01.11.2008,Bumi Makmur,Kabupaten,Tanah Laut,Kalimantan Selatan
1445,70853,Handil Birayang Bawah,63.01.11.2009,Bumi Makmur,Kabupaten,Tanah Laut,Kalimantan Selatan
1446,70853,Handil Gayam,63.01.11.2007,Bumi Makmur,Kabupaten,Tanah Laut,Kalimantan Selatan
1447,70853,Handil Labuan (Amas),63.01.11.2011,Bumi Makmur,Kabupaten,Tanah Laut,Kalimantan Selatan
1448,70853,Handil Maluka,63.01.11.2010,Bumi Makmur,Kabupaten,Tanah Laut,Kalimantan Selatan
1449,70853,Handil Suruk,63.01.11.2006,Bumi Makmur,Kabupaten,Tanah Laut,Kalimantan Selatan
1450,70853,Kurau Utara,63.01.11.2002,Bumi Makmur,Kabupaten,Tanah Laut,Kalimantan Selatan
1451,70853,Pantai Harapan,63.01.11.2005,Bumi Makmur,Kabupaten,Tanah Laut,Kalimantan Selatan
1452,70853,Sei/Sungai Rasau,63.01.11.2004,Bumi Makmur,Kabupaten,Tanah Laut,Kalimantan Selatan
1453,71183,A Yani Pura,63.05.01.2006,Binuang,Kabupaten,Tapin,Kalimantan Selatan
1454,71183,Binuang,63.05.01.1001,Binuang,Kabupaten,Tapin,Kalimantan Selatan
1455,71183,Gunungbatu (Gunung Batu),63.05.01.2009,Binuang,Kabupaten,Tapin,Kalimantan Selatan
1456,71183,Karang Putih,63.05.01.1017,Binuang,Kabupaten,Tapin,Kalimantan Selatan
1457,71183,Mekarsari,63.05.01.2019,Binuang,Kabupaten,Tapin,Kalimantan Selatan
1458,71183,Padang Sari,63.05.01.2016,Binuang,Kabupaten,Tapin,Kalimantan Selatan
1459,71183,Pualam Sari,63.05.01.2008,Binuang,Kabupaten,Tapin,Kalimantan Selatan
1460,71183,Pulaupinang (Pulau Pinang),63.05.01.2007,Binuang,Kabupaten,Tapin,Kalimantan Selatan
1461,71183,Pulaupinang Utara (Pulau Pinang Utara),63.05.01.2012,Binuang,Kabupaten,Tapin,Kalimantan Selatan
1462,71183,Raya Belanti,63.05.01.1018,Binuang,Kabupaten,Tapin,Kalimantan Selatan
1463,71183,Tungkap,63.05.01.2003,Binuang,Kabupaten,Tapin,Kalimantan Selatan
1464,71572,Argo Mulyo,63.09.12.2007,Bintang Ara,Kabupaten,Tabalong,Kalimantan Selatan
1465,71572,Bintang Ara,63.09.12.2003,Bintang Ara,Kabupaten,Tabalong,Kalimantan Selatan
1466,71572,Bumi Makmur,63.09.12.2008,Bintang Ara,Kabupaten,Tabalong,Kalimantan Selatan
1467,71572,Burum,63.09.12.2004,Bintang Ara,Kabupaten,Tabalong,Kalimantan Selatan
1468,71572,Dambung Raya (Dambung / Raya),63.09.12.2006,Bintang Ara,Kabupaten,Tabalong,Kalimantan Selatan
1469,71572,Hegarmanah (Hegar Manah),63.09.12.2009,Bintang Ara,Kabupaten,Tabalong,Kalimantan Selatan
1470,71572,Panaan,63.09.12.2005,Bintang Ara,Kabupaten,Tabalong,Kalimantan Selatan
1471,71572,Usih,63.09.12.2002,Bintang Ara,Kabupaten,Tabalong,Kalimantan Selatan
1472,71572,Waling,63.09.12.2001,Bintang Ara,Kabupaten,Tabalong,Kalimantan Selatan
1473,70656,Babirik,63.03.13.2005,Beruntung Baru,Kabupaten,Banjar,Kalimantan Selatan
1474,70656,Handil Purai,63.03.13.2002,Beruntung Baru,Kabupaten,Banjar,Kalimantan Selatan
1475,70656,Haur Kuning,63.03.13.2008,Beruntung Baru,Kabupaten,Banjar,Kalimantan Selatan
1476,70656,Jambu Burung,63.03.13.2006,Beruntung Baru,Kabupaten,Banjar,Kalimantan Selatan
1477,70656,Jambu Raya,63.03.13.2009,Beruntung Baru,Kabupaten,Banjar,Kalimantan Selatan
1478,70656,Kampung Baru,63.03.13.2003,Beruntung Baru,Kabupaten,Banjar,Kalimantan Selatan
1479,70656,Lawahan,63.03.13.2004,Beruntung Baru,Kabupaten,Banjar,Kalimantan Selatan
1480,70656,Muara Halayung,63.03.13.2012,Beruntung Baru,Kabupaten,Banjar,Kalimantan Selatan
1481,70656,Pindahan Baru,63.03.13.2001,Beruntung Baru,Kabupaten,Banjar,Kalimantan Selatan
1482,70656,Rumpiang,63.03.13.2010,Beruntung Baru,Kabupaten,Banjar,Kalimantan Selatan
1483,70656,Salat Makmur (Selat Makmur),63.03.13.2011,Beruntung Baru,Kabupaten,Banjar,Kalimantan Selatan
1484,70656,Tambak Padi,63.03.13.2007,Beruntung Baru,Kabupaten,Banjar,Kalimantan Selatan
1485,70563,Bambangin,63.04.08.2004,Belawang,Kabupaten,Barito Kuala,Kalimantan Selatan
1486,70563,Belawang,63.04.08.2003,Belawang,Kabupaten,Barito Kuala,Kalimantan Selatan
1487,70563,Binaan Baru,63.04.08.2012,Belawang,Kabupaten,Barito Kuala,Kalimantan Selatan
1488,70563,Karang Buah,63.04.08.2011,Belawang,Kabupaten,Barito Kuala,Kalimantan Selatan
1489,70563,Karang Dukuh,63.04.08.2009,Belawang,Kabupaten,Barito Kuala,Kalimantan Selatan
1490,70563,Murung Keramat,63.04.08.2001,Belawang,Kabupaten,Barito Kuala,Kalimantan Selatan
1491,70563,Parimata,63.04.08.2008,Belawang,Kabupaten,Barito Kuala,Kalimantan Selatan
1492,70563,Patih Selera (Patih Salera),63.04.08.2010,Belawang,Kabupaten,Barito Kuala,Kalimantan Selatan
1493,70563,Rangga Surya,63.04.08.2013,Belawang,Kabupaten,Barito Kuala,Kalimantan Selatan
1494,70563,Samuda,63.04.08.2007,Belawang,Kabupaten,Barito Kuala,Kalimantan Selatan
1495,70563,Sei/Sungai Seluang,63.04.08.2002,Belawang,Kabupaten,Barito Kuala,Kalimantan Selatan
1496,70563,Sei/Sungai Seluang Pasar,63.04.08.2006,Belawang,Kabupaten,Barito Kuala,Kalimantan Selatan
1497,70563,Sukaramai,63.04.08.2005,Belawang,Kabupaten,Barito Kuala,Kalimantan Selatan
1498,71663,Bakung,63.11.04.2013,Batu Mandi,Kabupaten,Balangan,Kalimantan Selatan
1499,71663,Banua Hanyar,63.11.04.2012,Batu Mandi,Kabupaten,Balangan,Kalimantan Selatan
1500,71663,Batumandi (Batu Mandi),63.11.04.2005,Batu Mandi,Kabupaten,Balangan,Kalimantan Selatan
1501,71663,Bungur,63.11.04.2009,Batu Mandi,Kabupaten,Balangan,Kalimantan Selatan
1502,71663,Guha,63.11.04.2015,Batu Mandi,Kabupaten,Balangan,Kalimantan Selatan
1503,71663,Gunung Manau,63.11.04.2016,Batu Mandi,Kabupaten,Balangan,Kalimantan Selatan
1504,71663,Hampa Raya (Hamparaya),63.11.04.2017,Batu Mandi,Kabupaten,Balangan,Kalimantan Selatan
1505,71663,Karuh,63.11.04.2014,Batu Mandi,Kabupaten,Balangan,Kalimantan Selatan
1506,71663,Kasai,63.11.04.2018,Batu Mandi,Kabupaten,Balangan,Kalimantan Selatan
1507,71663,Lok Batu,63.11.04.2002,Batu Mandi,Kabupaten,Balangan,Kalimantan Selatan
1508,71663,Mampari,63.11.04.2008,Batu Mandi,Kabupaten,Balangan,Kalimantan Selatan
1509,71663,Mantimin,63.11.04.2007,Batu Mandi,Kabupaten,Balangan,Kalimantan Selatan
1510,71663,Munjung,63.11.04.2003,Batu Mandi,Kabupaten,Balangan,Kalimantan Selatan
1511,71663,Pelajau,63.11.04.2004,Batu Mandi,Kabupaten,Balangan,Kalimantan Selatan
1512,71663,Riwa,63.11.04.2006,Batu Mandi,Kabupaten,Balangan,Kalimantan Selatan
1513,71663,Tariwin,63.11.04.2001,Batu Mandi,Kabupaten,Balangan,Kalimantan Selatan
1514,71663,Teluk Mesjid,63.11.04.2010,Batu Mandi,Kabupaten,Balangan,Kalimantan Selatan
1515,71663,Timbun Tulang,63.11.04.2011,Batu Mandi,Kabupaten,Balangan,Kalimantan Selatan
1516,72271,Batulicin (Batu Licin),63.10.01.1007,Batu Licin (Batulicin),Kabupaten,Tanah Bumbu,Kalimantan Selatan
1517,72273,Danauindah (Danau Indah),63.10.01.2033,Batu Licin (Batulicin),Kabupaten,Tanah Bumbu,Kalimantan Selatan
1518,72214,Gunungtinggi,63.10.01.1028,Batu Licin (Batulicin),Kabupaten,Tanah Bumbu,Kalimantan Selatan
1519,72215,Kersik Putih,63.10.01.2006,Batu Licin (Batulicin),Kabupaten,Tanah Bumbu,Kalimantan Selatan
1520,72216,Maju Bersama,63.10.01.2030,Batu Licin (Batulicin),Kabupaten,Tanah Bumbu,Kalimantan Selatan
1521,72211,Maju Makmur,63.10.01.2029,Batu Licin (Batulicin),Kabupaten,Tanah Bumbu,Kalimantan Selatan
1522,72218,Polewali Marajae,63.10.01.2032,Batu Licin (Batulicin),Kabupaten,Tanah Bumbu,Kalimantan Selatan
1523,72211,Segumbang,63.10.01.2005,Batu Licin (Batulicin),Kabupaten,Tanah Bumbu,Kalimantan Selatan
1524,72217,Sukamaju,63.10.01.2031,Batu Licin (Batulicin),Kabupaten,Tanah Bumbu,Kalimantan Selatan
1525,71371,Aluan,63.07.02.2009,Batu Benawa,Kabupaten,Hulu Sungai Tengah,Kalimantan Selatan
1526,71371,Aluan Besar,63.07.02.2006,Batu Benawa,Kabupaten,Hulu Sungai Tengah,Kalimantan Selatan
1527,71371,Aluan Mati,63.07.02.2010,Batu Benawa,Kabupaten,Hulu Sungai Tengah,Kalimantan Selatan
1528,71371,Aluan Sumur,63.07.02.2005,Batu Benawa,Kabupaten,Hulu Sungai Tengah,Kalimantan Selatan
1529,71371,Bakti,63.07.02.2008,Batu Benawa,Kabupaten,Hulu Sungai Tengah,Kalimantan Selatan
1530,71371,Baru,63.07.02.2011,Batu Benawa,Kabupaten,Hulu Sungai Tengah,Kalimantan Selatan
1531,71371,Haliau,63.07.02.2015,Batu Benawa,Kabupaten,Hulu Sungai Tengah,Kalimantan Selatan
1532,71371,Kahakan,63.07.02.2004,Batu Benawa,Kabupaten,Hulu Sungai Tengah,Kalimantan Selatan
1533,71371,Kalibaru (Kali Baru),63.07.02.2003,Batu Benawa,Kabupaten,Hulu Sungai Tengah,Kalimantan Selatan
1534,71371,Layuh,63.07.02.2014,Batu Benawa,Kabupaten,Hulu Sungai Tengah,Kalimantan Selatan
1535,71371,Murung A,63.07.02.2001,Batu Benawa,Kabupaten,Hulu Sungai Tengah,Kalimantan Selatan
1536,71371,Pagat,63.07.02.2002,Batu Benawa,Kabupaten,Hulu Sungai Tengah,Kalimantan Selatan
1537,71371,Pantai Batung,63.07.02.2013,Batu Benawa,Kabupaten,Hulu Sungai Tengah,Kalimantan Selatan
1538,71371,Paya Besar,63.07.02.2007,Batu Benawa,Kabupaten,Hulu Sungai Tengah,Kalimantan Selatan
1539,70882,Ambawang,63.01.09.2006,Batu Ampar,Kabupaten,Tanah Laut,Kalimantan Selatan
1540,70882,Batu Ampar,63.01.09.2001,Batu Ampar,Kabupaten,Tanah Laut,Kalimantan Selatan
1541,70882,Bluru,63.01.09.2009,Batu Ampar,Kabupaten,Tanah Laut,Kalimantan Selatan
1542,70882,Damar Lima,63.01.09.2013,Batu Ampar,Kabupaten,Tanah Laut,Kalimantan Selatan
1543,70882,Damit,63.01.09.2007,Batu Ampar,Kabupaten,Tanah Laut,Kalimantan Selatan
1544,70882,Damit Hulu,63.01.09.2011,Batu Ampar,Kabupaten,Tanah Laut,Kalimantan Selatan
1545,70882,Durian Bungkuk,63.01.09.2005,Batu Ampar,Kabupaten,Tanah Laut,Kalimantan Selatan
1546,70882,Gunung Mas,63.01.09.2002,Batu Ampar,Kabupaten,Tanah Laut,Kalimantan Selatan
1547,70882,Gunung Melati,63.01.09.2008,Batu Ampar,Kabupaten,Tanah Laut,Kalimantan Selatan
1548,70882,Jilatan,63.01.09.2004,Batu Ampar,Kabupaten,Tanah Laut,Kalimantan Selatan
1549,70882,Jilatan Alur,63.01.09.2012,Batu Ampar,Kabupaten,Tanah Laut,Kalimantan Selatan
1550,70882,Pantai Linuh,63.01.09.2010,Batu Ampar,Kabupaten,Tanah Laut,Kalimantan Selatan
1551,70882,Tajau Mulya (Tajau Mulia),63.01.09.2003,Batu Ampar,Kabupaten,Tanah Laut,Kalimantan Selatan
1552,70882,Tajau Pecah,63.01.09.2014,Batu Ampar,Kabupaten,Tanah Laut,Kalimantan Selatan
1553,70852,Banua Raya (Benua Raya),63.01.05.2001,Bati Bati,Kabupaten,Tanah Laut,Kalimantan Selatan
1554,70852,Banyu Irang,63.01.05.2007,Bati Bati,Kabupaten,Tanah Laut,Kalimantan Selatan
1555,70852,Bati Bati,63.01.05.2002,Bati Bati,Kabupaten,Tanah Laut,Kalimantan Selatan
1556,70852,Bentok Darat,63.01.05.2006,Bati Bati,Kabupaten,Tanah Laut,Kalimantan Selatan
1557,70852,Bentok Kampung,63.01.05.2005,Bati Bati,Kabupaten,Tanah Laut,Kalimantan Selatan
1558,70852,Kait Kait,63.01.05.2013,Bati Bati,Kabupaten,Tanah Laut,Kalimantan Selatan
1559,70852,Kait-Kait Baru,63.01.05.2014,Bati Bati,Kabupaten,Tanah Laut,Kalimantan Selatan
1560,70852,Liang Anggang,63.01.05.2004,Bati Bati,Kabupaten,Tanah Laut,Kalimantan Selatan
1561,70852,Nusa Indah,63.01.05.2008,Bati Bati,Kabupaten,Tanah Laut,Kalimantan Selatan
1562,70852,Padang,63.01.05.2010,Bati Bati,Kabupaten,Tanah Laut,Kalimantan Selatan
1563,70852,Pandahan,63.01.05.2009,Bati Bati,Kabupaten,Tanah Laut,Kalimantan Selatan
1564,70852,Sambangan,63.01.05.2012,Bati Bati,Kabupaten,Tanah Laut,Kalimantan Selatan
1565,70852,Ujung,63.01.05.2003,Bati Bati,Kabupaten,Tanah Laut,Kalimantan Selatan
1566,70852,Ujung Baru,63.01.05.2011,Bati Bati,Kabupaten,Tanah Laut,Kalimantan Selatan
1567,71391,Awang,63.07.08.2018,Batang Alai Utara,Kabupaten,Hulu Sungai Tengah,Kalimantan Selatan
1568,71391,Awang Baru,63.07.08.2019,Batang Alai Utara,Kabupaten,Hulu Sungai Tengah,Kalimantan Selatan
1569,71391,Dangu,63.07.08.2010,Batang Alai Utara,Kabupaten,Hulu Sungai Tengah,Kalimantan Selatan
1570,71391,Hapingin,63.07.08.2009,Batang Alai Utara,Kabupaten,Hulu Sungai Tengah,Kalimantan Selatan
1571,71391,Haur Gading,63.07.08.2014,Batang Alai Utara,Kabupaten,Hulu Sungai Tengah,Kalimantan Selatan
1572,71391,Ilung,63.07.08.2003,Batang Alai Utara,Kabupaten,Hulu Sungai Tengah,Kalimantan Selatan
1573,71391,Ilung Pasar Lama,63.07.08.2021,Batang Alai Utara,Kabupaten,Hulu Sungai Tengah,Kalimantan Selatan
1574,71391,Ilung Tengah,63.07.08.2013,Batang Alai Utara,Kabupaten,Hulu Sungai Tengah,Kalimantan Selatan
1575,71391,Labunganak,63.07.08.2008,Batang Alai Utara,Kabupaten,Hulu Sungai Tengah,Kalimantan Selatan
1576,71391,Maringgit,63.07.08.2004,Batang Alai Utara,Kabupaten,Hulu Sungai Tengah,Kalimantan Selatan
1577,71391,Muara Rintis,63.07.08.2020,Batang Alai Utara,Kabupaten,Hulu Sungai Tengah,Kalimantan Selatan
1578,71391,Sumanggi,63.07.08.2002,Batang Alai Utara,Kabupaten,Hulu Sungai Tengah,Kalimantan Selatan
1579,71391,Sumanggi Semerang / Seberang,63.07.08.2001,Batang Alai Utara,Kabupaten,Hulu Sungai Tengah,Kalimantan Selatan
1580,71391,Telang,63.07.08.2005,Batang Alai Utara,Kabupaten,Hulu Sungai Tengah,Kalimantan Selatan
1581,71382,Aing Bantai,63.07.10.2009,Batang Alai Timur,Kabupaten,Hulu Sungai Tengah,Kalimantan Selatan
1582,71382,Atiran,63.07.10.2007,Batang Alai Timur,Kabupaten,Hulu Sungai Tengah,Kalimantan Selatan
1583,71382,Batu Perahu,63.07.10.2008,Batang Alai Timur,Kabupaten,Hulu Sungai Tengah,Kalimantan Selatan
1584,71382,Batu Tangga,63.07.10.2001,Batang Alai Timur,Kabupaten,Hulu Sungai Tengah,Kalimantan Selatan
1585,71382,Datar Batung,63.07.10.2011,Batang Alai Timur,Kabupaten,Hulu Sungai Tengah,Kalimantan Selatan
1586,71382,Hinas Kiri,63.07.10.2002,Batang Alai Timur,Kabupaten,Hulu Sungai Tengah,Kalimantan Selatan
1587,71382,Juhu,63.07.10.2010,Batang Alai Timur,Kabupaten,Hulu Sungai Tengah,Kalimantan Selatan
1588,71382,Muara Hungi,63.07.10.2006,Batang Alai Timur,Kabupaten,Hulu Sungai Tengah,Kalimantan Selatan
1589,71382,Nateh,63.07.10.2004,Batang Alai Timur,Kabupaten,Hulu Sungai Tengah,Kalimantan Selatan
1590,71382,Pembakulan,63.07.10.2003,Batang Alai Timur,Kabupaten,Hulu Sungai Tengah,Kalimantan Selatan
1591,71382,Tandilang,63.07.10.2005,Batang Alai Timur,Kabupaten,Hulu Sungai Tengah,Kalimantan Selatan
1592,71381,Anduhum,63.07.07.2017,Batang Alai Selatan,Kabupaten,Hulu Sungai Tengah,Kalimantan Selatan
1593,71381,Banua Rantau,63.07.07.2016,Batang Alai Selatan,Kabupaten,Hulu Sungai Tengah,Kalimantan Selatan
1594,71381,Birayang,63.07.07.1001,Batang Alai Selatan,Kabupaten,Hulu Sungai Tengah,Kalimantan Selatan
1595,71381,Birayang Surapati,63.07.07.2009,Batang Alai Selatan,Kabupaten,Hulu Sungai Tengah,Kalimantan Selatan
1596,71381,Birayang Timur,63.07.07.2014,Batang Alai Selatan,Kabupaten,Hulu Sungai Tengah,Kalimantan Selatan
1597,71381,Cukan Lipai,63.07.07.2008,Batang Alai Selatan,Kabupaten,Hulu Sungai Tengah,Kalimantan Selatan
1598,71381,Kapar,63.07.07.2003,Batang Alai Selatan,Kabupaten,Hulu Sungai Tengah,Kalimantan Selatan
1599,71381,Kias,63.07.07.2002,Batang Alai Selatan,Kabupaten,Hulu Sungai Tengah,Kalimantan Selatan
1600,71381,Labuhan,63.07.07.2013,Batang Alai Selatan,Kabupaten,Hulu Sungai Tengah,Kalimantan Selatan
1601,71381,Limbar,63.07.07.2005,Batang Alai Selatan,Kabupaten,Hulu Sungai Tengah,Kalimantan Selatan
1602,71381,Lok Basar (Lok Besar),63.07.07.2006,Batang Alai Selatan,Kabupaten,Hulu Sungai Tengah,Kalimantan Selatan
1603,71381,Lunjuk,63.07.07.2019,Batang Alai Selatan,Kabupaten,Hulu Sungai Tengah,Kalimantan Selatan
1604,71381,Mahela,63.07.07.2010,Batang Alai Selatan,Kabupaten,Hulu Sungai Tengah,Kalimantan Selatan
1605,71381,Paya,63.07.07.2007,Batang Alai Selatan,Kabupaten,Hulu Sungai Tengah,Kalimantan Selatan
1606,71381,Rangas,63.07.07.2011,Batang Alai Selatan,Kabupaten,Hulu Sungai Tengah,Kalimantan Selatan
1607,71381,Tanah Habang,63.07.07.2015,Batang Alai Selatan,Kabupaten,Hulu Sungai Tengah,Kalimantan Selatan
1608,71381,Tembuk Bahalang,63.07.07.2004,Batang Alai Selatan,Kabupaten,Hulu Sungai Tengah,Kalimantan Selatan
1609,71381,Wawai,63.07.07.2018,Batang Alai Selatan,Kabupaten,Hulu Sungai Tengah,Kalimantan Selatan
1610,71381,Wawai Gardu,63.07.07.2012,Batang Alai Selatan,Kabupaten,Hulu Sungai Tengah,Kalimantan Selatan
1611,70562,Bagagap,63.04.14.2005,Barambai,Kabupaten,Barito Kuala,Kalimantan Selatan
1612,70562,Barambai,63.04.14.2001,Barambai,Kabupaten,Barito Kuala,Kalimantan Selatan
1613,70562,Barambai Karya Tani,63.04.14.2006,Barambai,Kabupaten,Barito Kuala,Kalimantan Selatan
1614,70562,Barambai Kolam Kanan,63.04.14.2010,Barambai,Kabupaten,Barito Kuala,Kalimantan Selatan
1615,70562,Barambai Kolam Kiri,63.04.14.2009,Barambai,Kabupaten,Barito Kuala,Kalimantan Selatan
1616,70562,Barambai Kolam Kiri Dalam (Kolam Kiri Dalam),63.04.14.2011,Barambai,Kabupaten,Barito Kuala,Kalimantan Selatan
1617,70562,Handil Barabai,63.04.14.2004,Barambai,Kabupaten,Barito Kuala,Kalimantan Selatan
1618,70562,Karya Baru,63.04.14.2008,Barambai,Kabupaten,Barito Kuala,Kalimantan Selatan
1619,70562,Pendalaman,63.04.14.2003,Barambai,Kabupaten,Barito Kuala,Kalimantan Selatan
1620,70562,Pendalaman Baru,63.04.14.2007,Barambai,Kabupaten,Barito Kuala,Kalimantan Selatan
1621,70562,Sei/Sungai Kali,63.04.14.2002,Barambai,Kabupaten,Barito Kuala,Kalimantan Selatan
1622,71315,Awang Besar,63.07.06.2017,Barabai,Kabupaten,Hulu Sungai Tengah,Kalimantan Selatan
1623,71315,Ayuang,63.07.06.2015,Barabai,Kabupaten,Hulu Sungai Tengah,Kalimantan Selatan
1624,71315,Babai,63.07.06.2016,Barabai,Kabupaten,Hulu Sungai Tengah,Kalimantan Selatan
1625,71315,Bakapas,63.07.06.2018,Barabai,Kabupaten,Hulu Sungai Tengah,Kalimantan Selatan
1626,71315,Banua Binjai,63.07.06.2013,Barabai,Kabupaten,Hulu Sungai Tengah,Kalimantan Selatan
1627,71315,Banua Budi,63.07.06.2012,Barabai,Kabupaten,Hulu Sungai Tengah,Kalimantan Selatan
1628,71315,Banua Jingah,63.07.06.2014,Barabai,Kabupaten,Hulu Sungai Tengah,Kalimantan Selatan
1629,71314,Barabai Barat,63.07.06.1005,Barabai,Kabupaten,Hulu Sungai Tengah,Kalimantan Selatan
1630,71315,Barabai Darat,63.07.06.1001,Barabai,Kabupaten,Hulu Sungai Tengah,Kalimantan Selatan
1631,71311,Barabai Selatan,63.07.06.1003,Barabai,Kabupaten,Hulu Sungai Tengah,Kalimantan Selatan
1632,71312,Barabai Timur,63.07.06.1002,Barabai,Kabupaten,Hulu Sungai Tengah,Kalimantan Selatan
1633,71313,Barabai Utara,63.07.06.1004,Barabai,Kabupaten,Hulu Sungai Tengah,Kalimantan Selatan
1634,71315,Benawa Tengah,63.07.06.2009,Barabai,Kabupaten,Hulu Sungai Tengah,Kalimantan Selatan
1635,71315,Bukat,63.07.06.1006,Barabai,Kabupaten,Hulu Sungai Tengah,Kalimantan Selatan
1636,71315,Gambah,63.07.06.2007,Barabai,Kabupaten,Hulu Sungai Tengah,Kalimantan Selatan
1637,71315,Kayu Bawang,63.07.06.2008,Barabai,Kabupaten,Hulu Sungai Tengah,Kalimantan Selatan
1638,71315,Mandingin,63.07.06.2010,Barabai,Kabupaten,Hulu Sungai Tengah,Kalimantan Selatan
1639,71315,Pajukungan,63.07.06.2011,Barabai,Kabupaten,Hulu Sungai Tengah,Kalimantan Selatan
1640,71553,Bakiling Raya (Bangkiling Raya),63.09.01.2013,Banua Lawas,Kabupaten,Tabalong,Kalimantan Selatan
1641,71553,Bangkiling,63.09.01.2002,Banua Lawas,Kabupaten,Tabalong,Kalimantan Selatan
1642,71553,Banua Lawas,63.09.01.2006,Banua Lawas,Kabupaten,Tabalong,Kalimantan Selatan
1643,71553,Banua Rantau (Benua Rantau),63.09.01.2008,Banua Lawas,Kabupaten,Tabalong,Kalimantan Selatan
1644,71553,Batang Banyu,63.09.01.2010,Banua Lawas,Kabupaten,Tabalong,Kalimantan Selatan
1645,71553,Bungin,63.09.01.2012,Banua Lawas,Kabupaten,Tabalong,Kalimantan Selatan
1646,71553,Habau,63.09.01.2007,Banua Lawas,Kabupaten,Tabalong,Kalimantan Selatan
1647,71553,Habau Hulu,63.09.01.2011,Banua Lawas,Kabupaten,Tabalong,Kalimantan Selatan
1648,71553,Hapalah,63.09.01.2001,Banua Lawas,Kabupaten,Tabalong,Kalimantan Selatan
1649,71553,Hariang,63.09.01.2005,Banua Lawas,Kabupaten,Tabalong,Kalimantan Selatan
1650,71553,Pematang,63.09.01.2004,Banua Lawas,Kabupaten,Tabalong,Kalimantan Selatan
1651,71553,Purai,63.09.01.2009,Banua Lawas,Kabupaten,Tabalong,Kalimantan Selatan
1652,71553,Sei/Sungai Anyar,63.09.01.2015,Banua Lawas,Kabupaten,Tabalong,Kalimantan Selatan
1653,72167,Sei/Sungai Durian,63.09.01.2003,Banua Lawas,Kabupaten,Tabalong,Kalimantan Selatan
1654,71553,Talan,63.09.01.2014,Banua Lawas,Kabupaten,Tabalong,Kalimantan Selatan
1655,70126,Alalak Selatan,63.71.04.1003,Banjarmasin Utara,Kota,Banjarmasin,Kalimantan Selatan
1656,70126,Alalak Tengah,63.71.04.1001,Banjarmasin Utara,Kota,Banjarmasin,Kalimantan Selatan
1657,70125,Alalak Utara,63.71.04.1002,Banjarmasin Utara,Kota,Banjarmasin,Kalimantan Selatan
1658,70123,Antasan Kecil Timur,63.71.04.1008,Banjarmasin Utara,Kota,Banjarmasin,Kalimantan Selatan
1659,70127,Kuin Utara,63.71.04.1009,Banjarmasin Utara,Kota,Banjarmasin,Kalimantan Selatan
1660,70124,Pangeran,63.71.04.1007,Banjarmasin Utara,Kota,Banjarmasin,Kalimantan Selatan
1661,70121,Sei/Sungai Jingah,63.71.04.1004,Banjarmasin Utara,Kota,Banjarmasin,Kalimantan Selatan
1662,70123,Sei/Sungai Miai,63.71.04.1005,Banjarmasin Utara,Kota,Banjarmasin,Kalimantan Selatan
1663,70122,Sungai Andai,63.71.04.1010,Banjarmasin Utara,Kota,Banjarmasin,Kalimantan Selatan
1664,70122,Surgi Mufti,63.71.04.1006,Banjarmasin Utara,Kota,Banjarmasin,Kalimantan Selatan
1665,70239,Banua Anyar (Benua Anyar),63.71.02.1006,Banjarmasin Timur,Kota,Banjarmasin,Kalimantan Selatan
1666,70234,Karang Mekar,63.71.02.1003,Banjarmasin Timur,Kota,Banjarmasin,Kalimantan Selatan
1667,70235,Kebun Bunga,63.71.02.1002,Banjarmasin Timur,Kota,Banjarmasin,Kalimantan Selatan
1668,70236,Kuripan,63.71.02.1001,Banjarmasin Timur,Kota,Banjarmasin,Kalimantan Selatan
1669,70234,Pekapuran Raya,63.71.02.1008,Banjarmasin Timur,Kota,Banjarmasin,Kalimantan Selatan
1670,70236,Pemurus Luar,63.71.02.1009,Banjarmasin Timur,Kota,Banjarmasin,Kalimantan Selatan
1671,70237,Pengambangan,63.71.02.1007,Banjarmasin Timur,Kota,Banjarmasin,Kalimantan Selatan
1672,70236,Sei/Sungai Bilu,63.71.02.1004,Banjarmasin Timur,Kota,Banjarmasin,Kalimantan Selatan
1673,70238,Sei/Sungai Lulut,63.71.02.1005,Banjarmasin Timur,Kota,Banjarmasin,Kalimantan Selatan
1674,70114,Antasan Besar,63.71.05.1005,Banjarmasin Tengah,Kota,Banjarmasin,Kalimantan Selatan
1675,70231,Gadang,63.71.05.1008,Banjarmasin Tengah,Kota,Banjarmasin,Kalimantan Selatan
1676,70241,Kelayan Luar,63.71.05.1012,Banjarmasin Tengah,Kota,Banjarmasin,Kalimantan Selatan
1677,70111,Kertak Baru Ilir,63.71.05.1001,Banjarmasin Tengah,Kota,Banjarmasin,Kalimantan Selatan
1678,70111,Kertak Baru Ulu,63.71.05.1002,Banjarmasin Tengah,Kota,Banjarmasin,Kalimantan Selatan
1679,70112,Mawar,63.71.05.1003,Banjarmasin Tengah,Kota,Banjarmasin,Kalimantan Selatan
1680,70234,Melayu,63.71.05.1009,Banjarmasin Tengah,Kota,Banjarmasin,Kalimantan Selatan
1681,70115,Pasar Lama,63.71.05.1006,Banjarmasin Tengah,Kota,Banjarmasin,Kalimantan Selatan
1682,70235,Pekapuran Laut,63.71.05.1011,Banjarmasin Tengah,Kota,Banjarmasin,Kalimantan Selatan
1683,70231,Seberang Mesjid (Seberang Masjid),63.71.05.1007,Banjarmasin Tengah,Kota,Banjarmasin,Kalimantan Selatan
1684,70233,Sei/Sungai Baru,63.71.05.1010,Banjarmasin Tengah,Kota,Banjarmasin,Kalimantan Selatan
1685,70117,Teluk Dalam,63.71.05.1004,Banjarmasin Tengah,Kota,Banjarmasin,Kalimantan Selatan
1686,70245,Basirih Selatan,63.71.01.1012,Banjarmasin Selatan,Kota,Banjarmasin,Kalimantan Selatan
1687,70241,Kelayan Barat,63.71.01.1004,Banjarmasin Selatan,Kota,Banjarmasin,Kalimantan Selatan
1688,70242,Kelayan Dalam,63.71.01.1006,Banjarmasin Selatan,Kota,Banjarmasin,Kalimantan Selatan
1689,70246,Kelayan Selatan,63.71.01.1002,Banjarmasin Selatan,Kota,Banjarmasin,Kalimantan Selatan
1690,70242,Kelayan Tengah,63.71.01.1005,Banjarmasin Selatan,Kota,Banjarmasin,Kalimantan Selatan
1691,70247,Kelayan Timur,63.71.01.1008,Banjarmasin Selatan,Kota,Banjarmasin,Kalimantan Selatan
1692,70244,Mantuil,63.71.01.1001,Banjarmasin Selatan,Kota,Banjarmasin,Kalimantan Selatan
1693,70247,Murung Raya,63.71.01.1007,Banjarmasin Selatan,Kota,Banjarmasin,Kalimantan Selatan
1694,70243,Pekauman,63.71.01.1003,Banjarmasin Selatan,Kota,Banjarmasin,Kalimantan Selatan
1695,70249,Pemurus Baru,63.71.01.1011,Banjarmasin Selatan,Kota,Banjarmasin,Kalimantan Selatan
1696,70248,Pemurus Dalam,63.71.01.1010,Banjarmasin Selatan,Kota,Banjarmasin,Kalimantan Selatan
1697,70247,Tanjung Pagar,63.71.01.1009,Banjarmasin Selatan,Kota,Banjarmasin,Kalimantan Selatan
1698,70245,Basirih,63.71.03.1009,Banjarmasin Barat,Kota,Banjarmasin,Kalimantan Selatan
1699,70116,Belitung Selatan,63.71.03.1002,Banjarmasin Barat,Kota,Banjarmasin,Kalimantan Selatan
1700,70116,Belitung Utara,63.71.03.1001,Banjarmasin Barat,Kota,Banjarmasin,Kalimantan Selatan
1701,70129,Kuin Cerucuk,63.71.03.1008,Banjarmasin Barat,Kota,Banjarmasin,Kalimantan Selatan
1702,70128,Kuin Selatan,63.71.03.1007,Banjarmasin Barat,Kota,Banjarmasin,Kalimantan Selatan
1703,70118,Pelambuan,63.71.03.1003,Banjarmasin Barat,Kota,Banjarmasin,Kalimantan Selatan
1704,70119,Telaga Biru,63.71.03.1004,Banjarmasin Barat,Kota,Banjarmasin,Kalimantan Selatan
1705,70112,Telawang,63.71.03.1005,Banjarmasin Barat,Kota,Banjarmasin,Kalimantan Selatan
1706,70113,Teluk Tiram,63.71.03.1006,Banjarmasin Barat,Kota,Banjarmasin,Kalimantan Selatan
1707,70714,Komet,63.72.04.1003,Banjarbaru Utara (Banjar Baru Utara),Kota,Banjarbaru,Kalimantan Selatan
1708,70714,Loktabat Utara,63.72.04.1001,Banjarbaru Utara (Banjar Baru Utara),Kota,Banjarbaru,Kalimantan Selatan
1709,70714,Mentaos,63.72.04.1002,Banjarbaru Utara (Banjar Baru Utara),Kota,Banjarbaru,Kalimantan Selatan
1710,70714,Sei/Sungai Ulin,63.72.04.1004,Banjarbaru Utara (Banjar Baru Utara),Kota,Banjarbaru,Kalimantan Selatan
1711,70713,Guntung Paikat,63.72.05.1004,Banjarbaru Selatan (Banjar Baru Selatan),Kota,Banjarbaru,Kalimantan Selatan
1712,70714,Kemuning,63.72.05.1003,Banjarbaru Selatan (Banjar Baru Selatan),Kota,Banjarbaru,Kalimantan Selatan
1713,70714,Laktabat Selatan (Loktabat Selatan),63.72.05.1002,Banjarbaru Selatan (Banjar Baru Selatan),Kota,Banjarbaru,Kalimantan Selatan
1714,70714,Sei/Sungai Besar,63.72.05.1001,Banjarbaru Selatan (Banjar Baru Selatan),Kota,Banjarbaru,Kalimantan Selatan
1715,71416,Banjang,63.08.07.2001,Banjang,Kabupaten,Hulu Sungai Utara,Kalimantan Selatan
1716,71416,Baruh Tabing,63.08.07.2007,Banjang,Kabupaten,Hulu Sungai Utara,Kalimantan Selatan
1717,71416,Beringin/Baringin,63.08.07.2010,Banjang,Kabupaten,Hulu Sungai Utara,Kalimantan Selatan
1718,71416,Danau Terate/Terati,63.08.07.2005,Banjang,Kabupaten,Hulu Sungai Utara,Kalimantan Selatan
1719,71416,Garunggang,63.08.07.2006,Banjang,Kabupaten,Hulu Sungai Utara,Kalimantan Selatan
1720,71416,Kalintamui,63.08.07.2011,Banjang,Kabupaten,Hulu Sungai Utara,Kalimantan Selatan
1721,71416,Kaludan Besar,63.08.07.2018,Banjang,Kabupaten,Hulu Sungai Utara,Kalimantan Selatan
1722,71416,Kaludan Kecil,63.08.07.2017,Banjang,Kabupaten,Hulu Sungai Utara,Kalimantan Selatan
1723,71416,Karias Dalam,63.08.07.2015,Banjang,Kabupaten,Hulu Sungai Utara,Kalimantan Selatan
1724,71416,Lok Bangkai,63.08.07.2013,Banjang,Kabupaten,Hulu Sungai Utara,Kalimantan Selatan
1725,71416,Murung Padang,63.08.07.2008,Banjang,Kabupaten,Hulu Sungai Utara,Kalimantan Selatan
1726,71416,Palanjungan Sari,63.08.07.2012,Banjang,Kabupaten,Hulu Sungai Utara,Kalimantan Selatan
1727,71416,Pandulangan,63.08.07.2004,Banjang,Kabupaten,Hulu Sungai Utara,Kalimantan Selatan
1728,71416,Patarikan,63.08.07.2002,Banjang,Kabupaten,Hulu Sungai Utara,Kalimantan Selatan
1729,71416,Pawalutan,63.08.07.2019,Banjang,Kabupaten,Hulu Sungai Utara,Kalimantan Selatan
1730,71416,Pulau Damar,63.08.07.2020,Banjang,Kabupaten,Hulu Sungai Utara,Kalimantan Selatan
1731,71416,Rantau Bujur,63.08.07.2016,Banjang,Kabupaten,Hulu Sungai Utara,Kalimantan Selatan
1732,71416,Sei/Sungai Bahadangan,63.08.07.2014,Banjang,Kabupaten,Hulu Sungai Utara,Kalimantan Selatan
1733,71416,Teluk Buluh,63.08.07.2003,Banjang,Kabupaten,Hulu Sungai Utara,Kalimantan Selatan
1734,71416,Teluk Sarikat,63.08.07.2009,Banjang,Kabupaten,Hulu Sungai Utara,Kalimantan Selatan
1735,70513,Bahalayung,63.04.10.2008,Bakumpai,Kabupaten,Barito Kuala,Kalimantan Selatan
1736,70513,Balukung,63.04.10.2005,Bakumpai,Kabupaten,Barito Kuala,Kalimantan Selatan
1737,70513,Banitan,63.04.10.2006,Bakumpai,Kabupaten,Barito Kuala,Kalimantan Selatan
1738,70513,Banua Anyar (Benua Anyar),63.04.10.2002,Bakumpai,Kabupaten,Barito Kuala,Kalimantan Selatan
1739,70513,Batik,63.04.10.2007,Bakumpai,Kabupaten,Barito Kuala,Kalimantan Selatan
1740,70512,Lepasan,63.04.10.1001,Bakumpai,Kabupaten,Barito Kuala,Kalimantan Selatan
1741,70513,Murung Raya,63.04.10.2003,Bakumpai,Kabupaten,Barito Kuala,Kalimantan Selatan
1742,70513,Palingkau,63.04.10.2004,Bakumpai,Kabupaten,Barito Kuala,Kalimantan Selatan
1743,70513,Sungai Selirik (Sei / Sungai Lirik),63.04.10.2009,Bakumpai,Kabupaten,Barito Kuala,Kalimantan Selatan
1744,71152,Bakarangan,63.05.07.2002,Bakarangan,Kabupaten,Tapin,Kalimantan Selatan
1745,71152,Bundung,63.05.07.2006,Bakarangan,Kabupaten,Tapin,Kalimantan Selatan
1746,71152,Gadung,63.05.07.2005,Bakarangan,Kabupaten,Tapin,Kalimantan Selatan
1747,71152,Gadung Keramat (Gadung Karamat),63.05.07.2009,Bakarangan,Kabupaten,Tapin,Kalimantan Selatan
1748,71152,Ketapang,63.05.07.2011,Bakarangan,Kabupaten,Tapin,Kalimantan Selatan
1749,71152,Masta,63.05.07.2010,Bakarangan,Kabupaten,Tapin,Kalimantan Selatan
1750,71152,Parigi,63.05.07.2003,Bakarangan,Kabupaten,Tapin,Kalimantan Selatan
1751,71152,Parigi Kecil,63.05.07.2001,Bakarangan,Kabupaten,Tapin,Kalimantan Selatan
1752,71152,Paul,63.05.07.2004,Bakarangan,Kabupaten,Tapin,Kalimantan Selatan
1753,71152,Tangkawang,63.05.07.2007,Bakarangan,Kabupaten,Tapin,Kalimantan Selatan
1754,71152,Tangkawang Baru,63.05.07.2012,Bakarangan,Kabupaten,Tapin,Kalimantan Selatan
1755,71152,Waringin,63.05.07.2008,Bakarangan,Kabupaten,Tapin,Kalimantan Selatan
1756,70815,Bajuin,63.01.10.2001,Bajuin,Kabupaten,Tanah Laut,Kalimantan Selatan
1757,70815,Galam,63.01.10.2005,Bajuin,Kabupaten,Tanah Laut,Kalimantan Selatan
1758,70815,Ketapang,63.01.10.2003,Bajuin,Kabupaten,Tanah Laut,Kalimantan Selatan
1759,70815,Kunyit,63.01.10.2007,Bajuin,Kabupaten,Tanah Laut,Kalimantan Selatan
1760,70815,Pemalongan (Pamalungan / Pamalongan),63.01.10.2006,Bajuin,Kabupaten,Tanah Laut,Kalimantan Selatan
1761,70815,Sei/Sungai Bakar,63.01.10.2002,Bajuin,Kabupaten,Tanah Laut,Kalimantan Selatan
1762,70815,Tanjung,63.01.10.2009,Bajuin,Kabupaten,Tanah Laut,Kalimantan Selatan
1763,70815,Tebing Siring,63.01.10.2008,Bajuin,Kabupaten,Tanah Laut,Kalimantan Selatan
1764,70815,Tirta Jaya,63.01.10.2004,Bajuin,Kabupaten,Tanah Laut,Kalimantan Selatan
1765,71454,Babirik Hilir,63.08.02.2001,Babirik,Kabupaten,Hulu Sungai Utara,Kalimantan Selatan
1766,71454,Babirik Hulu,63.08.02.2002,Babirik,Kabupaten,Hulu Sungai Utara,Kalimantan Selatan
1767,71454,Hambuku Baru,63.08.02.2015,Babirik,Kabupaten,Hulu Sungai Utara,Kalimantan Selatan
1768,71454,Hambuku Hilir,63.08.02.2004,Babirik,Kabupaten,Hulu Sungai Utara,Kalimantan Selatan
1769,71454,Hambuku Lima,63.08.02.2016,Babirik,Kabupaten,Hulu Sungai Utara,Kalimantan Selatan
1770,71454,Kalumpang Dalam,63.08.02.2010,Babirik,Kabupaten,Hulu Sungai Utara,Kalimantan Selatan
1771,71454,Kalumpang Luar,63.08.02.2018,Babirik,Kabupaten,Hulu Sungai Utara,Kalimantan Selatan
1772,71454,Murung Kupang,63.08.02.2007,Babirik,Kabupaten,Hulu Sungai Utara,Kalimantan Selatan
1773,71454,Murung Panti Hilir,63.08.02.2006,Babirik,Kabupaten,Hulu Sungai Utara,Kalimantan Selatan
1774,71454,Murung Panti Hulu,63.08.02.2005,Babirik,Kabupaten,Hulu Sungai Utara,Kalimantan Selatan
1775,71454,Pajukungan Hilir,63.08.02.2009,Babirik,Kabupaten,Hulu Sungai Utara,Kalimantan Selatan
1776,71454,Pajukungan Hulu,63.08.02.2021,Babirik,Kabupaten,Hulu Sungai Utara,Kalimantan Selatan
1777,71454,Parupukan,63.08.02.2011,Babirik,Kabupaten,Hulu Sungai Utara,Kalimantan Selatan
1778,71454,Sungai Dalam,63.08.02.2014,Babirik,Kabupaten,Hulu Sungai Utara,Kalimantan Selatan
1779,71454,Sungai Durait Hilir,63.08.02.2003,Babirik,Kabupaten,Hulu Sungai Utara,Kalimantan Selatan
1780,71454,Sungai Durait Hulu,63.08.02.2013,Babirik,Kabupaten,Hulu Sungai Utara,Kalimantan Selatan
1781,71454,Sungai Durait Tengah,63.08.02.2020,Babirik,Kabupaten,Hulu Sungai Utara,Kalimantan Selatan
1782,71454,Sungai Jamjam,63.08.02.2017,Babirik,Kabupaten,Hulu Sungai Utara,Kalimantan Selatan
1783,71454,Sungai Luang Hilir,63.08.02.2008,Babirik,Kabupaten,Hulu Sungai Utara,Kalimantan Selatan
1784,71454,Sungai Luang Hulu,63.08.02.2012,Babirik,Kabupaten,Hulu Sungai Utara,Kalimantan Selatan
1785,71454,Sungai Nyiur,63.08.02.2023,Babirik,Kabupaten,Hulu Sungai Utara,Kalimantan Selatan
1786,71454,Sungai Papuyu,63.08.02.2022,Babirik,Kabupaten,Hulu Sungai Utara,Kalimantan Selatan
1787,71454,Teluk Limbung,63.08.02.2019,Babirik,Kabupaten,Hulu Sungai Utara,Kalimantan Selatan
1788,71664,Ambakiang (Ambakiyang),63.11.03.2031,Awayan,Kabupaten,Balangan,Kalimantan Selatan
1789,71664,Awayan,63.11.03.2007,Awayan,Kabupaten,Balangan,Kalimantan Selatan
1790,71664,Awayan Hilir,63.11.03.2020,Awayan,Kabupaten,Balangan,Kalimantan Selatan
1791,71664,Badalungga,63.11.03.2009,Awayan,Kabupaten,Balangan,Kalimantan Selatan
1792,71664,Badalungga Hilir,63.11.03.2024,Awayan,Kabupaten,Balangan,Kalimantan Selatan
1793,71664,Baramban,63.11.03.2029,Awayan,Kabupaten,Balangan,Kalimantan Selatan
1794,71664,Baru,63.11.03.2018,Awayan,Kabupaten,Balangan,Kalimantan Selatan
1795,71664,Bihara,63.11.03.2004,Awayan,Kabupaten,Balangan,Kalimantan Selatan
1796,71664,Bihara Hilir,63.11.03.2016,Awayan,Kabupaten,Balangan,Kalimantan Selatan
1797,71664,Kedondong,63.11.03.2027,Awayan,Kabupaten,Balangan,Kalimantan Selatan
1798,71664,Merah,63.11.03.2006,Awayan,Kabupaten,Balangan,Kalimantan Selatan
1799,71664,Muara Jaya,63.11.03.2014,Awayan,Kabupaten,Balangan,Kalimantan Selatan
1800,71664,Nungka,63.11.03.2025,Awayan,Kabupaten,Balangan,Kalimantan Selatan
1801,71664,Pematang,63.11.03.2005,Awayan,Kabupaten,Balangan,Kalimantan Selatan
1802,71664,Piyait,63.11.03.2032,Awayan,Kabupaten,Balangan,Kalimantan Selatan
1803,71664,Pudak,63.11.03.2008,Awayan,Kabupaten,Balangan,Kalimantan Selatan
1804,71664,Pulantan,63.11.03.2012,Awayan,Kabupaten,Balangan,Kalimantan Selatan
1805,71664,Putat Basiun,63.11.03.2021,Awayan,Kabupaten,Balangan,Kalimantan Selatan
1806,71664,Sei/Sungai Pumpung,63.11.03.2022,Awayan,Kabupaten,Balangan,Kalimantan Selatan
1807,71664,Sikontan,63.11.03.2011,Awayan,Kabupaten,Balangan,Kalimantan Selatan
1808,71664,Tangalin,63.11.03.2026,Awayan,Kabupaten,Balangan,Kalimantan Selatan
1809,71664,Tundakan,63.11.03.2010,Awayan,Kabupaten,Balangan,Kalimantan Selatan
1810,71664,Tundi,63.11.03.2013,Awayan,Kabupaten,Balangan,Kalimantan Selatan
1811,70670,Astambul Kota (Astambul),63.03.07.2009,Astambul,Kabupaten,Banjar,Kalimantan Selatan
1812,70670,Astambul Seberang,63.03.07.2010,Astambul,Kabupaten,Banjar,Kalimantan Selatan
1813,70670,Benua Anyar Danau Salak,63.03.07.2020,Astambul,Kabupaten,Banjar,Kalimantan Selatan
1814,70670,Benua Anyar Sungai Tuan,63.03.07.2012,Astambul,Kabupaten,Banjar,Kalimantan Selatan
1815,70670,Danau Salak,63.03.07.2004,Astambul,Kabupaten,Banjar,Kalimantan Selatan
1816,70670,Jati Baru (Jati),63.03.07.2002,Astambul,Kabupaten,Banjar,Kalimantan Selatan
1817,70670,Kaliukan,63.03.07.2006,Astambul,Kabupaten,Banjar,Kalimantan Selatan
1818,70670,Kelampaian Ilir,63.03.07.2013,Astambul,Kabupaten,Banjar,Kalimantan Selatan
1819,70670,Kelampaian Tengah,63.03.07.2018,Astambul,Kabupaten,Banjar,Kalimantan Selatan
1820,70670,Kelampaian Ulu (Kalampayan Ulu),63.03.07.2014,Astambul,Kabupaten,Banjar,Kalimantan Selatan
1821,70670,Limamar,63.03.07.2015,Astambul,Kabupaten,Banjar,Kalimantan Selatan
1822,70670,Lok Gabang (Lokgabang),63.03.07.2016,Astambul,Kabupaten,Banjar,Kalimantan Selatan
1823,70670,Minggu Raya (Munggu Raya),63.03.07.2022,Astambul,Kabupaten,Banjar,Kalimantan Selatan
1824,70670,Pasar Jati,63.03.07.2003,Astambul,Kabupaten,Banjar,Kalimantan Selatan
1825,70670,Pematang Hambawang,63.03.07.2017,Astambul,Kabupaten,Banjar,Kalimantan Selatan
1826,70670,Pingaran (Pingaran Ilir),63.03.07.2001,Astambul,Kabupaten,Banjar,Kalimantan Selatan
1827,70670,Pingaran Ulu,63.03.07.2008,Astambul,Kabupaten,Banjar,Kalimantan Selatan
1828,70670,Sei/Sungai Alat,63.03.07.2007,Astambul,Kabupaten,Banjar,Kalimantan Selatan
1829,70670,Sei/Sungai Tuan Ilir,63.03.07.2021,Astambul,Kabupaten,Banjar,Kalimantan Selatan
1830,70670,Sei/Sungai Tuan Ulu,63.03.07.2011,Astambul,Kabupaten,Banjar,Kalimantan Selatan
1831,70670,Tambak Danau,63.03.07.2005,Astambul,Kabupaten,Banjar,Kalimantan Selatan
1832,70670,Tambangan,63.03.07.2019,Astambul,Kabupaten,Banjar,Kalimantan Selatan
1833,70671,Apuai,63.03.11.2005,Aranio,Kabupaten,Banjar,Kalimantan Selatan
1834,70671,Aranio,63.03.11.2011,Aranio,Kabupaten,Banjar,Kalimantan Selatan
1835,70671,Artain,63.03.11.2007,Aranio,Kabupaten,Banjar,Kalimantan Selatan
1836,70671,Belangian,63.03.11.2010,Aranio,Kabupaten,Banjar,Kalimantan Selatan
1837,70671,Benua Riam,63.03.11.2003,Aranio,Kabupaten,Banjar,Kalimantan Selatan
1838,70671,Bunglai,63.03.11.2004,Aranio,Kabupaten,Banjar,Kalimantan Selatan
1839,70671,Kala'an (Kalaan),63.03.11.2002,Aranio,Kabupaten,Banjar,Kalimantan Selatan
1840,70671,Pa'au (Paau),63.03.11.2012,Aranio,Kabupaten,Banjar,Kalimantan Selatan
1841,70671,Rantau Balai,63.03.11.2008,Aranio,Kabupaten,Banjar,Kalimantan Selatan
1842,70671,Rantau Bujur,63.03.11.2006,Aranio,Kabupaten,Banjar,Kalimantan Selatan
1843,70671,Tiwingan (Tiwingan Lama),63.03.11.2001,Aranio,Kabupaten,Banjar,Kalimantan Selatan
1844,70671,Tiwingan Baru,63.03.11.2009,Aranio,Kabupaten,Banjar,Kalimantan Selatan
1845,70565,Andaman,63.04.03.2001,Anjir Pasar,Kabupaten,Barito Kuala,Kalimantan Selatan
1846,70565,Andaman II,63.04.03.2008,Anjir Pasar,Kabupaten,Barito Kuala,Kalimantan Selatan
1847,70565,Anjir Pasar Kota,63.04.03.2003,Anjir Pasar,Kabupaten,Barito Kuala,Kalimantan Selatan
1848,70565,Anjir Pasar Kota II,63.04.03.2007,Anjir Pasar,Kabupaten,Barito Kuala,Kalimantan Selatan
1849,70565,Anjir Pasar Lama,63.04.03.2011,Anjir Pasar,Kabupaten,Barito Kuala,Kalimantan Selatan
1850,70565,Anjir Seberang Pasar I,63.04.03.2010,Anjir Pasar,Kabupaten,Barito Kuala,Kalimantan Selatan
1851,70565,Anjir Seberang Pasar II,63.04.03.2009,Anjir Pasar,Kabupaten,Barito Kuala,Kalimantan Selatan
1852,70565,Banyiur,63.04.03.2004,Anjir Pasar,Kabupaten,Barito Kuala,Kalimantan Selatan
1853,70565,Barunai Baru,63.04.03.2014,Anjir Pasar,Kabupaten,Barito Kuala,Kalimantan Selatan
1854,70565,Danau Karya,63.04.03.2015,Anjir Pasar,Kabupaten,Barito Kuala,Kalimantan Selatan
1855,70565,Gandaraya,63.04.03.2005,Anjir Pasar,Kabupaten,Barito Kuala,Kalimantan Selatan
1856,70565,Gandaria,63.04.03.2006,Anjir Pasar,Kabupaten,Barito Kuala,Kalimantan Selatan
1857,70565,Hilir Mesjid,63.04.03.2002,Anjir Pasar,Kabupaten,Barito Kuala,Kalimantan Selatan
1858,70565,Mentaren,63.04.03.2013,Anjir Pasar,Kabupaten,Barito Kuala,Kalimantan Selatan
1859,70565,Pandan Sari,63.04.03.2012,Anjir Pasar,Kabupaten,Barito Kuala,Kalimantan Selatan
1860,70564,Anjir Muara Kota,63.04.04.2002,Anjir Muara,Kabupaten,Barito Kuala,Kalimantan Selatan
1861,70564,Anjir Muara Kota Tengah,63.04.04.2004,Anjir Muara,Kabupaten,Barito Kuala,Kalimantan Selatan
1862,70564,Anjir Muara Lama,63.04.04.2007,Anjir Muara,Kabupaten,Barito Kuala,Kalimantan Selatan
1863,70564,Anjir Serapat Baru,63.04.04.2006,Anjir Muara,Kabupaten,Barito Kuala,Kalimantan Selatan
1864,70564,Anjir Serapat Baru I,63.04.04.2009,Anjir Muara,Kabupaten,Barito Kuala,Kalimantan Selatan
1865,70564,Anjir Serapat Lama,63.04.04.2005,Anjir Muara,Kabupaten,Barito Kuala,Kalimantan Selatan
1866,70564,Anjir Serapat Muara,63.04.04.2001,Anjir Muara,Kabupaten,Barito Kuala,Kalimantan Selatan
1867,70564,Anjir Serapat Muara I,63.04.04.2012,Anjir Muara,Kabupaten,Barito Kuala,Kalimantan Selatan
1868,70564,Beringin Jaya,63.04.04.2015,Anjir Muara,Kabupaten,Barito Kuala,Kalimantan Selatan
1869,70564,Marabahan Baru,63.04.04.2014,Anjir Muara,Kabupaten,Barito Kuala,Kalimantan Selatan
1870,70564,Patih Muhur,63.04.04.2003,Anjir Muara,Kabupaten,Barito Kuala,Kalimantan Selatan
1871,70564,Patih Muhur Baru,63.04.04.2010,Anjir Muara,Kabupaten,Barito Kuala,Kalimantan Selatan
1872,70564,Sei/Sungai Punggu,63.04.04.2008,Anjir Muara,Kabupaten,Barito Kuala,Kalimantan Selatan
1873,70564,Sei/Sungai Punggu Baru,63.04.04.2011,Anjir Muara,Kabupaten,Barito Kuala,Kalimantan Selatan
1874,70564,Sepakat Barsama (Sepakat Bersama),63.04.04.2013,Anjir Muara,Kabupaten,Barito Kuala,Kalimantan Selatan
1875,72275,Angsana,63.10.09.2005,Angsana,Kabupaten,Tanah Bumbu,Kalimantan Selatan
1876,72275,Banjar Sari,63.10.09.2006,Angsana,Kabupaten,Tanah Bumbu,Kalimantan Selatan
1877,72275,Bayan Sari,63.10.09.2007,Angsana,Kabupaten,Tanah Bumbu,Kalimantan Selatan
1878,72275,Bunati,63.10.09.2001,Angsana,Kabupaten,Tanah Bumbu,Kalimantan Selatan
1879,72275,Karang Indah,63.10.09.2004,Angsana,Kabupaten,Tanah Bumbu,Kalimantan Selatan
1880,72275,Makmur,63.10.09.2008,Angsana,Kabupaten,Tanah Bumbu,Kalimantan Selatan
1881,72275,Mekar Jaya,63.10.09.2009,Angsana,Kabupaten,Tanah Bumbu,Kalimantan Selatan
1882,72275,Purwodadi,63.10.09.2002,Angsana,Kabupaten,Tanah Bumbu,Kalimantan Selatan
1883,72275,Sumber Baru,63.10.09.2003,Angsana,Kabupaten,Tanah Bumbu,Kalimantan Selatan
1884,71291,Angkinang,63.06.04.2005,Angkinang,Kabupaten,Hulu Sungai Selatan,Kalimantan Selatan
1885,71291,Angkinang Selatan,63.06.04.2007,Angkinang,Kabupaten,Hulu Sungai Selatan,Kalimantan Selatan
1886,71291,Bakarung,63.06.04.2011,Angkinang,Kabupaten,Hulu Sungai Selatan,Kalimantan Selatan
1887,71291,Bamban,63.06.04.2002,Angkinang,Kabupaten,Hulu Sungai Selatan,Kalimantan Selatan
1888,71291,Bamban Selatan,63.06.04.2003,Angkinang,Kabupaten,Hulu Sungai Selatan,Kalimantan Selatan
1889,71291,Bamban Utara,63.06.04.2001,Angkinang,Kabupaten,Hulu Sungai Selatan,Kalimantan Selatan
1890,71291,Kayu Abang,63.06.04.2004,Angkinang,Kabupaten,Hulu Sungai Selatan,Kalimantan Selatan
1891,71291,Taniran Kubah,63.06.04.2009,Angkinang,Kabupaten,Hulu Sungai Selatan,Kalimantan Selatan
1892,71291,Taniran Selatan,63.06.04.2010,Angkinang,Kabupaten,Hulu Sungai Selatan,Kalimantan Selatan
1893,71291,Tawia,63.06.04.2008,Angkinang,Kabupaten,Hulu Sungai Selatan,Kalimantan Selatan
1894,71291,Telaga Sili Sili,63.06.04.2006,Angkinang,Kabupaten,Hulu Sungai Selatan,Kalimantan Selatan
1895,71471,Air Tawar,63.08.06.2035,Amuntai Utara,Kabupaten,Hulu Sungai Utara,Kalimantan Selatan
1896,71471,Cakeru (Cakru),63.08.06.2027,Amuntai Utara,Kabupaten,Hulu Sungai Utara,Kalimantan Selatan
1897,71471,Guntung,63.08.06.2009,Amuntai Utara,Kabupaten,Hulu Sungai Utara,Kalimantan Selatan
1898,71471,Kamayahan,63.08.06.2008,Amuntai Utara,Kabupaten,Hulu Sungai Utara,Kalimantan Selatan
1899,71471,Kuangan,63.08.06.2030,Amuntai Utara,Kabupaten,Hulu Sungai Utara,Kalimantan Selatan
1900,71471,Muara Baruh,63.08.06.2010,Amuntai Utara,Kabupaten,Hulu Sungai Utara,Kalimantan Selatan
1901,71471,Murung Karangan,63.08.06.2007,Amuntai Utara,Kabupaten,Hulu Sungai Utara,Kalimantan Selatan
1902,71471,Padang Basar (Padang Basar Hulu),63.08.06.2006,Amuntai Utara,Kabupaten,Hulu Sungai Utara,Kalimantan Selatan
1903,71471,Padang Basar Hilir,63.08.06.2033,Amuntai Utara,Kabupaten,Hulu Sungai Utara,Kalimantan Selatan
1904,71471,Padang Luar,63.08.06.2021,Amuntai Utara,Kabupaten,Hulu Sungai Utara,Kalimantan Selatan
1905,71471,Pakacangan,63.08.06.2004,Amuntai Utara,Kabupaten,Hulu Sungai Utara,Kalimantan Selatan
1906,71471,Pakapuran,63.08.06.2003,Amuntai Utara,Kabupaten,Hulu Sungai Utara,Kalimantan Selatan
1907,71471,Pamintangan,63.08.06.2041,Amuntai Utara,Kabupaten,Hulu Sungai Utara,Kalimantan Selatan
1908,71471,Panangian,63.08.06.2037,Amuntai Utara,Kabupaten,Hulu Sungai Utara,Kalimantan Selatan
1909,71471,Panangkalaan,63.08.06.2005,Amuntai Utara,Kabupaten,Hulu Sungai Utara,Kalimantan Selatan
1910,71471,Panangkalaan Hulu,63.08.06.2026,Amuntai Utara,Kabupaten,Hulu Sungai Utara,Kalimantan Selatan
1911,71471,Pandawan (Pandawanan),63.08.06.2044,Amuntai Utara,Kabupaten,Hulu Sungai Utara,Kalimantan Selatan
1912,71471,Panyaungan,63.08.06.2029,Amuntai Utara,Kabupaten,Hulu Sungai Utara,Kalimantan Selatan
1913,71471,Pimping,63.08.06.2020,Amuntai Utara,Kabupaten,Hulu Sungai Utara,Kalimantan Selatan
1914,71471,Sei/Sungai Turak,63.08.06.2012,Amuntai Utara,Kabupaten,Hulu Sungai Utara,Kalimantan Selatan
1915,71471,Sei/Sungai Turak Dalam,63.08.06.2028,Amuntai Utara,Kabupaten,Hulu Sungai Utara,Kalimantan Selatan
1916,71471,Tabalong Mati,63.08.06.2013,Amuntai Utara,Kabupaten,Hulu Sungai Utara,Kalimantan Selatan
1917,71471,Tabing Liring (Tabing Lering),63.08.06.2032,Amuntai Utara,Kabupaten,Hulu Sungai Utara,Kalimantan Selatan
1918,71471,Tayur,63.08.06.2023,Amuntai Utara,Kabupaten,Hulu Sungai Utara,Kalimantan Selatan
1919,71471,Telaga Bamban,63.08.06.2034,Amuntai Utara,Kabupaten,Hulu Sungai Utara,Kalimantan Selatan
1920,71471,Teluk Daun,63.08.06.2011,Amuntai Utara,Kabupaten,Hulu Sungai Utara,Kalimantan Selatan
1921,71419,Antasari,63.08.05.1001,Amuntai Tengah,Kabupaten,Hulu Sungai Utara,Kalimantan Selatan
1922,71419,Danau Cermin (Danau Caramin),63.08.05.2029,Amuntai Tengah,Kabupaten,Hulu Sungai Utara,Kalimantan Selatan
1923,71419,Datu Kuning,63.08.05.2026,Amuntai Tengah,Kabupaten,Hulu Sungai Utara,Kalimantan Selatan
1924,71419,Harus,63.08.05.2013,Amuntai Tengah,Kabupaten,Hulu Sungai Utara,Kalimantan Selatan
1925,71419,Harusan,63.08.05.2023,Amuntai Tengah,Kabupaten,Hulu Sungai Utara,Kalimantan Selatan
1926,71412,Hulu Pasar,63.08.05.2018,Amuntai Tengah,Kabupaten,Hulu Sungai Utara,Kalimantan Selatan
1927,71419,Kandang Halang,63.08.05.2007,Amuntai Tengah,Kabupaten,Hulu Sungai Utara,Kalimantan Selatan
1928,71419,Kebun Sari,63.08.05.1003,Amuntai Tengah,Kabupaten,Hulu Sungai Utara,Kalimantan Selatan
1929,71419,Kembang Kuning,63.08.05.2025,Amuntai Tengah,Kabupaten,Hulu Sungai Utara,Kalimantan Selatan
1930,71419,Kota Raden Hilir,63.08.05.2019,Amuntai Tengah,Kabupaten,Hulu Sungai Utara,Kalimantan Selatan
1931,71419,Kota Raden Hulu,63.08.05.2009,Amuntai Tengah,Kabupaten,Hulu Sungai Utara,Kalimantan Selatan
1932,71419,Mawar Sari,63.08.05.2028,Amuntai Tengah,Kabupaten,Hulu Sungai Utara,Kalimantan Selatan
1933,71419,Muara Tapus,63.08.05.2021,Amuntai Tengah,Kabupaten,Hulu Sungai Utara,Kalimantan Selatan
1934,71414,Murung Sari,63.08.05.1002,Amuntai Tengah,Kabupaten,Hulu Sungai Utara,Kalimantan Selatan
1935,71419,Palampitan Hilir,63.08.05.2022,Amuntai Tengah,Kabupaten,Hulu Sungai Utara,Kalimantan Selatan
1936,71419,Palampitan Hulu,63.08.05.2012,Amuntai Tengah,Kabupaten,Hulu Sungai Utara,Kalimantan Selatan
1937,71418,Paliwara,63.08.05.1004,Amuntai Tengah,Kabupaten,Hulu Sungai Utara,Kalimantan Selatan
1938,71419,Pasar Senin,63.08.05.2008,Amuntai Tengah,Kabupaten,Hulu Sungai Utara,Kalimantan Selatan
1939,71419,Pinang Habang,63.08.05.2017,Amuntai Tengah,Kabupaten,Hulu Sungai Utara,Kalimantan Selatan
1940,71419,Pinangkara (Pinang Kara),63.08.05.2014,Amuntai Tengah,Kabupaten,Hulu Sungai Utara,Kalimantan Selatan
1941,71419,Rantawan,63.08.05.2020,Amuntai Tengah,Kabupaten,Hulu Sungai Utara,Kalimantan Selatan
1942,71419,Sei/Sungai Baring,63.08.05.2024,Amuntai Tengah,Kabupaten,Hulu Sungai Utara,Kalimantan Selatan
1943,71419,Sei/Sungai Karias,63.08.05.2015,Amuntai Tengah,Kabupaten,Hulu Sungai Utara,Kalimantan Selatan
1944,71418,Sei/Sungai Malang,63.08.05.1005,Amuntai Tengah,Kabupaten,Hulu Sungai Utara,Kalimantan Selatan
1945,71413,Tambalangan,63.08.05.2011,Amuntai Tengah,Kabupaten,Hulu Sungai Utara,Kalimantan Selatan
1946,71417,Tangga Ulin Hilir,63.08.05.2010,Amuntai Tengah,Kabupaten,Hulu Sungai Utara,Kalimantan Selatan
1947,71417,Tangga Ulin Hulu,63.08.05.2027,Amuntai Tengah,Kabupaten,Hulu Sungai Utara,Kalimantan Selatan
1948,71419,Tapus,63.08.05.2006,Amuntai Tengah,Kabupaten,Hulu Sungai Utara,Kalimantan Selatan
1949,71419,Tigarun,63.08.05.2016,Amuntai Tengah,Kabupaten,Hulu Sungai Utara,Kalimantan Selatan
1950,71452,Bajawit,63.08.04.2012,Amuntai Selatan,Kabupaten,Hulu Sungai Utara,Kalimantan Selatan
1951,71452,Banyu Hirang,63.08.04.2010,Amuntai Selatan,Kabupaten,Hulu Sungai Utara,Kalimantan Selatan
1952,71452,Cangkering,63.08.04.2024,Amuntai Selatan,Kabupaten,Hulu Sungai Utara,Kalimantan Selatan
1953,71452,Cempaka,63.08.04.2017,Amuntai Selatan,Kabupaten,Hulu Sungai Utara,Kalimantan Selatan
1954,71452,Harusan Telaga,63.08.04.2022,Amuntai Selatan,Kabupaten,Hulu Sungai Utara,Kalimantan Selatan
1955,71452,Ilir Mesjid,63.08.04.2005,Amuntai Selatan,Kabupaten,Hulu Sungai Utara,Kalimantan Selatan
1956,71452,Jarang Kuantan,63.08.04.2006,Amuntai Selatan,Kabupaten,Hulu Sungai Utara,Kalimantan Selatan
1957,71452,Jumba,63.08.04.2007,Amuntai Selatan,Kabupaten,Hulu Sungai Utara,Kalimantan Selatan
1958,71452,Kayakah,63.08.04.2011,Amuntai Selatan,Kabupaten,Hulu Sungai Utara,Kalimantan Selatan
1959,71452,Keramat,63.08.04.2018,Amuntai Selatan,Kabupaten,Hulu Sungai Utara,Kalimantan Selatan
1960,71452,Kota Raja,63.08.04.2020,Amuntai Selatan,Kabupaten,Hulu Sungai Utara,Kalimantan Selatan
1961,71452,Kutai Kecil,63.08.04.2025,Amuntai Selatan,Kabupaten,Hulu Sungai Utara,Kalimantan Selatan
1962,71452,Mamar,63.08.04.2016,Amuntai Selatan,Kabupaten,Hulu Sungai Utara,Kalimantan Selatan
1963,71452,Murung Panggang,63.08.04.2027,Amuntai Selatan,Kabupaten,Hulu Sungai Utara,Kalimantan Selatan
1964,71452,Murung Sari,63.08.04.2030,Amuntai Selatan,Kabupaten,Hulu Sungai Utara,Kalimantan Selatan
1965,71452,Padang Darat,63.08.04.2003,Amuntai Selatan,Kabupaten,Hulu Sungai Utara,Kalimantan Selatan
1966,71452,Padang Tanggul,63.08.04.2013,Amuntai Selatan,Kabupaten,Hulu Sungai Utara,Kalimantan Selatan
1967,71452,Panyiuran,63.08.04.2001,Amuntai Selatan,Kabupaten,Hulu Sungai Utara,Kalimantan Selatan
1968,71452,Pulau Tambak,63.08.04.2021,Amuntai Selatan,Kabupaten,Hulu Sungai Utara,Kalimantan Selatan
1969,71452,Rukam (Rukam Hulu),63.08.04.2029,Amuntai Selatan,Kabupaten,Hulu Sungai Utara,Kalimantan Selatan
1970,71452,Rukam Hilir,63.08.04.2015,Amuntai Selatan,Kabupaten,Hulu Sungai Utara,Kalimantan Selatan
1971,71452,Simpang Empat,63.08.04.2002,Amuntai Selatan,Kabupaten,Hulu Sungai Utara,Kalimantan Selatan
1972,71452,Simpang Tiga,63.08.04.2023,Amuntai Selatan,Kabupaten,Hulu Sungai Utara,Kalimantan Selatan
1973,71452,Telaga Hanyar,63.08.04.2028,Amuntai Selatan,Kabupaten,Hulu Sungai Utara,Kalimantan Selatan
1974,71452,Telaga Sari,63.08.04.2008,Amuntai Selatan,Kabupaten,Hulu Sungai Utara,Kalimantan Selatan
1975,71452,Telaga Silaba,63.08.04.2009,Amuntai Selatan,Kabupaten,Hulu Sungai Utara,Kalimantan Selatan
1976,71452,Teluk Baru,63.08.04.2004,Amuntai Selatan,Kabupaten,Hulu Sungai Utara,Kalimantan Selatan
1977,71452,Teluk Paring,63.08.04.2014,Amuntai Selatan,Kabupaten,Hulu Sungai Utara,Kalimantan Selatan
1978,71452,Teluk Sari,63.08.04.2026,Amuntai Selatan,Kabupaten,Hulu Sungai Utara,Kalimantan Selatan
1979,71452,Ujung Murung,63.08.04.2019,Amuntai Selatan,Kabupaten,Hulu Sungai Utara,Kalimantan Selatan
1980,70655,Aluh Aluh Kecil,63.03.01.2013,Aluh Aluh,Kabupaten,Banjar,Kalimantan Selatan
1981,70655,Aluh Aluh Kecil Muara,63.03.01.2024,Aluh Aluh,Kabupaten,Banjar,Kalimantan Selatan
1982,70655,Aluh-Aluh Besar,63.03.01.2012,Aluh Aluh,Kabupaten,Banjar,Kalimantan Selatan
1983,70655,Bakambat,63.03.01.2001,Aluh Aluh,Kabupaten,Banjar,Kalimantan Selatan
1984,70655,Balimau,63.03.01.2030,Aluh Aluh,Kabupaten,Banjar,Kalimantan Selatan
1985,70655,Bunipah,63.03.01.2011,Aluh Aluh,Kabupaten,Banjar,Kalimantan Selatan
1986,70655,Handil Baru,63.03.01.2028,Aluh Aluh,Kabupaten,Banjar,Kalimantan Selatan
1987,70655,Handil Bujur,63.03.01.2015,Aluh Aluh,Kabupaten,Banjar,Kalimantan Selatan
1988,70655,Kuin Besar,63.03.01.2016,Aluh Aluh,Kabupaten,Banjar,Kalimantan Selatan
1989,70655,Kuin Kecil,63.03.01.2027,Aluh Aluh,Kabupaten,Banjar,Kalimantan Selatan
1990,70655,Labat Muara,63.03.01.2019,Aluh Aluh,Kabupaten,Banjar,Kalimantan Selatan
1991,70655,Pemurus,63.03.01.2009,Aluh Aluh,Kabupaten,Banjar,Kalimantan Selatan
1992,70655,Podok,63.03.01.2014,Aluh Aluh,Kabupaten,Banjar,Kalimantan Selatan
1993,70655,Pulantan,63.03.01.2022,Aluh Aluh,Kabupaten,Banjar,Kalimantan Selatan
1994,70655,Sei/Sungai Musang,63.03.01.2031,Aluh Aluh,Kabupaten,Banjar,Kalimantan Selatan
1995,70655,Simpang Warga,63.03.01.2010,Aluh Aluh,Kabupaten,Banjar,Kalimantan Selatan
1996,70655,Simpang Warga Dalam,63.03.01.2026,Aluh Aluh,Kabupaten,Banjar,Kalimantan Selatan
1997,70655,Tanipah,63.03.01.2002,Aluh Aluh,Kabupaten,Banjar,Kalimantan Selatan
1998,70655,Terapu,63.03.01.2017,Aluh Aluh,Kabupaten,Banjar,Kalimantan Selatan
1999,70582,Belandean,63.04.05.2012,Alalak,Kabupaten,Barito Kuala,Kalimantan Selatan
2000,70582,Belandean Muara,63.04.05.2011,Alalak,Kabupaten,Barito Kuala,Kalimantan Selatan
2001,70582,Berangas,63.04.05.1002,Alalak,Kabupaten,Barito Kuala,Kalimantan Selatan
2002,70582,Berangas Barat,63.04.05.1001,Alalak,Kabupaten,Barito Kuala,Kalimantan Selatan
2003,70582,Berangas Timur,63.04.05.2008,Alalak,Kabupaten,Barito Kuala,Kalimantan Selatan
2004,70582,Beringin,63.04.05.2015,Alalak,Kabupaten,Barito Kuala,Kalimantan Selatan
2005,70582,Handil Bakti,63.04.05.1003,Alalak,Kabupaten,Barito Kuala,Kalimantan Selatan
2006,70582,Panca Karya,63.04.05.2017,Alalak,Kabupaten,Barito Kuala,Kalimantan Selatan
2007,70582,Pulau Alalak,63.04.05.2004,Alalak,Kabupaten,Barito Kuala,Kalimantan Selatan
2008,70582,Pulau Sewangi,63.04.05.2005,Alalak,Kabupaten,Barito Kuala,Kalimantan Selatan
2009,70582,Pulau Sugara,63.04.05.2006,Alalak,Kabupaten,Barito Kuala,Kalimantan Selatan
2010,70582,Sei Semangat Bhakti (Semangat Bakti),63.04.05.2009,Alalak,Kabupaten,Barito Kuala,Kalimantan Selatan
2011,70582,Sei/Sungai Lumbah,63.04.05.2007,Alalak,Kabupaten,Barito Kuala,Kalimantan Selatan
2012,70582,Sei/Sungai Pitung,63.04.05.2010,Alalak,Kabupaten,Barito Kuala,Kalimantan Selatan
2013,70582,Semangat Dalam,63.04.05.2014,Alalak,Kabupaten,Barito Kuala,Kalimantan Selatan
2014,70582,Semangat Karya,63.04.05.2016,Alalak,Kabupaten,Barito Kuala,Kalimantan Selatan
2015,70582,Tanjung Harapan,63.04.05.2013,Alalak,Kabupaten,Barito Kuala,Kalimantan Selatan
2016,70582,Tatah Mesjid,63.04.05.2018,Alalak,Kabupaten,Barito Kuala,Kalimantan Selatan