no,postal_code,urban,area_code,sub_district,dt2,city,province
1,77485,Balatikon (Blatikon / Belatikan),65.03.14.2012,Tulin Onsoi,Kabupaten,Nunukan,Kalimantan Utara
2,77485,Kalunsayan (Kulunsayan / Kalun Sayan),65.03.14.2005,Tulin Onsoi,Kabupaten,Nunukan,Kalimantan Utara
3,77485,Makmur,65.03.14.2002,Tulin Onsoi,Kabupaten,Nunukan,Kalimantan Utara
4,77485,Naputi,65.03.14.2010,Tulin Onsoi,Kabupaten,Nunukan,Kalimantan Utara
5,77485,Salang,65.03.14.2007,Tulin Onsoi,Kabupaten,Nunukan,Kalimantan Utara
6,77485,Sanur,65.03.14.2001,Tulin Onsoi,Kabupaten,Nunukan,Kalimantan Utara
7,77485,Sekikilan,65.03.14.2004,Tulin Onsoi,Kabupaten,Nunukan,Kalimantan Utara
8,77485,Semunad,65.03.14.2003,Tulin Onsoi,Kabupaten,Nunukan,Kalimantan Utara
9,77485,Tau Baru,65.03.14.2011,Tulin Onsoi,Kabupaten,Nunukan,Kalimantan Utara
10,77485,Tembalang,65.03.14.2006,Tulin Onsoi,Kabupaten,Nunukan,Kalimantan Utara
11,77485,Tinampak I,65.03.14.2008,Tulin Onsoi,Kabupaten,Nunukan,Kalimantan Utara
12,77485,Tinampak II,65.03.14.2009,Tulin Onsoi,Kabupaten,Nunukan,Kalimantan Utara
13,77116,Juata Krikil/Kerikil,65.71.04.1003,Tarakan Utara,Kota,Tarakan,Kalimantan Utara
14,77116,Juata Laut,65.71.04.1001,Tarakan Utara,Kota,Tarakan,Kalimantan Utara
15,77116,Juata Permai,65.71.04.1002,Tarakan Utara,Kota,Tarakan,Kalimantan Utara
16,77115,Gunung Lingkas,65.71.03.1002,Tarakan Timur,Kota,Tarakan,Kalimantan Utara
17,77124,Kampung Empat,65.71.03.1003,Tarakan Timur,Kota,Tarakan,Kalimantan Utara
18,77123,Kampung Enam,65.71.03.1004,Tarakan Timur,Kota,Tarakan,Kalimantan Utara
19,77126,Lingkas Ujung,65.71.03.1001,Tarakan Timur,Kota,Tarakan,Kalimantan Utara
20,77125,Mamburungan,65.71.03.1005,Tarakan Timur,Kota,Tarakan,Kalimantan Utara
21,77115,Mamburungan Timur,65.71.03.1007,Tarakan Timur,Kota,Tarakan,Kalimantan Utara
22,77115,Pantai Amal,65.71.03.1006,Tarakan Timur,Kota,Tarakan,Kalimantan Utara
23,77113,Kampung I Skip (Kampung Satu / Skip),65.71.02.1001,Tarakan Tengah,Kota,Tarakan,Kalimantan Utara
24,77113,Pamusian,65.71.02.1002,Tarakan Tengah,Kota,Tarakan,Kalimantan Utara
25,77114,Sebengkok,65.71.02.1003,Tarakan Tengah,Kota,Tarakan,Kalimantan Utara
26,77113,Selumit,65.71.02.1004,Tarakan Tengah,Kota,Tarakan,Kalimantan Utara
27,77113,Selumit Pantai,65.71.02.1005,Tarakan Tengah,Kota,Tarakan,Kalimantan Utara
28,77111,Karang Anyar,65.71.01.1001,Tarakan Barat,Kota,Tarakan,Kalimantan Utara
29,77111,Karang Anyar Pantai,65.71.01.1003,Tarakan Barat,Kota,Tarakan,Kalimantan Utara
30,77112,Karang Balik,65.71.01.1004,Tarakan Barat,Kota,Tarakan,Kalimantan Utara
31,77111,Karang Harapan,65.71.01.1005,Tarakan Barat,Kota,Tarakan,Kalimantan Utara
32,77112,Karang Rejo,65.71.01.1002,Tarakan Barat,Kota,Tarakan,Kalimantan Utara
33,77212,Apung,65.01.05.2007,Tanjung Selor,Kabupaten,Bulungan,Kalimantan Utara
34,77212,Bumi Rahayu,65.01.05.2005,Tanjung Selor,Kabupaten,Bulungan,Kalimantan Utara
35,77212,Gunung Sari,65.01.05.2006,Tanjung Selor,Kabupaten,Bulungan,Kalimantan Utara
36,77212,Gunung Seriang,65.01.05.2004,Tanjung Selor,Kabupaten,Bulungan,Kalimantan Utara
37,77212,Jelarai Selor,65.01.05.2003,Tanjung Selor,Kabupaten,Bulungan,Kalimantan Utara
38,77212,Tanjung Selor Ilir/Hilir,65.01.05.1002,Tanjung Selor,Kabupaten,Bulungan,Kalimantan Utara
39,77212,Tanjung Selor Timur,65.01.05.1008,Tanjung Selor,Kabupaten,Bulungan,Kalimantan Utara
40,77211,Tanjung Selor Ulu/Hulu,65.01.05.1001,Tanjung Selor,Kabupaten,Bulungan,Kalimantan Utara
41,77212,Tengkapak,65.01.05.2009,Tanjung Selor,Kabupaten,Bulungan,Kalimantan Utara
42,77218,Ardi Mulyo (Ardi Mulya),65.01.03.2005,Tanjung Palas Utara,Kabupaten,Bulungan,Kalimantan Utara
43,77218,Karang Agung,65.01.03.2001,Tanjung Palas Utara,Kabupaten,Bulungan,Kalimantan Utara
44,77218,Kelubir,65.01.03.2006,Tanjung Palas Utara,Kabupaten,Bulungan,Kalimantan Utara
45,77218,Panca Agung,65.01.03.2003,Tanjung Palas Utara,Kabupaten,Bulungan,Kalimantan Utara
46,77218,Pimping,65.01.03.2002,Tanjung Palas Utara,Kabupaten,Bulungan,Kalimantan Utara
47,77218,Ruhui Rahayu,65.01.03.2004,Tanjung Palas Utara,Kabupaten,Bulungan,Kalimantan Utara
48,77215,Binai,65.01.04.2006,Tanjung Palas Timur,Kabupaten,Bulungan,Kalimantan Utara
49,77215,Mangkupadi,65.01.04.2002,Tanjung Palas Timur,Kabupaten,Bulungan,Kalimantan Utara
50,77215,Pura Sajau,65.01.04.2008,Tanjung Palas Timur,Kabupaten,Bulungan,Kalimantan Utara
51,77215,Sajau,65.01.04.2003,Tanjung Palas Timur,Kabupaten,Bulungan,Kalimantan Utara
52,77215,Sajau Hilir (Sajau Timur),65.01.04.2007,Tanjung Palas Timur,Kabupaten,Bulungan,Kalimantan Utara
53,77215,Tanah Kuning,65.01.04.2001,Tanjung Palas Timur,Kabupaten,Bulungan,Kalimantan Utara
54,77215,Tanjung Agung,65.01.04.2005,Tanjung Palas Timur,Kabupaten,Bulungan,Kalimantan Utara
55,77215,Wonomulyo (Wono Mulyo),65.01.04.2004,Tanjung Palas Timur,Kabupaten,Bulungan,Kalimantan Utara
56,77216,Salimbatu (Salim Batu),65.01.06.2001,Tanjung Palas Tengah,Kabupaten,Bulungan,Kalimantan Utara
57,77216,Silva Rahayu,65.01.06.2002,Tanjung Palas Tengah,Kabupaten,Bulungan,Kalimantan Utara
58,77216,Tanjung Buka,65.01.06.2003,Tanjung Palas Tengah,Kabupaten,Bulungan,Kalimantan Utara
59,77217,Long Beluah,65.01.02.2001,Tanjung Palas Barat,Kabupaten,Bulungan,Kalimantan Utara
60,77217,Long Pari,65.01.02.2005,Tanjung Palas Barat,Kabupaten,Bulungan,Kalimantan Utara
61,77217,Long Sam,65.01.02.2002,Tanjung Palas Barat,Kabupaten,Bulungan,Kalimantan Utara
62,77217,Mara Hilir,65.01.02.2004,Tanjung Palas Barat,Kabupaten,Bulungan,Kalimantan Utara
63,77217,Mara I (Mara Satu),65.01.02.2003,Tanjung Palas Barat,Kabupaten,Bulungan,Kalimantan Utara
64,77211,Antutan,65.01.01.2007,Tanjung Palas,Kabupaten,Bulungan,Kalimantan Utara
65,77211,Gunung Putih,65.01.01.2005,Tanjung Palas,Kabupaten,Bulungan,Kalimantan Utara
66,77214,Karang Anyar,65.01.01.1004,Tanjung Palas,Kabupaten,Bulungan,Kalimantan Utara
67,77211,Pejalin,65.01.01.2006,Tanjung Palas,Kabupaten,Bulungan,Kalimantan Utara
68,77211,Tanjung Palas Ilir/Hilir,65.01.01.1003,Tanjung Palas,Kabupaten,Bulungan,Kalimantan Utara
69,77216,Tanjung Palas Tengah,65.01.01.1002,Tanjung Palas,Kabupaten,Bulungan,Kalimantan Utara
70,77215,Tanjung Palas Ulu/Hulu,65.01.01.1001,Tanjung Palas,Kabupaten,Bulungan,Kalimantan Utara
71,77214,Teras Baru,65.01.01.2008,Tanjung Palas,Kabupaten,Bulungan,Kalimantan Utara
72,77214,Teras Nawang,65.01.01.2009,Tanjung Palas,Kabupaten,Bulungan,Kalimantan Utara
73,77451,Sambungan,65.04.03.2003,Tana Lia,Kabupaten,Tana Tidung,Kalimantan Utara
74,77451,Sambungan Selatan,65.04.03.2005,Tana Lia,Kabupaten,Tana Tidung,Kalimantan Utara
75,77451,Tanah Merah,65.04.03.2001,Tana Lia,Kabupaten,Tana Tidung,Kalimantan Utara
76,77451,Tanah Merah Barat,65.04.03.2004,Tana Lia,Kabupaten,Tana Tidung,Kalimantan Utara
77,77451,Tengku Dacing,65.04.03.2002,Tana Lia,Kabupaten,Tana Tidung,Kalimantan Utara
78,77556,Long Nyau,65.02.15.2001,Sungai Tubu,Kabupaten,Malinau,Kalimantan Utara
79,77556,Long Pada,65.02.15.2005,Sungai Tubu,Kabupaten,Malinau,Kalimantan Utara
80,77556,Long Ranau,65.02.15.2003,Sungai Tubu,Kabupaten,Malinau,Kalimantan Utara
81,77556,Long Titi,65.02.15.2002,Sungai Tubu,Kabupaten,Malinau,Kalimantan Utara
82,77556,Rian Tubu,65.02.15.2004,Sungai Tubu,Kabupaten,Malinau,Kalimantan Utara
83,77574,Agung Baru,65.02.09.2005,Sungai Boh,Kabupaten,Malinau,Kalimantan Utara
84,77574,Data Baru,65.02.09.2006,Sungai Boh,Kabupaten,Malinau,Kalimantan Utara
85,77574,Dumu Mahak,65.02.09.2001,Sungai Boh,Kabupaten,Malinau,Kalimantan Utara
86,77574,Long Lebusan,65.02.09.2002,Sungai Boh,Kabupaten,Malinau,Kalimantan Utara
87,77574,Long Top,65.02.09.2004,Sungai Boh,Kabupaten,Malinau,Kalimantan Utara
88,77574,Mahak Baru,65.02.09.2003,Sungai Boh,Kabupaten,Malinau,Kalimantan Utara
89,77153,Badan Bikis,65.04.02.2004,Sesayap Hilir,Kabupaten,Tana Tidung,Kalimantan Utara
90,77153,Bebatu,65.04.02.2003,Sesayap Hilir,Kabupaten,Tana Tidung,Kalimantan Utara
91,77153,Menjelutung,65.04.02.2007,Sesayap Hilir,Kabupaten,Tana Tidung,Kalimantan Utara
92,77153,Seludau,65.04.02.2006,Sesayap Hilir,Kabupaten,Tana Tidung,Kalimantan Utara
93,77153,Sengkong,65.04.02.2002,Sesayap Hilir,Kabupaten,Tana Tidung,Kalimantan Utara
94,77153,Sepala Dalung,65.04.02.2005,Sesayap Hilir,Kabupaten,Tana Tidung,Kalimantan Utara
95,77153,Sesayap,65.04.02.2001,Sesayap Hilir,Kabupaten,Tana Tidung,Kalimantan Utara
96,77153,Sesayap Selor,65.04.02.2008,Sesayap Hilir,Kabupaten,Tana Tidung,Kalimantan Utara
97,77151,Gunawan,65.04.01.2006,Sesayap,Kabupaten,Tana Tidung,Kalimantan Utara
98,77151,Limbu Sedulun,65.04.01.2002,Sesayap,Kabupaten,Tana Tidung,Kalimantan Utara
99,77151,Sebawang,65.04.01.2007,Sesayap,Kabupaten,Tana Tidung,Kalimantan Utara
100,77151,Sebidai,65.04.01.2003,Sesayap,Kabupaten,Tana Tidung,Kalimantan Utara
101,77151,Sedulun,65.04.01.2004,Sesayap,Kabupaten,Tana Tidung,Kalimantan Utara
102,77151,Tideng Pale,65.04.01.2001,Sesayap,Kabupaten,Tana Tidung,Kalimantan Utara
103,77151,Tideng Pale Timur,65.04.01.2005,Sesayap,Kabupaten,Tana Tidung,Kalimantan Utara
104,77452,Binanun,65.03.16.2010,Sembakung Atulai,Kabupaten,Nunukan,Kalimantan Utara
105,77452,Katul,65.03.16.2002,Sembakung Atulai,Kabupaten,Nunukan,Kalimantan Utara
106,77452,Liuk Bulu,65.03.16.2009,Sembakung Atulai,Kabupaten,Nunukan,Kalimantan Utara
107,77452,Lubok Buat,65.03.16.2001,Sembakung Atulai,Kabupaten,Nunukan,Kalimantan Utara
108,77452,Mambulu,65.03.16.2003,Sembakung Atulai,Kabupaten,Nunukan,Kalimantan Utara
109,77452,Pagaluyon,65.03.16.2004,Sembakung Atulai,Kabupaten,Nunukan,Kalimantan Utara
110,77452,Pulau Keras,65.03.16.2008,Sembakung Atulai,Kabupaten,Nunukan,Kalimantan Utara
111,77452,Sabuluan,65.03.16.2007,Sembakung Atulai,Kabupaten,Nunukan,Kalimantan Utara
112,77452,Saduman,65.03.16.2005,Sembakung Atulai,Kabupaten,Nunukan,Kalimantan Utara
113,77452,Tulang,65.03.16.2006,Sembakung Atulai,Kabupaten,Nunukan,Kalimantan Utara
114,77453,Atap,65.03.03.2003,Sembakung,Kabupaten,Nunukan,Kalimantan Utara
115,77453,Butas Bagu,65.03.03.2008,Sembakung,Kabupaten,Nunukan,Kalimantan Utara
116,77453,Labuk,65.03.03.2007,Sembakung,Kabupaten,Nunukan,Kalimantan Utara
117,77453,Lubakan,65.03.03.2002,Sembakung,Kabupaten,Nunukan,Kalimantan Utara
118,77453,Manuk Bungkul,65.03.03.2004,Sembakung,Kabupaten,Nunukan,Kalimantan Utara
119,77453,Pagar,65.03.03.2006,Sembakung,Kabupaten,Nunukan,Kalimantan Utara
120,77453,Pelaju,65.03.03.2009,Sembakung,Kabupaten,Nunukan,Kalimantan Utara
121,77453,Tagul,65.03.03.2001,Sembakung,Kabupaten,Nunukan,Kalimantan Utara
122,77453,Tepian,65.03.03.2010,Sembakung,Kabupaten,Nunukan,Kalimantan Utara
123,77453,Tujung,65.03.03.2005,Sembakung,Kabupaten,Nunukan,Kalimantan Utara
124,77263,Ambalat,65.01.09.2010,Sekatak,Kabupaten,Bulungan,Kalimantan Utara
125,77263,Anjar Arip (Anjararef),65.01.09.2021,Sekatak,Kabupaten,Bulungan,Kalimantan Utara
126,77263,Bambang,65.01.09.2013,Sekatak,Kabupaten,Bulungan,Kalimantan Utara
127,77263,Bekiliu,65.01.09.2018,Sekatak,Kabupaten,Bulungan,Kalimantan Utara
128,77263,Bunau,65.01.09.2003,Sekatak,Kabupaten,Bulungan,Kalimantan Utara
129,77263,Kelincauan (Kelincawan),65.01.09.2017,Sekatak,Kabupaten,Bulungan,Kalimantan Utara
130,77263,Kelising (Keliising),65.01.09.2009,Sekatak,Kabupaten,Bulungan,Kalimantan Utara
131,77263,Kelumbunan (Kelembunan),65.01.09.2006,Sekatak,Kabupaten,Bulungan,Kalimantan Utara
132,77263,Kendari,65.01.09.2012,Sekatak,Kabupaten,Bulungan,Kalimantan Utara
133,77263,Keriting,65.01.09.2011,Sekatak,Kabupaten,Bulungan,Kalimantan Utara
134,77263,Liu Agu (Liagu),65.01.09.2022,Sekatak,Kabupaten,Bulungan,Kalimantan Utara
135,77263,Maritam,65.01.09.2014,Sekatak,Kabupaten,Bulungan,Kalimantan Utara
136,77263,Paru Abang,65.01.09.2002,Sekatak,Kabupaten,Bulungan,Kalimantan Utara
137,77263,Pentian,65.01.09.2015,Sekatak,Kabupaten,Bulungan,Kalimantan Utara
138,77263,Punan Dulau,65.01.09.2016,Sekatak,Kabupaten,Bulungan,Kalimantan Utara
139,77263,Pungit,65.01.09.2020,Sekatak,Kabupaten,Bulungan,Kalimantan Utara
140,77263,Sekatak Bengara,65.01.09.2019,Sekatak,Kabupaten,Bulungan,Kalimantan Utara
141,77263,Sekatak Buji,65.01.09.2001,Sekatak,Kabupaten,Bulungan,Kalimantan Utara
142,77263,Tenggiling,65.01.09.2005,Sekatak,Kabupaten,Bulungan,Kalimantan Utara
143,77263,Terindak,65.01.09.2008,Sekatak,Kabupaten,Bulungan,Kalimantan Utara
144,77263,Turung,65.01.09.2007,Sekatak,Kabupaten,Bulungan,Kalimantan Utara
145,77263,Ujang,65.01.09.2004,Sekatak,Kabupaten,Bulungan,Kalimantan Utara
146,77484,Samaenre Semaja,65.03.13.2003,Sei Menggaris,Kabupaten,Nunukan,Kalimantan Utara
147,77484,Sekaduyan Taka,65.03.13.2004,Sei Menggaris,Kabupaten,Nunukan,Kalimantan Utara
148,77484,Srinanti,65.03.13.2001,Sei Menggaris,Kabupaten,Nunukan,Kalimantan Utara
149,77484,Tabur Lestari,65.03.13.2002,Sei Menggaris,Kabupaten,Nunukan,Kalimantan Utara
150,77481,Apas,65.03.06.2002,Sebuku,Kabupaten,Nunukan,Kalimantan Utara
151,77481,Bebanas,65.03.06.2006,Sebuku,Kabupaten,Nunukan,Kalimantan Utara
152,77481,Harapan,65.03.06.2010,Sebuku,Kabupaten,Nunukan,Kalimantan Utara
153,77481,Kekayap,65.03.06.2005,Sebuku,Kabupaten,Nunukan,Kalimantan Utara
154,77481,Kunyit,65.03.06.2003,Sebuku,Kabupaten,Nunukan,Kalimantan Utara
155,77481,Lulu,65.03.06.2007,Sebuku,Kabupaten,Nunukan,Kalimantan Utara
156,77481,Melasu Baru,65.03.06.2009,Sebuku,Kabupaten,Nunukan,Kalimantan Utara
157,77481,Pembeliangan,65.03.06.2001,Sebuku,Kabupaten,Nunukan,Kalimantan Utara
158,77481,Sujau,65.03.06.2008,Sebuku,Kabupaten,Nunukan,Kalimantan Utara
159,77481,Tetaban,65.03.06.2004,Sebuku,Kabupaten,Nunukan,Kalimantan Utara
160,77489,Lapri,65.03.11.2002,Sebatik Utara,Kabupaten,Nunukan,Kalimantan Utara
161,77489,Seberang,65.03.11.2003,Sebatik Utara,Kabupaten,Nunukan,Kalimantan Utara
162,77489,Sungai Pancang,65.03.11.2001,Sebatik Utara,Kabupaten,Nunukan,Kalimantan Utara
163,77488,Bukit Aru Indah,65.03.10.2003,Sebatik Timur,Kabupaten,Nunukan,Kalimantan Utara
164,77488,Sungai Nyamuk,65.03.10.2001,Sebatik Timur,Kabupaten,Nunukan,Kalimantan Utara
165,77488,Tanjung Aru,65.03.10.2004,Sebatik Timur,Kabupaten,Nunukan,Kalimantan Utara
166,77488,Tanjung Harapan,65.03.10.2002,Sebatik Timur,Kabupaten,Nunukan,Kalimantan Utara
167,77487,Aji Kuning,65.03.12.2003,Sebatik Tengah,Kabupaten,Nunukan,Kalimantan Utara
168,77487,Bukit Harapan,65.03.12.2004,Sebatik Tengah,Kabupaten,Nunukan,Kalimantan Utara
169,77487,Maspul,65.03.12.2002,Sebatik Tengah,Kabupaten,Nunukan,Kalimantan Utara
170,77487,Sungai Limau (Sei Limau),65.03.12.2001,Sebatik Tengah,Kabupaten,Nunukan,Kalimantan Utara
171,77486,Bambangan,65.03.08.2004,Sebatik Barat,Kabupaten,Nunukan,Kalimantan Utara
172,77486,Binalawan,65.03.08.2002,Sebatik Barat,Kabupaten,Nunukan,Kalimantan Utara
173,77486,Liang Bunyu,65.03.08.2001,Sebatik Barat,Kabupaten,Nunukan,Kalimantan Utara
174,77486,Setabu,65.03.08.2003,Sebatik Barat,Kabupaten,Nunukan,Kalimantan Utara
175,77483,Balansiku,65.03.01.2002,Sebatik,Kabupaten,Nunukan,Kalimantan Utara
176,77483,Padaidi,65.03.01.2004,Sebatik,Kabupaten,Nunukan,Kalimantan Utara
177,77483,Sungai Manurung,65.03.01.2003,Sebatik,Kabupaten,Nunukan,Kalimantan Utara
178,77483,Tanjungkarang (Tanjung Karang),65.03.01.2001,Sebatik,Kabupaten,Nunukan,Kalimantan Utara
179,77563,Long Aran,65.02.03.2006,Pujungan,Kabupaten,Malinau,Kalimantan Utara
180,77563,Long Belaka Pitau,65.02.03.2009,Pujungan,Kabupaten,Malinau,Kalimantan Utara
181,77563,Long Bena,65.02.03.2008,Pujungan,Kabupaten,Malinau,Kalimantan Utara
182,77563,Long Jelet,65.02.03.2005,Pujungan,Kabupaten,Malinau,Kalimantan Utara
183,77563,Long Ketaman,65.02.03.2002,Pujungan,Kabupaten,Malinau,Kalimantan Utara
184,77563,Long Lame (Lame),65.02.03.2004,Pujungan,Kabupaten,Malinau,Kalimantan Utara
185,77563,Long Peliran (Long Paliran),65.02.03.2007,Pujungan,Kabupaten,Malinau,Kalimantan Utara
186,77563,Long Pua,65.02.03.2003,Pujungan,Kabupaten,Malinau,Kalimantan Utara
187,77563,Long Pujungan,65.02.03.2001,Pujungan,Kabupaten,Malinau,Kalimantan Utara
188,77262,Long Bang,65.01.08.2002,Peso Hilir (Ilir),Kabupaten,Bulungan,Kalimantan Utara
189,77262,Long Bang Hulu,65.01.08.2006,Peso Hilir (Ilir),Kabupaten,Bulungan,Kalimantan Utara
190,77262,Long Lembu,65.01.08.2005,Peso Hilir (Ilir),Kabupaten,Bulungan,Kalimantan Utara
191,77262,Long Telenjau,65.01.08.2003,Peso Hilir (Ilir),Kabupaten,Bulungan,Kalimantan Utara
192,77262,Long Tungu,65.01.08.2001,Peso Hilir (Ilir),Kabupaten,Bulungan,Kalimantan Utara
193,77262,Naha Aya,65.01.08.2004,Peso Hilir (Ilir),Kabupaten,Bulungan,Kalimantan Utara
194,77261,Lepak Aru,65.01.07.2001,Peso,Kabupaten,Bulungan,Kalimantan Utara
195,77261,Long Bia,65.01.07.2004,Peso,Kabupaten,Bulungan,Kalimantan Utara
196,77261,Long Buang,65.01.07.2010,Peso,Kabupaten,Bulungan,Kalimantan Utara
197,77261,Long Lasan,65.01.07.2002,Peso,Kabupaten,Bulungan,Kalimantan Utara
198,77261,Long Lejuh (Long Leju),65.01.07.2008,Peso,Kabupaten,Bulungan,Kalimantan Utara
199,77261,Long Lian,65.01.07.2006,Peso,Kabupaten,Bulungan,Kalimantan Utara
200,77261,Long Pelban (Long Peleban),65.01.07.2009,Peso,Kabupaten,Bulungan,Kalimantan Utara
201,77261,Long Peso,65.01.07.2003,Peso,Kabupaten,Bulungan,Kalimantan Utara
202,77261,Long Yiin/Pelaah,65.01.07.2007,Peso,Kabupaten,Bulungan,Kalimantan Utara
203,77261,Muara Pengean,65.01.07.2005,Peso,Kabupaten,Bulungan,Kalimantan Utara
204,77480,Mansapa,65.03.09.1003,Nunukan Selatan,Kabupaten,Nunukan,Kalimantan Utara
205,77480,Nunukan Selatan,65.03.09.1002,Nunukan Selatan,Kabupaten,Nunukan,Kalimantan Utara
206,77480,Selisun,65.03.09.1001,Nunukan Selatan,Kabupaten,Nunukan,Kalimantan Utara
207,77480,Tanjung Harapan,65.03.09.1004,Nunukan Selatan,Kabupaten,Nunukan,Kalimantan Utara
208,77482,Binusan,65.03.02.2004,Nunukan,Kabupaten,Nunukan,Kalimantan Utara
209,77482,Nunukan Barat,65.03.02.1002,Nunukan,Kabupaten,Nunukan,Kalimantan Utara
210,77482,Nunukan Tengah,65.03.02.1005,Nunukan,Kabupaten,Nunukan,Kalimantan Utara
211,77482,Nunukan Timur,65.03.02.1001,Nunukan,Kabupaten,Nunukan,Kalimantan Utara
212,77482,Nunukan Utara,65.03.02.1003,Nunukan,Kabupaten,Nunukan,Kalimantan Utara
213,77154,Balayan Ari,65.04.05.2003,Muruk Rian,Kabupaten,Tana Tidung,Kalimantan Utara
214,77154,Kapuak,65.04.05.2005,Muruk Rian,Kabupaten,Tana Tidung,Kalimantan Utara
215,77154,Rian,65.04.05.2002,Muruk Rian,Kabupaten,Tana Tidung,Kalimantan Utara
216,77154,Rian Rayo,65.04.05.2004,Muruk Rian,Kabupaten,Tana Tidung,Kalimantan Utara
217,77154,Sapari,65.04.05.2006,Muruk Rian,Kabupaten,Tana Tidung,Kalimantan Utara
218,77154,Seputuk,65.04.05.2001,Muruk Rian,Kabupaten,Tana Tidung,Kalimantan Utara
219,77555,Long Gafid,65.02.12.2008,Mentarang Hulu,Kabupaten,Malinau,Kalimantan Utara
220,77555,Long Liku,65.02.12.2010,Mentarang Hulu,Kabupaten,Malinau,Kalimantan Utara
221,77155,Lung Barang (Long Berang),65.02.12.2005,Mentarang Hulu,Kabupaten,Malinau,Kalimantan Utara
222,77155,Lung Fala (Long Pala),65.02.12.2001,Mentarang Hulu,Kabupaten,Malinau,Kalimantan Utara
223,77155,Lung Kebinu (Long Kebinu),65.02.12.2002,Mentarang Hulu,Kabupaten,Malinau,Kalimantan Utara
224,77155,Lung Mekatip (Long Mekatif),65.02.12.2003,Mentarang Hulu,Kabupaten,Malinau,Kalimantan Utara
225,77155,Lung Semamu (Long Semamu),65.02.12.2007,Mentarang Hulu,Kabupaten,Malinau,Kalimantan Utara
226,77155,Lung Simau (Long Simau),65.02.12.2004,Mentarang Hulu,Kabupaten,Malinau,Kalimantan Utara
227,77155,Lung Sulit (Long Sulit),65.02.12.2006,Mentarang Hulu,Kabupaten,Malinau,Kalimantan Utara
228,77555,Temalang,65.02.12.2009,Mentarang Hulu,Kabupaten,Malinau,Kalimantan Utara
229,77555,Harapan Maju,65.02.01.2009,Mentarang,Kabupaten,Malinau,Kalimantan Utara
230,77555,Lidung Kemenci,65.02.01.2007,Mentarang,Kabupaten,Malinau,Kalimantan Utara
231,77555,Long Bisai,65.02.01.2002,Mentarang,Kabupaten,Malinau,Kalimantan Utara
232,77555,Mentarang Baru,65.02.01.2008,Mentarang,Kabupaten,Malinau,Kalimantan Utara
233,77555,Paking,65.02.01.2006,Mentarang,Kabupaten,Malinau,Kalimantan Utara
234,77555,Pulau Sapi,65.02.01.2005,Mentarang,Kabupaten,Malinau,Kalimantan Utara
235,77557,Belayan,65.02.07.2008,Malinau Utara,Kabupaten,Malinau,Kalimantan Utara
236,77557,Kaliamok,65.02.07.2001,Malinau Utara,Kabupaten,Malinau,Kalimantan Utara
237,77557,Kelapis,65.02.07.2011,Malinau Utara,Kabupaten,Malinau,Kalimantan Utara
238,77557,Lubak Manis (Lubok Manis),65.02.07.2010,Malinau Utara,Kabupaten,Malinau,Kalimantan Utara
239,77557,Luso,65.02.07.2002,Malinau Utara,Kabupaten,Malinau,Kalimantan Utara
240,77557,Malinau Seberang,65.02.07.2003,Malinau Utara,Kabupaten,Malinau,Kalimantan Utara
241,77557,Putat,65.02.07.2004,Malinau Utara,Kabupaten,Malinau,Kalimantan Utara
242,77557,Respen Tubu,65.02.07.2007,Malinau Utara,Kabupaten,Malinau,Kalimantan Utara
243,77557,Salap,65.02.07.2005,Malinau Utara,Kabupaten,Malinau,Kalimantan Utara
244,77557,Sembuak Warot/Warod,65.02.07.2009,Malinau Utara,Kabupaten,Malinau,Kalimantan Utara
245,77557,Semengaris (Semanggaris),65.02.07.2012,Malinau Utara,Kabupaten,Malinau,Kalimantan Utara
246,77557,Seruyung,65.02.07.2006,Malinau Utara,Kabupaten,Malinau,Kalimantan Utara
247,77553,Halanga,65.02.14.2004,Malinau Selatan Hulu,Kabupaten,Malinau,Kalimantan Utara
248,77553,Long Jalan,65.02.14.2006,Malinau Selatan Hulu,Kabupaten,Malinau,Kalimantan Utara
249,77553,Long Lake,65.02.14.2001,Malinau Selatan Hulu,Kabupaten,Malinau,Kalimantan Utara
250,77553,Long Rat,65.02.14.2003,Malinau Selatan Hulu,Kabupaten,Malinau,Kalimantan Utara
251,77553,Metut,65.02.14.2005,Malinau Selatan Hulu,Kabupaten,Malinau,Kalimantan Utara
252,77553,Nahakramo (Nahakramo Baru),65.02.14.2007,Malinau Selatan Hulu,Kabupaten,Malinau,Kalimantan Utara
253,77553,Punan Mirau,65.02.14.2002,Malinau Selatan Hulu,Kabupaten,Malinau,Kalimantan Utara
254,77553,Tanjung Nanga,65.02.14.2008,Malinau Selatan Hulu,Kabupaten,Malinau,Kalimantan Utara
255,77552,Batu Kajang,65.02.13.2004,Malinau Selatan Hilir,Kabupaten,Malinau,Kalimantan Utara
256,77552,Gong Solok,65.02.13.2005,Malinau Selatan Hilir,Kabupaten,Malinau,Kalimantan Utara
257,77552,Long Adiu,65.02.13.2007,Malinau Selatan Hilir,Kabupaten,Malinau,Kalimantan Utara
258,77552,Punan Gong Solok,65.02.13.2006,Malinau Selatan Hilir,Kabupaten,Malinau,Kalimantan Utara
259,77552,Punan Long Adiu,65.02.13.2008,Malinau Selatan Hilir,Kabupaten,Malinau,Kalimantan Utara
260,77552,Punan Setarap,65.02.13.2003,Malinau Selatan Hilir,Kabupaten,Malinau,Kalimantan Utara
261,77552,Setarap,65.02.13.2002,Malinau Selatan Hilir,Kabupaten,Malinau,Kalimantan Utara
262,77552,Setulang,65.02.13.2001,Malinau Selatan Hilir,Kabupaten,Malinau,Kalimantan Utara
263,77551,Bila Bekayuk,65.02.06.2001,Malinau Selatan,Kabupaten,Malinau,Kalimantan Utara
264,77551,Laban Nyarit,65.02.06.2004,Malinau Selatan,Kabupaten,Malinau,Kalimantan Utara
265,77551,Langap,65.02.06.2003,Malinau Selatan,Kabupaten,Malinau,Kalimantan Utara
266,77551,Long Loreh,65.02.06.2002,Malinau Selatan,Kabupaten,Malinau,Kalimantan Utara
267,77551,Nunuk Tanah Kibang,65.02.06.2005,Malinau Selatan,Kabupaten,Malinau,Kalimantan Utara
268,77551,Paya Seturan,65.02.06.2007,Malinau Selatan,Kabupaten,Malinau,Kalimantan Utara
269,77551,Pelencau,65.02.06.2006,Malinau Selatan,Kabupaten,Malinau,Kalimantan Utara
270,77551,Punan Rian,65.02.06.2008,Malinau Selatan,Kabupaten,Malinau,Kalimantan Utara
271,77551,Sengayan,65.02.06.2009,Malinau Selatan,Kabupaten,Malinau,Kalimantan Utara
272,77550,Batu Lidung,65.02.02.2001,Malinau Kota,Kabupaten,Malinau,Kalimantan Utara
273,77550,Malinau Hilir,65.02.02.2005,Malinau Kota,Kabupaten,Malinau,Kalimantan Utara
274,77550,Malinau Hulu,65.02.02.2004,Malinau Kota,Kabupaten,Malinau,Kalimantan Utara
275,77550,Malinau Kota,65.02.02.2002,Malinau Kota,Kabupaten,Malinau,Kalimantan Utara
276,77550,Pelita Kanaan,65.02.02.2003,Malinau Kota,Kabupaten,Malinau,Kalimantan Utara
277,77550,Tanjung Keranjang,65.02.02.2006,Malinau Kota,Kabupaten,Malinau,Kalimantan Utara
278,77554,Kuala Lapang,65.02.08.2008,Malinau Barat,Kabupaten,Malinau,Kalimantan Utara
279,77554,Long Bila,65.02.08.2001,Malinau Barat,Kabupaten,Malinau,Kalimantan Utara
280,77554,Long Kenipe,65.02.08.2002,Malinau Barat,Kabupaten,Malinau,Kalimantan Utara
281,77554,Punan Bengalun,65.02.08.2003,Malinau Barat,Kabupaten,Malinau,Kalimantan Utara
282,77554,Sempayang,65.02.08.2009,Malinau Barat,Kabupaten,Malinau,Kalimantan Utara
283,77554,Sentaban,65.02.08.2005,Malinau Barat,Kabupaten,Malinau,Kalimantan Utara
284,77554,Sesua,65.02.08.2004,Malinau Barat,Kabupaten,Malinau,Kalimantan Utara
285,77554,Tanjung Lapang,65.02.08.2006,Malinau Barat,Kabupaten,Malinau,Kalimantan Utara
286,77554,Taras,65.02.08.2007,Malinau Barat,Kabupaten,Malinau,Kalimantan Utara
287,77450,Bokok,65.03.20.2013,Lumbis Pansiangan,Kabupaten,Nunukan,Kalimantan Utara
288,77450,Bululaun Hilir (Bulu Laun Hilir),65.03.20.2006,Lumbis Pansiangan,Kabupaten,Nunukan,Kalimantan Utara
289,77450,Kuyo,65.03.20.2012,Lumbis Pansiangan,Kabupaten,Nunukan,Kalimantan Utara
290,77450,Labang,65.03.20.2003,Lumbis Pansiangan,Kabupaten,Nunukan,Kalimantan Utara
291,77450,Lagas,65.03.20.2007,Lumbis Pansiangan,Kabupaten,Nunukan,Kalimantan Utara
292,77450,Langgason,65.03.20.2009,Lumbis Pansiangan,Kabupaten,Nunukan,Kalimantan Utara
293,77450,Nantukidan,65.03.20.2002,Lumbis Pansiangan,Kabupaten,Nunukan,Kalimantan Utara
294,77450,Ngawol,65.03.20.2005,Lumbis Pansiangan,Kabupaten,Nunukan,Kalimantan Utara
295,77450,Panas,65.03.20.2008,Lumbis Pansiangan,Kabupaten,Nunukan,Kalimantan Utara
296,77450,Sumantipal,65.03.20.2004,Lumbis Pansiangan,Kabupaten,Nunukan,Kalimantan Utara
297,77450,Sumentobol,65.03.20.2001,Lumbis Pansiangan,Kabupaten,Nunukan,Kalimantan Utara
298,77450,Tambalang Hulu (Tambalang Ulu),65.03.20.2011,Lumbis Pansiangan,Kabupaten,Nunukan,Kalimantan Utara
299,77450,Tantalujuk,65.03.20.2010,Lumbis Pansiangan,Kabupaten,Nunukan,Kalimantan Utara
300,77450,Batung,65.03.15.2006,Lumbis Ogong,Kabupaten,Nunukan,Kalimantan Utara
301,77450,Bulu Mengolom (Bulu Mengelom),65.03.15.2003,Lumbis Ogong,Kabupaten,Nunukan,Kalimantan Utara
302,77450,Jukup,65.03.15.2020,Lumbis Ogong,Kabupaten,Nunukan,Kalimantan Utara
303,77450,Kalambuku (Kalam Buku),65.03.15.2019,Lumbis Ogong,Kabupaten,Nunukan,Kalimantan Utara
304,77450,Labuk,65.03.15.2027,Lumbis Ogong,Kabupaten,Nunukan,Kalimantan Utara
305,77450,Limpakon,65.03.15.2026,Lumbis Ogong,Kabupaten,Nunukan,Kalimantan Utara
306,77450,Linsayung,65.03.15.2023,Lumbis Ogong,Kabupaten,Nunukan,Kalimantan Utara
307,77450,Long Bulu,65.03.15.2021,Lumbis Ogong,Kabupaten,Nunukan,Kalimantan Utara
308,77450,Nansapan (Nan Sapan),65.03.15.2008,Lumbis Ogong,Kabupaten,Nunukan,Kalimantan Utara
309,77450,Paluan,65.03.15.2014,Lumbis Ogong,Kabupaten,Nunukan,Kalimantan Utara
310,77450,Payang,65.03.15.2001,Lumbis Ogong,Kabupaten,Nunukan,Kalimantan Utara
311,77450,Salan,65.03.15.2012,Lumbis Ogong,Kabupaten,Nunukan,Kalimantan Utara
312,77450,Samunti,65.03.15.2009,Lumbis Ogong,Kabupaten,Nunukan,Kalimantan Utara
313,77450,Sanal,65.03.15.2025,Lumbis Ogong,Kabupaten,Nunukan,Kalimantan Utara
314,77450,Sedalit,65.03.15.2015,Lumbis Ogong,Kabupaten,Nunukan,Kalimantan Utara
315,77450,Semata,65.03.15.2010,Lumbis Ogong,Kabupaten,Nunukan,Kalimantan Utara
316,77450,Sinampila I (Sinampala Satu),65.03.15.2013,Lumbis Ogong,Kabupaten,Nunukan,Kalimantan Utara
317,77450,Sinampila II (Sinampala Dua),65.03.15.2018,Lumbis Ogong,Kabupaten,Nunukan,Kalimantan Utara
318,77450,Sungoi,65.03.15.2011,Lumbis Ogong,Kabupaten,Nunukan,Kalimantan Utara
319,77450,Suyadon,65.03.15.2002,Lumbis Ogong,Kabupaten,Nunukan,Kalimantan Utara
320,77450,Tadungus,65.03.15.2017,Lumbis Ogong,Kabupaten,Nunukan,Kalimantan Utara
321,77450,Tambalang Hilir,65.03.15.2016,Lumbis Ogong,Kabupaten,Nunukan,Kalimantan Utara
322,77450,Tukulon (Tukulen),65.03.15.2004,Lumbis Ogong,Kabupaten,Nunukan,Kalimantan Utara
323,77450,Tumantalas (Tumatalas),65.03.15.2024,Lumbis Ogong,Kabupaten,Nunukan,Kalimantan Utara
324,77450,Ubol Alung (Tubel Alung / Ubel Alung),65.03.15.2007,Lumbis Ogong,Kabupaten,Nunukan,Kalimantan Utara
325,77450,Ubol Sulok (Ubel Sulok),65.03.15.2005,Lumbis Ogong,Kabupaten,Nunukan,Kalimantan Utara
326,77450,Bululaun Hulu (Bulu Laun Hulu),65.03.21.2003,Lumbis Hulu,Kabupaten,Nunukan,Kalimantan Utara
327,77450,Duyan,65.03.21.2007,Lumbis Hulu,Kabupaten,Nunukan,Kalimantan Utara
328,77450,Kabungolor (Kabungalor),65.03.21.2010,Lumbis Hulu,Kabupaten,Nunukan,Kalimantan Utara
329,77450,Kalisun,65.03.21.2004,Lumbis Hulu,Kabupaten,Nunukan,Kalimantan Utara
330,77450,Lipaga (Lepaga),65.03.21.2002,Lumbis Hulu,Kabupaten,Nunukan,Kalimantan Utara
331,77450,Mamasin (Mamanis),65.03.21.2005,Lumbis Hulu,Kabupaten,Nunukan,Kalimantan Utara
332,77450,Sibalu,65.03.21.2006,Lumbis Hulu,Kabupaten,Nunukan,Kalimantan Utara
333,77450,Tau Lumbis,65.03.21.2001,Lumbis Hulu,Kabupaten,Nunukan,Kalimantan Utara
334,77450,Tetagas,65.03.21.2009,Lumbis Hulu,Kabupaten,Nunukan,Kalimantan Utara
335,77450,Tuntulibing (Tantu Libing),65.03.21.2008,Lumbis Hulu,Kabupaten,Nunukan,Kalimantan Utara
336,77457,Bulan Bulan,65.03.04.2025,Lumbis,Kabupaten,Nunukan,Kalimantan Utara
337,77457,Dabulon (Dubulon),65.03.04.2003,Lumbis,Kabupaten,Nunukan,Kalimantan Utara
338,77457,Deralon,65.03.04.2001,Lumbis,Kabupaten,Nunukan,Kalimantan Utara
339,77457,Kalampising,65.03.04.2026,Lumbis,Kabupaten,Nunukan,Kalimantan Utara
340,77457,Liang,65.03.04.2002,Lumbis,Kabupaten,Nunukan,Kalimantan Utara
341,77457,Libang,65.03.04.2013,Lumbis,Kabupaten,Nunukan,Kalimantan Utara
342,77457,Likos,65.03.04.2024,Lumbis,Kabupaten,Nunukan,Kalimantan Utara
343,77457,Lintong,65.03.04.2017,Lumbis,Kabupaten,Nunukan,Kalimantan Utara
344,77457,Mansalong,65.03.04.2028,Lumbis,Kabupaten,Nunukan,Kalimantan Utara
345,77457,Nainsid,65.03.04.2009,Lumbis,Kabupaten,Nunukan,Kalimantan Utara
346,77457,Pa'lemumut (Pa Lemumut),65.03.04.2027,Lumbis,Kabupaten,Nunukan,Kalimantan Utara
347,77457,Pa'loo (Pa Loo),65.03.04.2021,Lumbis,Kabupaten,Nunukan,Kalimantan Utara
348,77457,Patal I (Satu),65.03.04.2006,Lumbis,Kabupaten,Nunukan,Kalimantan Utara
349,77457,Patal II (Dua),65.03.04.2020,Lumbis,Kabupaten,Nunukan,Kalimantan Utara
350,77457,Podong,65.03.04.2005,Lumbis,Kabupaten,Nunukan,Kalimantan Utara
351,77457,Pulu Bulawan,65.03.04.2018,Lumbis,Kabupaten,Nunukan,Kalimantan Utara
352,77457,Saludan,65.03.04.2011,Lumbis,Kabupaten,Nunukan,Kalimantan Utara
353,77457,Sangkub (Sangkup),65.03.04.2022,Lumbis,Kabupaten,Nunukan,Kalimantan Utara
354,77457,Sapuyan,65.03.04.2008,Lumbis,Kabupaten,Nunukan,Kalimantan Utara
355,77457,Sasibu,65.03.04.2010,Lumbis,Kabupaten,Nunukan,Kalimantan Utara
356,77457,Sedongon,65.03.04.2014,Lumbis,Kabupaten,Nunukan,Kalimantan Utara
357,77457,Semalat,65.03.04.2012,Lumbis,Kabupaten,Nunukan,Kalimantan Utara
358,77457,Siawang,65.03.04.2007,Lumbis,Kabupaten,Nunukan,Kalimantan Utara
359,77457,Sumalumung,65.03.04.2016,Lumbis,Kabupaten,Nunukan,Kalimantan Utara
360,77457,Taluan,65.03.04.2004,Lumbis,Kabupaten,Nunukan,Kalimantan Utara
361,77457,Tanjung Hilir,65.03.04.2015,Lumbis,Kabupaten,Nunukan,Kalimantan Utara
362,77457,Tanjung Hulu,65.03.04.2019,Lumbis,Kabupaten,Nunukan,Kalimantan Utara
363,77457,Tubus,65.03.04.2023,Lumbis,Kabupaten,Nunukan,Kalimantan Utara
364,77459,Bungayan,65.03.18.2015,Krayan Timur,Kabupaten,Nunukan,Kalimantan Utara
365,77459,Kampung Baru,65.03.18.2017,Krayan Timur,Kabupaten,Nunukan,Kalimantan Utara
366,77459,Long Nuat,65.03.18.2010,Krayan Timur,Kabupaten,Nunukan,Kalimantan Utara
367,77459,Long Sepayang,65.03.18.2002,Krayan Timur,Kabupaten,Nunukan,Kalimantan Utara
368,77459,Long Tenem,65.03.18.2009,Krayan Timur,Kabupaten,Nunukan,Kalimantan Utara
369,77459,Long Umung,65.03.18.2008,Krayan Timur,Kabupaten,Nunukan,Kalimantan Utara
370,77459,Pa' Betung (Pa Betung),65.03.18.2001,Krayan Timur,Kabupaten,Nunukan,Kalimantan Utara
371,77459,Pa' Kebuan (Pa Kebuan),65.03.18.2005,Krayan Timur,Kabupaten,Nunukan,Kalimantan Utara
372,77459,Pa' Lidung (Pa Lidung),65.03.18.2013,Krayan Timur,Kabupaten,Nunukan,Kalimantan Utara
373,77459,Pa' Melade (Pa Melade),65.03.18.2004,Krayan Timur,Kabupaten,Nunukan,Kalimantan Utara
374,77459,Pa' Pala (Pa Pala),65.03.18.2011,Krayan Timur,Kabupaten,Nunukan,Kalimantan Utara
375,77459,Pa' Pawan (Pa Pawan),65.03.18.2003,Krayan Timur,Kabupaten,Nunukan,Kalimantan Utara
376,77459,Pa' Rangeb (Pa Rangeb),65.03.18.2007,Krayan Timur,Kabupaten,Nunukan,Kalimantan Utara
377,77459,Pa' Raye (Pa Raye),65.03.18.2014,Krayan Timur,Kabupaten,Nunukan,Kalimantan Utara
378,77459,Pa' Umung (Pa Umung),65.03.18.2006,Krayan Timur,Kabupaten,Nunukan,Kalimantan Utara
379,77459,Sinar Baru,65.03.18.2012,Krayan Timur,Kabupaten,Nunukan,Kalimantan Utara
380,77459,Wa' Yagung (Wa Yagung),65.03.18.2016,Krayan Timur,Kabupaten,Nunukan,Kalimantan Utara
381,77458,Ba' Liku (Ba Liku),65.03.17.2009,Krayan Tengah,Kabupaten,Nunukan,Kalimantan Utara
382,77458,Binuang,65.03.17.2006,Krayan Tengah,Kabupaten,Nunukan,Kalimantan Utara
383,77458,Long Kelupan,65.03.17.2003,Krayan Tengah,Kabupaten,Nunukan,Kalimantan Utara
384,77458,Long Mutan,65.03.17.2007,Krayan Tengah,Kabupaten,Nunukan,Kalimantan Utara
385,77458,Long Padi,65.03.17.2004,Krayan Tengah,Kabupaten,Nunukan,Kalimantan Utara
386,77458,Long Rian,65.03.17.2010,Krayan Tengah,Kabupaten,Nunukan,Kalimantan Utara
387,77458,Long Rungan,65.03.17.2002,Krayan Tengah,Kabupaten,Nunukan,Kalimantan Utara
388,77458,Pa' Milau (Pa Milau),65.03.17.2008,Krayan Tengah,Kabupaten,Nunukan,Kalimantan Utara
389,77458,Pa' Yalau (Pa Yalau),65.03.17.2011,Krayan Tengah,Kabupaten,Nunukan,Kalimantan Utara
390,77458,Tang Badui,65.03.17.2005,Krayan Tengah,Kabupaten,Nunukan,Kalimantan Utara
391,77458,Tang Paye,65.03.17.2001,Krayan Tengah,Kabupaten,Nunukan,Kalimantan Utara
392,77454,Liang Lunuk,65.03.07.2002,Krayan Selatan,Kabupaten,Nunukan,Kalimantan Utara
393,77454,Long Birar,65.03.07.2010,Krayan Selatan,Kabupaten,Nunukan,Kalimantan Utara
394,77454,Long Budung,65.03.07.2016,Krayan Selatan,Kabupaten,Nunukan,Kalimantan Utara
395,77454,Long Pasia,65.03.07.2001,Krayan Selatan,Kabupaten,Nunukan,Kalimantan Utara
396,77454,Long Pupung,65.03.07.2018,Krayan Selatan,Kabupaten,Nunukan,Kalimantan Utara
397,77454,Pa' Amai (Pa Amai),65.03.07.2004,Krayan Selatan,Kabupaten,Nunukan,Kalimantan Utara
398,77454,Pa' Dalan (Pa Dalan),65.03.07.2009,Krayan Selatan,Kabupaten,Nunukan,Kalimantan Utara
399,77454,Pa' Ibang (Pa Ibang),65.03.07.2003,Krayan Selatan,Kabupaten,Nunukan,Kalimantan Utara
400,77454,Pa' Kaber (Pa Kaber),65.03.07.2005,Krayan Selatan,Kabupaten,Nunukan,Kalimantan Utara
401,77454,Pa' Sing (Pa Sing),65.03.07.2007,Krayan Selatan,Kabupaten,Nunukan,Kalimantan Utara
402,77454,Pa' Tera (Pa Tera),65.03.07.2006,Krayan Selatan,Kabupaten,Nunukan,Kalimantan Utara
403,77454,Pa' Upan (Pa Upan),65.03.07.2011,Krayan Selatan,Kabupaten,Nunukan,Kalimantan Utara
404,77454,Pa' Urang (Pa Urang),65.03.07.2020,Krayan Selatan,Kabupaten,Nunukan,Kalimantan Utara
405,77455,Buduk Kubul,65.03.19.2004,Krayan Barat,Kabupaten,Nunukan,Kalimantan Utara
406,77455,Lembada,65.03.19.2014,Krayan Barat,Kabupaten,Nunukan,Kalimantan Utara
407,77455,Lembudud,65.03.19.2007,Krayan Barat,Kabupaten,Nunukan,Kalimantan Utara
408,77455,Lepatar,65.03.19.2021,Krayan Barat,Kabupaten,Nunukan,Kalimantan Utara
409,77455,Liang Aliq (Liang Alig),65.03.19.2017,Krayan Barat,Kabupaten,Nunukan,Kalimantan Utara
410,77455,Liang Bua,65.03.19.2020,Krayan Barat,Kabupaten,Nunukan,Kalimantan Utara
411,77455,Liang Turan,65.03.19.2019,Krayan Barat,Kabupaten,Nunukan,Kalimantan Utara
412,77455,Long Kabid,65.03.19.2005,Krayan Barat,Kabupaten,Nunukan,Kalimantan Utara
413,77455,Long Mangan,65.03.19.2003,Krayan Barat,Kabupaten,Nunukan,Kalimantan Utara
414,77455,Long Puak,65.03.19.2002,Krayan Barat,Kabupaten,Nunukan,Kalimantan Utara
415,77455,Long Tugul,65.03.19.2008,Krayan Barat,Kabupaten,Nunukan,Kalimantan Utara
416,77455,Ma' Libu (Ma Libu),65.03.19.2025,Krayan Barat,Kabupaten,Nunukan,Kalimantan Utara
417,77455,Pa' Butal (Pa Butal),65.03.19.2009,Krayan Barat,Kabupaten,Nunukan,Kalimantan Utara
418,77455,Pa' Delung (Pa Delung),65.03.19.2010,Krayan Barat,Kabupaten,Nunukan,Kalimantan Utara
419,77455,Pa' Inan (Pa Inan),65.03.19.2006,Krayan Barat,Kabupaten,Nunukan,Kalimantan Utara
420,77455,Pa' Kemut (Pa Kemut),65.03.19.2012,Krayan Barat,Kabupaten,Nunukan,Kalimantan Utara
421,77455,Pa' Kidang (Pa Kidang),65.03.19.2013,Krayan Barat,Kabupaten,Nunukan,Kalimantan Utara
422,77455,Pa' Lutut (Pa Lutut),65.03.19.2024,Krayan Barat,Kabupaten,Nunukan,Kalimantan Utara
423,77455,Pa' Mering (Pa Mering),65.03.19.2022,Krayan Barat,Kabupaten,Nunukan,Kalimantan Utara
424,77455,Pa' Mulak (Pa Mulak),65.03.19.2001,Krayan Barat,Kabupaten,Nunukan,Kalimantan Utara
425,77455,Pa' Pani (Pa Pani),65.03.19.2023,Krayan Barat,Kabupaten,Nunukan,Kalimantan Utara
426,77455,Pa' Payak (Pa Payak),65.03.19.2015,Krayan Barat,Kabupaten,Nunukan,Kalimantan Utara
427,77455,Pa' Pirit (Pa Pirit),65.03.19.2016,Krayan Barat,Kabupaten,Nunukan,Kalimantan Utara
428,77455,Pa' Urud (Pa Urud),65.03.19.2011,Krayan Barat,Kabupaten,Nunukan,Kalimantan Utara
429,77455,Sembudud,65.03.19.2018,Krayan Barat,Kabupaten,Nunukan,Kalimantan Utara
430,77456,Ba Sikor,65.03.05.2030,Krayan,Kabupaten,Nunukan,Kalimantan Utara
431,77456,Buduk Kinangan,65.03.05.2032,Krayan,Kabupaten,Nunukan,Kalimantan Utara
432,77456,Buduk Tumu,65.03.05.2034,Krayan,Kabupaten,Nunukan,Kalimantan Utara
433,77456,Cinglat,65.03.05.2003,Krayan,Kabupaten,Nunukan,Kalimantan Utara
434,77456,Liang Biadung (Long Bia Dung),65.03.05.2046,Krayan,Kabupaten,Nunukan,Kalimantan Utara
435,77456,Liang Butan,65.03.05.2022,Krayan,Kabupaten,Nunukan,Kalimantan Utara
436,77456,Liang Tuer,65.03.05.2033,Krayan,Kabupaten,Nunukan,Kalimantan Utara
437,77456,Long Bawan,65.03.05.2041,Krayan,Kabupaten,Nunukan,Kalimantan Utara
438,77456,Long Berayang,65.03.05.2035,Krayan,Kabupaten,Nunukan,Kalimantan Utara
439,77456,Long Katung,65.03.05.2040,Krayan,Kabupaten,Nunukan,Kalimantan Utara
440,77456,Long Matung,65.03.05.2044,Krayan,Kabupaten,Nunukan,Kalimantan Utara
441,77456,Long Nawang (Long Nawan),65.03.05.2039,Krayan,Kabupaten,Nunukan,Kalimantan Utara
442,77456,Long Rupan,65.03.05.2045,Krayan,Kabupaten,Nunukan,Kalimantan Utara
443,77456,Pa' Api (Pa Api),65.03.05.2036,Krayan,Kabupaten,Nunukan,Kalimantan Utara
444,77456,Pa' Matung (Pa Matung),65.03.05.2048,Krayan,Kabupaten,Nunukan,Kalimantan Utara
445,77456,Pa' Nado (Pa Nado),65.03.05.2031,Krayan,Kabupaten,Nunukan,Kalimantan Utara
446,77456,Pa' Padi (Pa Padi),65.03.05.2002,Krayan,Kabupaten,Nunukan,Kalimantan Utara
447,77456,Pa' Putuk (Pa Putuk),65.03.05.2065,Krayan,Kabupaten,Nunukan,Kalimantan Utara
448,77456,Pa' Rupai (Pa Rupai),65.03.05.2029,Krayan,Kabupaten,Nunukan,Kalimantan Utara
449,77456,Pa' Sire (Pa Sire),65.03.05.2037,Krayan,Kabupaten,Nunukan,Kalimantan Utara
450,77456,Pa' Terutun (Pa Terutun),65.03.05.2049,Krayan,Kabupaten,Nunukan,Kalimantan Utara
451,77456,Wa' Laya (Wa Laya),65.03.05.2047,Krayan,Kabupaten,Nunukan,Kalimantan Utara
452,77456,Wa' Yanud (Wa Yanud),65.03.05.2038,Krayan,Kabupaten,Nunukan,Kalimantan Utara
453,77573,Lidung Payau,65.02.10.2003,Kayan Selatan,Kabupaten,Malinau,Kalimantan Utara
454,77573,Long Ampung,65.02.10.2001,Kayan Selatan,Kabupaten,Malinau,Kalimantan Utara
455,77573,Long Uro,65.02.10.2002,Kayan Selatan,Kabupaten,Malinau,Kalimantan Utara
456,77573,Metulang,65.02.10.2005,Kayan Selatan,Kabupaten,Malinau,Kalimantan Utara
457,77573,Sungai Barang,65.02.10.2004,Kayan Selatan,Kabupaten,Malinau,Kalimantan Utara
458,77572,Long Betaoh,65.02.05.2004,Kayan Hulu,Kabupaten,Malinau,Kalimantan Utara
459,77572,Long Nawang,65.02.05.2001,Kayan Hulu,Kabupaten,Malinau,Kalimantan Utara
460,77572,Long Payau,65.02.05.2005,Kayan Hulu,Kabupaten,Malinau,Kalimantan Utara
461,77572,Long Temunyat/Temuyat,65.02.05.2003,Kayan Hulu,Kabupaten,Malinau,Kalimantan Utara
462,77572,Nawang Baru,65.02.05.2002,Kayan Hulu,Kabupaten,Malinau,Kalimantan Utara
463,77571,Data Dian,65.02.04.2001,Kayan Hilir,Kabupaten,Malinau,Kalimantan Utara
464,77571,Long Metun (Long Metun II),65.02.04.2005,Kayan Hilir,Kabupaten,Malinau,Kalimantan Utara
465,77571,Long Pipa,65.02.04.2002,Kayan Hilir,Kabupaten,Malinau,Kalimantan Utara
466,77571,Long Sule,65.02.04.2003,Kayan Hilir,Kabupaten,Malinau,Kalimantan Utara
467,77571,Sungai Anai,65.02.04.2004,Kayan Hilir,Kabupaten,Malinau,Kalimantan Utara
468,77281,Bunyu Barat (Pulau Bunyu Barat),65.01.10.2001,Bunyu (Pulau Bunyu),Kabupaten,Bulungan,Kalimantan Utara
469,77281,Bunyu Selatan (Pulau Bunyu Selatan),65.01.10.2002,Bunyu (Pulau Bunyu),Kabupaten,Bulungan,Kalimantan Utara
470,77281,Bunyu Timur (Pulau Bunyu Timur),65.01.10.2003,Bunyu (Pulau Bunyu),Kabupaten,Bulungan,Kalimantan Utara
471,77152,Bebakung,65.04.04.2002,Betayau,Kabupaten,Tana Tidung,Kalimantan Utara
472,77152,Buong Baru,65.04.04.2001,Betayau,Kabupaten,Tana Tidung,Kalimantan Utara
473,77152,Kujau,65.04.04.2003,Betayau,Kabupaten,Tana Tidung,Kalimantan Utara
474,77152,Maning,65.04.04.2005,Betayau,Kabupaten,Tana Tidung,Kalimantan Utara
475,77152,Mendupo,65.04.04.2004,Betayau,Kabupaten,Tana Tidung,Kalimantan Utara
476,77152,Periuk,65.04.04.2006,Betayau,Kabupaten,Tana Tidung,Kalimantan Utara
477,77562,Apau Ping (Apau Ping Mading),65.02.11.2005,Bahau Hulu,Kabupaten,Malinau,Kalimantan Utara
478,77562,Long Alango,65.02.11.2002,Bahau Hulu,Kabupaten,Malinau,Kalimantan Utara
479,77562,Long Berini (Long Berini Mararian),65.02.11.2003,Bahau Hulu,Kabupaten,Malinau,Kalimantan Utara
480,77562,Long Kemuat (Long Atua),65.02.11.2006,Bahau Hulu,Kabupaten,Malinau,Kalimantan Utara
481,77562,Long Tabulo/Tebulo,65.02.11.2004,Bahau Hulu,Kabupaten,Malinau,Kalimantan Utara
482,77562,Long Uli,65.02.11.2001,Bahau Hulu,Kabupaten,Malinau,Kalimantan Utara