no,postal_code,urban,area_code,sub_district,dt2,city,province
1,78877,Aur Gading,61.04.13.2025,Tumbang Titi,Kabupaten,Ketapang,Kalimantan Barat
2,78877,Batu Beransak (Batu Beransah),61.04.13.2029,Tumbang Titi,Kabupaten,Ketapang,Kalimantan Barat
3,78877,Batu Tajam,61.04.13.2006,Tumbang Titi,Kabupaten,Ketapang,Kalimantan Barat
4,78877,Belaban Tujuh,61.04.13.2020,Tumbang Titi,Kabupaten,Ketapang,Kalimantan Barat
5,78877,Beringin Rayo,61.04.13.2026,Tumbang Titi,Kabupaten,Ketapang,Kalimantan Barat
6,78877,Jelayan,61.04.13.2033,Tumbang Titi,Kabupaten,Ketapang,Kalimantan Barat
7,78877,Jungkal,61.04.13.2032,Tumbang Titi,Kabupaten,Ketapang,Kalimantan Barat
8,78877,Kalimas Baru,61.04.13.2009,Tumbang Titi,Kabupaten,Ketapang,Kalimantan Barat
9,78877,Mahawa,61.04.13.2004,Tumbang Titi,Kabupaten,Ketapang,Kalimantan Barat
10,78877,Nanga Kelampai,61.04.13.2005,Tumbang Titi,Kabupaten,Ketapang,Kalimantan Barat
11,78877,Natai Panjang,61.04.13.2002,Tumbang Titi,Kabupaten,Ketapang,Kalimantan Barat
12,78877,Pemuatan Jaya,61.04.13.2013,Tumbang Titi,Kabupaten,Ketapang,Kalimantan Barat
13,78877,Pengatapan Raya,61.04.13.2034,Tumbang Titi,Kabupaten,Ketapang,Kalimantan Barat
14,78877,Petebang Jaya,61.04.13.2024,Tumbang Titi,Kabupaten,Ketapang,Kalimantan Barat
15,78877,Segar Wangi,61.04.13.2023,Tumbang Titi,Kabupaten,Ketapang,Kalimantan Barat
16,78877,Sengkaharak,61.04.13.2016,Tumbang Titi,Kabupaten,Ketapang,Kalimantan Barat
17,78877,Sepauhan Raya (Sepauhan Jaya),61.04.13.2031,Tumbang Titi,Kabupaten,Ketapang,Kalimantan Barat
18,78877,Sepuring Indah,61.04.13.2037,Tumbang Titi,Kabupaten,Ketapang,Kalimantan Barat
19,78877,Serengkah,61.04.13.2003,Tumbang Titi,Kabupaten,Ketapang,Kalimantan Barat
20,78877,Serengkah Kanan,61.04.13.2030,Tumbang Titi,Kabupaten,Ketapang,Kalimantan Barat
21,78877,Suka Damai,61.04.13.2035,Tumbang Titi,Kabupaten,Ketapang,Kalimantan Barat
22,78877,Tanjung Beulang,61.04.13.2028,Tumbang Titi,Kabupaten,Ketapang,Kalimantan Barat
23,78877,Tanjung Maloi,61.04.13.2036,Tumbang Titi,Kabupaten,Ketapang,Kalimantan Barat
24,78877,Titi Baru,61.04.13.2027,Tumbang Titi,Kabupaten,Ketapang,Kalimantan Barat
25,78877,Tumbang Titi,61.04.13.2001,Tumbang Titi,Kabupaten,Ketapang,Kalimantan Barat
26,79250,Bengkilu,61.07.17.2003,Tujuh Belas,Kabupaten,Bengkayang,Kalimantan Barat
27,79250,Kamuh,61.07.17.2002,Tujuh Belas,Kabupaten,Bengkayang,Kalimantan Barat
28,79250,Pisak,61.07.17.2004,Tujuh Belas,Kabupaten,Bengkayang,Kalimantan Barat
29,79250,Sinar Tebudak,61.07.17.2001,Tujuh Belas,Kabupaten,Bengkayang,Kalimantan Barat
30,78360,Benuang,61.02.06.2007,Toho,Kabupaten,Mempawah,Kalimantan Barat
31,78360,Kecurit,61.02.06.2003,Toho,Kabupaten,Mempawah,Kalimantan Barat
32,78360,Pak Laheng,61.02.06.2002,Toho,Kabupaten,Mempawah,Kalimantan Barat
33,78360,Pak Utan (Pakutan),61.02.06.2006,Toho,Kabupaten,Mempawah,Kalimantan Barat
34,78360,Sambora (Sembora / Samboro),61.02.06.2008,Toho,Kabupaten,Mempawah,Kalimantan Barat
35,78360,Sepang,61.02.06.2005,Toho,Kabupaten,Mempawah,Kalimantan Barat
36,78360,Terap,61.02.06.2004,Toho,Kabupaten,Mempawah,Kalimantan Barat
37,78360,Toho Hilir (Toho Ilir),61.02.06.2001,Toho,Kabupaten,Mempawah,Kalimantan Barat
38,78572,Bagan Asam,61.03.13.2005,Toba,Kabupaten,Sanggau,Kalimantan Barat
39,78572,Balai Belungai,61.03.13.2007,Toba,Kabupaten,Sanggau,Kalimantan Barat
40,78572,Belungai Dalam,61.03.13.2002,Toba,Kabupaten,Sanggau,Kalimantan Barat
41,78572,Kampung Baru,61.03.13.2004,Toba,Kabupaten,Sanggau,Kalimantan Barat
42,78572,Lumut,61.03.13.2006,Toba,Kabupaten,Sanggau,Kalimantan Barat
43,78572,Sansat,61.03.13.2003,Toba,Kabupaten,Sanggau,Kalimantan Barat
44,78572,Teraju (Teraju Barat),61.03.13.2001,Toba,Kabupaten,Sanggau,Kalimantan Barat
45,79214,Ampar Benteng,61.07.09.2007,Teriak,Kabupaten,Bengkayang,Kalimantan Barat
46,79214,Bana,61.07.09.2018,Teriak,Kabupaten,Bengkayang,Kalimantan Barat
47,79214,Bangun Sari,61.07.09.2004,Teriak,Kabupaten,Bengkayang,Kalimantan Barat
48,79214,Benteng,61.07.09.2014,Teriak,Kabupaten,Bengkayang,Kalimantan Barat
49,79214,Dharma Bhakti,61.07.09.2001,Teriak,Kabupaten,Bengkayang,Kalimantan Barat
50,79214,Lulang,61.07.09.2013,Teriak,Kabupaten,Bengkayang,Kalimantan Barat
51,79214,Malo Jelayan,61.07.09.2006,Teriak,Kabupaten,Bengkayang,Kalimantan Barat
52,79214,Puteng,61.07.09.2010,Teriak,Kabupaten,Bengkayang,Kalimantan Barat
53,79214,Sebente,61.07.09.2015,Teriak,Kabupaten,Bengkayang,Kalimantan Barat
54,79214,Sebetung Menyala,61.07.09.2005,Teriak,Kabupaten,Bengkayang,Kalimantan Barat
55,79214,Sekaruh,61.07.09.2011,Teriak,Kabupaten,Bengkayang,Kalimantan Barat
56,79214,Setia Jaya,61.07.09.2003,Teriak,Kabupaten,Bengkayang,Kalimantan Barat
57,79214,Sumber Karya,61.07.09.2002,Teriak,Kabupaten,Bengkayang,Kalimantan Barat
58,79214,Tanjung,61.07.09.2008,Teriak,Kabupaten,Bengkayang,Kalimantan Barat
59,79214,Telidik,61.07.09.2009,Teriak,Kabupaten,Bengkayang,Kalimantan Barat
60,79214,Temia Sio,61.07.09.2017,Teriak,Kabupaten,Bengkayang,Kalimantan Barat
61,79214,Teriak,61.07.09.2016,Teriak,Kabupaten,Bengkayang,Kalimantan Barat
62,79214,Tubajur,61.07.09.2012,Teriak,Kabupaten,Bengkayang,Kalimantan Barat
63,78392,Betuah,61.12.04.2006,Terentang,Kabupaten,Kubu Raya,Kalimantan Barat
64,78392,Permata,61.12.04.2005,Terentang,Kabupaten,Kubu Raya,Kalimantan Barat
65,78392,Radak Baru,61.12.04.2011,Terentang,Kabupaten,Kubu Raya,Kalimantan Barat
66,78392,Sungai Dungun,61.12.04.2009,Terentang,Kabupaten,Kubu Raya,Kalimantan Barat
67,78392,Sungai Radak Dua (Sei / Sungai Radak II),61.12.04.2008,Terentang,Kabupaten,Kubu Raya,Kalimantan Barat
68,78392,Sungai Radak Satu (Sei / Sungai Radak I),61.12.04.2007,Terentang,Kabupaten,Kubu Raya,Kalimantan Barat
69,78392,Teluk Bayur,61.12.04.2010,Terentang,Kabupaten,Kubu Raya,Kalimantan Barat
70,78392,Teluk Empening,61.12.04.2002,Terentang,Kabupaten,Kubu Raya,Kalimantan Barat
71,78392,Terentang Hilir,61.12.04.2003,Terentang,Kabupaten,Kubu Raya,Kalimantan Barat
72,78392,Terentang Hulu,61.12.04.2004,Terentang,Kabupaten,Kubu Raya,Kalimantan Barat
73,78661,Balai Harapan,61.05.02.2018,Tempunak,Kabupaten,Sintang,Kalimantan Barat
74,78661,Benua Baru,61.05.02.2010,Tempunak,Kabupaten,Sintang,Kalimantan Barat
75,78661,Benua Kencana,61.05.02.2017,Tempunak,Kabupaten,Sintang,Kalimantan Barat
76,78661,Gurung Mali,61.05.02.2015,Tempunak,Kabupaten,Sintang,Kalimantan Barat
77,78661,Jaya Mentari,61.05.02.2024,Tempunak,Kabupaten,Sintang,Kalimantan Barat
78,78661,Kenyabur Baru,61.05.02.2009,Tempunak,Kabupaten,Sintang,Kalimantan Barat
79,78661,Kuala Tiga,61.05.02.2014,Tempunak,Kabupaten,Sintang,Kalimantan Barat
80,78661,Kupan Jaya,61.05.02.2022,Tempunak,Kabupaten,Sintang,Kalimantan Barat
81,78661,Mengkurat Baru,61.05.02.2005,Tempunak,Kabupaten,Sintang,Kalimantan Barat
82,78661,Mensiap Baru,61.05.02.2002,Tempunak,Kabupaten,Sintang,Kalimantan Barat
83,78661,Mensiap Jaya,61.05.02.2026,Tempunak,Kabupaten,Sintang,Kalimantan Barat
84,78661,Merti Jaya,61.05.02.2016,Tempunak,Kabupaten,Sintang,Kalimantan Barat
85,78661,Nanga Tempunak,61.05.02.2001,Tempunak,Kabupaten,Sintang,Kalimantan Barat
86,78661,Pagal Baru,61.05.02.2008,Tempunak,Kabupaten,Sintang,Kalimantan Barat
87,78661,Pangkal Baru,61.05.02.2012,Tempunak,Kabupaten,Sintang,Kalimantan Barat
88,78661,Pekulai Bersatu,61.05.02.2025,Tempunak,Kabupaten,Sintang,Kalimantan Barat
89,78661,Peribang Baru (Paribang Baru),61.05.02.2006,Tempunak,Kabupaten,Sintang,Kalimantan Barat
90,78661,Pudau Bersatu,61.05.02.2021,Tempunak,Kabupaten,Sintang,Kalimantan Barat
91,78661,Pulau Jaya,61.05.02.2013,Tempunak,Kabupaten,Sintang,Kalimantan Barat
92,78661,Repak Sari,61.05.02.2007,Tempunak,Kabupaten,Sintang,Kalimantan Barat
93,78661,Riam Batu,61.05.02.2020,Tempunak,Kabupaten,Sintang,Kalimantan Barat
94,78661,Suka Jaya,61.05.02.2004,Tempunak,Kabupaten,Sintang,Kalimantan Barat
95,78661,Sungai Buluh,61.05.02.2023,Tempunak,Kabupaten,Sintang,Kalimantan Barat
96,78661,Tanjung Perada,61.05.02.2003,Tempunak,Kabupaten,Sintang,Kalimantan Barat
97,78661,Tempunak Kapuas,61.05.02.2019,Tempunak,Kabupaten,Sintang,Kalimantan Barat
98,78661,Tinum Baru,61.05.02.2011,Tempunak,Kabupaten,Sintang,Kalimantan Barat
99,78383,Arus Deras,61.12.08.2013,Teluk Pakedai,Kabupaten,Kubu Raya,Kalimantan Barat
100,78383,Kuala Karang,61.12.08.2004,Teluk Pakedai,Kabupaten,Kubu Raya,Kalimantan Barat
101,78383,Madura,61.12.08.2008,Teluk Pakedai,Kabupaten,Kubu Raya,Kalimantan Barat
102,78383,Pasir Putih,61.12.08.2009,Teluk Pakedai,Kabupaten,Kubu Raya,Kalimantan Barat
103,78383,Selat Remis,61.12.08.2007,Teluk Pakedai,Kabupaten,Kubu Raya,Kalimantan Barat
104,78383,Seruat Satu (Seruat I),61.12.08.2005,Teluk Pakedai,Kabupaten,Kubu Raya,Kalimantan Barat
105,78383,Sungai Deras,61.12.08.2006,Teluk Pakedai,Kabupaten,Kubu Raya,Kalimantan Barat
106,78383,Sungai Nibung,61.12.08.2012,Teluk Pakedai,Kabupaten,Kubu Raya,Kalimantan Barat
107,78383,Sungai Nipah,61.12.08.2014,Teluk Pakedai,Kabupaten,Kubu Raya,Kalimantan Barat
108,78383,Tanjung Bunga,61.12.08.2011,Teluk Pakedai,Kabupaten,Kubu Raya,Kalimantan Barat
109,78383,Teluk Gelam,61.12.08.2010,Teluk Pakedai,Kabupaten,Kubu Raya,Kalimantan Barat
110,78383,Teluk Pakedai Hulu,61.12.08.2001,Teluk Pakedai,Kabupaten,Kubu Raya,Kalimantan Barat
111,78383,Teluk Pakedai I (Satu),61.12.08.2002,Teluk Pakedai,Kabupaten,Kubu Raya,Kalimantan Barat
112,78383,Teluk Pakedai II (Dua),61.12.08.2003,Teluk Pakedai,Kabupaten,Kubu Raya,Kalimantan Barat
113,79469,Berlimang,61.01.02.2007,Teluk Keramat,Kabupaten,Sambas,Kalimantan Barat
114,79469,Kuala Pangkalan Keramat,61.01.02.2031,Teluk Keramat,Kabupaten,Sambas,Kalimantan Barat
115,79469,Kubangga,61.01.02.2013,Teluk Keramat,Kabupaten,Sambas,Kalimantan Barat
116,79469,Lela,61.01.02.2005,Teluk Keramat,Kabupaten,Sambas,Kalimantan Barat
117,79469,Matang Segantar,61.01.02.2024,Teluk Keramat,Kabupaten,Sambas,Kalimantan Barat
118,79469,Mekar Sekuntum,61.01.02.2030,Teluk Keramat,Kabupaten,Sambas,Kalimantan Barat
119,79469,Mulia,61.01.02.2025,Teluk Keramat,Kabupaten,Sambas,Kalimantan Barat
120,79469,Pedada,61.01.02.2004,Teluk Keramat,Kabupaten,Sambas,Kalimantan Barat
121,79469,Pipit Teja,61.01.02.2022,Teluk Keramat,Kabupaten,Sambas,Kalimantan Barat
122,79469,Puringan,61.01.02.2006,Teluk Keramat,Kabupaten,Sambas,Kalimantan Barat
123,79469,Sabing,61.01.02.2032,Teluk Keramat,Kabupaten,Sambas,Kalimantan Barat
124,79469,Samustida,61.01.02.2027,Teluk Keramat,Kabupaten,Sambas,Kalimantan Barat
125,79469,Sayang Sedayu,61.01.02.2021,Teluk Keramat,Kabupaten,Sambas,Kalimantan Barat
126,79469,Sebagu,61.01.02.2029,Teluk Keramat,Kabupaten,Sambas,Kalimantan Barat
127,79469,Sekura,61.01.02.2002,Teluk Keramat,Kabupaten,Sambas,Kalimantan Barat
128,79469,Sengawang,61.01.02.2009,Teluk Keramat,Kabupaten,Sambas,Kalimantan Barat
129,79469,Sepadu,61.01.02.2011,Teluk Keramat,Kabupaten,Sambas,Kalimantan Barat
130,79469,Sungai Baru,61.01.02.2008,Teluk Keramat,Kabupaten,Sambas,Kalimantan Barat
131,79469,Sungai Kumpai,61.01.02.2001,Teluk Keramat,Kabupaten,Sambas,Kalimantan Barat
132,79469,Sungai Serabek,61.01.02.2020,Teluk Keramat,Kabupaten,Sambas,Kalimantan Barat
133,79469,Tambatan,61.01.02.2012,Teluk Keramat,Kabupaten,Sambas,Kalimantan Barat
134,79469,Tanjung Kerucut (Tanjung Keracut),61.01.02.2028,Teluk Keramat,Kabupaten,Sambas,Kalimantan Barat
135,79469,Teluk Kaseh,61.01.02.2010,Teluk Keramat,Kabupaten,Sambas,Kalimantan Barat
136,79469,Teluk Kumbang (Teluk Kembang),61.01.02.2026,Teluk Keramat,Kabupaten,Sambas,Kalimantan Barat
137,79469,Tri Mandayan,61.01.02.2003,Teluk Keramat,Kabupaten,Sambas,Kalimantan Barat
138,78856,Alur Bandung,61.11.03.2002,Teluk Batang,Kabupaten,Kayong Utara,Kalimantan Barat
139,78856,Banyu Abang,61.11.03.2005,Teluk Batang,Kabupaten,Kayong Utara,Kalimantan Barat
140,78856,Mas Bangun,61.11.03.2001,Teluk Batang,Kabupaten,Kayong Utara,Kalimantan Barat
141,78856,Sei/Sungai Paduan,61.11.03.2004,Teluk Batang,Kabupaten,Kayong Utara,Kalimantan Barat
142,78856,Telukbatang (Teluk Batang),61.11.03.2003,Teluk Batang,Kabupaten,Kayong Utara,Kalimantan Barat
143,78856,Telukbatang Selatan (Teluk Batang Selatan),61.11.03.2006,Teluk Batang,Kabupaten,Kayong Utara,Kalimantan Barat
144,78856,Telukbatang Utara (Teluk Batang Utara),61.11.03.2007,Teluk Batang,Kabupaten,Kayong Utara,Kalimantan Barat
145,79468,Cepala,61.01.12.2003,Tekarang,Kabupaten,Sambas,Kalimantan Barat
146,79468,Matang Segarau,61.01.12.2007,Tekarang,Kabupaten,Sambas,Kalimantan Barat
147,79468,Merubung (Merubong),61.01.12.2002,Tekarang,Kabupaten,Sambas,Kalimantan Barat
148,79468,Rambayan,61.01.12.2005,Tekarang,Kabupaten,Sambas,Kalimantan Barat
149,79468,Sari Makmur,61.01.12.2004,Tekarang,Kabupaten,Sambas,Kalimantan Barat
150,79468,Sempadian,61.01.12.2006,Tekarang,Kabupaten,Sambas,Kalimantan Barat
151,79468,Tekarang,61.01.12.2001,Tekarang,Kabupaten,Sambas,Kalimantan Barat
152,79461,Batu Makjage,61.01.04.2016,Tebas,Kabupaten,Sambas,Kalimantan Barat
153,79461,Bekut,61.01.04.2004,Tebas,Kabupaten,Sambas,Kalimantan Barat
154,79461,Bukit Sigoler (Bukit Segoler),61.01.04.2018,Tebas,Kabupaten,Sambas,Kalimantan Barat
155,79461,Dungun Perapakan,61.01.04.2015,Tebas,Kabupaten,Sambas,Kalimantan Barat
156,79461,Makrampai (Mak Rampai),61.01.04.2007,Tebas,Kabupaten,Sambas,Kalimantan Barat
157,79461,Maktangguk (Mak Tangguk),61.01.04.2020,Tebas,Kabupaten,Sambas,Kalimantan Barat
158,79461,Maribas,61.01.04.2022,Tebas,Kabupaten,Sambas,Kalimantan Barat
159,79461,Matang Labong (Matang Labung),61.01.04.2019,Tebas,Kabupaten,Sambas,Kalimantan Barat
160,79461,Mekar Sekuntum,61.01.04.2008,Tebas,Kabupaten,Sambas,Kalimantan Barat
161,79461,Mensere,61.01.04.2009,Tebas,Kabupaten,Sambas,Kalimantan Barat
162,79461,Pangkalan Kongsi,61.01.04.2014,Tebas,Kabupaten,Sambas,Kalimantan Barat
163,79461,Pusaka,61.01.04.2010,Tebas,Kabupaten,Sambas,Kalimantan Barat
164,79461,Seberkat,61.01.04.2005,Tebas,Kabupaten,Sambas,Kalimantan Barat
165,79461,Segarau Parit,61.01.04.2021,Tebas,Kabupaten,Sambas,Kalimantan Barat
166,79461,Segedong,61.01.04.2011,Tebas,Kabupaten,Sambas,Kalimantan Barat
167,79461,Sejiram,61.01.04.2006,Tebas,Kabupaten,Sambas,Kalimantan Barat
168,79461,Sempalai,61.01.04.2003,Tebas,Kabupaten,Sambas,Kalimantan Barat
169,79461,Seret Ayon,61.01.04.2023,Tebas,Kabupaten,Sambas,Kalimantan Barat
170,79461,Serindang,61.01.04.2017,Tebas,Kabupaten,Sambas,Kalimantan Barat
171,79461,Serumpun Buluh,61.01.04.2013,Tebas,Kabupaten,Sambas,Kalimantan Barat
172,79461,Sungai Kelambu,61.01.04.2012,Tebas,Kabupaten,Sambas,Kalimantan Barat
173,79461,Tebas Kuala,61.01.04.2001,Tebas,Kabupaten,Sambas,Kalimantan Barat
174,79461,Tebas Sungai,61.01.04.2002,Tebas,Kabupaten,Sambas,Kalimantan Barat
175,78562,Berakak,61.03.10.2007,Tayan Hulu,Kabupaten,Sanggau,Kalimantan Barat
176,78562,Binjai,61.03.10.2010,Tayan Hulu,Kabupaten,Sanggau,Kalimantan Barat
177,78562,Engkasan,61.03.10.2008,Tayan Hulu,Kabupaten,Sanggau,Kalimantan Barat
178,78562,Janjang,61.03.10.2005,Tayan Hulu,Kabupaten,Sanggau,Kalimantan Barat
179,78562,Kedakas,61.03.10.2011,Tayan Hulu,Kabupaten,Sanggau,Kalimantan Barat
180,78562,Mandong,61.03.10.2004,Tayan Hulu,Kabupaten,Sanggau,Kalimantan Barat
181,78562,Menyabo,61.03.10.2003,Tayan Hulu,Kabupaten,Sanggau,Kalimantan Barat
182,78562,Pandan Sembuat,61.03.10.2009,Tayan Hulu,Kabupaten,Sanggau,Kalimantan Barat
183,78562,Peruan Dalam,61.03.10.2002,Tayan Hulu,Kabupaten,Sanggau,Kalimantan Barat
184,78562,Riyai,61.03.10.2006,Tayan Hulu,Kabupaten,Sanggau,Kalimantan Barat
185,78562,Sosok,61.03.10.2001,Tayan Hulu,Kabupaten,Sanggau,Kalimantan Barat
186,78564,Balai Ingin,61.03.11.2004,Tayan Hilir,Kabupaten,Sanggau,Kalimantan Barat
187,78564,Beginjan,61.03.11.2009,Tayan Hilir,Kabupaten,Sanggau,Kalimantan Barat
188,78564,Cempedak,61.03.11.2006,Tayan Hilir,Kabupaten,Sanggau,Kalimantan Barat
189,78564,Emberas,61.03.11.2008,Tayan Hilir,Kabupaten,Sanggau,Kalimantan Barat
190,78564,Kawat,61.03.11.2002,Tayan Hilir,Kabupaten,Sanggau,Kalimantan Barat
191,78564,Lalang,61.03.11.2005,Tayan Hilir,Kabupaten,Sanggau,Kalimantan Barat
192,78564,Melugai,61.03.11.2007,Tayan Hilir,Kabupaten,Sanggau,Kalimantan Barat
193,78564,Pedalaman,61.03.11.2003,Tayan Hilir,Kabupaten,Sanggau,Kalimantan Barat
194,78564,Pulau Tayan Utara,61.03.11.2001,Tayan Hilir,Kabupaten,Sanggau,Kalimantan Barat
195,78564,Sebemban,61.03.11.2011,Tayan Hilir,Kabupaten,Sanggau,Kalimantan Barat
196,78564,Sei/Sungai Jaman,61.03.11.2013,Tayan Hilir,Kabupaten,Sanggau,Kalimantan Barat
197,78564,Sejotang,61.03.11.2010,Tayan Hilir,Kabupaten,Sanggau,Kalimantan Barat
198,78564,Subah,61.03.11.2012,Tayan Hilir,Kabupaten,Sanggau,Kalimantan Barat
199,78564,Tanjung Bunut,61.03.11.2014,Tayan Hilir,Kabupaten,Sanggau,Kalimantan Barat
200,78564,Tebang Benua,61.03.11.2015,Tayan Hilir,Kabupaten,Sanggau,Kalimantan Barat
201,79465,Arung Medang,61.01.17.2008,Tangaran,Kabupaten,Sambas,Kalimantan Barat
202,79465,Arung Parak,61.01.17.2007,Tangaran,Kabupaten,Sambas,Kalimantan Barat
203,79465,Merabuan,61.01.17.2003,Tangaran,Kabupaten,Sambas,Kalimantan Barat
204,79465,Merpati,61.01.17.2005,Tangaran,Kabupaten,Sambas,Kalimantan Barat
205,79465,Pancur,61.01.17.2006,Tangaran,Kabupaten,Sambas,Kalimantan Barat
206,79465,Semata,61.01.17.2004,Tangaran,Kabupaten,Sambas,Kalimantan Barat
207,79465,Simpang Empat,61.01.17.2002,Tangaran,Kabupaten,Sambas,Kalimantan Barat
208,79465,Tangaran,61.01.17.2001,Tangaran,Kabupaten,Sambas,Kalimantan Barat
209,79676,Bukit Raya,61.10.11.2006,Tanah Pinoh Barat,Kabupaten,Melawi,Kalimantan Barat
210,79676,Durian Jaya,61.10.11.2003,Tanah Pinoh Barat,Kabupaten,Melawi,Kalimantan Barat
211,79676,Ganjang,61.10.11.2010,Tanah Pinoh Barat,Kabupaten,Melawi,Kalimantan Barat
212,79676,Harapan Jaya,61.10.11.2002,Tanah Pinoh Barat,Kabupaten,Melawi,Kalimantan Barat
213,79676,Keluas Hulu,61.10.11.2009,Tanah Pinoh Barat,Kabupaten,Melawi,Kalimantan Barat
214,79676,Laja,61.10.11.2008,Tanah Pinoh Barat,Kabupaten,Melawi,Kalimantan Barat
215,79676,Lintah Taum,61.10.11.2007,Tanah Pinoh Barat,Kabupaten,Melawi,Kalimantan Barat
216,79676,Pelita Jaya,61.10.11.2005,Tanah Pinoh Barat,Kabupaten,Melawi,Kalimantan Barat
217,79676,Togan Baru,61.10.11.2004,Tanah Pinoh Barat,Kabupaten,Melawi,Kalimantan Barat
218,79676,Ulak Muid,61.10.11.2001,Tanah Pinoh Barat,Kabupaten,Melawi,Kalimantan Barat
219,79674,Bata Luar,61.10.06.2016,Tanah Pinoh,Kabupaten,Melawi,Kalimantan Barat
220,79674,Batu Begigi,61.10.06.2001,Tanah Pinoh,Kabupaten,Melawi,Kalimantan Barat
221,79674,Bina Jaya,61.10.06.2004,Tanah Pinoh,Kabupaten,Melawi,Kalimantan Barat
222,79674,Bina Karya,61.10.06.2005,Tanah Pinoh,Kabupaten,Melawi,Kalimantan Barat
223,79674,Keranjik,61.10.06.2022,Tanah Pinoh,Kabupaten,Melawi,Kalimantan Barat
224,79674,Loka Jaya,61.10.06.2002,Tanah Pinoh,Kabupaten,Melawi,Kalimantan Barat
225,79674,Madong Jaya (Madong Raya),61.10.06.2006,Tanah Pinoh,Kabupaten,Melawi,Kalimantan Barat
226,79674,Maris Permai,61.10.06.2017,Tanah Pinoh,Kabupaten,Melawi,Kalimantan Barat
227,79674,Pelita Kenaya (Pelita Kanaya),61.10.06.2019,Tanah Pinoh,Kabupaten,Melawi,Kalimantan Barat
228,79674,Suka Maju,61.10.06.2003,Tanah Pinoh,Kabupaten,Melawi,Kalimantan Barat
229,79674,Tanjung Beringin Raya,61.10.06.2020,Tanah Pinoh,Kabupaten,Melawi,Kalimantan Barat
230,79674,Tanjung Gunung,61.10.06.2021,Tanah Pinoh,Kabupaten,Melawi,Kalimantan Barat
231,79288,Cempaka Putih,61.07.10.2004,Suti Semarang,Kabupaten,Bengkayang,Kalimantan Barat
232,79288,Kelayu (Kelayuk),61.07.10.2006,Suti Semarang,Kabupaten,Bengkayang,Kalimantan Barat
233,79288,Kiung,61.07.10.2005,Suti Semarang,Kabupaten,Bengkayang,Kalimantan Barat
234,79288,Muhi Bersatu,61.07.10.2002,Suti Semarang,Kabupaten,Bengkayang,Kalimantan Barat
235,79288,Nangka,61.07.10.2001,Suti Semarang,Kabupaten,Bengkayang,Kalimantan Barat
236,79288,Suka Maju,61.07.10.2003,Suti Semarang,Kabupaten,Bengkayang,Kalimantan Barat
237,79288,Suti Semarang,61.07.10.2007,Suti Semarang,Kabupaten,Bengkayang,Kalimantan Barat
238,79288,Tapen,61.07.10.2008,Suti Semarang,Kabupaten,Bengkayang,Kalimantan Barat
239,78655,Balai Agung,61.05.20.2025,Sungai Tebelian,Kabupaten,Sintang,Kalimantan Barat
240,78655,Bancoh,61.05.20.2012,Sungai Tebelian,Kabupaten,Sintang,Kalimantan Barat
241,78655,Baya Betung,61.05.20.2009,Sungai Tebelian,Kabupaten,Sintang,Kalimantan Barat
242,78655,Baya Mulya,61.05.20.2022,Sungai Tebelian,Kabupaten,Sintang,Kalimantan Barat
243,78655,Bonet Engkabang,61.05.20.2010,Sungai Tebelian,Kabupaten,Sintang,Kalimantan Barat
244,78655,Bonet Lama,61.05.20.2011,Sungai Tebelian,Kabupaten,Sintang,Kalimantan Barat
245,78655,Gurung Kempadik,61.05.20.2007,Sungai Tebelian,Kabupaten,Sintang,Kalimantan Barat
246,78655,Kajang Baru,61.05.20.2006,Sungai Tebelian,Kabupaten,Sintang,Kalimantan Barat
247,78655,Kunyai,61.05.20.2026,Sungai Tebelian,Kabupaten,Sintang,Kalimantan Barat
248,78655,Laman Raya,61.05.20.2023,Sungai Tebelian,Kabupaten,Sintang,Kalimantan Barat
249,78655,Lebak Ubah,61.05.20.2015,Sungai Tebelian,Kabupaten,Sintang,Kalimantan Barat
250,78655,Manter,61.05.20.2003,Sungai Tebelian,Kabupaten,Sintang,Kalimantan Barat
251,78655,Melayang Sari,61.05.20.2016,Sungai Tebelian,Kabupaten,Sintang,Kalimantan Barat
252,78655,Merarai Dua,61.05.20.2005,Sungai Tebelian,Kabupaten,Sintang,Kalimantan Barat
253,78655,Merarai Satu,61.05.20.2004,Sungai Tebelian,Kabupaten,Sintang,Kalimantan Barat
254,78655,Nobal,61.05.20.2008,Sungai Tebelian,Kabupaten,Sintang,Kalimantan Barat
255,78655,Penjernang,61.05.20.2019,Sungai Tebelian,Kabupaten,Sintang,Kalimantan Barat
256,78655,Penjernang Hulu,61.05.20.2020,Sungai Tebelian,Kabupaten,Sintang,Kalimantan Barat
257,78655,Perembang,61.05.20.2013,Sungai Tebelian,Kabupaten,Sintang,Kalimantan Barat
258,78655,Ransi Dakan,61.05.20.2001,Sungai Tebelian,Kabupaten,Sintang,Kalimantan Barat
259,78655,Rarai,61.05.20.2018,Sungai Tebelian,Kabupaten,Sintang,Kalimantan Barat
260,78655,Riam Kijang,61.05.20.2021,Sungai Tebelian,Kabupaten,Sintang,Kalimantan Barat
261,78655,Sabang Surai,61.05.20.2024,Sungai Tebelian,Kabupaten,Sintang,Kalimantan Barat
262,78655,Sarai,61.05.20.2017,Sungai Tebelian,Kabupaten,Sintang,Kalimantan Barat
263,78655,Sei/Sungai Ukoi,61.05.20.2002,Sungai Tebelian,Kabupaten,Sintang,Kalimantan Barat
264,78655,Solam Raya,61.05.20.2014,Sungai Tebelian,Kabupaten,Sintang,Kalimantan Barat
265,79273,Karimunting,61.07.15.2004,Sungai Raya Kepulauan,Kabupaten,Bengkayang,Kalimantan Barat
266,79273,Pulau Lemukutan,61.07.15.2005,Sungai Raya Kepulauan,Kabupaten,Bengkayang,Kalimantan Barat
267,79273,Rukma Jaya,61.07.15.2001,Sungai Raya Kepulauan,Kabupaten,Bengkayang,Kalimantan Barat
268,79273,Sei/Sungai Keran,61.07.15.2002,Sungai Raya Kepulauan,Kabupaten,Bengkayang,Kalimantan Barat
269,79273,Sei/Sungai Raya,61.07.15.2003,Sungai Raya Kepulauan,Kabupaten,Bengkayang,Kalimantan Barat
270,78391,Arang Limbung,61.12.01.2003,Sungai Raya,Kabupaten,Kubu Raya,Kalimantan Barat
271,78391,Gunungtamang (Gunung Tamang),61.12.01.2009,Sungai Raya,Kabupaten,Kubu Raya,Kalimantan Barat
272,78391,Kalibandung (Kali Bandung),61.12.01.2019,Sungai Raya,Kabupaten,Kubu Raya,Kalimantan Barat
273,78234,Kapur,61.12.01.2008,Sungai Raya,Kabupaten,Kubu Raya,Kalimantan Barat
274,78391,Kuala Dua,61.12.01.2004,Sungai Raya,Kabupaten,Kubu Raya,Kalimantan Barat
275,78391,Limbung,61.12.01.2011,Sungai Raya,Kabupaten,Kubu Raya,Kalimantan Barat
276,78391,Madu Sari,61.12.01.2013,Sungai Raya,Kabupaten,Kubu Raya,Kalimantan Barat
277,78391,Mekar Baru,61.12.01.2015,Sungai Raya,Kabupaten,Kubu Raya,Kalimantan Barat
278,78391,Mekar Sari,61.12.01.2014,Sungai Raya,Kabupaten,Kubu Raya,Kalimantan Barat
279,78391,Muara Baru,61.12.01.2020,Sungai Raya,Kabupaten,Kubu Raya,Kalimantan Barat
280,78391,Parit Dalam,61.12.01.2017,Sungai Raya,Kabupaten,Kubu Raya,Kalimantan Barat
281,78391,Permata Jaya,61.12.01.2022,Sungai Raya,Kabupaten,Kubu Raya,Kalimantan Barat
282,78391,Pulau Jambu,61.12.01.2018,Sungai Raya,Kabupaten,Kubu Raya,Kalimantan Barat
283,78391,Pulaulimbung (Pulau Limbung),61.12.01.2007,Sungai Raya,Kabupaten,Kubu Raya,Kalimantan Barat
284,79272,Sei/Sungai Duri,61.07.01.2001,Sungai Raya,Kabupaten,Bengkayang,Kalimantan Barat
285,79272,Sei/Sungai Jaga A,61.07.01.2004,Sungai Raya,Kabupaten,Bengkayang,Kalimantan Barat
286,79272,Sei/Sungai Jaga B,61.07.01.2005,Sungai Raya,Kabupaten,Bengkayang,Kalimantan Barat
287,79272,Sei/Sungai Pangkalan I,61.07.01.2006,Sungai Raya,Kabupaten,Bengkayang,Kalimantan Barat
288,79272,Sei/Sungai Pangkalan II,61.07.01.2007,Sungai Raya,Kabupaten,Bengkayang,Kalimantan Barat
289,78391,Sukulanting,61.12.01.2021,Sungai Raya,Kabupaten,Kubu Raya,Kalimantan Barat
290,78391,Sungai Ambangah,61.12.01.2002,Sungai Raya,Kabupaten,Kubu Raya,Kalimantan Barat
291,78391,Sungai Asam,61.12.01.2006,Sungai Raya,Kabupaten,Kubu Raya,Kalimantan Barat
292,78391,Sungai Bulan,61.12.01.2010,Sungai Raya,Kabupaten,Kubu Raya,Kalimantan Barat
293,78391,Sungai Raya,61.12.01.2001,Sungai Raya,Kabupaten,Kubu Raya,Kalimantan Barat
294,78391,Sungai Raya Dalam,61.12.01.2016,Sungai Raya,Kabupaten,Kubu Raya,Kalimantan Barat
295,78391,Tebang Kacang,61.12.01.2005,Sungai Raya,Kabupaten,Kubu Raya,Kalimantan Barat
296,78391,Telukkapuas (Teluk Kapuas),61.12.01.2012,Sungai Raya,Kabupaten,Kubu Raya,Kalimantan Barat
297,78354,Galang (Jalan Galang),61.02.07.2008,Sungai Pinyuh (Sei Pinyuh),Kabupaten,Mempawah,Kalimantan Barat
298,78354,Nusapati,61.02.07.2007,Sungai Pinyuh (Sei Pinyuh),Kabupaten,Mempawah,Kalimantan Barat
299,78354,Peniraman,61.02.07.2006,Sungai Pinyuh (Sei Pinyuh),Kabupaten,Mempawah,Kalimantan Barat
300,78354,Sei/Sungai Bakau Besar Laut,61.02.07.2004,Sungai Pinyuh (Sei Pinyuh),Kabupaten,Mempawah,Kalimantan Barat
301,78354,Sei/Sungai Batang,61.02.07.2005,Sungai Pinyuh (Sei Pinyuh),Kabupaten,Mempawah,Kalimantan Barat
302,78354,Sei/Sungai Pinyuh,61.02.07.1011,Sungai Pinyuh (Sei Pinyuh),Kabupaten,Mempawah,Kalimantan Barat
303,78354,Sei/Sungai Purun Kecil,61.02.07.2003,Sungai Pinyuh (Sei Pinyuh),Kabupaten,Mempawah,Kalimantan Barat
304,78354,Sei/Sungai Rasau,61.02.07.2001,Sungai Pinyuh (Sei Pinyuh),Kabupaten,Mempawah,Kalimantan Barat
305,78354,Sungai Rasau Besar Darat (Sei Bakau Besar Darat),61.02.07.2002,Sungai Pinyuh (Sei Pinyuh),Kabupaten,Mempawah,Kalimantan Barat
306,78875,Beringin Jaya,61.04.25.2001,Sungai Melayu Rayak,Kabupaten,Ketapang,Kalimantan Barat
307,78875,Jairan Jaya,61.04.25.2006,Sungai Melayu Rayak,Kabupaten,Ketapang,Kalimantan Barat
308,78875,Karya Mukti,61.04.25.2004,Sungai Melayu Rayak,Kabupaten,Ketapang,Kalimantan Barat
309,78875,Kepuluk,61.04.25.2007,Sungai Melayu Rayak,Kabupaten,Ketapang,Kalimantan Barat
310,78875,Makmur Abadi,61.04.25.2011,Sungai Melayu Rayak,Kabupaten,Ketapang,Kalimantan Barat
311,78875,Mekar Jaya,61.04.25.2010,Sungai Melayu Rayak,Kabupaten,Ketapang,Kalimantan Barat
312,78875,Piansak,61.04.25.2005,Sungai Melayu Rayak,Kabupaten,Ketapang,Kalimantan Barat
313,78875,Sei/Sungai Melayu,61.04.25.2009,Sungai Melayu Rayak,Kabupaten,Ketapang,Kalimantan Barat
314,78875,Sei/Sungai Melayu Baru,61.04.25.2002,Sungai Melayu Rayak,Kabupaten,Ketapang,Kalimantan Barat
315,78875,Sei/Sungai Melayu Jaya,61.04.25.2008,Sungai Melayu Rayak,Kabupaten,Ketapang,Kalimantan Barat
316,78875,Suka Mulia/Mulya,61.04.25.2003,Sungai Melayu Rayak,Kabupaten,Ketapang,Kalimantan Barat
317,78872,Bayun Sari (Banyun Sari),61.04.07.2009,Sungai Laur,Kabupaten,Ketapang,Kalimantan Barat
318,78872,Bengaras,61.04.07.2003,Sungai Laur,Kabupaten,Ketapang,Kalimantan Barat
319,78872,Harapan Baru,61.04.07.2007,Sungai Laur,Kabupaten,Ketapang,Kalimantan Barat
320,78872,Kepari,61.04.07.2017,Sungai Laur,Kabupaten,Ketapang,Kalimantan Barat
321,78872,Lanjut Mekar Sari,61.04.07.2016,Sungai Laur,Kabupaten,Ketapang,Kalimantan Barat
322,78872,Mekar Harapan,61.04.07.2013,Sungai Laur,Kabupaten,Ketapang,Kalimantan Barat
323,78872,Merabu Jaya,61.04.07.2019,Sungai Laur,Kabupaten,Ketapang,Kalimantan Barat
324,78872,Randau Limat,61.04.07.2008,Sungai Laur,Kabupaten,Ketapang,Kalimantan Barat
325,78872,Riam Bunut,61.04.07.2001,Sungai Laur,Kabupaten,Ketapang,Kalimantan Barat
326,78872,Selangkut Raya,61.04.07.2015,Sungai Laur,Kabupaten,Ketapang,Kalimantan Barat
327,78872,Sempurna,61.04.07.2002,Sungai Laur,Kabupaten,Ketapang,Kalimantan Barat
328,78872,Sepotong,61.04.07.2004,Sungai Laur,Kabupaten,Ketapang,Kalimantan Barat
329,78872,Sinar Kuri,61.04.07.2014,Sungai Laur,Kabupaten,Ketapang,Kalimantan Barat
330,78872,Sukaramai,61.04.07.2005,Sungai Laur,Kabupaten,Ketapang,Kalimantan Barat
331,78872,Sungai Daka,61.04.07.2012,Sungai Laur,Kabupaten,Ketapang,Kalimantan Barat
332,78872,Tanjung Beringin,61.04.07.2006,Sungai Laur,Kabupaten,Ketapang,Kalimantan Barat
333,78872,Tanjung Maju,61.04.07.2011,Sungai Laur,Kabupaten,Ketapang,Kalimantan Barat
334,78872,Teluk Bayur,61.04.07.2010,Sungai Laur,Kabupaten,Ketapang,Kalimantan Barat
335,78872,Teluk Mutiara,61.04.07.2018,Sungai Laur,Kabupaten,Ketapang,Kalimantan Barat
336,78371,Bukit Batu,61.02.12.2003,Sungai Kunyit,Kabupaten,Mempawah,Kalimantan Barat
337,78371,Mendalok,61.02.12.2010,Sungai Kunyit,Kabupaten,Mempawah,Kalimantan Barat
338,78371,Sei/Sungai Bundung Laut,61.02.12.2004,Sungai Kunyit,Kabupaten,Mempawah,Kalimantan Barat
339,78371,Sei/Sungai Dungun,61.02.12.2009,Sungai Kunyit,Kabupaten,Mempawah,Kalimantan Barat
340,78371,Sei/Sungai Duri I (Satu),61.02.12.2001,Sungai Kunyit,Kabupaten,Mempawah,Kalimantan Barat
341,78371,Sei/Sungai Duri II (Dua),61.02.12.2002,Sungai Kunyit,Kabupaten,Mempawah,Kalimantan Barat
342,78371,Sei/Sungai Kunyit Dalam,61.02.12.2006,Sungai Kunyit,Kabupaten,Mempawah,Kalimantan Barat
343,78371,Sei/Sungai Kunyit Hulu,61.02.12.2007,Sungai Kunyit,Kabupaten,Mempawah,Kalimantan Barat
344,78371,Sei/Sungai Kunyit Laut,61.02.12.2005,Sungai Kunyit,Kabupaten,Mempawah,Kalimantan Barat
345,78371,Sei/Sungai Limau,61.02.12.2008,Sungai Kunyit,Kabupaten,Mempawah,Kalimantan Barat
346,78371,Semparong Parit Raden,61.02.12.2011,Sungai Kunyit,Kabupaten,Mempawah,Kalimantan Barat
347,78371,Semudun,61.02.12.2012,Sungai Kunyit,Kabupaten,Mempawah,Kalimantan Barat
348,78380,Jeruju Besar,61.12.09.2003,Sungai Kakap,Kabupaten,Kubu Raya,Kalimantan Barat
349,78380,Kalimas,61.12.09.2008,Sungai Kakap,Kabupaten,Kubu Raya,Kalimantan Barat
350,78380,Pal Sembilan,61.12.09.2006,Sungai Kakap,Kabupaten,Kubu Raya,Kalimantan Barat
351,78380,Parit Keladi,61.12.09.2015,Sungai Kakap,Kabupaten,Kubu Raya,Kalimantan Barat
352,78380,Punggur Kapuas,61.12.09.2013,Sungai Kakap,Kabupaten,Kubu Raya,Kalimantan Barat
353,78380,Pungur Besar (Punggur Besar),61.12.09.2010,Sungai Kakap,Kabupaten,Kubu Raya,Kalimantan Barat
354,78380,Pungur Kecil (Punggur Kecil),61.12.09.2009,Sungai Kakap,Kabupaten,Kubu Raya,Kalimantan Barat
355,78380,Rengas Kapuas,61.12.09.2014,Sungai Kakap,Kabupaten,Kubu Raya,Kalimantan Barat
356,78380,Sepuk Laut,61.12.09.2012,Sungai Kakap,Kabupaten,Kubu Raya,Kalimantan Barat
357,78380,Sungai Belidak,61.12.09.2007,Sungai Kakap,Kabupaten,Kubu Raya,Kalimantan Barat
358,78380,Sungai Itik,61.12.09.2002,Sungai Kakap,Kabupaten,Kubu Raya,Kalimantan Barat
359,78380,Sungai Kakap,61.12.09.2001,Sungai Kakap,Kabupaten,Kubu Raya,Kalimantan Barat
360,78380,Sungai Kupah,61.12.09.2004,Sungai Kakap,Kabupaten,Kubu Raya,Kalimantan Barat
361,78380,Sungai Rengas,61.12.09.2005,Sungai Kakap,Kabupaten,Kubu Raya,Kalimantan Barat
362,78380,Tanjung Saleh,61.12.09.2011,Sungai Kakap,Kabupaten,Kubu Raya,Kalimantan Barat
363,79211,Cipta Karya,61.07.14.2001,Sungai Betung,Kabupaten,Bengkayang,Kalimantan Barat
364,79211,Karya Bhakti,61.07.14.2003,Sungai Betung,Kabupaten,Bengkayang,Kalimantan Barat
365,79211,Suka Bangun,61.07.14.2002,Sungai Betung,Kabupaten,Bengkayang,Kalimantan Barat
366,79211,Suka Maju,61.07.14.2004,Sungai Betung,Kabupaten,Bengkayang,Kalimantan Barat
367,78393,Ampera Raya,61.12.03.2014,Sungai Ambawang,Kabupaten,Kubu Raya,Kalimantan Barat
368,78393,Bengkarek,61.12.03.2003,Sungai Ambawang,Kabupaten,Kubu Raya,Kalimantan Barat
369,78393,Durian,61.12.03.2007,Sungai Ambawang,Kabupaten,Kubu Raya,Kalimantan Barat
370,78393,Jawa Tengah,61.12.03.2006,Sungai Ambawang,Kabupaten,Kubu Raya,Kalimantan Barat
371,78393,Korek,61.12.03.2010,Sungai Ambawang,Kabupaten,Kubu Raya,Kalimantan Barat
372,78393,Lingga,61.12.03.2004,Sungai Ambawang,Kabupaten,Kubu Raya,Kalimantan Barat
373,78393,Mega Timur,61.12.03.2002,Sungai Ambawang,Kabupaten,Kubu Raya,Kalimantan Barat
374,78393,Pancaroba,61.12.03.2008,Sungai Ambawang,Kabupaten,Kubu Raya,Kalimantan Barat
375,78393,Pasak,61.12.03.2011,Sungai Ambawang,Kabupaten,Kubu Raya,Kalimantan Barat
376,78393,Pasak Piang,61.12.03.2012,Sungai Ambawang,Kabupaten,Kubu Raya,Kalimantan Barat
377,78393,Puguk,61.12.03.2009,Sungai Ambawang,Kabupaten,Kubu Raya,Kalimantan Barat
378,78393,Simpang Kanan,61.12.03.2001,Sungai Ambawang,Kabupaten,Kubu Raya,Kalimantan Barat
379,78393,Sungai Ambawang Kuala,61.12.03.2005,Sungai Ambawang,Kabupaten,Kubu Raya,Kalimantan Barat
380,78393,Sungai Malaya,61.12.03.2015,Sungai Ambawang,Kabupaten,Kubu Raya,Kalimantan Barat
381,78393,Teluk Bakung,61.12.03.2013,Sungai Ambawang,Kabupaten,Kubu Raya,Kalimantan Barat
382,78852,Benawai Agung,61.11.01.2005,Sukadana,Kabupaten,Kayong Utara,Kalimantan Barat
383,78852,Gunungsembilan (Gunung Sembilan),61.11.01.2009,Sukadana,Kabupaten,Kayong Utara,Kalimantan Barat
384,78852,Harapan Mulia,61.11.01.2006,Sukadana,Kabupaten,Kayong Utara,Kalimantan Barat
385,78852,Pampang Harapan,61.11.01.2007,Sukadana,Kabupaten,Kayong Utara,Kalimantan Barat
386,78852,Pangkalan Buton,61.11.01.2002,Sukadana,Kabupaten,Kayong Utara,Kalimantan Barat
387,78852,Riam Berasap Jaya,61.11.01.2010,Sukadana,Kabupaten,Kayong Utara,Kalimantan Barat
388,78852,Sedahan Jaya,61.11.01.2008,Sukadana,Kabupaten,Kayong Utara,Kalimantan Barat
389,78852,Sejahtera,61.11.01.2003,Sukadana,Kabupaten,Kayong Utara,Kalimantan Barat
390,78852,Simpang Tiga,61.11.01.2004,Sukadana,Kabupaten,Kayong Utara,Kalimantan Barat
391,78852,Sutera (Sutra),61.11.01.2001,Sukadana,Kabupaten,Kayong Utara,Kalimantan Barat
392,78775,Jongkong Hulu,61.06.22.2009,Suhaid,Kabupaten,Kapuas Hulu,Kalimantan Barat
393,78775,Kerengas,61.06.22.2003,Suhaid,Kabupaten,Kapuas Hulu,Kalimantan Barat
394,78775,Laut Tawang,61.06.22.2008,Suhaid,Kabupaten,Kapuas Hulu,Kalimantan Barat
395,78775,Lubuk Pengail,61.06.22.2011,Suhaid,Kabupaten,Kapuas Hulu,Kalimantan Barat
396,78775,Madang Permai,61.06.22.2007,Suhaid,Kabupaten,Kapuas Hulu,Kalimantan Barat
397,78775,Mantan,61.06.22.2004,Suhaid,Kabupaten,Kapuas Hulu,Kalimantan Barat
398,78775,Menapar,61.06.22.2010,Suhaid,Kabupaten,Kapuas Hulu,Kalimantan Barat
399,78775,Mensusai,61.06.22.2001,Suhaid,Kabupaten,Kapuas Hulu,Kalimantan Barat
400,78775,Nanga Suhaid,61.06.22.2005,Suhaid,Kabupaten,Kapuas Hulu,Kalimantan Barat
401,78775,Tanjung (Tanjung Kapuas),61.06.22.2006,Suhaid,Kabupaten,Kapuas Hulu,Kalimantan Barat
402,78775,Tanjung Harapan,61.06.22.2012,Suhaid,Kabupaten,Kapuas Hulu,Kalimantan Barat
403,79417,Arga Pura,61.01.10.2012,Subah,Kabupaten,Sambas,Kalimantan Barat
404,79417,Balai Gemuruh,61.01.10.2001,Subah,Kabupaten,Sambas,Kalimantan Barat
405,79417,Bukit Mulya,61.01.10.2007,Subah,Kabupaten,Sambas,Kalimantan Barat
406,79417,Karaban Jaya,61.01.10.2011,Subah,Kabupaten,Sambas,Kalimantan Barat
407,79417,Madak,61.01.10.2003,Subah,Kabupaten,Sambas,Kalimantan Barat
408,79417,Mensade,61.01.10.2010,Subah,Kabupaten,Sambas,Kalimantan Barat
409,79417,Mukti Raharja,61.01.10.2008,Subah,Kabupaten,Sambas,Kalimantan Barat
410,79417,Sabung,61.01.10.2004,Subah,Kabupaten,Sambas,Kalimantan Barat
411,79417,Sapak Hulu Trans,61.01.10.2013,Subah,Kabupaten,Sambas,Kalimantan Barat
412,79417,Sempurna,61.01.10.2009,Subah,Kabupaten,Sambas,Kalimantan Barat
413,79417,Sungai Deden,61.01.10.2006,Subah,Kabupaten,Sambas,Kalimantan Barat
414,79417,Sungai Sapa' (Sungai Sapa),61.01.10.2002,Subah,Kabupaten,Sambas,Kalimantan Barat
415,79417,Tebuah Elok,61.01.10.2005,Subah,Kabupaten,Sambas,Kalimantan Barat
416,79361,Amawakng (Ambawang),61.08.13.2005,Sompak,Kabupaten,Landak,Kalimantan Barat
417,79361,Galar,61.08.13.2004,Sompak,Kabupaten,Landak,Kalimantan Barat
418,79361,Lingkonong,61.08.13.2003,Sompak,Kabupaten,Landak,Kalimantan Barat
419,79361,Pakumbang (Pak Kumbang),61.08.13.2007,Sompak,Kabupaten,Landak,Kalimantan Barat
420,79361,Pauh,61.08.13.2002,Sompak,Kabupaten,Landak,Kalimantan Barat
421,79361,Sompak,61.08.13.2001,Sompak,Kabupaten,Landak,Kalimantan Barat
422,79361,Tapakng (Tapanking / Tapang),61.08.13.2006,Sompak,Kabupaten,Landak,Kalimantan Barat
423,79675,Gelata,61.10.07.2006,Sokan,Kabupaten,Melawi,Kalimantan Barat
424,79675,Keluing Taja,61.10.07.2004,Sokan,Kabupaten,Melawi,Kalimantan Barat
425,79675,Landau Kabu,61.10.07.2017,Sokan,Kabupaten,Melawi,Kalimantan Barat
426,79675,Melana,61.10.07.2013,Sokan,Kabupaten,Melawi,Kalimantan Barat
427,79675,Muara Tanjung,61.10.07.2016,Sokan,Kabupaten,Melawi,Kalimantan Barat
428,79675,Nanga Betangai,61.10.07.2005,Sokan,Kabupaten,Melawi,Kalimantan Barat
429,79675,Nanga Libas,61.10.07.2008,Sokan,Kabupaten,Melawi,Kalimantan Barat
430,79675,Nanga Ora,61.10.07.2007,Sokan,Kabupaten,Melawi,Kalimantan Barat
431,79675,Nanga Potai,61.10.07.2014,Sokan,Kabupaten,Melawi,Kalimantan Barat
432,79675,Nanga Sokan,61.10.07.2001,Sokan,Kabupaten,Melawi,Kalimantan Barat
433,79675,Nanga Tangkit,61.10.07.2011,Sokan,Kabupaten,Melawi,Kalimantan Barat
434,79675,Penyengkuang,61.10.07.2012,Sokan,Kabupaten,Melawi,Kalimantan Barat
435,79675,Sepakat,61.10.07.2015,Sokan,Kabupaten,Melawi,Kalimantan Barat
436,79675,Sijau,61.10.07.2003,Sokan,Kabupaten,Melawi,Kalimantan Barat
437,79675,Tanjung Mahung,61.10.07.2018,Sokan,Kabupaten,Melawi,Kalimantan Barat
438,79675,Tanjung Sokan,61.10.07.2002,Sokan,Kabupaten,Melawi,Kalimantan Barat
439,79675,Telaga Raya,61.10.07.2009,Sokan,Kabupaten,Melawi,Kalimantan Barat
440,79675,Teluk Pongkal (Teluk Pangkal),61.10.07.2010,Sokan,Kabupaten,Melawi,Kalimantan Barat
441,78611,Akcaya,61.05.01.1016,Sintang,Kabupaten,Sintang,Kalimantan Barat
442,78611,Alai,61.05.01.1017,Sintang,Kabupaten,Sintang,Kalimantan Barat
443,78617,Anggah Jaya,61.05.01.2014,Sintang,Kabupaten,Sintang,Kalimantan Barat
444,78612,Baning Kota,61.05.01.2007,Sintang,Kabupaten,Sintang,Kalimantan Barat
445,78615,Batu Lalau,61.05.01.1023,Sintang,Kabupaten,Sintang,Kalimantan Barat
446,78611,Jerora Satu,61.05.01.2028,Sintang,Kabupaten,Sintang,Kalimantan Barat
447,78613,Kapuas Kanan Hilir,61.05.01.1004,Sintang,Kabupaten,Sintang,Kalimantan Barat
448,78614,Kapuas Kanan Hulu,61.05.01.1002,Sintang,Kabupaten,Sintang,Kalimantan Barat
449,78615,Kapuas Kiri Hilir,61.05.01.1005,Sintang,Kabupaten,Sintang,Kalimantan Barat
450,78616,Kapuas Kiri Hulu,61.05.01.1006,Sintang,Kabupaten,Sintang,Kalimantan Barat
451,78611,Kebiau Baru,61.05.01.2029,Sintang,Kabupaten,Sintang,Kalimantan Barat
452,78613,Kedabang,61.05.01.1021,Sintang,Kabupaten,Sintang,Kalimantan Barat
453,78612,Ladang,61.05.01.1001,Sintang,Kabupaten,Sintang,Kalimantan Barat
454,78617,Lalang Baru,61.05.01.2015,Sintang,Kabupaten,Sintang,Kalimantan Barat
455,78616,Mail Jampong,61.05.01.2027,Sintang,Kabupaten,Sintang,Kalimantan Barat
456,78615,Mekar Jaya,61.05.01.1022,Sintang,Kabupaten,Sintang,Kalimantan Barat
457,78613,Mengkurai,61.05.01.1020,Sintang,Kabupaten,Sintang,Kalimantan Barat
458,78616,Menyumbung Tengah,61.05.01.1024,Sintang,Kabupaten,Sintang,Kalimantan Barat
459,78618,Merti Guna,61.05.01.2012,Sintang,Kabupaten,Sintang,Kalimantan Barat
460,78616,Mungguk Bantok,61.05.01.2009,Sintang,Kabupaten,Sintang,Kalimantan Barat
461,78614,Rawa Mambok,61.05.01.1018,Sintang,Kabupaten,Sintang,Kalimantan Barat
462,78614,Sengkuang,61.05.01.1019,Sintang,Kabupaten,Sintang,Kalimantan Barat
463,78619,Sungai Ana,61.05.01.2011,Sintang,Kabupaten,Sintang,Kalimantan Barat
464,78611,Tanjung Kelansam,61.05.01.2013,Sintang,Kabupaten,Sintang,Kalimantan Barat
465,78611,Tanjung Puri,61.05.01.1003,Sintang,Kabupaten,Sintang,Kalimantan Barat
466,78616,Tebing Raya,61.05.01.2026,Sintang,Kabupaten,Sintang,Kalimantan Barat
467,78616,Teluk Kelansam,61.05.01.2010,Sintang,Kabupaten,Sintang,Kalimantan Barat
468,78616,Tertung (Tertong),61.05.01.2008,Sintang,Kabupaten,Sintang,Kalimantan Barat
469,78616,Ulak Jaya,61.05.01.1025,Sintang,Kabupaten,Sintang,Kalimantan Barat
470,78866,Bukit Kelambing,61.04.22.2003,Singkup,Kabupaten,Ketapang,Kalimantan Barat
471,78866,Muntai,61.04.22.2004,Singkup,Kabupaten,Ketapang,Kalimantan Barat
472,78866,Pantai Ketikal,61.04.22.2008,Singkup,Kabupaten,Ketapang,Kalimantan Barat
473,78866,Suka Mulia,61.04.22.2001,Singkup,Kabupaten,Ketapang,Kalimantan Barat
474,78866,Suka Sari (Sukasari),61.04.22.2005,Singkup,Kabupaten,Ketapang,Kalimantan Barat
475,78866,Sukaharja,61.04.22.2006,Singkup,Kabupaten,Ketapang,Kalimantan Barat
476,78866,Sukaraja,61.04.22.2002,Singkup,Kabupaten,Ketapang,Kalimantan Barat
477,78866,Tanah Hitam,61.04.22.2007,Singkup,Kabupaten,Ketapang,Kalimantan Barat
478,79151,Naram,61.72.04.1002,Singkawang Utara,Kota,Singkawang,Kalimantan Barat
479,79151,Sei/Sungai Bulan,61.72.04.1003,Singkawang Utara,Kota,Singkawang,Kalimantan Barat
480,79151,Sei/Sungai Garam Hilir,61.72.04.1001,Singkawang Utara,Kota,Singkawang,Kalimantan Barat
481,79151,Sei/Sungai Rasau,61.72.04.1004,Singkawang Utara,Kota,Singkawang,Kalimantan Barat
482,79151,Semelagi Kecil,61.72.04.1007,Singkawang Utara,Kota,Singkawang,Kalimantan Barat
483,79151,Setapuk Besar,61.72.04.1006,Singkawang Utara,Kota,Singkawang,Kalimantan Barat
484,79151,Setapuk Kecil,61.72.04.1005,Singkawang Utara,Kota,Singkawang,Kalimantan Barat
485,79251,Bagak Sahwa,61.72.03.1004,Singkawang Timur,Kota,Singkawang,Kalimantan Barat
486,79251,Maya Sopa (Mayasopa),61.72.03.1003,Singkawang Timur,Kota,Singkawang,Kalimantan Barat
487,79251,Nyarumkop (Nyarungkop),61.72.03.1002,Singkawang Timur,Kota,Singkawang,Kalimantan Barat
488,79251,Pajintan,61.72.03.1001,Singkawang Timur,Kota,Singkawang,Kalimantan Barat
489,79251,Sanggau Kulor (Sanggau Kolor),61.72.03.1005,Singkawang Timur,Kota,Singkawang,Kalimantan Barat
490,79114,Bukit Batu,61.72.01.1005,Singkawang Tengah,Kota,Singkawang,Kalimantan Barat
491,79111,Condong,61.72.01.1002,Singkawang Tengah,Kota,Singkawang,Kalimantan Barat
492,79116,Jawa,61.72.01.1004,Singkawang Tengah,Kota,Singkawang,Kalimantan Barat
493,79112,Roban,61.72.01.1001,Singkawang Tengah,Kota,Singkawang,Kalimantan Barat
494,79115,Sei/Sungai Wie,61.72.01.1006,Singkawang Tengah,Kota,Singkawang,Kalimantan Barat
495,79113,Sekip Lama,61.72.01.1003,Singkawang Tengah,Kota,Singkawang,Kalimantan Barat
496,79163,Pangmilang,61.72.05.1004,Singkawang Selatan,Kota,Singkawang,Kalimantan Barat
497,79163,Sagatani,61.72.05.1002,Singkawang Selatan,Kota,Singkawang,Kalimantan Barat
498,79163,Sedau,61.72.05.1001,Singkawang Selatan,Kota,Singkawang,Kalimantan Barat
499,79163,Sijangkung,61.72.05.1003,Singkawang Selatan,Kota,Singkawang,Kalimantan Barat
500,79124,Kuala,61.72.02.1004,Singkawang Barat,Kota,Singkawang,Kalimantan Barat
501,79122,Melayu,61.72.02.1002,Singkawang Barat,Kota,Singkawang,Kalimantan Barat
502,79123,Pasiran,61.72.02.1001,Singkawang Barat,Kota,Singkawang,Kalimantan Barat
503,79121,Tengah,61.72.02.1003,Singkawang Barat,Kota,Singkawang,Kalimantan Barat
504,78850,Balai Pinang,61.04.08.2001,Simpang Hulu,Kabupaten,Ketapang,Kalimantan Barat
505,78850,Balai Pinang Hulu,61.04.08.2015,Simpang Hulu,Kabupaten,Ketapang,Kalimantan Barat
506,78850,Botuh Bosi,61.04.08.2018,Simpang Hulu,Kabupaten,Ketapang,Kalimantan Barat
507,78850,Kenanga,61.04.08.2014,Simpang Hulu,Kabupaten,Ketapang,Kalimantan Barat
508,78850,Kualan Hilir,61.04.08.2010,Simpang Hulu,Kabupaten,Ketapang,Kalimantan Barat
509,78850,Kualan Hulu,61.04.08.2003,Simpang Hulu,Kabupaten,Ketapang,Kalimantan Barat
510,78850,Kualan Tengah,61.04.08.2009,Simpang Hulu,Kabupaten,Ketapang,Kalimantan Barat
511,78850,Labai Hilir,61.04.08.2017,Simpang Hulu,Kabupaten,Ketapang,Kalimantan Barat
512,78850,Legong,61.04.08.2013,Simpang Hulu,Kabupaten,Ketapang,Kalimantan Barat
513,78850,Merawa,61.04.08.2006,Simpang Hulu,Kabupaten,Ketapang,Kalimantan Barat
514,78850,Paoh Concong,61.04.08.2012,Simpang Hulu,Kabupaten,Ketapang,Kalimantan Barat
515,78850,Sekucing Kualan,61.04.08.2016,Simpang Hulu,Kabupaten,Ketapang,Kalimantan Barat
516,78850,Sekucing Labai,61.04.08.2011,Simpang Hulu,Kabupaten,Ketapang,Kalimantan Barat
517,78850,Semandang Hulu,61.04.08.2005,Simpang Hulu,Kabupaten,Ketapang,Kalimantan Barat
518,78850,Semandang Kiri,61.04.08.2002,Simpang Hulu,Kabupaten,Ketapang,Kalimantan Barat
519,78853,Batu Barat,61.11.02.2007,Simpang Hilir,Kabupaten,Kayong Utara,Kalimantan Barat
520,78853,Lubuk Batu,61.11.02.2012,Simpang Hilir,Kabupaten,Kayong Utara,Kalimantan Barat
521,78853,Matan Jaya,61.11.02.2010,Simpang Hilir,Kabupaten,Kayong Utara,Kalimantan Barat
522,78853,Medan Jaya,61.11.02.2011,Simpang Hilir,Kabupaten,Kayong Utara,Kalimantan Barat
523,78853,Nipah Kuning,61.11.02.2002,Simpang Hilir,Kabupaten,Kayong Utara,Kalimantan Barat
524,78853,Padu Banjar,61.11.02.2004,Simpang Hilir,Kabupaten,Kayong Utara,Kalimantan Barat
525,78853,Pemangkat,61.11.02.2003,Simpang Hilir,Kabupaten,Kayong Utara,Kalimantan Barat
526,78853,Penjalaan (Penjalaan Hilir),61.11.02.2005,Simpang Hilir,Kabupaten,Kayong Utara,Kalimantan Barat
527,78853,Pulaukumbang (Pulau Kumbang),61.11.02.2008,Simpang Hilir,Kabupaten,Kayong Utara,Kalimantan Barat
528,78853,Rantau Panjang,61.11.02.2009,Simpang Hilir,Kabupaten,Kayong Utara,Kalimantan Barat
529,78853,Sei/Sungai Mata Mata,61.11.02.2006,Simpang Hilir,Kabupaten,Kayong Utara,Kalimantan Barat
530,78853,Telukmelano (Teluk Melano),61.11.02.2001,Simpang Hilir,Kabupaten,Kayong Utara,Kalimantan Barat
531,78854,Batu Daya,61.04.20.2005,Simpang Dua,Kabupaten,Ketapang,Kalimantan Barat
532,78854,Gema,61.04.20.2002,Simpang Dua,Kabupaten,Ketapang,Kalimantan Barat
533,78854,Kamora,61.04.20.2006,Simpang Dua,Kabupaten,Ketapang,Kalimantan Barat
534,78854,Kampar Sebomban,61.04.20.2004,Simpang Dua,Kabupaten,Ketapang,Kalimantan Barat
535,78854,Mekar Raya,61.04.20.2003,Simpang Dua,Kabupaten,Ketapang,Kalimantan Barat
536,78854,Semandang Kanan,61.04.20.2001,Simpang Dua,Kabupaten,Ketapang,Kalimantan Barat
537,78774,Belimbing,61.06.16.2002,Silat Hulu,Kabupaten,Kapuas Hulu,Kalimantan Barat
538,78774,Dangkan Kota,61.06.16.2009,Silat Hulu,Kabupaten,Kapuas Hulu,Kalimantan Barat
539,78774,Entebi,61.06.16.2012,Silat Hulu,Kabupaten,Kapuas Hulu,Kalimantan Barat
540,78774,Landau Badai,61.06.16.2004,Silat Hulu,Kabupaten,Kapuas Hulu,Kalimantan Barat
541,78774,Landau Rantau,61.06.16.2011,Silat Hulu,Kabupaten,Kapuas Hulu,Kalimantan Barat
542,78774,Lebak Najah,61.06.16.2008,Silat Hulu,Kabupaten,Kapuas Hulu,Kalimantan Barat
543,78774,Nanga Dangkan (Nanga Dangkan I),61.06.16.2001,Silat Hulu,Kabupaten,Kapuas Hulu,Kalimantan Barat
544,78774,Nanga Luan,61.06.16.2006,Silat Hulu,Kabupaten,Kapuas Hulu,Kalimantan Barat
545,78774,Nanga Lungu,61.06.16.2005,Silat Hulu,Kabupaten,Kapuas Hulu,Kalimantan Barat
546,78774,Nanga Ngeri,61.06.16.2003,Silat Hulu,Kabupaten,Kapuas Hulu,Kalimantan Barat
547,78774,Perjuk,61.06.16.2010,Silat Hulu,Kabupaten,Kapuas Hulu,Kalimantan Barat
548,78774,Riam Tapang,61.06.16.2007,Silat Hulu,Kabupaten,Kapuas Hulu,Kalimantan Barat
549,78774,Selangkai,61.06.16.2013,Silat Hulu,Kabupaten,Kapuas Hulu,Kalimantan Barat
550,78774,Selimu,61.06.16.2014,Silat Hulu,Kabupaten,Kapuas Hulu,Kalimantan Barat
551,78773,Baru,61.06.15.2002,Silat Hilir,Kabupaten,Kapuas Hulu,Kalimantan Barat
552,78773,Bongkong,61.06.15.2009,Silat Hilir,Kabupaten,Kapuas Hulu,Kalimantan Barat
553,78773,Bukit Penai,61.06.15.2013,Silat Hilir,Kabupaten,Kapuas Hulu,Kalimantan Barat
554,78773,Miau Merah,61.06.15.2004,Silat Hilir,Kabupaten,Kapuas Hulu,Kalimantan Barat
555,78773,Nanga Nuar,61.06.15.2008,Silat Hilir,Kabupaten,Kapuas Hulu,Kalimantan Barat
556,78773,Pangeran,61.06.15.2003,Silat Hilir,Kabupaten,Kapuas Hulu,Kalimantan Barat
557,78773,Penai,61.06.15.2007,Silat Hilir,Kabupaten,Kapuas Hulu,Kalimantan Barat
558,78773,Perigi,61.06.15.2001,Silat Hilir,Kabupaten,Kapuas Hulu,Kalimantan Barat
559,78773,Rumbih,61.06.15.2012,Silat Hilir,Kabupaten,Kapuas Hulu,Kalimantan Barat
560,78773,Seberu,61.06.15.2010,Silat Hilir,Kabupaten,Kapuas Hulu,Kalimantan Barat
561,78773,Sei/Sungai Sena,61.06.15.2006,Silat Hilir,Kabupaten,Kapuas Hulu,Kalimantan Barat
562,78773,Sentabai,61.06.15.2011,Silat Hilir,Kabupaten,Kapuas Hulu,Kalimantan Barat
563,78773,Setunggul,61.06.15.2005,Silat Hilir,Kabupaten,Kapuas Hulu,Kalimantan Barat
564,79287,Hli Buei,61.07.12.2005,Siding,Kabupaten,Bengkayang,Kalimantan Barat
565,79287,Siding,61.07.12.2004,Siding,Kabupaten,Bengkayang,Kalimantan Barat
566,79287,Sungkung I,61.07.12.2002,Siding,Kabupaten,Bengkayang,Kalimantan Barat
567,79287,Sungkung II,61.07.12.2007,Siding,Kabupaten,Bengkayang,Kalimantan Barat
568,79287,Sungkung III,61.07.12.2008,Siding,Kabupaten,Bengkayang,Kalimantan Barat
569,79287,Tamong,61.07.12.2009,Siding,Kabupaten,Bengkayang,Kalimantan Barat
570,79287,Tangguh,61.07.12.2006,Siding,Kabupaten,Bengkayang,Kalimantan Barat
571,79287,Tawang,61.07.12.2010,Siding,Kabupaten,Bengkayang,Kalimantan Barat
572,78683,Baras Nabun,61.05.14.2011,Serawai,Kabupaten,Sintang,Kalimantan Barat
573,78683,Batu Ketebung,61.05.14.2026,Serawai,Kabupaten,Sintang,Kalimantan Barat
574,78683,Bedaha,61.05.14.2003,Serawai,Kabupaten,Sintang,Kalimantan Barat
575,78683,Begori,61.05.14.2004,Serawai,Kabupaten,Sintang,Kalimantan Barat
576,78683,Buntut Ponte,61.05.14.2009,Serawai,Kabupaten,Sintang,Kalimantan Barat
577,78683,Gurung Senghiang,61.05.14.2019,Serawai,Kabupaten,Sintang,Kalimantan Barat
578,78683,Karya Jaya,61.05.14.2007,Serawai,Kabupaten,Sintang,Kalimantan Barat
579,78683,Limbur Bernaung Lestari,61.05.14.2035,Serawai,Kabupaten,Sintang,Kalimantan Barat
580,78683,Mekar Sari,61.05.14.2028,Serawai,Kabupaten,Sintang,Kalimantan Barat
581,78683,Mensulung Bio,61.05.14.2036,Serawai,Kabupaten,Sintang,Kalimantan Barat
582,78683,Mentajoi,61.05.14.2022,Serawai,Kabupaten,Sintang,Kalimantan Barat
583,78683,Merako Jaya,61.05.14.2015,Serawai,Kabupaten,Sintang,Kalimantan Barat
584,78683,Meroboi,61.05.14.2032,Serawai,Kabupaten,Sintang,Kalimantan Barat
585,78683,Muara Kota,61.05.14.2027,Serawai,Kabupaten,Sintang,Kalimantan Barat
586,78683,Nanga Bihe,61.05.14.2023,Serawai,Kabupaten,Sintang,Kalimantan Barat
587,78683,Nanga Jelundung,61.05.14.2012,Serawai,Kabupaten,Sintang,Kalimantan Barat
588,78683,Nanga Mentatai,61.05.14.2002,Serawai,Kabupaten,Sintang,Kalimantan Barat
589,78683,Nanga Riyoi,61.05.14.2008,Serawai,Kabupaten,Sintang,Kalimantan Barat
590,78683,Nanga Ruhan,61.05.14.2031,Serawai,Kabupaten,Sintang,Kalimantan Barat
591,78683,Nanga Segulang,61.05.14.2010,Serawai,Kabupaten,Sintang,Kalimantan Barat
592,78683,Nanga Serawai,61.05.14.2001,Serawai,Kabupaten,Sintang,Kalimantan Barat
593,78683,Nanga Tangoi,61.05.14.2038,Serawai,Kabupaten,Sintang,Kalimantan Barat
594,78683,Nanga Tekungai,61.05.14.2024,Serawai,Kabupaten,Sintang,Kalimantan Barat
595,78683,Nusa Tujuh,61.05.14.2030,Serawai,Kabupaten,Sintang,Kalimantan Barat
596,78683,Pagar Lebata,61.05.14.2005,Serawai,Kabupaten,Sintang,Kalimantan Barat
597,78683,Panekasan,61.05.14.2033,Serawai,Kabupaten,Sintang,Kalimantan Barat
598,78683,Rantau Malam,61.05.14.2021,Serawai,Kabupaten,Sintang,Kalimantan Barat
599,78683,Sabhang Landan,61.05.14.2037,Serawai,Kabupaten,Sintang,Kalimantan Barat
600,78683,Sawang Senghiang,61.05.14.2016,Serawai,Kabupaten,Sintang,Kalimantan Barat
601,78683,Tahai Permai,61.05.14.2014,Serawai,Kabupaten,Sintang,Kalimantan Barat
602,78683,Talian Sahabung,61.05.14.2025,Serawai,Kabupaten,Sintang,Kalimantan Barat
603,78683,Tamakung,61.05.14.2034,Serawai,Kabupaten,Sintang,Kalimantan Barat
604,78683,Tanjung Baru,61.05.14.2029,Serawai,Kabupaten,Sintang,Kalimantan Barat
605,78683,Tanjung Harapan,61.05.14.2020,Serawai,Kabupaten,Sintang,Kalimantan Barat
606,78683,Tanjung Raya,61.05.14.2013,Serawai,Kabupaten,Sintang,Kalimantan Barat
607,78683,Teluk Harapan,61.05.14.2018,Serawai,Kabupaten,Sintang,Kalimantan Barat
608,78683,Tontang,61.05.14.2006,Serawai,Kabupaten,Sintang,Kalimantan Barat
609,78683,Tunas Harapan,61.05.14.2017,Serawai,Kabupaten,Sintang,Kalimantan Barat
610,78857,Durian Sebatang,61.11.05.2006,Seponti,Kabupaten,Kayong Utara,Kalimantan Barat
611,78857,Podorukun (Podo Rukun),61.11.05.2004,Seponti,Kabupaten,Kayong Utara,Kalimantan Barat
612,78857,Sei/Sungai Sepeti,61.11.05.2005,Seponti,Kabupaten,Kayong Utara,Kalimantan Barat
613,78857,Seponti Jaya,61.11.05.2001,Seponti,Kabupaten,Kayong Utara,Kalimantan Barat
614,78857,Telaga Arum,61.11.05.2002,Seponti,Kabupaten,Kayong Utara,Kalimantan Barat
615,78857,Wonorejo,61.11.05.2003,Seponti,Kabupaten,Kayong Utara,Kalimantan Barat
616,78662,Bangun,61.05.03.2026,Sepauk,Kabupaten,Sintang,Kalimantan Barat
617,78662,Bedayan,61.05.03.2022,Sepauk,Kabupaten,Sintang,Kalimantan Barat
618,78662,Bernayau,61.05.03.2014,Sepauk,Kabupaten,Sintang,Kalimantan Barat
619,78662,Buluh Kuning,61.05.03.2017,Sepauk,Kabupaten,Sintang,Kalimantan Barat
620,78662,Ensabang,61.05.03.2008,Sepauk,Kabupaten,Sintang,Kalimantan Barat
621,78662,Gernis Jaya,61.05.03.2020,Sepauk,Kabupaten,Sintang,Kalimantan Barat
622,78662,Kemantan,61.05.03.2028,Sepauk,Kabupaten,Sintang,Kalimantan Barat
623,78662,Kenyauk,61.05.03.2004,Sepauk,Kabupaten,Sintang,Kalimantan Barat
624,78662,Landau Panjang,61.05.03.2025,Sepauk,Kabupaten,Sintang,Kalimantan Barat
625,78662,Lengkenat,61.05.03.2005,Sepauk,Kabupaten,Sintang,Kalimantan Barat
626,78662,Limau Bakti,61.05.03.2037,Sepauk,Kabupaten,Sintang,Kalimantan Barat
627,78662,Mait Hilir,61.05.03.2009,Sepauk,Kabupaten,Sintang,Kalimantan Barat
628,78662,Manis Raya,61.05.03.2006,Sepauk,Kabupaten,Sintang,Kalimantan Barat
629,78662,Nanga Layung,61.05.03.2036,Sepauk,Kabupaten,Sintang,Kalimantan Barat
630,78662,Nanga Libau,61.05.03.2013,Sepauk,Kabupaten,Sintang,Kalimantan Barat
631,78662,Nanga Pari,61.05.03.2016,Sepauk,Kabupaten,Sintang,Kalimantan Barat
632,78662,Nanga Sepauk,61.05.03.2001,Sepauk,Kabupaten,Sintang,Kalimantan Barat
633,78662,Paoh Benua,61.05.03.2021,Sepauk,Kabupaten,Sintang,Kalimantan Barat
634,78662,Peninsung,61.05.03.2029,Sepauk,Kabupaten,Sintang,Kalimantan Barat
635,78662,Riam Kempadik,61.05.03.2035,Sepauk,Kabupaten,Sintang,Kalimantan Barat
636,78662,Sekubang,61.05.03.2003,Sepauk,Kabupaten,Sintang,Kalimantan Barat
637,78662,Sekujam Timbai,61.05.03.2010,Sepauk,Kabupaten,Sintang,Kalimantan Barat
638,78662,Semuntai,61.05.03.2011,Sepauk,Kabupaten,Sintang,Kalimantan Barat
639,78662,Sepulut,61.05.03.2030,Sepauk,Kabupaten,Sintang,Kalimantan Barat
640,78662,Sinar Harapan,61.05.03.2034,Sepauk,Kabupaten,Sintang,Kalimantan Barat
641,78662,Sinar Pekayau,61.05.03.2015,Sepauk,Kabupaten,Sintang,Kalimantan Barat
642,78662,Sirang Setambang,61.05.03.2012,Sepauk,Kabupaten,Sintang,Kalimantan Barat
643,78662,Sukau Bersatu,61.05.03.2027,Sepauk,Kabupaten,Sintang,Kalimantan Barat
644,78662,Sungai Jaung,61.05.03.2040,Sepauk,Kabupaten,Sintang,Kalimantan Barat
645,78662,Sungai Raya,61.05.03.2024,Sepauk,Kabupaten,Sintang,Kalimantan Barat
646,78662,Sungai Segak,61.05.03.2032,Sepauk,Kabupaten,Sintang,Kalimantan Barat
647,78662,Tanjung Balai,61.05.03.2033,Sepauk,Kabupaten,Sintang,Kalimantan Barat
648,78662,Tanjung Hulu,61.05.03.2023,Sepauk,Kabupaten,Sintang,Kalimantan Barat
649,78662,Tanjung Mawang,61.05.03.2038,Sepauk,Kabupaten,Sintang,Kalimantan Barat
650,78662,Tanjung Ria,61.05.03.2002,Sepauk,Kabupaten,Sintang,Kalimantan Barat
651,78662,Tawang Sari,61.05.03.2019,Sepauk,Kabupaten,Sintang,Kalimantan Barat
652,78662,Temawang Bulai,61.05.03.2031,Sepauk,Kabupaten,Sintang,Kalimantan Barat
653,78662,Temawang Muntai,61.05.03.2018,Sepauk,Kabupaten,Sintang,Kalimantan Barat
654,78662,Temiang Kapuas,61.05.03.2007,Sepauk,Kabupaten,Sintang,Kalimantan Barat
655,79356,Andeng,61.08.07.2005,Sengah Temila,Kabupaten,Landak,Kalimantan Barat
656,79356,Aur Sampuk,61.08.07.2012,Sengah Temila,Kabupaten,Landak,Kalimantan Barat
657,79356,Banying,61.08.07.2008,Sengah Temila,Kabupaten,Landak,Kalimantan Barat
658,79356,Gombang,61.08.07.2013,Sengah Temila,Kabupaten,Landak,Kalimantan Barat
659,79356,Keranji Mancal,61.08.07.2010,Sengah Temila,Kabupaten,Landak,Kalimantan Barat
660,79356,Keranji Paidang,61.08.07.2011,Sengah Temila,Kabupaten,Landak,Kalimantan Barat
661,79356,Pahauman,61.08.07.2001,Sengah Temila,Kabupaten,Landak,Kalimantan Barat
662,79356,Paloan,61.08.07.2002,Sengah Temila,Kabupaten,Landak,Kalimantan Barat
663,79356,Rabak,61.08.07.2014,Sengah Temila,Kabupaten,Landak,Kalimantan Barat
664,79356,Saham,61.08.07.2004,Sengah Temila,Kabupaten,Landak,Kalimantan Barat
665,79356,Sebatih,61.08.07.2003,Sengah Temila,Kabupaten,Landak,Kalimantan Barat
666,79356,Senakin,61.08.07.2006,Sengah Temila,Kabupaten,Landak,Kalimantan Barat
667,79356,Sidas,61.08.07.2009,Sengah Temila,Kabupaten,Landak,Kalimantan Barat
668,79356,Tonang,61.08.07.2007,Sengah Temila,Kabupaten,Landak,Kalimantan Barat
669,79457,Seburing,61.01.13.2005,Semparuk,Kabupaten,Sambas,Kalimantan Barat
670,79457,Semparuk,61.01.13.2002,Semparuk,Kabupaten,Sambas,Kalimantan Barat
671,79457,Sepadu,61.01.13.2004,Semparuk,Kabupaten,Sambas,Kalimantan Barat
672,79457,Sepinggan,61.01.13.2003,Semparuk,Kabupaten,Sambas,Kalimantan Barat
673,79457,Singa Raya (Singaraya),61.01.13.2001,Semparuk,Kabupaten,Sambas,Kalimantan Barat
674,78771,Entipan,61.06.10.2004,Semitau,Kabupaten,Kapuas Hulu,Kalimantan Barat
675,78771,Kenepai Komplek,61.06.10.2005,Semitau,Kabupaten,Kapuas Hulu,Kalimantan Barat
676,78771,Kenerak,61.06.10.2002,Semitau,Kabupaten,Kapuas Hulu,Kalimantan Barat
677,78771,Marsedan Raya,61.06.10.2010,Semitau,Kabupaten,Kapuas Hulu,Kalimantan Barat
678,78771,Nanga Kenepai,61.06.10.2007,Semitau,Kabupaten,Kapuas Hulu,Kalimantan Barat
679,78771,Nanga Lemedak,61.06.10.2009,Semitau,Kabupaten,Kapuas Hulu,Kalimantan Barat
680,78771,Nanga Seberuang,61.06.10.2003,Semitau,Kabupaten,Kapuas Hulu,Kalimantan Barat
681,78771,Padung Kumang,61.06.10.2011,Semitau,Kabupaten,Kapuas Hulu,Kalimantan Barat
682,78771,Sekedau,61.06.10.2012,Semitau,Kabupaten,Kapuas Hulu,Kalimantan Barat
683,78771,Semitau Hilir,61.06.10.2006,Semitau,Kabupaten,Kapuas Hulu,Kalimantan Barat
684,78771,Semitau Hulu,61.06.10.2001,Semitau,Kabupaten,Kapuas Hulu,Kalimantan Barat
685,78771,Tua' Abang (Tua Abang),61.06.10.2008,Semitau,Kabupaten,Kapuas Hulu,Kalimantan Barat
686,79285,Bengkawan,61.07.05.2002,Seluas,Kabupaten,Bengkayang,Kalimantan Barat
687,79285,Kalon,61.07.05.2005,Seluas,Kabupaten,Bengkayang,Kalimantan Barat
688,79285,Mayak,61.07.05.2004,Seluas,Kabupaten,Bengkayang,Kalimantan Barat
689,79285,Sahan,61.07.05.2003,Seluas,Kabupaten,Bengkayang,Kalimantan Barat
690,79285,Seluas,61.07.05.2001,Seluas,Kabupaten,Bengkayang,Kalimantan Barat
691,79285,Setangau Jaya (Sentangau Jaya),61.07.05.2006,Seluas,Kabupaten,Bengkayang,Kalimantan Barat
692,78765,Benuis,61.06.09.2008,Selimbau,Kabupaten,Kapuas Hulu,Kalimantan Barat
693,78765,Dalam,61.06.09.2003,Selimbau,Kabupaten,Kapuas Hulu,Kalimantan Barat
694,78765,Engkerengas,61.06.09.2006,Selimbau,Kabupaten,Kapuas Hulu,Kalimantan Barat
695,78765,Gerayau,61.06.09.2007,Selimbau,Kabupaten,Kapuas Hulu,Kalimantan Barat
696,78765,Gudang Hilir,61.06.09.2002,Selimbau,Kabupaten,Kapuas Hulu,Kalimantan Barat
697,78765,Gudang Hulu,61.06.09.2001,Selimbau,Kabupaten,Kapuas Hulu,Kalimantan Barat
698,78765,Mawan,61.06.09.2018,Selimbau,Kabupaten,Kapuas Hulu,Kalimantan Barat
699,78765,Nanga Leboyan,61.06.09.2016,Selimbau,Kabupaten,Kapuas Hulu,Kalimantan Barat
700,78765,Nibung,61.06.09.2004,Selimbau,Kabupaten,Kapuas Hulu,Kalimantan Barat
701,78765,Piasak Hilir,61.06.09.2005,Selimbau,Kabupaten,Kapuas Hulu,Kalimantan Barat
702,78765,Piasak Hulu,61.06.09.2014,Selimbau,Kabupaten,Kapuas Hulu,Kalimantan Barat
703,78765,Sekubah,61.06.09.2013,Selimbau,Kabupaten,Kapuas Hulu,Kalimantan Barat
704,78765,Sekulat,61.06.09.2015,Selimbau,Kabupaten,Kapuas Hulu,Kalimantan Barat
705,78765,Semalah,61.06.09.2019,Selimbau,Kabupaten,Kapuas Hulu,Kalimantan Barat
706,78765,Tempurau,61.06.09.2020,Selimbau,Kabupaten,Kapuas Hulu,Kalimantan Barat
707,78765,Titian Kuala,61.06.09.2012,Selimbau,Kabupaten,Kapuas Hulu,Kalimantan Barat
708,78765,Vega,61.06.09.2017,Selimbau,Kabupaten,Kapuas Hulu,Kalimantan Barat
709,79451,Buduk Sempadang,61.01.19.2004,Selakau Timur,Kabupaten,Sambas,Kalimantan Barat
710,79451,Gelik,61.01.19.2001,Selakau Timur,Kabupaten,Sambas,Kalimantan Barat
711,79451,Selakau Tua,61.01.19.2003,Selakau Timur,Kabupaten,Sambas,Kalimantan Barat
712,79451,Seranggam,61.01.19.2002,Selakau Timur,Kabupaten,Sambas,Kalimantan Barat
713,79452,Bentunai,61.01.07.2008,Selakau,Kabupaten,Sambas,Kalimantan Barat
714,79452,Gayung Bersambut,61.01.07.2015,Selakau,Kabupaten,Sambas,Kalimantan Barat
715,79452,Kuala,61.01.07.2005,Selakau,Kabupaten,Sambas,Kalimantan Barat
716,79452,Pangkalan Bemban,61.01.07.2013,Selakau,Kabupaten,Sambas,Kalimantan Barat
717,79452,Parit Baru,61.01.07.2006,Selakau,Kabupaten,Sambas,Kalimantan Barat
718,79452,Parit Kongsi,61.01.07.2014,Selakau,Kabupaten,Sambas,Kalimantan Barat
719,79452,Semelagi Besar,61.01.07.2001,Selakau,Kabupaten,Sambas,Kalimantan Barat
720,79452,Sungai Daun,61.01.07.2002,Selakau,Kabupaten,Sambas,Kalimantan Barat
721,79452,Sungai Nyirih,61.01.07.2004,Selakau,Kabupaten,Sambas,Kalimantan Barat
722,79452,Sungai Rusa,61.01.07.2003,Selakau,Kabupaten,Sambas,Kalimantan Barat
723,79452,Twi Mentibar,61.01.07.2007,Selakau,Kabupaten,Sambas,Kalimantan Barat
724,78556,Balai Karangan,61.03.07.2001,Sekayam,Kabupaten,Sanggau,Kalimantan Barat
725,78556,Bungkang,61.03.07.2007,Sekayam,Kabupaten,Sanggau,Kalimantan Barat
726,78556,Engkahan,61.03.07.2006,Sekayam,Kabupaten,Sanggau,Kalimantan Barat
727,78556,Kenaman,61.03.07.2004,Sekayam,Kabupaten,Sanggau,Kalimantan Barat
728,78556,Lubuk Sabuk,61.03.07.2008,Sekayam,Kabupaten,Sanggau,Kalimantan Barat
729,78556,Melenggang (Malenggang),61.03.07.2010,Sekayam,Kabupaten,Sanggau,Kalimantan Barat
730,78556,Pengadang,61.03.07.2002,Sekayam,Kabupaten,Sanggau,Kalimantan Barat
731,78556,Raut Muara,61.03.07.2005,Sekayam,Kabupaten,Sanggau,Kalimantan Barat
732,78556,Sei/Sungai Tekam,61.03.07.2009,Sekayam,Kabupaten,Sanggau,Kalimantan Barat
733,78556,Sotok,61.03.07.2003,Sekayam,Kabupaten,Sanggau,Kalimantan Barat
734,79583,Boti,61.09.02.2004,Sekadau Hulu,Kabupaten,Sekadau,Kalimantan Barat
735,79583,Cupang Gading,61.09.02.2013,Sekadau Hulu,Kabupaten,Sekadau,Kalimantan Barat
736,79583,Mondi,61.09.02.2012,Sekadau Hulu,Kabupaten,Sekadau,Kalimantan Barat
737,79583,Nanga Biaban,61.09.02.2014,Sekadau Hulu,Kabupaten,Sekadau,Kalimantan Barat
738,79583,Nanga Menterap (Nanga Manterap),61.09.02.2003,Sekadau Hulu,Kabupaten,Sekadau,Kalimantan Barat
739,79583,Nanga Pembubuh (Nanga Pemubuh),61.09.02.2009,Sekadau Hulu,Kabupaten,Sekadau,Kalimantan Barat
740,79583,Perongkan,61.09.02.2005,Sekadau Hulu,Kabupaten,Sekadau,Kalimantan Barat
741,79583,Rawak Hilir,61.09.02.2001,Sekadau Hulu,Kabupaten,Sekadau,Kalimantan Barat
742,79583,Rawak Hulu,61.09.02.2002,Sekadau Hulu,Kabupaten,Sekadau,Kalimantan Barat
743,79583,Sekonau,61.09.02.2007,Sekadau Hulu,Kabupaten,Sekadau,Kalimantan Barat
744,79583,Setawar,61.09.02.2008,Sekadau Hulu,Kabupaten,Sekadau,Kalimantan Barat
745,79583,Sungai Sambang,61.09.02.2011,Sekadau Hulu,Kabupaten,Sekadau,Kalimantan Barat
746,79583,Sunsong,61.09.02.2015,Sekadau Hulu,Kabupaten,Sekadau,Kalimantan Barat
747,79583,Tapang Perodah,61.09.02.2010,Sekadau Hulu,Kabupaten,Sekadau,Kalimantan Barat
748,79583,Tinting Boyok,61.09.02.2006,Sekadau Hulu,Kabupaten,Sekadau,Kalimantan Barat
749,79514,Beringkai Raya,61.09.01.2020,Sekadau Hilir,Kabupaten,Sekadau,Kalimantan Barat
750,79582,Bokak Sebumbun,61.09.01.2016,Sekadau Hilir,Kabupaten,Sekadau,Kalimantan Barat
751,79513,Engkersik,61.09.01.2014,Sekadau Hilir,Kabupaten,Sekadau,Kalimantan Barat
752,79516,Ensalang,61.09.01.2015,Sekadau Hilir,Kabupaten,Sekadau,Kalimantan Barat
753,79582,Gonis Tekam,61.09.01.2012,Sekadau Hilir,Kabupaten,Sekadau,Kalimantan Barat
754,79514,Landau Kodah,61.09.01.2008,Sekadau Hilir,Kabupaten,Sekadau,Kalimantan Barat
755,79512,Merapi,61.09.01.2004,Sekadau Hilir,Kabupaten,Sekadau,Kalimantan Barat
756,79511,Mungguk,61.09.01.2002,Sekadau Hilir,Kabupaten,Sekadau,Kalimantan Barat
757,79516,Peniti,61.09.01.2011,Sekadau Hilir,Kabupaten,Sekadau,Kalimantan Barat
758,79515,Seberang Kapuas,61.09.01.2007,Sekadau Hilir,Kabupaten,Sekadau,Kalimantan Barat
759,79582,Selalong,61.09.01.2017,Sekadau Hilir,Kabupaten,Sekadau,Kalimantan Barat
760,79515,Semabi,61.09.01.2006,Sekadau Hilir,Kabupaten,Sekadau,Kalimantan Barat
761,79514,Sempulau Indah,61.09.01.2018,Sekadau Hilir,Kabupaten,Sekadau,Kalimantan Barat
762,79512,Seraras,61.09.01.2005,Sekadau Hilir,Kabupaten,Sekadau,Kalimantan Barat
763,79516,Sungai Kunyit,61.09.01.2010,Sekadau Hilir,Kabupaten,Sekadau,Kalimantan Barat
764,79582,Sungai Ringin,61.09.01.2001,Sekadau Hilir,Kabupaten,Sekadau,Kalimantan Barat
765,79511,Tanjung,61.09.01.2003,Sekadau Hilir,Kabupaten,Sekadau,Kalimantan Barat
766,79513,Tapang Semadak,61.09.01.2013,Sekadau Hilir,Kabupaten,Sekadau,Kalimantan Barat
767,79514,Tigur Jaya,61.09.01.2019,Sekadau Hilir,Kabupaten,Sekadau,Kalimantan Barat
768,79514,Timpuk,61.09.01.2009,Sekadau Hilir,Kabupaten,Sekadau,Kalimantan Barat
769,79463,Parit Raja,61.01.06.2005,Sejangkung,Kabupaten,Sambas,Kalimantan Barat
770,79463,Penakalan,61.01.06.2002,Sejangkung,Kabupaten,Sambas,Kalimantan Barat
771,79463,Perigi Landu,61.01.06.2007,Sejangkung,Kabupaten,Sambas,Kalimantan Barat
772,79463,Perigi Limus,61.01.06.2010,Sejangkung,Kabupaten,Sambas,Kalimantan Barat
773,79463,Piantus,61.01.06.2006,Sejangkung,Kabupaten,Sambas,Kalimantan Barat
774,79463,Sekuduk,61.01.06.2003,Sejangkung,Kabupaten,Sambas,Kalimantan Barat
775,79463,Semangga (Semanga),61.01.06.2011,Sejangkung,Kabupaten,Sambas,Kalimantan Barat
776,79463,Sendoyan,61.01.06.2008,Sejangkung,Kabupaten,Sambas,Kalimantan Barat
777,79463,Senujuh,61.01.06.2009,Sejangkung,Kabupaten,Sambas,Kalimantan Barat
778,79463,Sepantai,61.01.06.2012,Sejangkung,Kabupaten,Sambas,Kalimantan Barat
779,79463,Setalik,61.01.06.2004,Sejangkung,Kabupaten,Sambas,Kalimantan Barat
780,79463,Sulung,61.01.06.2001,Sejangkung,Kabupaten,Sambas,Kalimantan Barat
781,78351,Parit Bugis,61.02.15.2003,Segedong,Kabupaten,Mempawah,Kalimantan Barat
782,78351,Peniti Besar,61.02.15.2001,Segedong,Kabupaten,Mempawah,Kalimantan Barat
783,78351,Peniti Dalam I (Satu),61.02.15.2004,Segedong,Kabupaten,Mempawah,Kalimantan Barat
784,78351,Peniti Dalam II (Dua),61.02.15.2005,Segedong,Kabupaten,Mempawah,Kalimantan Barat
785,78351,Purun Besar (Sungai Purun Besar),61.02.15.2002,Segedong,Kabupaten,Mempawah,Kalimantan Barat
786,78351,Sei/Sungai Burung,61.02.15.2006,Segedong,Kabupaten,Mempawah,Kalimantan Barat
787,78772,Bati,61.06.11.2004,Seberuang,Kabupaten,Kapuas Hulu,Kalimantan Barat
788,78772,Bekuan,61.06.11.2014,Seberuang,Kabupaten,Kapuas Hulu,Kalimantan Barat
789,78772,Belikai,61.06.11.2006,Seberuang,Kabupaten,Kapuas Hulu,Kalimantan Barat
790,78772,Beluis Harum,61.06.11.2002,Seberuang,Kabupaten,Kapuas Hulu,Kalimantan Barat
791,78772,Emperiang,61.06.11.2008,Seberuang,Kabupaten,Kapuas Hulu,Kalimantan Barat
792,78772,Gurung,61.06.11.2003,Seberuang,Kabupaten,Kapuas Hulu,Kalimantan Barat
793,78772,Jerenjang,61.06.11.2013,Seberuang,Kabupaten,Kapuas Hulu,Kalimantan Barat
794,78772,Nanga Lot,61.06.11.2010,Seberuang,Kabupaten,Kapuas Hulu,Kalimantan Barat
795,78772,Nanga Pala,61.06.11.2015,Seberuang,Kabupaten,Kapuas Hulu,Kalimantan Barat
796,78772,Pala Kota,61.06.11.2009,Seberuang,Kabupaten,Kapuas Hulu,Kalimantan Barat
797,78772,Ranyai,61.06.11.2007,Seberuang,Kabupaten,Kapuas Hulu,Kalimantan Barat
798,78772,Sejiram,61.06.11.2001,Seberuang,Kabupaten,Kapuas Hulu,Kalimantan Barat
799,78772,Seneban,61.06.11.2005,Seberuang,Kabupaten,Kapuas Hulu,Kalimantan Barat
800,78772,Tajau Mada,61.06.11.2012,Seberuang,Kabupaten,Kapuas Hulu,Kalimantan Barat
801,78772,Tanjung Keliling,61.06.11.2011,Seberuang,Kabupaten,Kapuas Hulu,Kalimantan Barat
802,79464,Rantau Panjang,61.01.15.2001,Sebawi,Kabupaten,Sambas,Kalimantan Barat
803,79464,Sebangun,61.01.15.2005,Sebawi,Kabupaten,Sambas,Kalimantan Barat
804,79464,Sebawi,61.01.15.2003,Sebawi,Kabupaten,Sambas,Kalimantan Barat
805,79464,Sempalai Sebedang (Sempelai Sebedang),61.01.15.2006,Sebawi,Kabupaten,Sambas,Kalimantan Barat
806,79464,Sepuk Tanjung,61.01.15.2004,Sebawi,Kabupaten,Sambas,Kalimantan Barat
807,79464,Tebing Batu,61.01.15.2002,Sebawi,Kabupaten,Sambas,Kalimantan Barat
808,79464,Tempatan,61.01.15.2007,Sebawi,Kabupaten,Sambas,Kalimantan Barat
809,79358,Agak,61.08.10.2003,Sebangki,Kabupaten,Landak,Kalimantan Barat
810,79358,Kumpang Tengah,61.08.10.2002,Sebangki,Kabupaten,Landak,Kalimantan Barat
811,79358,Rantau Panjang,61.08.10.2004,Sebangki,Kabupaten,Landak,Kalimantan Barat
812,79358,Sebangki,61.08.10.2001,Sebangki,Kabupaten,Landak,Kalimantan Barat
813,79358,Sei/Sungai Segak,61.08.10.2005,Sebangki,Kabupaten,Landak,Kalimantan Barat
814,79673,Berobai Permai,61.10.05.2017,Sayan,Kabupaten,Melawi,Kalimantan Barat
815,79673,Bora,61.10.05.2007,Sayan,Kabupaten,Melawi,Kalimantan Barat
816,79673,Karangan Purun (Kerangan Purun),61.10.05.2005,Sayan,Kabupaten,Melawi,Kalimantan Barat
817,79673,Landau Sandak (Landau Sadak),61.10.05.2003,Sayan,Kabupaten,Melawi,Kalimantan Barat
818,79673,Lingkar Indah,61.10.05.2013,Sayan,Kabupaten,Melawi,Kalimantan Barat
819,79673,Madya Raya,61.10.05.2004,Sayan,Kabupaten,Melawi,Kalimantan Barat
820,79673,Mekar Pelita,61.10.05.2006,Sayan,Kabupaten,Melawi,Kalimantan Barat
821,79673,Meta Bersatu,61.10.05.2008,Sayan,Kabupaten,Melawi,Kalimantan Barat
822,79673,Nanga Kasai,61.10.05.2009,Sayan,Kabupaten,Melawi,Kalimantan Barat
823,79673,Nanga Kompi,61.10.05.2010,Sayan,Kabupaten,Melawi,Kalimantan Barat
824,79673,Nanga Mancur,61.10.05.2011,Sayan,Kabupaten,Melawi,Kalimantan Barat
825,79673,Nanga Pak,61.10.05.2015,Sayan,Kabupaten,Melawi,Kalimantan Barat
826,79673,Nanga Raku,61.10.05.2018,Sayan,Kabupaten,Melawi,Kalimantan Barat
827,79673,Nanga Sayan,61.10.05.2001,Sayan,Kabupaten,Melawi,Kalimantan Barat
828,79673,Pekawai,61.10.05.2002,Sayan,Kabupaten,Melawi,Kalimantan Barat
829,79673,Sayan Jaya,61.10.05.2014,Sayan,Kabupaten,Melawi,Kalimantan Barat
830,79673,Siling Permai,61.10.05.2012,Sayan,Kabupaten,Melawi,Kalimantan Barat
831,79673,Tumbak Raya,61.10.05.2016,Sayan,Kabupaten,Melawi,Kalimantan Barat
832,79284,Bange,61.07.06.2003,Sanggau Ledo,Kabupaten,Bengkayang,Kalimantan Barat
833,79284,Danti,61.07.06.2004,Sanggau Ledo,Kabupaten,Bengkayang,Kalimantan Barat
834,79284,Gua,61.07.06.2002,Sanggau Ledo,Kabupaten,Bengkayang,Kalimantan Barat
835,79284,Lembang,61.07.06.2001,Sanggau Ledo,Kabupaten,Bengkayang,Kalimantan Barat
836,79284,Sango,61.07.06.2005,Sanggau Ledo,Kabupaten,Bengkayang,Kalimantan Barat
837,78870,Alam Pakuan,61.04.05.2015,Sandai,Kabupaten,Ketapang,Kalimantan Barat
838,78870,Demit,61.04.05.2012,Sandai,Kabupaten,Ketapang,Kalimantan Barat
839,78870,Istana,61.04.05.2017,Sandai,Kabupaten,Ketapang,Kalimantan Barat
840,78870,Jago Bersatu,61.04.05.2016,Sandai,Kabupaten,Ketapang,Kalimantan Barat
841,78870,Merimbang Jaya,61.04.05.2014,Sandai,Kabupaten,Ketapang,Kalimantan Barat
842,78870,Muara Jekak,61.04.05.2007,Sandai,Kabupaten,Ketapang,Kalimantan Barat
843,78870,Pendamaran Indah,61.04.05.2013,Sandai,Kabupaten,Ketapang,Kalimantan Barat
844,78870,Penjawaan,61.04.05.2006,Sandai,Kabupaten,Ketapang,Kalimantan Barat
845,78870,Petai Patah,61.04.05.2008,Sandai,Kabupaten,Ketapang,Kalimantan Barat
846,78870,Randau,61.04.05.2010,Sandai,Kabupaten,Ketapang,Kalimantan Barat
847,78870,Randau Jungkal,61.04.05.2002,Sandai,Kabupaten,Ketapang,Kalimantan Barat
848,78870,Sandai (Sandai Kanan),61.04.05.2001,Sandai,Kabupaten,Ketapang,Kalimantan Barat
849,78870,Sandai Kiri,61.04.05.2011,Sandai,Kabupaten,Ketapang,Kalimantan Barat
850,79460,Dalam Kaum,61.01.01.2001,Sambas,Kabupaten,Sambas,Kalimantan Barat
851,79460,Durian,61.01.01.2006,Sambas,Kabupaten,Sambas,Kalimantan Barat
852,79460,Gapura,61.01.01.2023,Sambas,Kabupaten,Sambas,Kalimantan Barat
853,79460,Jagur,61.01.01.2008,Sambas,Kabupaten,Sambas,Kalimantan Barat
854,79460,Kartiasa,61.01.01.2012,Sambas,Kabupaten,Sambas,Kalimantan Barat
855,79460,Lorong,61.01.01.2007,Sambas,Kabupaten,Sambas,Kalimantan Barat
856,79460,Lubuk Dagang,61.01.01.2002,Sambas,Kabupaten,Sambas,Kalimantan Barat
857,79460,Lumbang,61.01.01.2014,Sambas,Kabupaten,Sambas,Kalimantan Barat
858,79460,Pasar Melayu,61.01.01.2005,Sambas,Kabupaten,Sambas,Kalimantan Barat
859,79460,Pendawan,61.01.01.2004,Sambas,Kabupaten,Sambas,Kalimantan Barat
860,79460,Saing Rambi,61.01.01.2013,Sambas,Kabupaten,Sambas,Kalimantan Barat
861,79460,Sebayan,61.01.01.2011,Sambas,Kabupaten,Sambas,Kalimantan Barat
862,79460,Semangau,61.01.01.2029,Sambas,Kabupaten,Sambas,Kalimantan Barat
863,79460,Sumber Harapan,61.01.01.2024,Sambas,Kabupaten,Sambas,Kalimantan Barat
864,79460,Sungai Rambah,61.01.01.2015,Sambas,Kabupaten,Sambas,Kalimantan Barat
865,79460,Tanjung Bugis,61.01.01.2003,Sambas,Kabupaten,Sambas,Kalimantan Barat
866,79460,Tanjung Mekar,61.01.01.2010,Sambas,Kabupaten,Sambas,Kalimantan Barat
867,79460,Tumuk/Tumok Manggis,61.01.01.2009,Sambas,Kabupaten,Sambas,Kalimantan Barat
868,79280,Babane,61.07.02.2004,Samalantan,Kabupaten,Bengkayang,Kalimantan Barat
869,79280,Bukit Serayan,61.07.02.2006,Samalantan,Kabupaten,Bengkayang,Kalimantan Barat
870,79280,Marunsu,61.07.02.2007,Samalantan,Kabupaten,Bengkayang,Kalimantan Barat
871,79280,Pasti Jaya,61.07.02.2005,Samalantan,Kabupaten,Bengkayang,Kalimantan Barat
872,79280,Sabau (Saba'u),61.07.02.2002,Samalantan,Kabupaten,Bengkayang,Kalimantan Barat
873,79280,Samalantan,61.07.02.2001,Samalantan,Kabupaten,Bengkayang,Kalimantan Barat
874,79280,Tumiang,61.07.02.2003,Samalantan,Kabupaten,Bengkayang,Kalimantan Barat
875,79456,Parit Baru,61.01.18.2001,Salatiga,Kabupaten,Sambas,Kalimantan Barat
876,79456,Salatiga,61.01.18.2005,Salatiga,Kabupaten,Sambas,Kalimantan Barat
877,79456,Serumpun,61.01.18.2004,Salatiga,Kabupaten,Sambas,Kalimantan Barat
878,79456,Serunai,61.01.18.2003,Salatiga,Kabupaten,Sambas,Kalimantan Barat
879,79456,Sungai Toman,61.01.18.2002,Salatiga,Kabupaten,Sambas,Kalimantan Barat
880,79467,Kaliau' (Kaliau),61.01.09.2001,Sajingan Besar,Kabupaten,Sambas,Kalimantan Barat
881,79467,Santaban,61.01.09.2003,Sajingan Besar,Kabupaten,Sambas,Kalimantan Barat
882,79467,Sebunga,61.01.09.2002,Sajingan Besar,Kabupaten,Sambas,Kalimantan Barat
883,79467,Senatab (Sanatab),61.01.09.2004,Sajingan Besar,Kabupaten,Sambas,Kalimantan Barat
884,79467,Sungai Bening,61.01.09.2005,Sajingan Besar,Kabupaten,Sambas,Kalimantan Barat
885,79462,Beringin,61.01.14.2004,Sajad,Kabupaten,Sambas,Kalimantan Barat
886,79462,Jirak,61.01.14.2001,Sajad,Kabupaten,Sambas,Kalimantan Barat
887,79462,Mekar Jaya,61.01.14.2003,Sajad,Kabupaten,Sambas,Kalimantan Barat
888,79462,Tengguli,61.01.14.2002,Sajad,Kabupaten,Sambas,Kalimantan Barat
889,78361,Amawang/Amawaking,61.02.17.2004,Sadaniang,Kabupaten,Mempawah,Kalimantan Barat
890,78361,Ansiap,61.02.17.2005,Sadaniang,Kabupaten,Mempawah,Kalimantan Barat
891,78361,Bum-bun (Bumbun / Bunbun),61.02.17.2003,Sadaniang,Kabupaten,Mempawah,Kalimantan Barat
892,78361,Pentek,61.02.17.2002,Sadaniang,Kabupaten,Mempawah,Kalimantan Barat
893,78361,Sekabuk,61.02.17.2001,Sadaniang,Kabupaten,Mempawah,Kalimantan Barat
894,78361,Suak Berangan/Barangan,61.02.17.2006,Sadaniang,Kabupaten,Mempawah,Kalimantan Barat
895,78382,Bintang Mas,61.12.07.2005,Rasau Jaya,Kabupaten,Kubu Raya,Kalimantan Barat
896,78382,Pematang Tujuh,61.12.07.2006,Rasau Jaya,Kabupaten,Kubu Raya,Kalimantan Barat
897,78381,Rasau Jaya I (Satu),61.12.07.2002,Rasau Jaya,Kabupaten,Kubu Raya,Kalimantan Barat
898,78382,Rasau Jaya II (Dua),61.12.07.2003,Rasau Jaya,Kabupaten,Kubu Raya,Kalimantan Barat
899,78382,Rasau Jaya III (Tiga),61.12.07.2004,Rasau Jaya,Kabupaten,Kubu Raya,Kalimantan Barat
900,78382,Rasau Jaya Umum,61.12.07.2001,Rasau Jaya,Kabupaten,Kubu Raya,Kalimantan Barat
901,78716,Ariung Mendalam,61.06.01.2011,Putussibau Utara,Kabupaten,Kapuas Hulu,Kalimantan Barat
902,78716,Banua Tanga,61.06.01.2013,Putussibau Utara,Kabupaten,Kapuas Hulu,Kalimantan Barat
903,78716,Datah Dian,61.06.01.2007,Putussibau Utara,Kabupaten,Kapuas Hulu,Kalimantan Barat
904,78716,Hilir Kantor,61.06.01.1002,Putussibau Utara,Kabupaten,Kapuas Hulu,Kalimantan Barat
905,78716,Jangkang,61.06.01.2020,Putussibau Utara,Kabupaten,Kapuas Hulu,Kalimantan Barat
906,78716,Lauk,61.06.01.2019,Putussibau Utara,Kabupaten,Kapuas Hulu,Kalimantan Barat
907,78716,Nanga Awin,61.06.01.2010,Putussibau Utara,Kabupaten,Kapuas Hulu,Kalimantan Barat
908,78716,Nanga Nyabau,61.06.01.2009,Putussibau Utara,Kabupaten,Kapuas Hulu,Kalimantan Barat
909,78716,Nanga Sambus,61.06.01.2012,Putussibau Utara,Kabupaten,Kapuas Hulu,Kalimantan Barat
910,78716,Padua Mendalam,61.06.01.2006,Putussibau Utara,Kabupaten,Kapuas Hulu,Kalimantan Barat
911,78716,Pala Pulau,61.06.01.2004,Putussibau Utara,Kabupaten,Kapuas Hulu,Kalimantan Barat
912,78716,Putussibau Kota,61.06.01.1001,Putussibau Utara,Kabupaten,Kapuas Hulu,Kalimantan Barat
913,78716,Seluan,61.06.01.2016,Putussibau Utara,Kabupaten,Kapuas Hulu,Kalimantan Barat
914,78716,Sibau Hilir,61.06.01.2005,Putussibau Utara,Kabupaten,Kapuas Hulu,Kalimantan Barat
915,78716,Sibau Hulu,61.06.01.2008,Putussibau Utara,Kabupaten,Kapuas Hulu,Kalimantan Barat
916,78716,Sungai Uluk Palin,61.06.01.2017,Putussibau Utara,Kabupaten,Kapuas Hulu,Kalimantan Barat
917,78716,Tanjung Beruang,61.06.01.2014,Putussibau Utara,Kabupaten,Kapuas Hulu,Kalimantan Barat
918,78716,Tanjung Karang,61.06.01.2015,Putussibau Utara,Kabupaten,Kapuas Hulu,Kalimantan Barat
919,78716,Tanjung Lasa,61.06.01.2018,Putussibau Utara,Kabupaten,Kapuas Hulu,Kalimantan Barat
920,78714,Beringin Jaya,61.06.17.2020,Putussibau Selatan,Kabupaten,Kapuas Hulu,Kalimantan Barat
921,78714,Bungan Jaya,61.06.17.2021,Putussibau Selatan,Kabupaten,Kapuas Hulu,Kalimantan Barat
922,78714,Cempaka Baru,61.06.17.2019,Putussibau Selatan,Kabupaten,Kapuas Hulu,Kalimantan Barat
923,78714,Ingko' Tambe (Ingko Tambe),61.06.17.2024,Putussibau Selatan,Kabupaten,Kapuas Hulu,Kalimantan Barat
924,78752,Jaras,61.06.17.2004,Putussibau Selatan,Kabupaten,Kapuas Hulu,Kalimantan Barat
925,78714,Kedamin Darat,61.06.17.2014,Putussibau Selatan,Kabupaten,Kapuas Hulu,Kalimantan Barat
926,78714,Kedamin Hilir,61.06.17.1002,Putussibau Selatan,Kabupaten,Kapuas Hulu,Kalimantan Barat
927,78715,Kedamin Hulu,61.06.17.1001,Putussibau Selatan,Kabupaten,Kapuas Hulu,Kalimantan Barat
928,78714,Kereho (Kereho Semula),61.06.17.2023,Putussibau Selatan,Kabupaten,Kapuas Hulu,Kalimantan Barat
929,78714,Melapi,61.06.17.2005,Putussibau Selatan,Kabupaten,Kapuas Hulu,Kalimantan Barat
930,78714,Sayut,61.06.17.2016,Putussibau Selatan,Kabupaten,Kapuas Hulu,Kalimantan Barat
931,78752,Sei/Sungai Uluk,61.06.17.2003,Putussibau Selatan,Kabupaten,Kapuas Hulu,Kalimantan Barat
932,78714,Suka Maju,61.06.17.2018,Putussibau Selatan,Kabupaten,Kapuas Hulu,Kalimantan Barat
933,78714,Tanjung Jati,61.06.17.2015,Putussibau Selatan,Kabupaten,Kapuas Hulu,Kalimantan Barat
934,78714,Tanjunglokang,61.06.17.2022,Putussibau Selatan,Kabupaten,Kapuas Hulu,Kalimantan Barat
935,78714,Urang Unsa,61.06.17.2017,Putussibau Selatan,Kabupaten,Kapuas Hulu,Kalimantan Barat
936,78769,Kantuk Asam,61.06.23.2003,Puring Kencana,Kabupaten,Kapuas Hulu,Kalimantan Barat
937,78769,Kantuk Bunut,61.06.23.2004,Puring Kencana,Kabupaten,Kapuas Hulu,Kalimantan Barat
938,78769,Langau,61.06.23.2006,Puring Kencana,Kabupaten,Kapuas Hulu,Kalimantan Barat
939,78769,Merakai Panjang,61.06.23.2002,Puring Kencana,Kabupaten,Kapuas Hulu,Kalimantan Barat
940,78769,Sei/Sungai Antu,61.06.23.2001,Puring Kencana,Kabupaten,Kapuas Hulu,Kalimantan Barat
941,78769,Sungai Mawang,61.06.23.2005,Puring Kencana,Kabupaten,Kapuas Hulu,Kalimantan Barat
942,78858,Dusun Besar,61.11.04.2004,Pulau Maya (Pulau Maya Karimata),Kabupaten,Kayong Utara,Kalimantan Barat
943,78858,Dusun Kecil,61.11.04.2003,Pulau Maya (Pulau Maya Karimata),Kabupaten,Kayong Utara,Kalimantan Barat
944,78858,Kemboja (Kamboja),61.11.04.2002,Pulau Maya (Pulau Maya Karimata),Kabupaten,Kayong Utara,Kalimantan Barat
945,78858,Satai Lestari,61.11.04.2006,Pulau Maya (Pulau Maya Karimata),Kabupaten,Kayong Utara,Kalimantan Barat
946,78858,Tanjungsatai (Tanjung Satai),61.11.04.2001,Pulau Maya (Pulau Maya Karimata),Kabupaten,Kayong Utara,Kalimantan Barat
947,78244,Batulayang (Batu Layang),61.71.04.1004,Pontianak Utara,Kota,Pontianak,Kalimantan Barat
948,78243,Siantan Hilir,61.71.04.1003,Pontianak Utara,Kota,Pontianak,Kalimantan Barat
949,78241,Siantan Hulu,61.71.04.1001,Pontianak Utara,Kota,Pontianak,Kalimantan Barat
950,78242,Siantan Tengah,61.71.04.1002,Pontianak Utara,Kota,Pontianak,Kalimantan Barat
951,78233,Banjar Serasan,61.71.02.1002,Pontianak Timur,Kota,Pontianak,Kalimantan Barat
952,78235,Dalambugis (Dalam Bugis),61.71.02.1006,Pontianak Timur,Kota,Pontianak,Kalimantan Barat
953,78231,Paritmayor (Parit Mayor),61.71.02.1001,Pontianak Timur,Kota,Pontianak,Kalimantan Barat
954,78132,Saigon,61.71.02.1003,Pontianak Timur,Kota,Pontianak,Kalimantan Barat
955,78234,Tambelansampit (Tambelan Sampit),61.71.02.1007,Pontianak Timur,Kota,Pontianak,Kalimantan Barat
956,78236,Tanjunghilir (Tanjung Hilir),61.71.02.1005,Pontianak Timur,Kota,Pontianak,Kalimantan Barat
957,78137,Tanjunghulu (Tanjung Hulu),61.71.02.1004,Pontianak Timur,Kota,Pontianak,Kalimantan Barat
958,78124,Bangka Belitung Darat,61.71.06.1004,Pontianak Tenggara,Kota,Pontianak,Kalimantan Barat
959,78124,Bangka Belitung Laut,61.71.06.1003,Pontianak Tenggara,Kota,Pontianak,Kalimantan Barat
960,78124,Bansir Darat,61.71.06.1002,Pontianak Tenggara,Kota,Pontianak,Kalimantan Barat
961,78124,Bansir Laut,61.71.06.1001,Pontianak Tenggara,Kota,Pontianak,Kalimantan Barat
962,78121,Akcaya,61.71.01.1006,Pontianak Selatan,Kota,Pontianak,Kalimantan Barat
963,78122,Benuamelayu Darat (Benua Melayu Darat),61.71.01.1003,Pontianak Selatan,Kota,Pontianak,Kalimantan Barat
964,78123,Benuamelayu Laut (Benua Melayu Laut),61.71.01.1002,Pontianak Selatan,Kota,Pontianak,Kalimantan Barat
965,78121,Kotabaru (Kota Baru),61.71.01.1005,Pontianak Selatan,Kota,Pontianak,Kalimantan Barat
966,78121,Parittokaya (Parit Tokaya),61.71.01.1004,Pontianak Selatan,Kota,Pontianak,Kalimantan Barat
967,78117,Daratsekip (Darat Sekip),61.71.05.1002,Pontianak Kota,Kota,Pontianak,Kalimantan Barat
968,78112,Mariana,61.71.05.1004,Pontianak Kota,Kota,Pontianak,Kalimantan Barat
969,78116,Sungaibangkong (Sei / Sungai Bangkong),61.71.05.1001,Pontianak Kota,Kota,Pontianak,Kalimantan Barat
970,78113,Sungaijawi (Sei / Sungai Jawi),61.71.05.1005,Pontianak Kota,Kota,Pontianak,Kalimantan Barat
971,78111,Tengah,61.71.05.1003,Pontianak Kota,Kota,Pontianak,Kalimantan Barat
972,78114,Pallima (Pal Lima),61.71.03.1001,Pontianak Barat,Kota,Pontianak,Kalimantan Barat
973,78117,Sungaibeliung (Sei / Sungai Beliung),61.71.03.1004,Pontianak Barat,Kota,Pontianak,Kalimantan Barat
974,78115,Sungaijawi Dalam (Sei / Sungai Jawi Dalam),61.71.03.1002,Pontianak Barat,Kota,Pontianak,Kalimantan Barat
975,78113,Sungaijawi Luar (Sei / Sungai Jawi Luar),61.71.03.1003,Pontianak Barat,Kota,Pontianak,Kalimantan Barat
976,79678,Engkurai,61.10.08.2008,Pinoh Utara,Kabupaten,Melawi,Kalimantan Barat
977,79678,Kayan Semapau,61.10.08.2019,Pinoh Utara,Kabupaten,Melawi,Kalimantan Barat
978,79678,Kompas Raya,61.10.08.2018,Pinoh Utara,Kabupaten,Melawi,Kalimantan Barat
979,79678,Manding,61.10.08.2002,Pinoh Utara,Kabupaten,Melawi,Kalimantan Barat
980,79678,Melamut Bersatu,61.10.08.2011,Pinoh Utara,Kabupaten,Melawi,Kalimantan Barat
981,79678,Melawi Kiri Hilir,61.10.08.2017,Pinoh Utara,Kabupaten,Melawi,Kalimantan Barat
982,79678,Merah Arai (Merah Atas),61.10.08.2014,Pinoh Utara,Kabupaten,Melawi,Kalimantan Barat
983,79678,Merpak,61.10.08.2009,Pinoh Utara,Kabupaten,Melawi,Kalimantan Barat
984,79678,Nanga Belimbing,61.10.08.2003,Pinoh Utara,Kabupaten,Melawi,Kalimantan Barat
985,79678,Nanga Man,61.10.08.2006,Pinoh Utara,Kabupaten,Melawi,Kalimantan Barat
986,79678,Natai Panjang,61.10.08.2012,Pinoh Utara,Kabupaten,Melawi,Kalimantan Barat
987,79678,Sei/Sungai Pinang,61.10.08.2007,Pinoh Utara,Kabupaten,Melawi,Kalimantan Barat
988,79678,Sei/Sungai Raya,61.10.08.2013,Pinoh Utara,Kabupaten,Melawi,Kalimantan Barat
989,79678,Senibung,61.10.08.2010,Pinoh Utara,Kabupaten,Melawi,Kalimantan Barat
990,79678,Suka Damai,61.10.08.2015,Pinoh Utara,Kabupaten,Melawi,Kalimantan Barat
991,79678,Tanjung Arak,61.10.08.2016,Pinoh Utara,Kabupaten,Melawi,Kalimantan Barat
992,79678,Tanjung Paoh,61.10.08.2005,Pinoh Utara,Kabupaten,Melawi,Kalimantan Barat
993,79678,Tekelak,61.10.08.2001,Pinoh Utara,Kabupaten,Melawi,Kalimantan Barat
994,79678,Tengkajau,61.10.08.2004,Pinoh Utara,Kabupaten,Melawi,Kalimantan Barat
995,79677,Bayur Raya,61.10.09.2010,Pinoh Selatan,Kabupaten,Melawi,Kalimantan Barat
996,79677,Bina Jaya,61.10.09.2005,Pinoh Selatan,Kabupaten,Melawi,Kalimantan Barat
997,79677,Landau Garong,61.10.09.2004,Pinoh Selatan,Kabupaten,Melawi,Kalimantan Barat
998,79677,Landau Tubun,61.10.09.2011,Pinoh Selatan,Kabupaten,Melawi,Kalimantan Barat
999,79677,Mandau Baru,61.10.09.2006,Pinoh Selatan,Kabupaten,Melawi,Kalimantan Barat
1000,79677,Manggala,61.10.09.2001,Pinoh Selatan,Kabupaten,Melawi,Kalimantan Barat
1001,79677,Nanga Kelawai,61.10.09.2012,Pinoh Selatan,Kabupaten,Melawi,Kalimantan Barat
1002,79677,Nanga Pintas,61.10.09.2003,Pinoh Selatan,Kabupaten,Melawi,Kalimantan Barat
1003,79677,Nyanggai,61.10.09.2008,Pinoh Selatan,Kabupaten,Melawi,Kalimantan Barat
1004,79677,Pelinggang,61.10.09.2007,Pinoh Selatan,Kabupaten,Melawi,Kalimantan Barat
1005,79677,Sei/Sungai Bakah,61.10.09.2009,Pinoh Selatan,Kabupaten,Melawi,Kalimantan Barat
1006,79677,Senempak,61.10.09.2002,Pinoh Selatan,Kabupaten,Melawi,Kalimantan Barat
1007,78759,Buak Limbang,61.06.21.2004,Pengkadan (Batu Datu),Kabupaten,Kapuas Hulu,Kalimantan Barat
1008,78759,Hulu Pengkadan,61.06.21.2007,Pengkadan (Batu Datu),Kabupaten,Kapuas Hulu,Kalimantan Barat
1009,78759,Kerangan Panjang,61.06.21.2001,Pengkadan (Batu Datu),Kabupaten,Kapuas Hulu,Kalimantan Barat
1010,78759,Marta Dana (Martadana),61.06.21.2003,Pengkadan (Batu Datu),Kabupaten,Kapuas Hulu,Kalimantan Barat
1011,78759,Mawan,61.06.21.2002,Pengkadan (Batu Datu),Kabupaten,Kapuas Hulu,Kalimantan Barat
1012,78759,Pengkadan Hilir,61.06.21.2010,Pengkadan (Batu Datu),Kabupaten,Kapuas Hulu,Kalimantan Barat
1013,78759,Permata (Permata Perda),61.06.21.2006,Pengkadan (Batu Datu),Kabupaten,Kapuas Hulu,Kalimantan Barat
1014,78759,Pinang Laka,61.06.21.2008,Pengkadan (Batu Datu),Kabupaten,Kapuas Hulu,Kalimantan Barat
1015,78759,Riam Panjang,61.06.21.2005,Pengkadan (Batu Datu),Kabupaten,Kapuas Hulu,Kalimantan Barat
1016,78759,Sasan,61.06.21.2009,Pengkadan (Batu Datu),Kabupaten,Kapuas Hulu,Kalimantan Barat
1017,78759,Sira Jaya,61.06.21.2011,Pengkadan (Batu Datu),Kabupaten,Kapuas Hulu,Kalimantan Barat
1018,79455,Gugah Sejahtera,61.01.05.2017,Pemangkat,Kabupaten,Sambas,Kalimantan Barat
1019,79455,Harapan,61.01.05.2002,Pemangkat,Kabupaten,Sambas,Kalimantan Barat
1020,79455,Jelutung,61.01.05.2005,Pemangkat,Kabupaten,Sambas,Kalimantan Barat
1021,79455,Lonam,61.01.05.2018,Pemangkat,Kabupaten,Sambas,Kalimantan Barat
1022,79455,Pemangkat Kota,61.01.05.2001,Pemangkat,Kabupaten,Sambas,Kalimantan Barat
1023,79455,Penjajap,61.01.05.2003,Pemangkat,Kabupaten,Sambas,Kalimantan Barat
1024,79455,Perapakan,61.01.05.2013,Pemangkat,Kabupaten,Sambas,Kalimantan Barat
1025,79455,Sebatuan,61.01.05.2016,Pemangkat,Kabupaten,Sambas,Kalimantan Barat
1026,78874,Kerta Baru,61.04.24.2006,Pemahan,Kabupaten,Ketapang,Kalimantan Barat
1027,78874,Lalang Panjang,61.04.24.2002,Pemahan,Kabupaten,Ketapang,Kalimantan Barat
1028,78874,Muara Gerunggang,61.04.24.2004,Pemahan,Kabupaten,Ketapang,Kalimantan Barat
1029,78874,Muara Semayok,61.04.24.2007,Pemahan,Kabupaten,Ketapang,Kalimantan Barat
1030,78874,Pebihingan,61.04.24.2001,Pemahan,Kabupaten,Ketapang,Kalimantan Barat
1031,78874,Semayok Baru,61.04.24.2003,Pemahan,Kabupaten,Ketapang,Kalimantan Barat
1032,78874,Usaha Baru,61.04.24.2005,Pemahan,Kabupaten,Ketapang,Kalimantan Barat
1033,78561,Dosan,61.03.09.2011,Parindu,Kabupaten,Sanggau,Kalimantan Barat
1034,78561,Embala,61.03.09.2005,Parindu,Kabupaten,Sanggau,Kalimantan Barat
1035,78561,Gunam,61.03.09.2013,Parindu,Kabupaten,Sanggau,Kalimantan Barat
1036,78561,Hibun,61.03.09.2006,Parindu,Kabupaten,Sanggau,Kalimantan Barat
1037,78561,Maju Karya,61.03.09.2002,Parindu,Kabupaten,Sanggau,Kalimantan Barat
1038,78561,Maringin Jaya (Marigin Jaya),61.03.09.2007,Parindu,Kabupaten,Sanggau,Kalimantan Barat
1039,78561,Marita,61.03.09.2014,Parindu,Kabupaten,Sanggau,Kalimantan Barat
1040,78561,Palem Jaya,61.03.09.2009,Parindu,Kabupaten,Sanggau,Kalimantan Barat
1041,78561,Pandu Raya,61.03.09.2004,Parindu,Kabupaten,Sanggau,Kalimantan Barat
1042,78561,Pusat Damai,61.03.09.2001,Parindu,Kabupaten,Sanggau,Kalimantan Barat
1043,78561,Rahayu,61.03.09.2010,Parindu,Kabupaten,Sanggau,Kalimantan Barat
1044,78561,Sebara,61.03.09.2003,Parindu,Kabupaten,Sanggau,Kalimantan Barat
1045,78561,Suka Gerundi (Suka Grundi),61.03.09.2012,Parindu,Kabupaten,Sanggau,Kalimantan Barat
1046,78561,Suka Mulya,61.03.09.2008,Parindu,Kabupaten,Sanggau,Kalimantan Barat
1047,79466,Kalimantan,61.01.08.2006,Paloh,Kabupaten,Sambas,Kalimantan Barat
1048,79466,Malek,61.01.08.2003,Paloh,Kabupaten,Sambas,Kalimantan Barat
1049,79466,Matang Danau,61.01.08.2005,Paloh,Kabupaten,Sambas,Kalimantan Barat
1050,79466,Mentibar,61.01.08.2008,Paloh,Kabupaten,Sambas,Kalimantan Barat
1051,79466,Nibung,61.01.08.2002,Paloh,Kabupaten,Sambas,Kalimantan Barat
1052,79466,Sebubus,61.01.08.2001,Paloh,Kabupaten,Sambas,Kalimantan Barat
1053,79466,Tanah Hitam,61.01.08.2004,Paloh,Kabupaten,Sambas,Kalimantan Barat
1054,79466,Temajuk,61.01.08.2007,Paloh,Kabupaten,Sambas,Kalimantan Barat
1055,78554,Empoto,61.03.03.2002,Noyan,Kabupaten,Sanggau,Kalimantan Barat
1056,78554,Idas,61.03.03.2005,Noyan,Kabupaten,Sanggau,Kalimantan Barat
1057,78554,Noyan,61.03.03.2001,Noyan,Kabupaten,Sanggau,Kalimantan Barat
1058,78554,Sei/Sungai Dangin,61.03.03.2004,Noyan,Kabupaten,Sanggau,Kalimantan Barat
1059,78554,Semongan,61.03.03.2003,Noyan,Kabupaten,Sanggau,Kalimantan Barat
1060,79354,Amang,61.08.01.2011,Ngabang,Kabupaten,Landak,Kalimantan Barat
1061,79354,Ambarang,61.08.01.2009,Ngabang,Kabupaten,Landak,Kalimantan Barat
1062,79354,Amboyo Inti,61.08.01.2014,Ngabang,Kabupaten,Landak,Kalimantan Barat
1063,79354,Amboyo Selatan,61.08.01.2017,Ngabang,Kabupaten,Landak,Kalimantan Barat
1064,79354,Amboyo Utara,61.08.01.2005,Ngabang,Kabupaten,Landak,Kalimantan Barat
1065,79354,Antan Rayan,61.08.01.2013,Ngabang,Kabupaten,Landak,Kalimantan Barat
1066,79354,Engkadu,61.08.01.2010,Ngabang,Kabupaten,Landak,Kalimantan Barat
1067,79354,Hilir Kantor,61.08.01.2001,Ngabang,Kabupaten,Landak,Kalimantan Barat
1068,79354,Hilir Tengah,61.08.01.2002,Ngabang,Kabupaten,Landak,Kalimantan Barat
1069,79354,Mu'un (Muun),61.08.01.2008,Ngabang,Kabupaten,Landak,Kalimantan Barat
1070,79354,Mungguk (Munggu),61.08.01.2004,Ngabang,Kabupaten,Landak,Kalimantan Barat
1071,79354,Pak Mayam,61.08.01.2019,Ngabang,Kabupaten,Landak,Kalimantan Barat
1072,79354,Penyahu Dangku (Penyaho Dangku),61.08.01.2012,Ngabang,Kabupaten,Landak,Kalimantan Barat
1073,79354,Raja,61.08.01.2003,Ngabang,Kabupaten,Landak,Kalimantan Barat
1074,79354,Rasan,61.08.01.2007,Ngabang,Kabupaten,Landak,Kalimantan Barat
1075,79354,Sebirang,61.08.01.2018,Ngabang,Kabupaten,Landak,Kalimantan Barat
1076,79354,Sungai Keli,61.08.01.2006,Ngabang,Kabupaten,Landak,Kalimantan Barat
1077,79354,Tebedak,61.08.01.2015,Ngabang,Kabupaten,Landak,Kalimantan Barat
1078,79354,Temiang Sawi,61.08.01.2016,Ngabang,Kabupaten,Landak,Kalimantan Barat
1079,78873,Batu Mas (Batumas),61.04.11.2005,Nanga Tayap,Kabupaten,Ketapang,Kalimantan Barat
1080,78873,Betenung,61.04.11.2004,Nanga Tayap,Kabupaten,Ketapang,Kalimantan Barat
1081,78873,Cegolak,61.04.11.2017,Nanga Tayap,Kabupaten,Ketapang,Kalimantan Barat
1082,78873,Kayong Hulu,61.04.11.2015,Nanga Tayap,Kabupaten,Ketapang,Kalimantan Barat
1083,78873,Kayong Utara,61.04.11.2014,Nanga Tayap,Kabupaten,Ketapang,Kalimantan Barat
1084,78873,Kayung Tuhe,61.04.11.2020,Nanga Tayap,Kabupaten,Ketapang,Kalimantan Barat
1085,78873,Lembah Hijau Dua (Lembah Hijau II),61.04.11.2008,Nanga Tayap,Kabupaten,Ketapang,Kalimantan Barat
1086,78873,Lembah Hijau Satu (Lembah Hijau I),61.04.11.2007,Nanga Tayap,Kabupaten,Ketapang,Kalimantan Barat
1087,78873,Mensubang,61.04.11.2012,Nanga Tayap,Kabupaten,Ketapang,Kalimantan Barat
1088,78873,Nanga Tayap,61.04.11.2001,Nanga Tayap,Kabupaten,Ketapang,Kalimantan Barat
1089,78873,Pangkalan Suka,61.04.11.2003,Nanga Tayap,Kabupaten,Ketapang,Kalimantan Barat
1090,78873,Pangkalan Teluk/Telok,61.04.11.2002,Nanga Tayap,Kabupaten,Ketapang,Kalimantan Barat
1091,78873,Pateh Benteng,61.04.11.2018,Nanga Tayap,Kabupaten,Ketapang,Kalimantan Barat
1092,78873,Sebadak Raya,61.04.11.2010,Nanga Tayap,Kabupaten,Ketapang,Kalimantan Barat
1093,78873,Sei/Sungai Kelik,61.04.11.2006,Nanga Tayap,Kabupaten,Ketapang,Kalimantan Barat
1094,78873,Sepakat Jaya,61.04.11.2016,Nanga Tayap,Kabupaten,Ketapang,Kalimantan Barat
1095,78873,Siantau Raya,61.04.11.2009,Nanga Tayap,Kabupaten,Ketapang,Kalimantan Barat
1096,78873,Simpang Tiga Sembelangaan,61.04.11.2011,Nanga Tayap,Kabupaten,Ketapang,Kalimantan Barat
1097,78873,Tajok Kayong,61.04.11.2013,Nanga Tayap,Kabupaten,Ketapang,Kalimantan Barat
1098,78873,Tanjung Medan,61.04.11.2019,Nanga Tayap,Kabupaten,Ketapang,Kalimantan Barat
1099,79584,Engkulun Hulu,61.09.03.2015,Nanga Taman,Kabupaten,Sekadau,Kalimantan Barat
1100,79584,Lubuk Tajau,61.09.03.2010,Nanga Taman,Kabupaten,Sekadau,Kalimantan Barat
1101,79584,Meragun,61.09.03.2012,Nanga Taman,Kabupaten,Sekadau,Kalimantan Barat
1102,79584,Nanga Engkulun,61.09.03.2008,Nanga Taman,Kabupaten,Sekadau,Kalimantan Barat
1103,79584,Nanga Kiungkang,61.09.03.2004,Nanga Taman,Kabupaten,Sekadau,Kalimantan Barat
1104,79584,Nanga Koman,61.09.03.2009,Nanga Taman,Kabupaten,Sekadau,Kalimantan Barat
1105,79584,Nanga Mentukak,61.09.03.2013,Nanga Taman,Kabupaten,Sekadau,Kalimantan Barat
1106,79584,Nanga Mongko,61.09.03.2007,Nanga Taman,Kabupaten,Sekadau,Kalimantan Barat
1107,79584,Nanga Taman,61.09.03.2001,Nanga Taman,Kabupaten,Sekadau,Kalimantan Barat
1108,79584,Pantok,61.09.03.2011,Nanga Taman,Kabupaten,Sekadau,Kalimantan Barat
1109,79584,Rirang Jati,61.09.03.2002,Nanga Taman,Kabupaten,Sekadau,Kalimantan Barat
1110,79584,Semerawai,61.09.03.2014,Nanga Taman,Kabupaten,Sekadau,Kalimantan Barat
1111,79584,Senangak,61.09.03.2003,Nanga Taman,Kabupaten,Sekadau,Kalimantan Barat
1112,79584,Sungai Lawak,61.09.03.2005,Nanga Taman,Kabupaten,Sekadau,Kalimantan Barat
1113,79584,Tapang Tingang,61.09.03.2006,Nanga Taman,Kabupaten,Sekadau,Kalimantan Barat
1114,79672,Baru,61.10.02.2013,Nanga Pinoh,Kabupaten,Melawi,Kalimantan Barat
1115,79672,Kelakik,61.10.02.2032,Nanga Pinoh,Kabupaten,Melawi,Kalimantan Barat
1116,79672,Kenual,61.10.02.2040,Nanga Pinoh,Kabupaten,Melawi,Kalimantan Barat
1117,79672,Labai Mandiri,61.10.02.2024,Nanga Pinoh,Kabupaten,Melawi,Kalimantan Barat
1118,79672,Nanga Kayan,61.10.02.2008,Nanga Pinoh,Kabupaten,Melawi,Kalimantan Barat
1119,79672,Nanga Kebebu,61.10.02.2007,Nanga Pinoh,Kabupaten,Melawi,Kalimantan Barat
1120,79672,Nusa Pandau,61.10.02.2026,Nanga Pinoh,Kabupaten,Melawi,Kalimantan Barat
1121,79672,Paal,61.10.02.2002,Nanga Pinoh,Kabupaten,Melawi,Kalimantan Barat
1122,79672,Poring,61.10.02.2005,Nanga Pinoh,Kabupaten,Melawi,Kalimantan Barat
1123,79672,Semadin Lengkong,61.10.02.2033,Nanga Pinoh,Kabupaten,Melawi,Kalimantan Barat
1124,79672,Sidomulyo (Sido Mulyo),61.10.02.2003,Nanga Pinoh,Kabupaten,Melawi,Kalimantan Barat
1125,79672,Tanjung Lay,61.10.02.2023,Nanga Pinoh,Kabupaten,Melawi,Kalimantan Barat
1126,79672,Tanjung Niaga,61.10.02.2001,Nanga Pinoh,Kabupaten,Melawi,Kalimantan Barat
1127,79672,Tanjung Sari,61.10.02.2021,Nanga Pinoh,Kabupaten,Melawi,Kalimantan Barat
1128,79672,Tanjung Tengang,61.10.02.2042,Nanga Pinoh,Kabupaten,Melawi,Kalimantan Barat
1129,79672,Tebing Karangan,61.10.02.2038,Nanga Pinoh,Kabupaten,Melawi,Kalimantan Barat
1130,79672,Tembawang Panjang,61.10.02.2004,Nanga Pinoh,Kabupaten,Melawi,Kalimantan Barat
1131,79585,Batu Pahat,61.09.04.2002,Nanga Mahap,Kabupaten,Sekadau,Kalimantan Barat
1132,79585,Cenayan,61.09.04.2007,Nanga Mahap,Kabupaten,Sekadau,Kalimantan Barat
1133,79585,Karang Betung,61.09.04.2011,Nanga Mahap,Kabupaten,Sekadau,Kalimantan Barat
1134,79585,Landau Apin,61.09.04.2005,Nanga Mahap,Kabupaten,Sekadau,Kalimantan Barat
1135,79585,Landau Kumpai,61.09.04.2008,Nanga Mahap,Kabupaten,Sekadau,Kalimantan Barat
1136,79585,Lembah Beringin,61.09.04.2003,Nanga Mahap,Kabupaten,Sekadau,Kalimantan Barat
1137,79585,Nanga Mahap,61.09.04.2001,Nanga Mahap,Kabupaten,Sekadau,Kalimantan Barat
1138,79585,Nanga Suri,61.09.04.2009,Nanga Mahap,Kabupaten,Sekadau,Kalimantan Barat
1139,79585,Sebabas (Se Babas),61.09.04.2010,Nanga Mahap,Kabupaten,Sekadau,Kalimantan Barat
1140,79585,Tamang,61.09.04.2012,Nanga Mahap,Kabupaten,Sekadau,Kalimantan Barat
1141,79585,Telukkebau (Teluk Kebau),61.09.04.2004,Nanga Mahap,Kabupaten,Sekadau,Kalimantan Barat
1142,79585,Tembaga,61.09.04.2006,Nanga Mahap,Kabupaten,Sekadau,Kalimantan Barat
1143,79585,Tembesuk,61.09.04.2013,Nanga Mahap,Kabupaten,Sekadau,Kalimantan Barat
1144,78581,Engkode,61.03.02.2003,Mukok,Kabupaten,Sanggau,Kalimantan Barat
1145,78581,Inggis,61.03.02.2005,Mukok,Kabupaten,Sanggau,Kalimantan Barat
1146,78581,Kedukul,61.03.02.2001,Mukok,Kabupaten,Sanggau,Kalimantan Barat
1147,78581,Layak Omang,61.03.02.2006,Mukok,Kabupaten,Sanggau,Kalimantan Barat
1148,78581,Sei/Sungai Mawang,61.03.02.2004,Mukok,Kabupaten,Sanggau,Kalimantan Barat
1149,78581,Semanggis Raya,61.03.02.2007,Mukok,Kabupaten,Sanggau,Kalimantan Barat
1150,78581,Semuntai,61.03.02.2002,Mukok,Kabupaten,Sanggau,Kalimantan Barat
1151,78581,Serambai Jaya,61.03.02.2009,Mukok,Kabupaten,Sanggau,Kalimantan Barat
1152,78581,Tri Mulya (Trimulya),61.03.02.2008,Mukok,Kabupaten,Sanggau,Kalimantan Barat
1153,78810,Mayak,61.04.17.2006,Muara Pawan,Kabupaten,Ketapang,Kalimantan Barat
1154,78810,Sei/Sungai Awan Kanan,61.04.17.2001,Muara Pawan,Kabupaten,Ketapang,Kalimantan Barat
1155,78810,Sei/Sungai Awan Kiri,61.04.17.2002,Muara Pawan,Kabupaten,Ketapang,Kalimantan Barat
1156,78810,Suka Maju,61.04.17.2008,Muara Pawan,Kabupaten,Ketapang,Kalimantan Barat
1157,78810,Tanjung Pasar,61.04.17.2007,Muara Pawan,Kabupaten,Ketapang,Kalimantan Barat
1158,78810,Tanjung Pura,61.04.17.2005,Muara Pawan,Kabupaten,Ketapang,Kalimantan Barat
1159,78810,Tempurukan,61.04.17.2003,Muara Pawan,Kabupaten,Ketapang,Kalimantan Barat
1160,78810,Ulak Medang,61.04.17.2004,Muara Pawan,Kabupaten,Ketapang,Kalimantan Barat
1161,79181,Beringin Baru,61.07.08.2007,Monterado,Kabupaten,Bengkayang,Kalimantan Barat
1162,79181,Gerantung,61.07.08.2002,Monterado,Kabupaten,Bengkayang,Kalimantan Barat
1163,79181,Goa Boma,61.07.08.2004,Monterado,Kabupaten,Bengkayang,Kalimantan Barat
1164,79181,Jahandung,61.07.08.2011,Monterado,Kabupaten,Bengkayang,Kalimantan Barat
1165,79181,Mekar Baru,61.07.08.2010,Monterado,Kabupaten,Bengkayang,Kalimantan Barat
1166,79181,Monterado,61.07.08.2003,Monterado,Kabupaten,Bengkayang,Kalimantan Barat
1167,79181,Nek Ginap,61.07.08.2006,Monterado,Kabupaten,Bengkayang,Kalimantan Barat
1168,79181,Rantau,61.07.08.2009,Monterado,Kabupaten,Bengkayang,Kalimantan Barat
1169,79181,Sendoreng,61.07.08.2008,Monterado,Kabupaten,Bengkayang,Kalimantan Barat
1170,79181,Serindu,61.07.08.2012,Monterado,Kabupaten,Bengkayang,Kalimantan Barat
1171,79181,Siaga (Nyempen),61.07.08.2013,Monterado,Kabupaten,Bengkayang,Kalimantan Barat
1172,79366,Ampadi,61.08.08.2005,Meranti,Kabupaten,Landak,Kalimantan Barat
1173,79366,Kelampai Setolo,61.08.08.2002,Meranti,Kabupaten,Landak,Kalimantan Barat
1174,79366,Meranti,61.08.08.2001,Meranti,Kabupaten,Landak,Kalimantan Barat
1175,79366,Moro Betung,61.08.08.2003,Meranti,Kabupaten,Landak,Kalimantan Barat
1176,79366,Selange,61.08.08.2004,Meranti,Kabupaten,Landak,Kalimantan Barat
1177,79366,Tahu,61.08.08.2006,Meranti,Kabupaten,Landak,Kalimantan Barat
1178,79360,Angkaras,61.08.06.2005,Menyuke,Kabupaten,Landak,Kalimantan Barat
1179,79360,Anik Dingir,61.08.06.2014,Menyuke,Kabupaten,Landak,Kalimantan Barat
1180,79360,Ansang,61.08.06.2003,Menyuke,Kabupaten,Landak,Kalimantan Barat
1181,79360,Bagak,61.08.06.2015,Menyuke,Kabupaten,Landak,Kalimantan Barat
1182,79360,Berinang Mayun,61.08.06.2011,Menyuke,Kabupaten,Landak,Kalimantan Barat
1183,79360,Darit,61.08.06.2001,Menyuke,Kabupaten,Landak,Kalimantan Barat
1184,79360,Kayu Ara (Kayuara),61.08.06.2004,Menyuke,Kabupaten,Landak,Kalimantan Barat
1185,79360,Ladangan,61.08.06.2006,Menyuke,Kabupaten,Landak,Kalimantan Barat
1186,79360,Lintah Betung,61.08.06.2013,Menyuke,Kabupaten,Landak,Kalimantan Barat
1187,79360,Mamek,61.08.06.2002,Menyuke,Kabupaten,Landak,Kalimantan Barat
1188,79360,Ongkol Padang,61.08.06.2019,Menyuke,Kabupaten,Landak,Kalimantan Barat
1189,79360,Sei/Sungai Lubang,61.08.06.2017,Menyuke,Kabupaten,Landak,Kalimantan Barat
1190,79360,Sidan,61.08.06.2010,Menyuke,Kabupaten,Landak,Kalimantan Barat
1191,79360,Songga,61.08.06.2009,Menyuke,Kabupaten,Landak,Kalimantan Barat
1192,79360,Ta'as (Ta As),61.08.06.2018,Menyuke,Kabupaten,Landak,Kalimantan Barat
1193,79360,Tolok,61.08.06.2016,Menyuke,Kabupaten,Landak,Kalimantan Barat
1194,79682,Batas nangka,61.10.04.2013,Menukung,Kabupaten,Melawi,Kalimantan Barat
1195,79682,Batu Badak,61.10.04.2016,Menukung,Kabupaten,Melawi,Kalimantan Barat
1196,79682,Batu Onap,61.10.04.2015,Menukung,Kabupaten,Melawi,Kalimantan Barat
1197,79682,Belaban Ella,61.10.04.2010,Menukung,Kabupaten,Melawi,Kalimantan Barat
1198,79682,Ella Hulu (Nanga Ella Hulu),61.10.04.2002,Menukung,Kabupaten,Melawi,Kalimantan Barat
1199,79682,Laman Mumbung,61.10.04.2009,Menukung,Kabupaten,Melawi,Kalimantan Barat
1200,79682,Langau Leban Satu (Landau Leban),61.10.04.2004,Menukung,Kabupaten,Melawi,Kalimantan Barat
1201,79682,Lihai,61.10.04.2018,Menukung,Kabupaten,Melawi,Kalimantan Barat
1202,79682,Menukung Kota,61.10.04.2001,Menukung,Kabupaten,Melawi,Kalimantan Barat
1203,79682,Nanga Keruap,61.10.04.2012,Menukung,Kabupaten,Melawi,Kalimantan Barat
1204,79682,Nanga Mawang Mentatai (Mawang Mentatai),61.10.04.2008,Menukung,Kabupaten,Melawi,Kalimantan Barat
1205,79682,Nanga Melona Satu (Melona),61.10.04.2006,Menukung,Kabupaten,Melawi,Kalimantan Barat
1206,79682,Nanga Siyai,61.10.04.2007,Menukung,Kabupaten,Melawi,Kalimantan Barat
1207,79682,Nusa Poring,61.10.04.2014,Menukung,Kabupaten,Melawi,Kalimantan Barat
1208,79682,Oyah,61.10.04.2017,Menukung,Kabupaten,Melawi,Kalimantan Barat
1209,79682,Pelaik Keruap,61.10.04.2011,Menukung,Kabupaten,Melawi,Kalimantan Barat
1210,79682,Sampak (Sei / Sungai Sampak),61.10.04.2019,Menukung,Kabupaten,Melawi,Kalimantan Barat
1211,79682,Sei/Sungai Sampuk,61.10.04.2003,Menukung,Kabupaten,Melawi,Kalimantan Barat
1212,79682,Tanjung Beringin,61.10.04.2005,Menukung,Kabupaten,Melawi,Kalimantan Barat
1213,78757,Kepala Gurung,61.06.20.2004,Mentebah,Kabupaten,Kapuas Hulu,Kalimantan Barat
1214,78757,Menaren,61.06.20.2008,Mentebah,Kabupaten,Kapuas Hulu,Kalimantan Barat
1215,78757,Nanga Mentebah,61.06.20.2001,Mentebah,Kabupaten,Kapuas Hulu,Kalimantan Barat
1216,78757,Suka Maju,61.06.20.2003,Mentebah,Kabupaten,Kapuas Hulu,Kalimantan Barat
1217,78757,Tangai Jaya,61.06.20.2007,Mentebah,Kabupaten,Kapuas Hulu,Kalimantan Barat
1218,78757,Tanjung,61.06.20.2005,Mentebah,Kabupaten,Kapuas Hulu,Kalimantan Barat
1219,78757,Tanjung Intan,61.06.20.2006,Mentebah,Kabupaten,Kapuas Hulu,Kalimantan Barat
1220,78757,Tekalong,61.06.20.2002,Mentebah,Kabupaten,Kapuas Hulu,Kalimantan Barat
1221,79362,Bengkawe,61.08.03.2003,Menjalin,Kabupaten,Landak,Kalimantan Barat
1222,79362,Lamoanak (Lamo Anak),61.08.03.2002,Menjalin,Kabupaten,Landak,Kalimantan Barat
1223,79362,Menjalin,61.08.03.2008,Menjalin,Kabupaten,Landak,Kalimantan Barat
1224,79362,Nangka,61.08.03.2007,Menjalin,Kabupaten,Landak,Kalimantan Barat
1225,79362,Raba,61.08.03.2006,Menjalin,Kabupaten,Landak,Kalimantan Barat
1226,79362,Re'es (Rees),61.08.03.2005,Menjalin,Kabupaten,Landak,Kalimantan Barat
1227,79362,Sepahat,61.08.03.2001,Menjalin,Kabupaten,Landak,Kalimantan Barat
1228,79362,Tempoak,61.08.03.2004,Menjalin,Kabupaten,Landak,Kalimantan Barat
1229,78917,Antibar,61.02.18.2003,Mempawah Timur,Kabupaten,Mempawah,Kalimantan Barat
1230,78919,Parit Banjar,61.02.18.2008,Mempawah Timur,Kabupaten,Mempawah,Kalimantan Barat
1231,78916,Pasir Palembang,61.02.18.2005,Mempawah Timur,Kabupaten,Mempawah,Kalimantan Barat
1232,78915,Pasir Panjang,61.02.18.2006,Mempawah Timur,Kabupaten,Mempawah,Kalimantan Barat
1233,78915,Pasir Wan Salim,61.02.18.1002,Mempawah Timur,Kabupaten,Mempawah,Kalimantan Barat
1234,78917,Pulau Pedalaman,61.02.18.1001,Mempawah Timur,Kabupaten,Mempawah,Kalimantan Barat
1235,78919,Sei/Sungai Bakau Kecil,61.02.18.2007,Mempawah Timur,Kabupaten,Mempawah,Kalimantan Barat
1236,78918,Sejegi,61.02.18.2004,Mempawah Timur,Kabupaten,Mempawah,Kalimantan Barat
1237,79363,Ansolok,61.08.02.2022,Mempawah Hulu,Kabupaten,Landak,Kalimantan Barat
1238,79363,Babatn,61.08.02.2023,Mempawah Hulu,Kabupaten,Landak,Kalimantan Barat
1239,79363,Bilayuk,61.08.02.2019,Mempawah Hulu,Kabupaten,Landak,Kalimantan Barat
1240,79363,Caokng,61.08.02.2020,Mempawah Hulu,Kabupaten,Landak,Kalimantan Barat
1241,79363,Garu,61.08.02.2018,Mempawah Hulu,Kabupaten,Landak,Kalimantan Barat
1242,79363,Karangan,61.08.02.2001,Mempawah Hulu,Kabupaten,Landak,Kalimantan Barat
1243,79363,Mentonyek,61.08.02.2003,Mempawah Hulu,Kabupaten,Landak,Kalimantan Barat
1244,79363,Pahokng (Pahong / Pahok),61.08.02.2017,Mempawah Hulu,Kabupaten,Landak,Kalimantan Barat
1245,79363,Parigi,61.08.02.2024,Mempawah Hulu,Kabupaten,Landak,Kalimantan Barat
1246,79363,Sabaka,61.08.02.2006,Mempawah Hulu,Kabupaten,Landak,Kalimantan Barat
1247,79363,Sailo,61.08.02.2002,Mempawah Hulu,Kabupaten,Landak,Kalimantan Barat
1248,79363,Sala'as,61.08.02.2005,Mempawah Hulu,Kabupaten,Landak,Kalimantan Barat
1249,79363,Salumang,61.08.02.2021,Mempawah Hulu,Kabupaten,Landak,Kalimantan Barat
1250,79363,Sampuro,61.08.02.2004,Mempawah Hulu,Kabupaten,Landak,Kalimantan Barat
1251,79363,Sei/Sungai Laki,61.08.02.2009,Mempawah Hulu,Kabupaten,Landak,Kalimantan Barat
1252,79363,Tiang Tanjung,61.08.02.2014,Mempawah Hulu,Kabupaten,Landak,Kalimantan Barat
1253,79363,Tunang,61.08.02.2007,Mempawah Hulu,Kabupaten,Landak,Kalimantan Barat
1254,78914,Kuala Secapah,61.02.01.2013,Mempawah Hilir,Kabupaten,Mempawah,Kalimantan Barat
1255,78919,Malikian,61.02.01.2015,Mempawah Hilir,Kabupaten,Mempawah,Kalimantan Barat
1256,78919,Pasir,61.02.01.2003,Mempawah Hilir,Kabupaten,Mempawah,Kalimantan Barat
1257,78919,Penibung (Penibungan),61.02.01.2002,Mempawah Hilir,Kabupaten,Mempawah,Kalimantan Barat
1258,78919,Sengkubang,61.02.01.2001,Mempawah Hilir,Kabupaten,Mempawah,Kalimantan Barat
1259,78913,Tanjung,61.02.01.1006,Mempawah Hilir,Kabupaten,Mempawah,Kalimantan Barat
1260,78911,Tengah,61.02.01.1007,Mempawah Hilir,Kabupaten,Mempawah,Kalimantan Barat
1261,78912,Terusan,61.02.01.1009,Mempawah Hilir,Kabupaten,Mempawah,Kalimantan Barat
1262,78571,Balai Tinggi,61.03.20.2015,Meliau,Kabupaten,Sanggau,Kalimantan Barat
1263,78571,Baru Lombak,61.03.20.2013,Meliau,Kabupaten,Sanggau,Kalimantan Barat
1264,78571,Bhakti Jaya (Bakti Jaya),61.03.20.2017,Meliau,Kabupaten,Sanggau,Kalimantan Barat
1265,78571,Cupang,61.03.20.2011,Meliau,Kabupaten,Sanggau,Kalimantan Barat
1266,78571,Enggadai,61.03.20.2014,Meliau,Kabupaten,Sanggau,Kalimantan Barat
1267,78571,Harapan Makmur,61.03.20.2020,Meliau,Kabupaten,Sanggau,Kalimantan Barat
1268,78571,Kuala Buayan,61.03.20.2003,Meliau,Kabupaten,Sanggau,Kalimantan Barat
1269,78571,Kuala Rosan,61.03.20.2008,Meliau,Kabupaten,Sanggau,Kalimantan Barat
1270,78571,Kunyil,61.03.20.2010,Meliau,Kabupaten,Sanggau,Kalimantan Barat
1271,78571,Lalang,61.03.20.2012,Meliau,Kabupaten,Sanggau,Kalimantan Barat
1272,78571,Melawi Makmur,61.03.20.2019,Meliau,Kabupaten,Sanggau,Kalimantan Barat
1273,78571,Meliau Hilir,61.03.20.2001,Meliau,Kabupaten,Sanggau,Kalimantan Barat
1274,78571,Meliau Hulu,61.03.20.2002,Meliau,Kabupaten,Sanggau,Kalimantan Barat
1275,78571,Melobok,61.03.20.2005,Meliau,Kabupaten,Sanggau,Kalimantan Barat
1276,78571,Meranggau,61.03.20.2004,Meliau,Kabupaten,Sanggau,Kalimantan Barat
1277,78571,Mukti Jaya,61.03.20.2018,Meliau,Kabupaten,Sanggau,Kalimantan Barat
1278,78571,Pampang Dua,61.03.20.2007,Meliau,Kabupaten,Sanggau,Kalimantan Barat
1279,78571,Sei/Sungai Kembayau,61.03.20.2009,Meliau,Kabupaten,Sanggau,Kalimantan Barat
1280,78571,Sungai Mayam (Sei / Sungai Mayan),61.03.20.2006,Meliau,Kabupaten,Sanggau,Kalimantan Barat
1281,78813,Kuala Satong,61.04.01.2014,Matan Hilir Utara,Kabupaten,Ketapang,Kalimantan Barat
1282,78813,Kuala Tolak,61.04.01.2013,Matan Hilir Utara,Kabupaten,Ketapang,Kalimantan Barat
1283,78813,Lamon Satong (Laman Satong),61.04.01.2015,Matan Hilir Utara,Kabupaten,Ketapang,Kalimantan Barat
1284,78813,Sei/Sungai Putri,61.04.01.2011,Matan Hilir Utara,Kabupaten,Ketapang,Kalimantan Barat
1285,78813,Tanjung Baik Budi,61.04.01.2012,Matan Hilir Utara,Kabupaten,Ketapang,Kalimantan Barat
1286,78822,Harapan Baru,61.04.12.2018,Matan Hilir Selatan,Kabupaten,Ketapang,Kalimantan Barat
1287,78822,Kemuning Biutak,61.04.12.2017,Matan Hilir Selatan,Kabupaten,Ketapang,Kalimantan Barat
1288,78822,Pagar Mentimun,61.04.12.2019,Matan Hilir Selatan,Kabupaten,Ketapang,Kalimantan Barat
1289,78822,Pematang Gadung,61.04.12.2013,Matan Hilir Selatan,Kabupaten,Ketapang,Kalimantan Barat
1290,78822,Pesaguan Kanan,61.04.12.2014,Matan Hilir Selatan,Kabupaten,Ketapang,Kalimantan Barat
1291,78822,Pesaguan Kiri,61.04.12.2007,Matan Hilir Selatan,Kabupaten,Ketapang,Kalimantan Barat
1292,78822,Sei/Sungai Bakau,61.04.12.2012,Matan Hilir Selatan,Kabupaten,Ketapang,Kalimantan Barat
1293,78822,Sei/Sungai Besar,61.04.12.2015,Matan Hilir Selatan,Kabupaten,Ketapang,Kalimantan Barat
1294,78822,Sei/Sungai Jawi,61.04.12.2006,Matan Hilir Selatan,Kabupaten,Ketapang,Kalimantan Barat
1295,78822,Sei/Sungai Nanjung,61.04.12.2016,Matan Hilir Selatan,Kabupaten,Ketapang,Kalimantan Barat
1296,78822,Sei/Sungai Pelang,61.04.12.2008,Matan Hilir Selatan,Kabupaten,Ketapang,Kalimantan Barat
1297,78865,Bantan Sari,61.04.02.2022,Marau,Kabupaten,Ketapang,Kalimantan Barat
1298,78865,Batu Payung Dua (Batu Payung),61.04.02.2021,Marau,Kabupaten,Ketapang,Kalimantan Barat
1299,78865,Belaban,61.04.02.2003,Marau,Kabupaten,Ketapang,Kalimantan Barat
1300,78865,Karya Baru,61.04.02.2008,Marau,Kabupaten,Ketapang,Kalimantan Barat
1301,78865,Pelanjau Jaya (Planjau Jaya),61.04.02.2023,Marau,Kabupaten,Ketapang,Kalimantan Barat
1302,78865,Randai,61.04.02.2002,Marau,Kabupaten,Ketapang,Kalimantan Barat
1303,78865,Rangkung (Rangkong),61.04.02.2024,Marau,Kabupaten,Ketapang,Kalimantan Barat
1304,78865,Riam Batu Gading (Riam Batu Gadig),61.04.02.2020,Marau,Kabupaten,Ketapang,Kalimantan Barat
1305,78865,Runjai Jaya,61.04.02.2004,Marau,Kabupaten,Ketapang,Kalimantan Barat
1306,78865,Suka Karya,61.04.02.2001,Marau,Kabupaten,Ketapang,Kalimantan Barat
1307,78864,Air Dekakah,61.04.03.2002,Manis Mata,Kabupaten,Ketapang,Kalimantan Barat
1308,78864,Asam Besar,61.04.03.2011,Manis Mata,Kabupaten,Ketapang,Kalimantan Barat
1309,78864,Batu Sedau,61.04.03.2012,Manis Mata,Kabupaten,Ketapang,Kalimantan Barat
1310,78864,Bukit Gajah,61.04.03.2009,Manis Mata,Kabupaten,Ketapang,Kalimantan Barat
1311,78864,Jambi,61.04.03.2013,Manis Mata,Kabupaten,Ketapang,Kalimantan Barat
1312,78864,Kelampai,61.04.03.2008,Manis Mata,Kabupaten,Ketapang,Kalimantan Barat
1313,78864,Kelimantan,61.04.03.2015,Manis Mata,Kabupaten,Ketapang,Kalimantan Barat
1314,78864,Kemuning,61.04.03.2007,Manis Mata,Kabupaten,Ketapang,Kalimantan Barat
1315,78864,Lembah Mukti,61.04.03.2010,Manis Mata,Kabupaten,Ketapang,Kalimantan Barat
1316,78864,Manis Mata,61.04.03.2001,Manis Mata,Kabupaten,Ketapang,Kalimantan Barat
1317,78864,Mekar Jaya,61.04.03.2021,Manis Mata,Kabupaten,Ketapang,Kalimantan Barat
1318,78864,Pakit Selaba,61.04.03.2018,Manis Mata,Kabupaten,Ketapang,Kalimantan Barat
1319,78864,Pelempangan,61.04.03.2016,Manis Mata,Kabupaten,Ketapang,Kalimantan Barat
1320,78864,Ratu Elok,61.04.03.2020,Manis Mata,Kabupaten,Ketapang,Kalimantan Barat
1321,78864,Seguling,61.04.03.2014,Manis Mata,Kabupaten,Ketapang,Kalimantan Barat
1322,78864,Sengkuang Merabong (Sengkuang Merabung),61.04.03.2017,Manis Mata,Kabupaten,Ketapang,Kalimantan Barat
1323,78864,Silat,61.04.03.2005,Manis Mata,Kabupaten,Ketapang,Kalimantan Barat
1324,78864,Suak Burung,61.04.03.2004,Manis Mata,Kabupaten,Ketapang,Kalimantan Barat
1325,78864,Suka Ramai,61.04.03.2003,Manis Mata,Kabupaten,Ketapang,Kalimantan Barat
1326,78864,Sungai Buluh,61.04.03.2019,Manis Mata,Kabupaten,Ketapang,Kalimantan Barat
1327,78864,Terusan,61.04.03.2006,Manis Mata,Kabupaten,Ketapang,Kalimantan Barat
1328,78864,Tribun Jaya,61.04.03.2022,Manis Mata,Kabupaten,Ketapang,Kalimantan Barat
1329,79355,Bebatung,61.08.04.2004,Mandor,Kabupaten,Landak,Kalimantan Barat
1330,79355,Kayu Ara,61.08.04.2011,Mandor,Kabupaten,Landak,Kalimantan Barat
1331,79355,Kayu Tanam,61.08.04.2016,Mandor,Kabupaten,Landak,Kalimantan Barat
1332,79355,Keramas,61.08.04.2009,Mandor,Kabupaten,Landak,Kalimantan Barat
1333,79355,Kerohok,61.08.04.2005,Mandor,Kabupaten,Landak,Kalimantan Barat
1334,79355,Mandor,61.08.04.2013,Mandor,Kabupaten,Landak,Kalimantan Barat
1335,79355,Manggang,61.08.04.2008,Mandor,Kabupaten,Landak,Kalimantan Barat
1336,79355,Mengkunyit,61.08.04.2003,Mandor,Kabupaten,Landak,Kalimantan Barat
1337,79355,Ngarak,61.08.04.2017,Mandor,Kabupaten,Landak,Kalimantan Barat
1338,79355,Pongok,61.08.04.2010,Mandor,Kabupaten,Landak,Kalimantan Barat
1339,79355,Salatiga (Sala Tiga),61.08.04.2015,Mandor,Kabupaten,Landak,Kalimantan Barat
1340,79355,Sebadu,61.08.04.2001,Mandor,Kabupaten,Landak,Kalimantan Barat
1341,79355,Sekilap,61.08.04.2007,Mandor,Kabupaten,Landak,Kalimantan Barat
1342,79355,Selutung,61.08.04.2012,Mandor,Kabupaten,Landak,Kalimantan Barat
1343,79355,Semenok,61.08.04.2002,Mandor,Kabupaten,Landak,Kalimantan Barat
1344,79355,Simpang Kasturi,61.08.04.2014,Mandor,Kabupaten,Landak,Kalimantan Barat
1345,79355,Sumsum (Sum Sum),61.08.04.2006,Mandor,Kabupaten,Landak,Kalimantan Barat
1346,79282,Belimbing,61.07.13.2004,Lumar,Kabupaten,Bengkayang,Kalimantan Barat
1347,79282,Lamolda,61.07.13.2005,Lumar,Kabupaten,Bengkayang,Kalimantan Barat
1348,79282,Magmagan Karya,61.07.13.2001,Lumar,Kabupaten,Bengkayang,Kalimantan Barat
1349,79282,Seren Selimbau,61.07.13.2003,Lumar,Kabupaten,Bengkayang,Kalimantan Barat
1350,79282,Tiga Berkat,61.07.13.2002,Lumar,Kabupaten,Bengkayang,Kalimantan Barat
1351,79281,Godang Damar,61.07.16.2007,Lembah Bawang,Kabupaten,Bengkayang,Kalimantan Barat
1352,79281,Janyat,61.07.16.2003,Lembah Bawang,Kabupaten,Bengkayang,Kalimantan Barat
1353,79281,Kinande,61.07.16.2008,Lembah Bawang,Kabupaten,Bengkayang,Kalimantan Barat
1354,79281,Lembah Bawang,61.07.16.2002,Lembah Bawang,Kabupaten,Bengkayang,Kalimantan Barat
1355,79281,Papan Tembawang,61.07.16.2006,Lembah Bawang,Kabupaten,Bengkayang,Kalimantan Barat
1356,79281,Papan Uduk,61.07.16.2005,Lembah Bawang,Kabupaten,Bengkayang,Kalimantan Barat
1357,79281,Saka Taru,61.07.16.2001,Lembah Bawang,Kabupaten,Bengkayang,Kalimantan Barat
1358,79281,Tempapan,61.07.16.2004,Lembah Bawang,Kabupaten,Bengkayang,Kalimantan Barat
1359,79283,Dayung,61.07.03.2005,Ledo,Kabupaten,Bengkayang,Kalimantan Barat
1360,79283,Jesape,61.07.03.2007,Ledo,Kabupaten,Bengkayang,Kalimantan Barat
1361,79283,Lesabela,61.07.03.2001,Ledo,Kabupaten,Bengkayang,Kalimantan Barat
1362,79283,Lomba Karya,61.07.03.2011,Ledo,Kabupaten,Bengkayang,Kalimantan Barat
1363,79283,Rodaya,61.07.03.2004,Ledo,Kabupaten,Bengkayang,Kalimantan Barat
1364,79283,Seles,61.07.03.2013,Ledo,Kabupaten,Bengkayang,Kalimantan Barat
1365,79283,Semangat,61.07.03.2002,Ledo,Kabupaten,Bengkayang,Kalimantan Barat
1366,79283,Serangkat,61.07.03.2003,Ledo,Kabupaten,Bengkayang,Kalimantan Barat
1367,79283,Sidai,61.07.03.2012,Ledo,Kabupaten,Bengkayang,Kalimantan Barat
1368,79283,Suka Damai,61.07.03.2019,Ledo,Kabupaten,Bengkayang,Kalimantan Barat
1369,79283,Suka Jaya,61.07.03.2021,Ledo,Kabupaten,Bengkayang,Kalimantan Barat
1370,79283,Tebuah Marong (Trans),61.07.03.2018,Ledo,Kabupaten,Bengkayang,Kalimantan Barat
1371,78384,Air Putih,61.12.06.2012,Kubu,Kabupaten,Kubu Raya,Kalimantan Barat
1372,78384,Ambarawa (Ambawang),61.12.06.2009,Kubu,Kabupaten,Kubu Raya,Kalimantan Barat
1373,78384,Dabong (Dabung),61.12.06.2008,Kubu,Kabupaten,Kubu Raya,Kalimantan Barat
1374,78384,Jangkang Dua,61.12.06.2015,Kubu,Kabupaten,Kubu Raya,Kalimantan Barat
1375,78384,Jangkang Satu,61.12.06.2014,Kubu,Kabupaten,Kubu Raya,Kalimantan Barat
1376,78384,Kampung Baru (Baru),61.12.06.2011,Kubu,Kabupaten,Kubu Raya,Kalimantan Barat
1377,78384,Kubu,61.12.06.2001,Kubu,Kabupaten,Kubu Raya,Kalimantan Barat
1378,78384,Mengkalang,61.12.06.2019,Kubu,Kabupaten,Kubu Raya,Kalimantan Barat
1379,78384,Mengkalang Jambu,61.12.06.2020,Kubu,Kabupaten,Kubu Raya,Kalimantan Barat
1380,78384,Olak-Olak Kubu,61.12.06.2002,Kubu,Kabupaten,Kubu Raya,Kalimantan Barat
1381,78384,Pelita Jaya,61.12.06.2018,Kubu,Kabupaten,Kubu Raya,Kalimantan Barat
1382,78384,Pinang Dalam,61.12.06.2016,Kubu,Kabupaten,Kubu Raya,Kalimantan Barat
1383,78384,Pinang Luar,61.12.06.2005,Kubu,Kabupaten,Kubu Raya,Kalimantan Barat
1384,78384,Sepakat Baru,61.12.06.2010,Kubu,Kabupaten,Kubu Raya,Kalimantan Barat
1385,78384,Seruat Dua,61.12.06.2006,Kubu,Kabupaten,Kubu Raya,Kalimantan Barat
1386,78384,Seruat Tiga,61.12.06.2007,Kubu,Kabupaten,Kubu Raya,Kalimantan Barat
1387,78384,Sungai Bemban,61.12.06.2004,Kubu,Kabupaten,Kubu Raya,Kalimantan Barat
1388,78384,Sungai Selamat,61.12.06.2003,Kubu,Kabupaten,Kubu Raya,Kalimantan Barat
1389,78384,Sungai Terus,61.12.06.2017,Kubu,Kabupaten,Kubu Raya,Kalimantan Barat
1390,78384,Teluk Nangka,61.12.06.2013,Kubu,Kabupaten,Kubu Raya,Kalimantan Barat
1391,78355,Kuala Mandor A,61.12.02.2003,Kuala Mandor B,Kabupaten,Kubu Raya,Kalimantan Barat
1392,78355,Kuala Mandor-B,61.12.02.2001,Kuala Mandor B,Kabupaten,Kubu Raya,Kalimantan Barat
1393,78355,Kubu Padi,61.12.02.2002,Kuala Mandor B,Kabupaten,Kubu Raya,Kalimantan Barat
1394,78355,Padi Jaya,61.12.02.2006,Kuala Mandor B,Kabupaten,Kubu Raya,Kalimantan Barat
1395,78355,Retok,61.12.02.2004,Kuala Mandor B,Kabupaten,Kubu Raya,Kalimantan Barat
1396,78355,Sungai Enau,61.12.02.2005,Kuala Mandor B,Kabupaten,Kubu Raya,Kalimantan Barat
1397,79367,Angkanyar,61.08.09.2007,Kuala Behe,Kabupaten,Landak,Kalimantan Barat
1398,79367,Bengawan Ampar,61.08.09.2009,Kuala Behe,Kabupaten,Landak,Kalimantan Barat
1399,79367,Kedama,61.08.09.2008,Kuala Behe,Kabupaten,Landak,Kalimantan Barat
1400,79367,Kuala Behe,61.08.09.2002,Kuala Behe,Kabupaten,Landak,Kalimantan Barat
1401,79367,Nyayum,61.08.09.2003,Kuala Behe,Kabupaten,Landak,Kalimantan Barat
1402,79367,Paku Raya,61.08.09.2004,Kuala Behe,Kabupaten,Landak,Kalimantan Barat
1403,79367,Permiit,61.08.09.2005,Kuala Behe,Kabupaten,Landak,Kalimantan Barat
1404,79367,Sehe Lusur,61.08.09.2010,Kuala Behe,Kabupaten,Landak,Kalimantan Barat
1405,79367,Sejowet,61.08.09.2011,Kuala Behe,Kabupaten,Landak,Kalimantan Barat
1406,79367,Semedang (Sumedang),61.08.09.2001,Kuala Behe,Kabupaten,Landak,Kalimantan Barat
1407,79367,Tanjung Balai,61.08.09.2006,Kuala Behe,Kabupaten,Landak,Kalimantan Barat
1408,78653,Argo Mulyo,61.05.05.2009,Ketungau Tengah,Kabupaten,Sintang,Kalimantan Barat
1409,78653,Bakti Senabung,61.05.05.2022,Ketungau Tengah,Kabupaten,Sintang,Kalimantan Barat
1410,78653,Begelang Jaya,61.05.05.2005,Ketungau Tengah,Kabupaten,Sintang,Kalimantan Barat
1411,78653,Engkitan,61.05.05.2023,Ketungau Tengah,Kabupaten,Sintang,Kalimantan Barat
1412,78653,Gut Jaya Bhakti (Gut Jaya Bakti),61.05.05.2013,Ketungau Tengah,Kabupaten,Sintang,Kalimantan Barat
1413,78653,Kayu Dujung,61.05.05.2015,Ketungau Tengah,Kabupaten,Sintang,Kalimantan Barat
1414,78653,Kerta Sari,61.05.05.2008,Ketungau Tengah,Kabupaten,Sintang,Kalimantan Barat
1415,78653,Kubu Berangan,61.05.05.2028,Ketungau Tengah,Kabupaten,Sintang,Kalimantan Barat
1416,78653,Landau Buaya,61.05.05.2014,Ketungau Tengah,Kabupaten,Sintang,Kalimantan Barat
1417,78653,Landau Temiang,61.05.05.2024,Ketungau Tengah,Kabupaten,Sintang,Kalimantan Barat
1418,78653,Margahayu (Marga Hayu),61.05.05.2012,Ketungau Tengah,Kabupaten,Sintang,Kalimantan Barat
1419,78653,Mungguk Gelombang,61.05.05.2018,Ketungau Tengah,Kabupaten,Sintang,Kalimantan Barat
1420,78653,Mungguk Lawang,61.05.05.2019,Ketungau Tengah,Kabupaten,Sintang,Kalimantan Barat
1421,78653,Nanga Kelapan,61.05.05.2020,Ketungau Tengah,Kabupaten,Sintang,Kalimantan Barat
1422,78653,Padung Kumang,61.05.05.2025,Ketungau Tengah,Kabupaten,Sintang,Kalimantan Barat
1423,78653,Panding Jaya,61.05.05.2003,Ketungau Tengah,Kabupaten,Sintang,Kalimantan Barat
1424,78653,Panggi Agung,61.05.05.2007,Ketungau Tengah,Kabupaten,Sintang,Kalimantan Barat
1425,78653,Panggi Ruguk,61.05.05.2021,Ketungau Tengah,Kabupaten,Sintang,Kalimantan Barat
1426,78653,Radin Jaya,61.05.05.2026,Ketungau Tengah,Kabupaten,Sintang,Kalimantan Barat
1427,78653,Semareh,61.05.05.2029,Ketungau Tengah,Kabupaten,Sintang,Kalimantan Barat
1428,78653,Senangan Jaya,61.05.05.2027,Ketungau Tengah,Kabupaten,Sintang,Kalimantan Barat
1429,78653,Senangan Kecil,61.05.05.2016,Ketungau Tengah,Kabupaten,Sintang,Kalimantan Barat
1430,78653,Sumber Sari,61.05.05.2006,Ketungau Tengah,Kabupaten,Sintang,Kalimantan Barat
1431,78653,Sungai Areh,61.05.05.2017,Ketungau Tengah,Kabupaten,Sintang,Kalimantan Barat
1432,78653,Swadaya,61.05.05.2011,Ketungau Tengah,Kabupaten,Sintang,Kalimantan Barat
1433,78653,Tanjung Sari,61.05.05.2002,Ketungau Tengah,Kabupaten,Sintang,Kalimantan Barat
1434,78653,Tirta Karya (Terta Karya),61.05.05.2004,Ketungau Tengah,Kabupaten,Sintang,Kalimantan Barat
1435,78653,Wana Bhakti,61.05.05.2010,Ketungau Tengah,Kabupaten,Sintang,Kalimantan Barat
1436,78653,Wirayuda,61.05.05.2001,Ketungau Tengah,Kabupaten,Sintang,Kalimantan Barat
1437,78654,Bekuan Luyang,61.05.06.2017,Ketungau Hulu,Kabupaten,Sintang,Kalimantan Barat
1438,78654,Embaleh,61.05.06.2020,Ketungau Hulu,Kabupaten,Sintang,Kalimantan Barat
1439,78654,Empunak Tapang Keladan,61.05.06.2012,Ketungau Hulu,Kabupaten,Sintang,Kalimantan Barat
1440,78654,Empura,61.05.06.2002,Ketungau Hulu,Kabupaten,Sintang,Kalimantan Barat
1441,78654,Engkeruh,61.05.06.2023,Ketungau Hulu,Kabupaten,Sintang,Kalimantan Barat
1442,78654,Idai,61.05.06.2025,Ketungau Hulu,Kabupaten,Sintang,Kalimantan Barat
1443,78654,Jasa,61.05.06.2009,Ketungau Hulu,Kabupaten,Sintang,Kalimantan Barat
1444,78654,Muakan Petinggi,61.05.06.2014,Ketungau Hulu,Kabupaten,Sintang,Kalimantan Barat
1445,78654,Mungguk Entawak,61.05.06.2019,Ketungau Hulu,Kabupaten,Sintang,Kalimantan Barat
1446,78654,Nanga Bayan,61.05.06.2007,Ketungau Hulu,Kabupaten,Sintang,Kalimantan Barat
1447,78654,Nanga Bugau,61.05.06.2011,Ketungau Hulu,Kabupaten,Sintang,Kalimantan Barat
1448,78654,Nanga Sebawang,61.05.06.2015,Ketungau Hulu,Kabupaten,Sintang,Kalimantan Barat
1449,78654,Neraci Jaya,61.05.06.2028,Ketungau Hulu,Kabupaten,Sintang,Kalimantan Barat
1450,78654,Rasau,61.05.06.2008,Ketungau Hulu,Kabupaten,Sintang,Kalimantan Barat
1451,78654,Riam Sejawak,61.05.06.2022,Ketungau Hulu,Kabupaten,Sintang,Kalimantan Barat
1452,78654,Sebadak,61.05.06.2003,Ketungau Hulu,Kabupaten,Sintang,Kalimantan Barat
1453,78654,Sebetung Paluk,61.05.06.2013,Ketungau Hulu,Kabupaten,Sintang,Kalimantan Barat
1454,78654,Sebuluh,61.05.06.2021,Ketungau Hulu,Kabupaten,Sintang,Kalimantan Barat
1455,78654,Sei/Sungai Seria,61.05.06.2005,Ketungau Hulu,Kabupaten,Sintang,Kalimantan Barat
1456,78654,Sejawak,61.05.06.2029,Ketungau Hulu,Kabupaten,Sintang,Kalimantan Barat
1457,78654,Sekaih,61.05.06.2016,Ketungau Hulu,Kabupaten,Sintang,Kalimantan Barat
1458,78654,Senaning,61.05.06.2001,Ketungau Hulu,Kabupaten,Sintang,Kalimantan Barat
1459,78654,Sepiluk,61.05.06.2004,Ketungau Hulu,Kabupaten,Sintang,Kalimantan Barat
1460,78654,Suak Medang,61.05.06.2006,Ketungau Hulu,Kabupaten,Sintang,Kalimantan Barat
1461,78654,Sungai Bugau,61.05.06.2010,Ketungau Hulu,Kabupaten,Sintang,Kalimantan Barat
1462,78654,Sungai Kelik,61.05.06.2024,Ketungau Hulu,Kabupaten,Sintang,Kalimantan Barat
1463,78654,Sungai Mawang,61.05.06.2026,Ketungau Hulu,Kabupaten,Sintang,Kalimantan Barat
1464,78654,Sungai Pisau,61.05.06.2018,Ketungau Hulu,Kabupaten,Sintang,Kalimantan Barat
1465,78654,Ujung Kempas,61.05.06.2027,Ketungau Hulu,Kabupaten,Sintang,Kalimantan Barat
1466,78652,Air Nyuruk,61.05.04.2005,Ketungau Hilir,Kabupaten,Sintang,Kalimantan Barat
1467,78652,Batu Ampar,61.05.04.2015,Ketungau Hilir,Kabupaten,Sintang,Kalimantan Barat
1468,78652,Batu Nyadi,61.05.04.2020,Ketungau Hilir,Kabupaten,Sintang,Kalimantan Barat
1469,78652,Baung Sengatap,61.05.04.2012,Ketungau Hilir,Kabupaten,Sintang,Kalimantan Barat
1470,78652,Beluh Mulyo,61.05.04.2014,Ketungau Hilir,Kabupaten,Sintang,Kalimantan Barat
1471,78652,Betung Permai,61.05.04.2017,Ketungau Hilir,Kabupaten,Sintang,Kalimantan Barat
1472,78652,Bukit Sidin Permai,61.05.04.2016,Ketungau Hilir,Kabupaten,Sintang,Kalimantan Barat
1473,78652,Jentawang Hilir,61.05.04.2019,Ketungau Hilir,Kabupaten,Sintang,Kalimantan Barat
1474,78652,Kenuak,61.05.04.2018,Ketungau Hilir,Kabupaten,Sintang,Kalimantan Barat
1475,78652,Lepung Pantak,61.05.04.2022,Ketungau Hilir,Kabupaten,Sintang,Kalimantan Barat
1476,78652,Maung,61.05.04.2025,Ketungau Hilir,Kabupaten,Sintang,Kalimantan Barat
1477,78652,Mungguk Kelapa,61.05.04.2024,Ketungau Hilir,Kabupaten,Sintang,Kalimantan Barat
1478,78652,Nanga Ketungau,61.05.04.2001,Ketungau Hilir,Kabupaten,Sintang,Kalimantan Barat
1479,78652,Nanga Merkak,61.05.04.2006,Ketungau Hilir,Kabupaten,Sintang,Kalimantan Barat
1480,78652,Nanga Sejirak,61.05.04.2008,Ketungau Hilir,Kabupaten,Sintang,Kalimantan Barat
1481,78652,Pampang Dua,61.05.04.2023,Ketungau Hilir,Kabupaten,Sintang,Kalimantan Barat
1482,78652,Ratu Damai,61.05.04.2021,Ketungau Hilir,Kabupaten,Sintang,Kalimantan Barat
1483,78652,Sei/Sungai Deras,61.05.04.2007,Ketungau Hilir,Kabupaten,Sintang,Kalimantan Barat
1484,78652,Sei/Sungai Mali,61.05.04.2004,Ketungau Hilir,Kabupaten,Sintang,Kalimantan Barat
1485,78652,Semajau Mekar,61.05.04.2013,Ketungau Hilir,Kabupaten,Sintang,Kalimantan Barat
1486,78652,Semuntai,61.05.04.2009,Ketungau Hilir,Kabupaten,Sintang,Kalimantan Barat
1487,78652,Senibung,61.05.04.2010,Ketungau Hilir,Kabupaten,Sintang,Kalimantan Barat
1488,78652,Setungkup,61.05.04.2002,Ketungau Hilir,Kabupaten,Sintang,Kalimantan Barat
1489,78652,Tanjung Baung,61.05.04.2011,Ketungau Hilir,Kabupaten,Sintang,Kalimantan Barat
1490,78855,Betok Jaya,61.11.06.2002,Kepulauan Karimata,Kabupaten,Kayong Utara,Kalimantan Barat
1491,78855,Padang,61.11.06.2003,Kepulauan Karimata,Kabupaten,Kayong Utara,Kalimantan Barat
1492,78855,Pelapis,61.11.06.2001,Kepulauan Karimata,Kabupaten,Kayong Utara,Kalimantan Barat
1493,78862,Air Hitam Besar,61.04.04.2006,Kendawangan,Kabupaten,Ketapang,Kalimantan Barat
1494,78862,Air Tarap,61.04.04.2019,Kendawangan,Kabupaten,Ketapang,Kalimantan Barat
1495,78862,Airhitam Hulu (Air Hitam Hulu),61.04.04.2013,Kendawangan,Kabupaten,Ketapang,Kalimantan Barat
1496,78862,Bangkal Serai,61.04.04.2005,Kendawangan,Kabupaten,Ketapang,Kalimantan Barat
1497,78862,Banjar Sari,61.04.04.2002,Kendawangan,Kabupaten,Ketapang,Kalimantan Barat
1498,78862,Danau Buntar,61.04.04.2010,Kendawangan,Kabupaten,Ketapang,Kalimantan Barat
1499,78862,Kedondong,61.04.04.2017,Kendawangan,Kabupaten,Ketapang,Kalimantan Barat
1500,78862,Kendawangan Kanan,61.04.04.2003,Kendawangan,Kabupaten,Ketapang,Kalimantan Barat
1501,78862,Kendawangan Kiri,61.04.04.2001,Kendawangan,Kabupaten,Ketapang,Kalimantan Barat
1502,78862,Keramat Jaya,61.04.04.2015,Kendawangan,Kabupaten,Ketapang,Kalimantan Barat
1503,78862,Mekar Utama,61.04.04.2011,Kendawangan,Kabupaten,Ketapang,Kalimantan Barat
1504,78862,Natai Kuini,61.04.04.2014,Kendawangan,Kabupaten,Ketapang,Kalimantan Barat
1505,78862,Pangkalan Batu,61.04.04.2004,Kendawangan,Kabupaten,Ketapang,Kalimantan Barat
1506,78862,Pembedilan,61.04.04.2012,Kendawangan,Kabupaten,Ketapang,Kalimantan Barat
1507,78862,Selimantan Jaya (Selimatan Jaya),61.04.04.2009,Kendawangan,Kabupaten,Ketapang,Kalimantan Barat
1508,78862,Seriam,61.04.04.2016,Kendawangan,Kabupaten,Ketapang,Kalimantan Barat
1509,78862,Suka Damai,61.04.04.2008,Kendawangan,Kabupaten,Ketapang,Kalimantan Barat
1510,78862,Suka Harapan,61.04.04.2007,Kendawangan,Kabupaten,Ketapang,Kalimantan Barat
1511,78862,Sungai Jelayan,61.04.04.2018,Kendawangan,Kabupaten,Ketapang,Kalimantan Barat
1512,78553,Kelompu,61.03.08.2010,Kembayan,Kabupaten,Sanggau,Kalimantan Barat
1513,78553,Kuala Dua,61.03.08.2004,Kembayan,Kabupaten,Sanggau,Kalimantan Barat
1514,78553,Mobui,61.03.08.2007,Kembayan,Kabupaten,Sanggau,Kalimantan Barat
1515,78553,Sebongkuh,61.03.08.2003,Kembayan,Kabupaten,Sanggau,Kalimantan Barat
1516,78553,Sebuduh,61.03.08.2009,Kembayan,Kabupaten,Sanggau,Kalimantan Barat
1517,78553,Sejuah,61.03.08.2006,Kembayan,Kabupaten,Sanggau,Kalimantan Barat
1518,78553,Semayang,61.03.08.2002,Kembayan,Kabupaten,Sanggau,Kalimantan Barat
1519,78553,Tanap,61.03.08.2008,Kembayan,Kabupaten,Sanggau,Kalimantan Barat
1520,78553,Tanjung Bunga,61.03.08.2001,Kembayan,Kabupaten,Sanggau,Kalimantan Barat
1521,78553,Tanjung Merpati,61.03.08.2005,Kembayan,Kabupaten,Sanggau,Kalimantan Barat
1522,78553,Tunggal Bhakti,61.03.08.2011,Kembayan,Kabupaten,Sanggau,Kalimantan Barat
1523,78656,Baning Panjang,61.05.19.2004,Kelam Permai,Kabupaten,Sintang,Kalimantan Barat
1524,78656,Bengkuang,61.05.19.2006,Kelam Permai,Kabupaten,Sintang,Kalimantan Barat
1525,78656,Ensaid Panjang,61.05.19.2005,Kelam Permai,Kabupaten,Sintang,Kalimantan Barat
1526,78656,Gemba Raya,61.05.19.2011,Kelam Permai,Kabupaten,Sintang,Kalimantan Barat
1527,78656,Karya Jaya Bhakti,61.05.19.2012,Kelam Permai,Kabupaten,Sintang,Kalimantan Barat
1528,78656,Kebong,61.05.19.2003,Kelam Permai,Kabupaten,Sintang,Kalimantan Barat
1529,78656,Kelam Sejahtera,61.05.19.2017,Kelam Permai,Kabupaten,Sintang,Kalimantan Barat
1530,78656,Landau Kodam,61.05.19.2014,Kelam Permai,Kabupaten,Sintang,Kalimantan Barat
1531,78656,Mandiri Jaya,61.05.19.2013,Kelam Permai,Kabupaten,Sintang,Kalimantan Barat
1532,78656,Merpak,61.05.19.2002,Kelam Permai,Kabupaten,Sintang,Kalimantan Barat
1533,78656,Nanga Lebang,61.05.19.2001,Kelam Permai,Kabupaten,Sintang,Kalimantan Barat
1534,78656,Pelimping,61.05.19.2007,Kelam Permai,Kabupaten,Sintang,Kalimantan Barat
1535,78656,Sei/Sungai Maram,61.05.19.2009,Kelam Permai,Kabupaten,Sintang,Kalimantan Barat
1536,78656,Sei/Sungai Pukat,61.05.19.2008,Kelam Permai,Kabupaten,Sintang,Kalimantan Barat
1537,78656,Sepan Lebang,61.05.19.2010,Kelam Permai,Kabupaten,Sintang,Kalimantan Barat
1538,78656,Sungai Labi,61.05.19.2015,Kelam Permai,Kabupaten,Sintang,Kalimantan Barat
1539,78656,Sungai Lais,61.05.19.2016,Kelam Permai,Kabupaten,Sintang,Kalimantan Barat
1540,78694,Buluh Merindu,61.05.09.2021,Kayan Hulu,Kabupaten,Sintang,Kalimantan Barat
1541,78694,Empakan,61.05.09.2022,Kayan Hulu,Kabupaten,Sintang,Kalimantan Barat
1542,78694,Empoyang,61.05.09.2023,Kayan Hulu,Kabupaten,Sintang,Kalimantan Barat
1543,78694,Entogong,61.05.09.2006,Kayan Hulu,Kabupaten,Sintang,Kalimantan Barat
1544,78694,Kebarau,61.05.09.2031,Kayan Hulu,Kabupaten,Sintang,Kalimantan Barat
1545,78694,Kerapuk Jaya,61.05.09.2027,Kayan Hulu,Kabupaten,Sintang,Kalimantan Barat
1546,78694,Landau Bara,61.05.09.2026,Kayan Hulu,Kabupaten,Sintang,Kalimantan Barat
1547,78694,Lintak Tambuk (Lintang Tambuk),61.05.09.2009,Kayan Hulu,Kabupaten,Sintang,Kalimantan Barat
1548,78694,Mapan Jaya,61.05.09.2019,Kayan Hulu,Kabupaten,Sintang,Kalimantan Barat
1549,78694,Merah Arai,61.05.09.2028,Kayan Hulu,Kabupaten,Sintang,Kalimantan Barat
1550,78694,Merahau Permai,61.05.09.2024,Kayan Hulu,Kabupaten,Sintang,Kalimantan Barat
1551,78694,Nanga Abai,61.05.09.2012,Kayan Hulu,Kabupaten,Sintang,Kalimantan Barat
1552,78694,Nanga Laar,61.05.09.2013,Kayan Hulu,Kabupaten,Sintang,Kalimantan Barat
1553,78694,Nanga Masau,61.05.09.2010,Kayan Hulu,Kabupaten,Sintang,Kalimantan Barat
1554,78694,Nanga Oran,61.05.09.2015,Kayan Hulu,Kabupaten,Sintang,Kalimantan Barat
1555,78694,Nanga Payak,61.05.09.2002,Kayan Hulu,Kabupaten,Sintang,Kalimantan Barat
1556,78694,Nanga Tampang,61.05.09.2030,Kayan Hulu,Kabupaten,Sintang,Kalimantan Barat
1557,78694,Nanga Tebidah,61.05.09.2001,Kayan Hulu,Kabupaten,Sintang,Kalimantan Barat
1558,78694,Nanga Tonggoi,61.05.09.2007,Kayan Hulu,Kabupaten,Sintang,Kalimantan Barat
1559,78694,Nanga Toran,61.05.09.2004,Kayan Hulu,Kabupaten,Sintang,Kalimantan Barat
1560,78694,Nanga Ungai,61.05.09.2011,Kayan Hulu,Kabupaten,Sintang,Kalimantan Barat
1561,78694,Nangkak Lestari,61.05.09.2017,Kayan Hulu,Kabupaten,Sintang,Kalimantan Barat
1562,78694,Riam Muntik,61.05.09.2014,Kayan Hulu,Kabupaten,Sintang,Kalimantan Barat
1563,78694,Riam Panjang,61.05.09.2005,Kayan Hulu,Kabupaten,Sintang,Kalimantan Barat
1564,78694,Tanah Merah,61.05.09.2025,Kayan Hulu,Kabupaten,Sintang,Kalimantan Barat
1565,78694,Tanjung Bunga,61.05.09.2003,Kayan Hulu,Kabupaten,Sintang,Kalimantan Barat
1566,78694,Tanjung Lalau,61.05.09.2008,Kayan Hulu,Kabupaten,Sintang,Kalimantan Barat
1567,78694,Tanjung Miru,61.05.09.2020,Kayan Hulu,Kabupaten,Sintang,Kalimantan Barat
1568,78694,Tapang Manua,61.05.09.2029,Kayan Hulu,Kabupaten,Sintang,Kalimantan Barat
1569,78694,Tonak Goneh,61.05.09.2016,Kayan Hulu,Kabupaten,Sintang,Kalimantan Barat
1570,78694,Topan Nanga,61.05.09.2018,Kayan Hulu,Kabupaten,Sintang,Kalimantan Barat
1571,78693,Batu Netak,61.05.08.2041,Kayan Hilir,Kabupaten,Sintang,Kalimantan Barat
1572,78693,Begendang Mal,61.05.08.2027,Kayan Hilir,Kabupaten,Sintang,Kalimantan Barat
1573,78693,Bukit Segaloh,61.05.08.2021,Kayan Hilir,Kabupaten,Sintang,Kalimantan Barat
1574,78693,Buluk Jegara,61.05.08.2033,Kayan Hilir,Kabupaten,Sintang,Kalimantan Barat
1575,78693,Buluk Panjang,61.05.08.2034,Kayan Hilir,Kabupaten,Sintang,Kalimantan Barat
1576,78693,Engkerangan,61.05.08.2022,Kayan Hilir,Kabupaten,Sintang,Kalimantan Barat
1577,78693,Ipoh Emang,61.05.08.2039,Kayan Hilir,Kabupaten,Sintang,Kalimantan Barat
1578,78693,Jambu,61.05.08.2002,Kayan Hilir,Kabupaten,Sintang,Kalimantan Barat
1579,78693,Jaya Sakti,61.05.08.2017,Kayan Hilir,Kabupaten,Sintang,Kalimantan Barat
1580,78693,Karya Baru,61.05.08.2020,Kayan Hilir,Kabupaten,Sintang,Kalimantan Barat
1581,78693,Kempas Raya,61.05.08.2038,Kayan Hilir,Kabupaten,Sintang,Kalimantan Barat
1582,78693,Kerapa Sepan,61.05.08.2011,Kayan Hilir,Kabupaten,Sintang,Kalimantan Barat
1583,78693,Lalang Inggar,61.05.08.2023,Kayan Hilir,Kabupaten,Sintang,Kalimantan Barat
1584,78693,Landau Beringin,61.05.08.2019,Kayan Hilir,Kabupaten,Sintang,Kalimantan Barat
1585,78693,Lengkong Bindu,61.05.08.2029,Kayan Hilir,Kabupaten,Sintang,Kalimantan Barat
1586,78693,Linggam Permai,61.05.08.2024,Kayan Hilir,Kabupaten,Sintang,Kalimantan Barat
1587,78693,Mekar Mandiri,61.05.08.2018,Kayan Hilir,Kabupaten,Sintang,Kalimantan Barat
1588,78693,Melingkat,61.05.08.2008,Kayan Hilir,Kabupaten,Sintang,Kalimantan Barat
1589,78693,Mengkirai,61.05.08.2031,Kayan Hilir,Kabupaten,Sintang,Kalimantan Barat
1590,78693,Mentunai,61.05.08.2004,Kayan Hilir,Kabupaten,Sintang,Kalimantan Barat
1591,78693,Monbai Begununk (Monbai Begunun),61.05.08.2043,Kayan Hilir,Kabupaten,Sintang,Kalimantan Barat
1592,78693,Nanga Lidau,61.05.08.2030,Kayan Hilir,Kabupaten,Sintang,Kalimantan Barat
1593,78693,Nanga Mau,61.05.08.2001,Kayan Hilir,Kabupaten,Sintang,Kalimantan Barat
1594,78693,Nanga Tikan,61.05.08.2009,Kayan Hilir,Kabupaten,Sintang,Kalimantan Barat
1595,78693,Natai Lesung,61.05.08.2026,Kayan Hilir,Kabupaten,Sintang,Kalimantan Barat
1596,78693,Natai Tebedak,61.05.08.2006,Kayan Hilir,Kabupaten,Sintang,Kalimantan Barat
1597,78693,Neran Baya,61.05.08.2042,Kayan Hilir,Kabupaten,Sintang,Kalimantan Barat
1598,78693,Nyangkom,61.05.08.2007,Kayan Hilir,Kabupaten,Sintang,Kalimantan Barat
1599,78693,Pakak,61.05.08.2013,Kayan Hilir,Kabupaten,Sintang,Kalimantan Barat
1600,78693,Paoh Desa,61.05.08.2016,Kayan Hilir,Kabupaten,Sintang,Kalimantan Barat
1601,78693,Pelaik,61.05.08.2010,Kayan Hilir,Kabupaten,Sintang,Kalimantan Barat
1602,78693,Sei/Sungai Buaya,61.05.08.2012,Kayan Hilir,Kabupaten,Sintang,Kalimantan Barat
1603,78693,Sungai Emang,61.05.08.2036,Kayan Hilir,Kabupaten,Sintang,Kalimantan Barat
1604,78693,Sungai Garong,61.05.08.2015,Kayan Hilir,Kabupaten,Sintang,Kalimantan Barat
1605,78693,Sungai Menuang,61.05.08.2025,Kayan Hilir,Kabupaten,Sintang,Kalimantan Barat
1606,78693,Sungai Meraya,61.05.08.2037,Kayan Hilir,Kabupaten,Sintang,Kalimantan Barat
1607,78693,Sungai Pengga,61.05.08.2040,Kayan Hilir,Kabupaten,Sintang,Kalimantan Barat
1608,78693,Sungai Ranap,61.05.08.2028,Kayan Hilir,Kabupaten,Sintang,Kalimantan Barat
1609,78693,Sungai Sintang,61.05.08.2014,Kayan Hilir,Kabupaten,Sintang,Kalimantan Barat
1610,78693,Tanjung Keliling,61.05.08.2032,Kayan Hilir,Kabupaten,Sintang,Kalimantan Barat
1611,78693,Tanjung Putar,61.05.08.2035,Kayan Hilir,Kabupaten,Sintang,Kalimantan Barat
1612,78693,Tertung Mau,61.05.08.2003,Kayan Hilir,Kabupaten,Sintang,Kalimantan Barat
1613,78693,Tuguk,61.05.08.2005,Kayan Hilir,Kabupaten,Sintang,Kalimantan Barat
1614,78516,Belangin,61.03.01.2023,Kapuas (Sanggau Kapuas),Kabupaten,Sanggau,Kalimantan Barat
1615,78512,Beringin,61.03.01.1005,Kapuas (Sanggau Kapuas),Kabupaten,Sanggau,Kalimantan Barat
1616,78516,Botuh Lintang,61.03.01.2026,Kapuas (Sanggau Kapuas),Kabupaten,Sanggau,Kalimantan Barat
1617,78511,Bunut,61.03.01.1006,Kapuas (Sanggau Kapuas),Kabupaten,Sanggau,Kalimantan Barat
1618,78516,Entakai,61.03.01.2010,Kapuas (Sanggau Kapuas),Kabupaten,Sanggau,Kalimantan Barat
1619,78513,Ilir Kota,61.03.01.1004,Kapuas (Sanggau Kapuas),Kabupaten,Sanggau,Kalimantan Barat
1620,78516,Kambong,61.03.01.2013,Kapuas (Sanggau Kapuas),Kabupaten,Sanggau,Kalimantan Barat
1621,78516,Lape,61.03.01.2015,Kapuas (Sanggau Kapuas),Kabupaten,Sanggau,Kalimantan Barat
1622,78516,Lintang Kapuas,61.03.01.2021,Kapuas (Sanggau Kapuas),Kabupaten,Sanggau,Kalimantan Barat
1623,78516,Lintang Pelaman,61.03.01.2022,Kapuas (Sanggau Kapuas),Kabupaten,Sanggau,Kalimantan Barat
1624,78516,Mengkiang,61.03.01.2012,Kapuas (Sanggau Kapuas),Kabupaten,Sanggau,Kalimantan Barat
1625,78516,Nanga Biang,61.03.01.2008,Kapuas (Sanggau Kapuas),Kabupaten,Sanggau,Kalimantan Barat
1626,78516,Pana,61.03.01.2011,Kapuas (Sanggau Kapuas),Kabupaten,Sanggau,Kalimantan Barat
1627,78516,Penyeladi,61.03.01.2007,Kapuas (Sanggau Kapuas),Kabupaten,Sanggau,Kalimantan Barat
1628,78516,Penyelimau (Penyelimau Hilir),61.03.01.2016,Kapuas (Sanggau Kapuas),Kabupaten,Sanggau,Kalimantan Barat
1629,78516,Penyelimau Jaya,61.03.01.2024,Kapuas (Sanggau Kapuas),Kabupaten,Sanggau,Kalimantan Barat
1630,78516,Rambin,61.03.01.2009,Kapuas (Sanggau Kapuas),Kabupaten,Sanggau,Kalimantan Barat
1631,78516,Sei/Sungai Alai,61.03.01.2017,Kapuas (Sanggau Kapuas),Kabupaten,Sanggau,Kalimantan Barat
1632,78516,Sei/Sungai Batu,61.03.01.2019,Kapuas (Sanggau Kapuas),Kabupaten,Sanggau,Kalimantan Barat
1633,78516,Sei/Sungai Mawang,61.03.01.2014,Kapuas (Sanggau Kapuas),Kabupaten,Sanggau,Kalimantan Barat
1634,78516,Sei/Sungai Muntik,61.03.01.2020,Kapuas (Sanggau Kapuas),Kabupaten,Sanggau,Kalimantan Barat
1635,78514,Sei/Sungai Sengkuang,61.03.01.1003,Kapuas (Sanggau Kapuas),Kabupaten,Sanggau,Kalimantan Barat
1636,78516,Semerangkai,61.03.01.2018,Kapuas (Sanggau Kapuas),Kabupaten,Sanggau,Kalimantan Barat
1637,78516,Tanjung Kapuas,61.03.01.1001,Kapuas (Sanggau Kapuas),Kabupaten,Sanggau,Kalimantan Barat
1638,78515,Tanjung Sekayam,61.03.01.1002,Kapuas (Sanggau Kapuas),Kabupaten,Sanggau,Kalimantan Barat
1639,78516,Tapang Dulang,61.03.01.2025,Kapuas (Sanggau Kapuas),Kabupaten,Sanggau,Kalimantan Barat
1640,78756,Bahenap,61.06.18.2005,Kalis,Kabupaten,Kapuas Hulu,Kalimantan Barat
1641,78756,Kalis Raya,61.06.18.2010,Kalis,Kabupaten,Kapuas Hulu,Kalimantan Barat
1642,78756,Kensuray,61.06.18.2008,Kalis,Kabupaten,Kapuas Hulu,Kalimantan Barat
1643,78756,Nanga Danau,61.06.18.2007,Kalis,Kabupaten,Kapuas Hulu,Kalimantan Barat
1644,78756,Nanga Kalis,61.06.18.2003,Kalis,Kabupaten,Kapuas Hulu,Kalimantan Barat
1645,78756,Nanga Lebangan,61.06.18.2002,Kalis,Kabupaten,Kapuas Hulu,Kalimantan Barat
1646,78756,Nanga Raun,61.06.18.2004,Kalis,Kabupaten,Kapuas Hulu,Kalimantan Barat
1647,78756,Nanga Sebintang,61.06.18.2001,Kalis,Kabupaten,Kapuas Hulu,Kalimantan Barat
1648,78756,Nanga Tubuk,61.06.18.2006,Kalis,Kabupaten,Kapuas Hulu,Kalimantan Barat
1649,78756,Peniung,61.06.18.2018,Kalis,Kabupaten,Kapuas Hulu,Kalimantan Barat
1650,78756,Rantau Bumbun,61.06.18.2017,Kalis,Kabupaten,Kapuas Hulu,Kalimantan Barat
1651,78756,Rantau Kalis,61.06.18.2009,Kalis,Kabupaten,Kapuas Hulu,Kalimantan Barat
1652,78756,Ribang Kadeng,61.06.18.2016,Kalis,Kabupaten,Kapuas Hulu,Kalimantan Barat
1653,78756,Segiam,61.06.18.2014,Kalis,Kabupaten,Kapuas Hulu,Kalimantan Barat
1654,78756,Semerantau,61.06.18.2012,Kalis,Kabupaten,Kapuas Hulu,Kalimantan Barat
1655,78756,Tapang Da'an (Tapang Daan),61.06.18.2013,Kalis,Kabupaten,Kapuas Hulu,Kalimantan Barat
1656,78756,Tekudak,61.06.18.2011,Kalis,Kabupaten,Kapuas Hulu,Kalimantan Barat
1657,78763,Bontai,61.06.07.2008,Jongkong (Jengkong),Kabupaten,Kapuas Hulu,Kalimantan Barat
1658,78763,Jongkong Kanan,61.06.07.2002,Jongkong (Jengkong),Kabupaten,Kapuas Hulu,Kalimantan Barat
1659,78763,Jongkong Kiri Hilir,61.06.07.2001,Jongkong (Jengkong),Kabupaten,Kapuas Hulu,Kalimantan Barat
1660,78763,Jongkong Kiri Hulu,61.06.07.2003,Jongkong (Jengkong),Kabupaten,Kapuas Hulu,Kalimantan Barat
1661,78763,Jongkong Kiri Tengah,61.06.07.2009,Jongkong (Jengkong),Kabupaten,Kapuas Hulu,Kalimantan Barat
1662,78763,Jongkong Pasar (Jengkong Pasar),61.06.07.2004,Jongkong (Jengkong),Kabupaten,Kapuas Hulu,Kalimantan Barat
1663,78763,Jongkong Tanjung,61.06.07.2010,Jongkong (Jengkong),Kabupaten,Kapuas Hulu,Kalimantan Barat
1664,78763,Kandung Suli,61.06.07.2011,Jongkong (Jengkong),Kabupaten,Kapuas Hulu,Kalimantan Barat
1665,78763,Karya Baru,61.06.07.2013,Jongkong (Jengkong),Kabupaten,Kapuas Hulu,Kalimantan Barat
1666,78763,Nanga Serian,61.06.07.2014,Jongkong (Jengkong),Kabupaten,Kapuas Hulu,Kalimantan Barat
1667,78763,Penepian Raya,61.06.07.2012,Jongkong (Jengkong),Kabupaten,Kapuas Hulu,Kalimantan Barat
1668,78763,Temenang,61.06.07.2006,Jongkong (Jengkong),Kabupaten,Kapuas Hulu,Kalimantan Barat
1669,78763,Ujung Jambu,61.06.07.2007,Jongkong (Jengkong),Kabupaten,Kapuas Hulu,Kalimantan Barat
1670,78763,Ujung Said,61.06.07.2005,Jongkong (Jengkong),Kabupaten,Kapuas Hulu,Kalimantan Barat
1671,78352,Jungkat,61.02.08.2010,Jongkat (Siantan),Kabupaten,Mempawah,Kalimantan Barat
1672,78352,Peniti Luar,61.02.08.2006,Jongkat (Siantan),Kabupaten,Mempawah,Kalimantan Barat
1673,78352,Sei/Sungai Nipah,61.02.08.2002,Jongkat (Siantan),Kabupaten,Mempawah,Kalimantan Barat
1674,78352,Wajok Hilir (Wajo Hilir),61.02.08.2001,Jongkat (Siantan),Kabupaten,Mempawah,Kalimantan Barat
1675,78352,Wajok Hulu (Wajo Hulu),61.02.08.2009,Jongkat (Siantan),Kabupaten,Mempawah,Kalimantan Barat
1676,79357,Angan Tembawang,61.08.11.2011,Jelimpo,Kabupaten,Landak,Kalimantan Barat
1677,79357,Balai Peluntan,61.08.11.2012,Jelimpo,Kabupaten,Landak,Kalimantan Barat
1678,79357,Dara Itam I,61.08.11.2013,Jelimpo,Kabupaten,Landak,Kalimantan Barat
1679,79357,Jelimpo,61.08.11.2007,Jelimpo,Kabupaten,Landak,Kalimantan Barat
1680,79357,Kayu Ara,61.08.11.2009,Jelimpo,Kabupaten,Landak,Kalimantan Barat
1681,79357,Kersik Belantian,61.08.11.2002,Jelimpo,Kabupaten,Landak,Kalimantan Barat
1682,79357,Mandor Kiru,61.08.11.2006,Jelimpo,Kabupaten,Landak,Kalimantan Barat
1683,79357,Nyi'in (Nyiin),61.08.11.2003,Jelimpo,Kabupaten,Landak,Kalimantan Barat
1684,79357,Papung,61.08.11.2004,Jelimpo,Kabupaten,Landak,Kalimantan Barat
1685,79357,Pawis Hilir,61.08.11.2010,Jelimpo,Kabupaten,Landak,Kalimantan Barat
1686,79357,Sekais,61.08.11.2005,Jelimpo,Kabupaten,Landak,Kalimantan Barat
1687,79357,Temahar,61.08.11.2001,Jelimpo,Kabupaten,Landak,Kalimantan Barat
1688,79357,Tubang Raeng,61.08.11.2008,Jelimpo,Kabupaten,Landak,Kalimantan Barat
1689,78876,Air Dua,61.04.14.2016,Jelai Hulu,Kabupaten,Ketapang,Kalimantan Barat
1690,78876,Asam Jelai,61.04.14.2015,Jelai Hulu,Kabupaten,Ketapang,Kalimantan Barat
1691,78876,Bayam Raya,61.04.14.2021,Jelai Hulu,Kabupaten,Ketapang,Kalimantan Barat
1692,78876,Biku Sarana,61.04.14.2005,Jelai Hulu,Kabupaten,Ketapang,Kalimantan Barat
1693,78876,Deranuk,61.04.14.2011,Jelai Hulu,Kabupaten,Ketapang,Kalimantan Barat
1694,78876,Karang Dangin,61.04.14.2019,Jelai Hulu,Kabupaten,Ketapang,Kalimantan Barat
1695,78876,Kesuma Jaya,61.04.14.2003,Jelai Hulu,Kabupaten,Ketapang,Kalimantan Barat
1696,78876,Kusik Batu Lapu,61.04.14.2018,Jelai Hulu,Kabupaten,Ketapang,Kalimantan Barat
1697,78876,Limpang,61.04.14.2008,Jelai Hulu,Kabupaten,Ketapang,Kalimantan Barat
1698,78876,Pangkalan Paket,61.04.14.2022,Jelai Hulu,Kabupaten,Ketapang,Kalimantan Barat
1699,78876,Pangkalan Suka (Pangkaln Suka),61.04.14.2013,Jelai Hulu,Kabupaten,Ketapang,Kalimantan Barat
1700,78876,Pasir Mayang,61.04.14.2009,Jelai Hulu,Kabupaten,Ketapang,Kalimantan Barat
1701,78876,Penyarang,61.04.14.2004,Jelai Hulu,Kabupaten,Ketapang,Kalimantan Barat
1702,78876,Periangan,61.04.14.2001,Jelai Hulu,Kabupaten,Ketapang,Kalimantan Barat
1703,78876,Perigi,61.04.14.2020,Jelai Hulu,Kabupaten,Ketapang,Kalimantan Barat
1704,78876,Rangga Intan,61.04.14.2012,Jelai Hulu,Kabupaten,Ketapang,Kalimantan Barat
1705,78876,Riam Danau Kanan,61.04.14.2007,Jelai Hulu,Kabupaten,Ketapang,Kalimantan Barat
1706,78876,Semantun,61.04.14.2006,Jelai Hulu,Kabupaten,Ketapang,Kalimantan Barat
1707,78876,Sidahari,61.04.14.2017,Jelai Hulu,Kabupaten,Ketapang,Kalimantan Barat
1708,78876,Tanggerang,61.04.14.2002,Jelai Hulu,Kabupaten,Ketapang,Kalimantan Barat
1709,78876,Tebing Berseri (Tebing Beseri),61.04.14.2010,Jelai Hulu,Kabupaten,Ketapang,Kalimantan Barat
1710,78876,Teluk Runjai,61.04.14.2014,Jelai Hulu,Kabupaten,Ketapang,Kalimantan Barat
1711,79154,Jawai Laut,61.01.16.2001,Jawai Selatan,Kabupaten,Sambas,Kalimantan Barat
1712,79154,Jelu Air,61.01.16.2002,Jawai Selatan,Kabupaten,Sambas,Kalimantan Barat
1713,79154,Matang Terap,61.01.16.2003,Jawai Selatan,Kabupaten,Sambas,Kalimantan Barat
1714,79154,Sabaran,61.01.16.2009,Jawai Selatan,Kabupaten,Sambas,Kalimantan Barat
1715,79154,Sari Laba A (Sarilaba A),61.01.16.2005,Jawai Selatan,Kabupaten,Sambas,Kalimantan Barat
1716,79154,Sari Laba B (Sarilaba B),61.01.16.2006,Jawai Selatan,Kabupaten,Sambas,Kalimantan Barat
1717,79154,Semperiuk A,61.01.16.2007,Jawai Selatan,Kabupaten,Sambas,Kalimantan Barat
1718,79154,Semperiuk B,61.01.16.2008,Jawai Selatan,Kabupaten,Sambas,Kalimantan Barat
1719,79154,Suah Api,61.01.16.2004,Jawai Selatan,Kabupaten,Sambas,Kalimantan Barat
1720,79454,Bakau,61.01.03.2008,Jawai,Kabupaten,Sambas,Kalimantan Barat
1721,79454,Dungun Laut,61.01.03.2011,Jawai,Kabupaten,Sambas,Kalimantan Barat
1722,79454,Lambau,61.01.03.2021,Jawai,Kabupaten,Sambas,Kalimantan Barat
1723,79454,Mutus Darussalam,61.01.03.2022,Jawai,Kabupaten,Sambas,Kalimantan Barat
1724,79454,Parit Setia,61.01.03.2007,Jawai,Kabupaten,Sambas,Kalimantan Barat
1725,79454,Pelimpaan,61.01.03.2006,Jawai,Kabupaten,Sambas,Kalimantan Barat
1726,79454,Sarang Burung Danau,61.01.03.2001,Jawai,Kabupaten,Sambas,Kalimantan Barat
1727,79454,Sarang Burung Kolam,61.01.03.2003,Jawai,Kabupaten,Sambas,Kalimantan Barat
1728,79454,Sarang Burung Kuala,61.01.03.2005,Jawai,Kabupaten,Sambas,Kalimantan Barat
1729,79454,Sarang Burung Usrat,61.01.03.2004,Jawai,Kabupaten,Sambas,Kalimantan Barat
1730,79454,Sentebang,61.01.03.2010,Jawai,Kabupaten,Sambas,Kalimantan Barat
1731,79454,Sungai Nilam,61.01.03.2002,Jawai,Kabupaten,Sambas,Kalimantan Barat
1732,79454,Sungai Nyirih,61.01.03.2009,Jawai,Kabupaten,Sambas,Kalimantan Barat
1733,78591,Balai Sebut,61.03.04.2001,Jangkang,Kabupaten,Sanggau,Kalimantan Barat
1734,78591,Empiyang,61.03.04.2004,Jangkang,Kabupaten,Sanggau,Kalimantan Barat
1735,78591,Jangkang Benua,61.03.04.2002,Jangkang,Kabupaten,Sanggau,Kalimantan Barat
1736,78591,Ketori,61.03.04.2006,Jangkang,Kabupaten,Sanggau,Kalimantan Barat
1737,78591,Pisang,61.03.04.2005,Jangkang,Kabupaten,Sanggau,Kalimantan Barat
1738,78591,Sape,61.03.04.2009,Jangkang,Kabupaten,Sanggau,Kalimantan Barat
1739,78591,Selampung,61.03.04.2010,Jangkang,Kabupaten,Sanggau,Kalimantan Barat
1740,78591,Semirau,61.03.04.2011,Jangkang,Kabupaten,Sanggau,Kalimantan Barat
1741,78591,Semombat,61.03.04.2007,Jangkang,Kabupaten,Sanggau,Kalimantan Barat
1742,78591,Tanggung,61.03.04.2003,Jangkang,Kabupaten,Sanggau,Kalimantan Barat
1743,78591,Terati,61.03.04.2008,Jangkang,Kabupaten,Sanggau,Kalimantan Barat
1744,79286,Gersik,61.07.07.2007,Jagoi Babang,Kabupaten,Bengkayang,Kalimantan Barat
1745,79286,Jagoi,61.07.07.2001,Jagoi Babang,Kabupaten,Bengkayang,Kalimantan Barat
1746,79286,Kumba,61.07.07.2002,Jagoi Babang,Kabupaten,Bengkayang,Kalimantan Barat
1747,79286,Sekida (Jagoi Sekida),61.07.07.2006,Jagoi Babang,Kabupaten,Bengkayang,Kalimantan Barat
1748,79286,Semunying Jaya (Semunyin Jaya),61.07.07.2008,Jagoi Babang,Kabupaten,Bengkayang,Kalimantan Barat
1749,79286,Sinar Baru,61.07.07.2009,Jagoi Babang,Kabupaten,Bengkayang,Kalimantan Barat
1750,78871,Batu Lapis,61.04.19.2008,Hulu Sungai,Kabupaten,Ketapang,Kalimantan Barat
1751,78871,Beginci Darat,61.04.19.2004,Hulu Sungai,Kabupaten,Ketapang,Kalimantan Barat
1752,78871,Benua Krio,61.04.19.2005,Hulu Sungai,Kabupaten,Ketapang,Kalimantan Barat
1753,78871,Cinta Manis,61.04.19.2003,Hulu Sungai,Kabupaten,Ketapang,Kalimantan Barat
1754,78871,Kenyabur,61.04.19.2010,Hulu Sungai,Kabupaten,Ketapang,Kalimantan Barat
1755,78871,Krio Hulu,61.04.19.2009,Hulu Sungai,Kabupaten,Ketapang,Kalimantan Barat
1756,78871,Lubuk Kakap,61.04.19.2012,Hulu Sungai,Kabupaten,Ketapang,Kalimantan Barat
1757,78871,Menyumbung,61.04.19.2001,Hulu Sungai,Kabupaten,Ketapang,Kalimantan Barat
1758,78871,Riam Dadap,61.04.19.2006,Hulu Sungai,Kabupaten,Ketapang,Kalimantan Barat
1759,78871,Sekukun (Sekunkun),61.04.19.2007,Hulu Sungai,Kabupaten,Ketapang,Kalimantan Barat
1760,78871,Senduruhan,61.04.19.2002,Hulu Sungai,Kabupaten,Ketapang,Kalimantan Barat
1761,78871,Sunge Bengaras (Sungai Bengaras),61.04.19.2011,Hulu Sungai,Kabupaten,Ketapang,Kalimantan Barat
1762,78764,Beringin,61.06.08.2011,Hulu Gurung,Kabupaten,Kapuas Hulu,Kalimantan Barat
1763,78764,Bugang,61.06.08.2007,Hulu Gurung,Kabupaten,Kapuas Hulu,Kalimantan Barat
1764,78764,Karya Mandiri,61.06.08.2015,Hulu Gurung,Kabupaten,Kapuas Hulu,Kalimantan Barat
1765,78764,Kelakar,61.06.08.2006,Hulu Gurung,Kabupaten,Kapuas Hulu,Kalimantan Barat
1766,78764,Landau Kumpang,61.06.08.2002,Hulu Gurung,Kabupaten,Kapuas Hulu,Kalimantan Barat
1767,78764,Lubuk Antuk,61.06.08.2004,Hulu Gurung,Kabupaten,Kapuas Hulu,Kalimantan Barat
1768,78764,Mentawit,61.06.08.2008,Hulu Gurung,Kabupaten,Kapuas Hulu,Kalimantan Barat
1769,78764,Mubung,61.06.08.2013,Hulu Gurung,Kabupaten,Kapuas Hulu,Kalimantan Barat
1770,78764,Nanga Tepuai,61.06.08.2001,Hulu Gurung,Kabupaten,Kapuas Hulu,Kalimantan Barat
1771,78764,Nanga Yen,61.06.08.2003,Hulu Gurung,Kabupaten,Kapuas Hulu,Kalimantan Barat
1772,78764,Parang,61.06.08.2005,Hulu Gurung,Kabupaten,Kapuas Hulu,Kalimantan Barat
1773,78764,Sejahtera Mandiri,61.06.08.2012,Hulu Gurung,Kabupaten,Kapuas Hulu,Kalimantan Barat
1774,78764,Simpang Senara,61.06.08.2010,Hulu Gurung,Kabupaten,Kapuas Hulu,Kalimantan Barat
1775,78764,Tani Makmur,61.06.08.2009,Hulu Gurung,Kabupaten,Kapuas Hulu,Kalimantan Barat
1776,78764,Tunas Muda,61.06.08.2014,Hulu Gurung,Kabupaten,Kapuas Hulu,Kalimantan Barat
1777,79453,Galing,61.01.11.2003,Galing,Kabupaten,Sambas,Kalimantan Barat
1778,79453,Ratu Sepudak,61.01.11.2006,Galing,Kabupaten,Sambas,Kalimantan Barat
1779,79453,Sagu,61.01.11.2001,Galing,Kabupaten,Sambas,Kalimantan Barat
1780,79453,Sijang,61.01.11.2010,Galing,Kabupaten,Sambas,Kalimantan Barat
1781,79453,Sungai Palah,61.01.11.2002,Galing,Kabupaten,Sambas,Kalimantan Barat
1782,79453,Teluk Pandan,61.01.11.2009,Galing,Kabupaten,Sambas,Kalimantan Barat
1783,79453,Tempapan Hulu,61.01.11.2005,Galing,Kabupaten,Sambas,Kalimantan Barat
1784,79453,Tempapan Kuala,61.01.11.2004,Galing,Kabupaten,Sambas,Kalimantan Barat
1785,79453,Tri Gadu (Tri Gaduh),61.01.11.2008,Galing,Kabupaten,Sambas,Kalimantan Barat
1786,79453,Tri Kembang,61.01.11.2007,Galing,Kabupaten,Sambas,Kalimantan Barat
1787,78557,Entikong,61.03.21.2003,Entikong,Kabupaten,Sanggau,Kalimantan Barat
1788,78557,Nekan,61.03.21.2001,Entikong,Kabupaten,Sanggau,Kalimantan Barat
1789,78557,Pala Pasang (Pala Asang / Palapasang),61.03.21.2004,Entikong,Kabupaten,Sanggau,Kalimantan Barat
1790,78557,Semangit (Semanget),61.03.21.2002,Entikong,Kabupaten,Sanggau,Kalimantan Barat
1791,78557,Suruh Tembawang,61.03.21.2005,Entikong,Kabupaten,Sanggau,Kalimantan Barat
1792,78768,Bajau Andai,61.06.13.2004,Empanang,Kabupaten,Kapuas Hulu,Kalimantan Barat
1793,78768,Keling Panggau,61.06.13.2001,Empanang,Kabupaten,Kapuas Hulu,Kalimantan Barat
1794,78768,Kumang Jaya,61.06.13.2005,Empanang,Kabupaten,Kapuas Hulu,Kalimantan Barat
1795,78768,Laja Sandang,61.06.13.2006,Empanang,Kabupaten,Kapuas Hulu,Kalimantan Barat
1796,78768,Nanga Kantuk,61.06.13.2002,Empanang,Kabupaten,Kapuas Hulu,Kalimantan Barat
1797,78768,Tintin Peninjau,61.06.13.2003,Empanang,Kabupaten,Kapuas Hulu,Kalimantan Barat
1798,78755,Banua Martinus,61.06.04.2001,Embaloh Hulu,Kabupaten,Kapuas Hulu,Kalimantan Barat
1799,78755,Banua Ujung,61.06.04.2004,Embaloh Hulu,Kabupaten,Kapuas Hulu,Kalimantan Barat
1800,78755,Batu Lintang,61.06.04.2008,Embaloh Hulu,Kabupaten,Kapuas Hulu,Kalimantan Barat
1801,78755,Langan Baru,61.06.04.2007,Embaloh Hulu,Kabupaten,Kapuas Hulu,Kalimantan Barat
1802,78755,Menua Sadap,61.06.04.2002,Embaloh Hulu,Kabupaten,Kapuas Hulu,Kalimantan Barat
1803,78755,Pulau Manak,61.06.04.2003,Embaloh Hulu,Kabupaten,Kapuas Hulu,Kalimantan Barat
1804,78755,Rantau Prapat,61.06.04.2009,Embaloh Hulu,Kabupaten,Kapuas Hulu,Kalimantan Barat
1805,78755,Saujung Giling Manik,61.06.04.2005,Embaloh Hulu,Kabupaten,Kapuas Hulu,Kalimantan Barat
1806,78755,Tamao,61.06.04.2010,Embaloh Hulu,Kabupaten,Kapuas Hulu,Kalimantan Barat
1807,78755,Ulak Pauk,61.06.04.2006,Embaloh Hulu,Kabupaten,Kapuas Hulu,Kalimantan Barat
1808,78754,Belatung,61.06.03.2012,Embaloh Hilir,Kabupaten,Kapuas Hulu,Kalimantan Barat
1809,78754,Keliling Semulung,61.06.03.2002,Embaloh Hilir,Kabupaten,Kapuas Hulu,Kalimantan Barat
1810,78754,Kirin Nangka,61.06.03.2009,Embaloh Hilir,Kabupaten,Kapuas Hulu,Kalimantan Barat
1811,78754,Lawik,61.06.03.2006,Embaloh Hilir,Kabupaten,Kapuas Hulu,Kalimantan Barat
1812,78754,Nanga Embaloh,61.06.03.2001,Embaloh Hilir,Kabupaten,Kapuas Hulu,Kalimantan Barat
1813,78754,Nanga Lauk,61.06.03.2007,Embaloh Hilir,Kabupaten,Kapuas Hulu,Kalimantan Barat
1814,78754,Nanga Palin,61.06.03.2008,Embaloh Hilir,Kabupaten,Kapuas Hulu,Kalimantan Barat
1815,78754,Pala Pintas,61.06.03.2010,Embaloh Hilir,Kabupaten,Kapuas Hulu,Kalimantan Barat
1816,78754,Ujung Bayur,61.06.03.2011,Embaloh Hilir,Kabupaten,Kapuas Hulu,Kalimantan Barat
1817,79681,Bemban Permai,61.10.03.2011,Ella Hilir,Kabupaten,Melawi,Kalimantan Barat
1818,79681,Domet Permai,61.10.03.2017,Ella Hilir,Kabupaten,Melawi,Kalimantan Barat
1819,79681,Jabai,61.10.03.2019,Ella Hilir,Kabupaten,Melawi,Kalimantan Barat
1820,79681,Kahiya,61.10.03.2010,Ella Hilir,Kabupaten,Melawi,Kalimantan Barat
1821,79681,Kerangan Kora,61.10.03.2007,Ella Hilir,Kabupaten,Melawi,Kalimantan Barat
1822,79681,Lengkong Nyadom,61.10.03.2002,Ella Hilir,Kabupaten,Melawi,Kalimantan Barat
1823,79681,Nanga Ella Hilir,61.10.03.2001,Ella Hilir,Kabupaten,Melawi,Kalimantan Barat
1824,79681,Nanga Kalan,61.10.03.2004,Ella Hilir,Kabupaten,Melawi,Kalimantan Barat
1825,79681,Nanga Kempangai,61.10.03.2006,Ella Hilir,Kabupaten,Melawi,Kalimantan Barat
1826,79681,Nanga Nuak,61.10.03.2003,Ella Hilir,Kabupaten,Melawi,Kalimantan Barat
1827,79681,Nanga Nyuruh,61.10.03.2005,Ella Hilir,Kabupaten,Melawi,Kalimantan Barat
1828,79681,Natai Compa (Nantai Compa),61.10.03.2015,Ella Hilir,Kabupaten,Melawi,Kalimantan Barat
1829,79681,Nyanggau (Nyangau),61.10.03.2018,Ella Hilir,Kabupaten,Melawi,Kalimantan Barat
1830,79681,Pelempai Jaya,61.10.03.2016,Ella Hilir,Kabupaten,Melawi,Kalimantan Barat
1831,79681,Penyuguk,61.10.03.2008,Ella Hilir,Kabupaten,Melawi,Kalimantan Barat
1832,79681,Perembang Nyuruh,61.10.03.2012,Ella Hilir,Kabupaten,Melawi,Kalimantan Barat
1833,79681,Popai,61.10.03.2009,Ella Hilir,Kabupaten,Melawi,Kalimantan Barat
1834,79681,Sungai Labuk (Sungai Labu),61.10.03.2013,Ella Hilir,Kabupaten,Melawi,Kalimantan Barat
1835,79681,Sungai Mentoba,61.10.03.2014,Ella Hilir,Kabupaten,Melawi,Kalimantan Barat
1836,78813,Kali Nilam,61.04.16.2007,Delta Pawan,Kabupaten,Ketapang,Kalimantan Barat
1837,78811,Kantor,61.04.16.1001,Delta Pawan,Kabupaten,Ketapang,Kalimantan Barat
1838,78813,Mulia Baru,61.04.16.1003,Delta Pawan,Kabupaten,Ketapang,Kalimantan Barat
1839,78813,Payah Kumang (Payak Kumang / Paya Kumang),61.04.16.2008,Delta Pawan,Kabupaten,Ketapang,Kalimantan Barat
1840,78813,Sampit,61.04.16.1004,Delta Pawan,Kabupaten,Ketapang,Kalimantan Barat
1841,78813,Suka Bangun,61.04.16.2006,Delta Pawan,Kabupaten,Ketapang,Kalimantan Barat
1842,78813,Suka Bangun Dalam,61.04.16.2009,Delta Pawan,Kabupaten,Ketapang,Kalimantan Barat
1843,78813,Suka Harja (Sukaharja),61.04.16.1005,Delta Pawan,Kabupaten,Ketapang,Kalimantan Barat
1844,78812,Tengah,61.04.16.1002,Delta Pawan,Kabupaten,Ketapang,Kalimantan Barat
1845,78691,Apin Baru,61.05.07.2023,Dedai,Kabupaten,Sintang,Kalimantan Barat
1846,78691,Baras,61.05.07.2009,Dedai,Kabupaten,Sintang,Kalimantan Barat
1847,78691,Batu Landung,61.05.07.2029,Dedai,Kabupaten,Sintang,Kalimantan Barat
1848,78691,Belinyuk Sibau,61.05.07.2025,Dedai,Kabupaten,Sintang,Kalimantan Barat
1849,78691,Dedai Kanan,61.05.07.2019,Dedai,Kabupaten,Sintang,Kalimantan Barat
1850,78691,Empaci,61.05.07.2008,Dedai,Kabupaten,Sintang,Kalimantan Barat
1851,78691,Emparu Baru,61.05.07.2014,Dedai,Kabupaten,Sintang,Kalimantan Barat
1852,78691,Gandis (Ganis),61.05.07.2003,Dedai,Kabupaten,Sintang,Kalimantan Barat
1853,78691,Gandis Hulu,61.05.07.2021,Dedai,Kabupaten,Sintang,Kalimantan Barat
1854,78691,Hulu Dedai,61.05.07.2022,Dedai,Kabupaten,Sintang,Kalimantan Barat
1855,78691,Jangkang,61.05.07.2024,Dedai,Kabupaten,Sintang,Kalimantan Barat
1856,78691,Kumpang,61.05.07.2011,Dedai,Kabupaten,Sintang,Kalimantan Barat
1857,78691,Lundang Baru,61.05.07.2015,Dedai,Kabupaten,Sintang,Kalimantan Barat
1858,78691,Manaong Baru (Menaong Baru),61.05.07.2013,Dedai,Kabupaten,Sintang,Kalimantan Barat
1859,78691,Mangat Baru,61.05.07.2012,Dedai,Kabupaten,Sintang,Kalimantan Barat
1860,78691,Manyam,61.05.07.2031,Dedai,Kabupaten,Sintang,Kalimantan Barat
1861,78691,Mengkirai Jaya,61.05.07.2026,Dedai,Kabupaten,Sintang,Kalimantan Barat
1862,78691,Merempit Baru,61.05.07.2018,Dedai,Kabupaten,Sintang,Kalimantan Barat
1863,78691,Nanga Dedai,61.05.07.2002,Dedai,Kabupaten,Sintang,Kalimantan Barat
1864,78691,Nanga Jetak,61.05.07.2001,Dedai,Kabupaten,Sintang,Kalimantan Barat
1865,78691,Pangkadan Sungai Rupa (Pengkadan Sungai Rupa),61.05.07.2010,Dedai,Kabupaten,Sintang,Kalimantan Barat
1866,78691,Pengkadan Baru,61.05.07.2006,Dedai,Kabupaten,Sintang,Kalimantan Barat
1867,78691,Penyak Lalang,61.05.07.2016,Dedai,Kabupaten,Sintang,Kalimantan Barat
1868,78691,Riguk,61.05.07.2005,Dedai,Kabupaten,Sintang,Kalimantan Barat
1869,78691,Samak,61.05.07.2030,Dedai,Kabupaten,Sintang,Kalimantan Barat
1870,78691,Sei/Sungai Mali,61.05.07.2004,Dedai,Kabupaten,Sintang,Kalimantan Barat
1871,78691,Sungai Tapang,61.05.07.2020,Dedai,Kabupaten,Sintang,Kalimantan Barat
1872,78691,Tanjung,61.05.07.2028,Dedai,Kabupaten,Sintang,Kalimantan Barat
1873,78691,Taok (Tauk),61.05.07.2007,Dedai,Kabupaten,Sintang,Kalimantan Barat
1874,78691,Terusan,61.05.07.2027,Dedai,Kabupaten,Sintang,Kalimantan Barat
1875,78691,Umin Jaya,61.05.07.2017,Dedai,Kabupaten,Sintang,Kalimantan Barat
1876,79271,Aris,61.07.11.2004,Capkala,Kabupaten,Bengkayang,Kalimantan Barat
1877,79271,Capkala,61.07.11.2001,Capkala,Kabupaten,Bengkayang,Kalimantan Barat
1878,79271,Mandor,61.07.11.2002,Capkala,Kabupaten,Bengkayang,Kalimantan Barat
1879,79271,Pawangi,61.07.11.2006,Capkala,Kabupaten,Bengkayang,Kalimantan Barat
1880,79271,Sebandut (Sabandut),61.07.11.2005,Capkala,Kabupaten,Bengkayang,Kalimantan Barat
1881,79271,Setanduk,61.07.11.2003,Capkala,Kabupaten,Bengkayang,Kalimantan Barat
1882,78762,Bakong Permai,61.06.06.2013,Bunut Hulu,Kabupaten,Kapuas Hulu,Kalimantan Barat
1883,78762,Batu Tiga,61.06.06.2008,Bunut Hulu,Kabupaten,Kapuas Hulu,Kalimantan Barat
1884,78762,Beringin,61.06.06.2014,Bunut Hulu,Kabupaten,Kapuas Hulu,Kalimantan Barat
1885,78762,Nanga Dua,61.06.06.2004,Bunut Hulu,Kabupaten,Kapuas Hulu,Kalimantan Barat
1886,78762,Nanga Kelibang,61.06.06.2011,Bunut Hulu,Kabupaten,Kapuas Hulu,Kalimantan Barat
1887,78762,Nanga Payang,61.06.06.2007,Bunut Hulu,Kabupaten,Kapuas Hulu,Kalimantan Barat
1888,78762,Nanga Semangut,61.06.06.2003,Bunut Hulu,Kabupaten,Kapuas Hulu,Kalimantan Barat
1889,78762,Nanga Suruk,61.06.06.2001,Bunut Hulu,Kabupaten,Kapuas Hulu,Kalimantan Barat
1890,78762,Pantas Bersatu,61.06.06.2015,Bunut Hulu,Kabupaten,Kapuas Hulu,Kalimantan Barat
1891,78762,Riam Piyang,61.06.06.2006,Bunut Hulu,Kabupaten,Kapuas Hulu,Kalimantan Barat
1892,78762,Segitak,61.06.06.2010,Bunut Hulu,Kabupaten,Kapuas Hulu,Kalimantan Barat
1893,78762,Selaup,61.06.06.2005,Bunut Hulu,Kabupaten,Kapuas Hulu,Kalimantan Barat
1894,78762,Semangut Utara,61.06.06.2009,Bunut Hulu,Kabupaten,Kapuas Hulu,Kalimantan Barat
1895,78762,Sungai Besar,61.06.06.2012,Bunut Hulu,Kabupaten,Kapuas Hulu,Kalimantan Barat
1896,78762,Temuyuk,61.06.06.2002,Bunut Hulu,Kabupaten,Kapuas Hulu,Kalimantan Barat
1897,78761,Bunut Hilir,61.06.05.2001,Bunut Hilir,Kabupaten,Kapuas Hulu,Kalimantan Barat
1898,78762,Bunut Hulu,61.06.05.2002,Bunut Hilir,Kabupaten,Kapuas Hulu,Kalimantan Barat
1899,78761,Bunut Tengah,61.06.05.2009,Bunut Hilir,Kabupaten,Kapuas Hulu,Kalimantan Barat
1900,78761,Empangau,61.06.05.2007,Bunut Hilir,Kabupaten,Kapuas Hulu,Kalimantan Barat
1901,78761,Empangau Hilir,61.06.05.2012,Bunut Hilir,Kabupaten,Kapuas Hulu,Kalimantan Barat
1902,78761,Entibab,61.06.05.2010,Bunut Hilir,Kabupaten,Kapuas Hulu,Kalimantan Barat
1903,78761,Kapuas Raya,61.06.05.2011,Bunut Hilir,Kabupaten,Kapuas Hulu,Kalimantan Barat
1904,78761,Nanga Tuan,61.06.05.2004,Bunut Hilir,Kabupaten,Kapuas Hulu,Kalimantan Barat
1905,78761,Teluk Aur,61.06.05.2003,Bunut Hilir,Kabupaten,Kapuas Hulu,Kalimantan Barat
1906,78761,Tembang,61.06.05.2008,Bunut Hilir,Kabupaten,Kapuas Hulu,Kalimantan Barat
1907,78761,Ujung Pandang,61.06.05.2006,Bunut Hilir,Kabupaten,Kapuas Hulu,Kalimantan Barat
1908,78758,Boyan Tanjung,61.06.19.2002,Boyan Tanjung,Kabupaten,Kapuas Hulu,Kalimantan Barat
1909,78758,Delintas Karya,61.06.19.2013,Boyan Tanjung,Kabupaten,Kapuas Hulu,Kalimantan Barat
1910,78758,Karya Maju,61.06.19.2011,Boyan Tanjung,Kabupaten,Kapuas Hulu,Kalimantan Barat
1911,78758,Landau Mentail,61.06.19.2012,Boyan Tanjung,Kabupaten,Kapuas Hulu,Kalimantan Barat
1912,78758,Mujan,61.06.19.2008,Boyan Tanjung,Kabupaten,Kapuas Hulu,Kalimantan Barat
1913,78758,Nanga Betung,61.06.19.2007,Boyan Tanjung,Kabupaten,Kapuas Hulu,Kalimantan Barat
1914,78758,Nanga Boyan,61.06.19.2006,Boyan Tanjung,Kabupaten,Kapuas Hulu,Kalimantan Barat
1915,78758,Nanga Danau,61.06.19.2001,Boyan Tanjung,Kabupaten,Kapuas Hulu,Kalimantan Barat
1916,78758,Nanga Jemah,61.06.19.2009,Boyan Tanjung,Kabupaten,Kapuas Hulu,Kalimantan Barat
1917,78758,Nanga Ret,61.06.19.2015,Boyan Tanjung,Kabupaten,Kapuas Hulu,Kalimantan Barat
1918,78758,Nanga Sangan,61.06.19.2004,Boyan Tanjung,Kabupaten,Kapuas Hulu,Kalimantan Barat
1919,78758,Pemawan,61.06.19.2016,Boyan Tanjung,Kabupaten,Kapuas Hulu,Kalimantan Barat
1920,78758,Riam Mengelai,61.06.19.2003,Boyan Tanjung,Kabupaten,Kapuas Hulu,Kalimantan Barat
1921,78758,Sri Wangi,61.06.19.2005,Boyan Tanjung,Kabupaten,Kapuas Hulu,Kalimantan Barat
1922,78758,Teluk Geruguk,61.06.19.2014,Boyan Tanjung,Kabupaten,Kapuas Hulu,Kalimantan Barat
1923,78758,Tubang Jaya,61.06.19.2010,Boyan Tanjung,Kabupaten,Kapuas Hulu,Kalimantan Barat
1924,78552,Bahta,61.03.05.2003,Bonti,Kabupaten,Sanggau,Kalimantan Barat
1925,78552,Bantai,61.03.05.2008,Bonti,Kabupaten,Sanggau,Kalimantan Barat
1926,78552,Bonti,61.03.05.2001,Bonti,Kabupaten,Sanggau,Kalimantan Barat
1927,78552,Empodis,61.03.05.2006,Bonti,Kabupaten,Sanggau,Kalimantan Barat
1928,78552,Kampuh,61.03.05.2007,Bonti,Kabupaten,Sanggau,Kalimantan Barat
1929,78552,Majel,61.03.05.2009,Bonti,Kabupaten,Sanggau,Kalimantan Barat
1930,78552,Sami,61.03.05.2002,Bonti,Kabupaten,Sanggau,Kalimantan Barat
1931,78552,Tunggul Boyok,61.03.05.2005,Bonti,Kabupaten,Sanggau,Kalimantan Barat
1932,78552,Upe,61.03.05.2004,Bonti,Kabupaten,Sanggau,Kalimantan Barat
1933,78663,Ampar Bedang,61.05.21.2001,Binjai Hulu,Kabupaten,Sintang,Kalimantan Barat
1934,78663,Binai Hilir (Binjai Hilir),61.05.21.2004,Binjai Hulu,Kabupaten,Sintang,Kalimantan Barat
1935,78663,Binjai Hulu,61.05.21.2005,Binjai Hulu,Kabupaten,Sintang,Kalimantan Barat
1936,78663,Dak Jaya,61.05.21.2007,Binjai Hulu,Kabupaten,Sintang,Kalimantan Barat
1937,78663,Empaka Kabiau Raya,61.05.21.2009,Binjai Hulu,Kabupaten,Sintang,Kalimantan Barat
1938,78663,Mensiku,61.05.21.2008,Binjai Hulu,Kabupaten,Sintang,Kalimantan Barat
1939,78663,Sei/Sungai Risap,61.05.21.2006,Binjai Hulu,Kabupaten,Sintang,Kalimantan Barat
1940,78663,Simba Raya,61.05.21.2011,Binjai Hulu,Kabupaten,Sintang,Kalimantan Barat
1941,78663,Sungai Risap Mensiku Bersatu,61.05.21.2010,Binjai Hulu,Kabupaten,Sintang,Kalimantan Barat
1942,78663,Telaga Dua,61.05.21.2003,Binjai Hulu,Kabupaten,Sintang,Kalimantan Barat
1943,78663,Telaga Satu,61.05.21.2002,Binjai Hulu,Kabupaten,Sintang,Kalimantan Barat
1944,78753,Bika,61.06.02.2002,Bika,Kabupaten,Kapuas Hulu,Kalimantan Barat
1945,78753,Bika Hulu,61.06.02.2008,Bika,Kabupaten,Kapuas Hulu,Kalimantan Barat
1946,78753,Jelemuk,61.06.02.2003,Bika,Kabupaten,Kapuas Hulu,Kalimantan Barat
1947,78753,Jongkong Manday,61.06.02.2012,Bika,Kabupaten,Kapuas Hulu,Kalimantan Barat
1948,78753,Melapi Manday,61.06.02.2010,Bika,Kabupaten,Kapuas Hulu,Kalimantan Barat
1949,78753,Nanga Manday,61.06.02.2009,Bika,Kabupaten,Kapuas Hulu,Kalimantan Barat
1950,78753,Penyeluang,61.06.02.2011,Bika,Kabupaten,Kapuas Hulu,Kalimantan Barat
1951,78753,Teluk Sindur,61.06.02.2001,Bika,Kabupaten,Kapuas Hulu,Kalimantan Barat
1952,78822,Banjar,61.04.18.1009,Benua Kayong,Kabupaten,Ketapang,Kalimantan Barat
1953,78822,Baru,61.04.18.2007,Benua Kayong,Kabupaten,Ketapang,Kalimantan Barat
1954,78821,Kauman,61.04.18.1001,Benua Kayong,Kabupaten,Ketapang,Kalimantan Barat
1955,78822,Kinjil Pesisir,61.04.18.2011,Benua Kayong,Kabupaten,Ketapang,Kalimantan Barat
1956,78822,Mekar Sari,61.04.18.2010,Benua Kayong,Kabupaten,Ketapang,Kalimantan Barat
1957,78822,Mulia Kerta,61.04.18.1002,Benua Kayong,Kabupaten,Ketapang,Kalimantan Barat
1958,78822,Negeri Baru,61.04.18.2008,Benua Kayong,Kabupaten,Ketapang,Kalimantan Barat
1959,78822,Padang,61.04.18.2003,Benua Kayong,Kabupaten,Ketapang,Kalimantan Barat
1960,78822,Sei/Sungai Kinjil,61.04.18.2005,Benua Kayong,Kabupaten,Ketapang,Kalimantan Barat
1961,78822,Suka Baru,61.04.18.2006,Benua Kayong,Kabupaten,Ketapang,Kalimantan Barat
1962,78822,Tuan Tuan,61.04.18.1004,Benua Kayong,Kabupaten,Ketapang,Kalimantan Barat
1963,79211,Bani Amas/Emas,61.07.04.2006,Bengkayang,Kabupaten,Bengkayang,Kalimantan Barat
1964,79213,Bhakti/Bakti Mulya,61.07.04.2004,Bengkayang,Kabupaten,Bengkayang,Kalimantan Barat
1965,79212,Bumi Emas,61.07.04.1001,Bengkayang,Kabupaten,Bengkayang,Kalimantan Barat
1966,79211,Sabalo (Sebalo),61.07.04.1010,Bengkayang,Kabupaten,Bengkayang,Kalimantan Barat
1967,79211,Setia Budi,61.07.04.2009,Bengkayang,Kabupaten,Bengkayang,Kalimantan Barat
1968,79211,Tirta Kencana,61.07.04.2003,Bengkayang,Kabupaten,Bengkayang,Kalimantan Barat
1969,79587,Balai Sepuak,61.09.06.2012,Belitang Hulu,Kabupaten,Sekadau,Kalimantan Barat
1970,79587,Batuk Mulau,61.09.06.2011,Belitang Hulu,Kabupaten,Sekadau,Kalimantan Barat
1971,79587,Bukitrambat (Bukit Rambat),61.09.06.2013,Belitang Hulu,Kabupaten,Sekadau,Kalimantan Barat
1972,79587,Ijuk (Ijok),61.09.06.2004,Belitang Hulu,Kabupaten,Sekadau,Kalimantan Barat
1973,79587,Kumpang Ilong,61.09.06.2006,Belitang Hulu,Kabupaten,Sekadau,Kalimantan Barat
1974,79587,Mengaret,61.09.06.2005,Belitang Hulu,Kabupaten,Sekadau,Kalimantan Barat
1975,79587,Pakit Mulau,61.09.06.2009,Belitang Hulu,Kabupaten,Sekadau,Kalimantan Barat
1976,79587,Sebetung,61.09.06.2001,Belitang Hulu,Kabupaten,Sekadau,Kalimantan Barat
1977,79587,Seburuk Satu (Seburuk),61.09.06.2002,Belitang Hulu,Kabupaten,Sekadau,Kalimantan Barat
1978,79587,Sungai Antu Hulu,61.09.06.2007,Belitang Hulu,Kabupaten,Sekadau,Kalimantan Barat
1979,79587,Sungai Tapah,61.09.06.2003,Belitang Hulu,Kabupaten,Sekadau,Kalimantan Barat
1980,79587,Tabuk Hulu,61.09.06.2010,Belitang Hulu,Kabupaten,Sekadau,Kalimantan Barat
1981,79587,Terduk Dampak,61.09.06.2008,Belitang Hulu,Kabupaten,Sekadau,Kalimantan Barat
1982,79586,Empajak,61.09.05.2009,Belitang Hilir,Kabupaten,Sekadau,Kalimantan Barat
1983,79586,Entabuk,61.09.05.2003,Belitang Hilir,Kabupaten,Sekadau,Kalimantan Barat
1984,79586,Kumpang Bis,61.09.05.2005,Belitang Hilir,Kabupaten,Sekadau,Kalimantan Barat
1985,79586,Melanjan Raya,61.09.05.2011,Belitang Hilir,Kabupaten,Sekadau,Kalimantan Barat
1986,79586,Menawai Tekam,61.09.05.2006,Belitang Hilir,Kabupaten,Sekadau,Kalimantan Barat
1987,79586,Merbang,61.09.05.2008,Belitang Hilir,Kabupaten,Sekadau,Kalimantan Barat
1988,79586,Semadu,61.09.05.2007,Belitang Hilir,Kabupaten,Sekadau,Kalimantan Barat
1989,79586,Sepantak,61.09.05.2010,Belitang Hilir,Kabupaten,Sekadau,Kalimantan Barat
1990,79586,Sungai Ayak Dua,61.09.05.2002,Belitang Hilir,Kabupaten,Sekadau,Kalimantan Barat
1991,79586,Sungai Ayak Satu,61.09.05.2001,Belitang Hilir,Kabupaten,Sekadau,Kalimantan Barat
1992,79586,Tapang Pulau,61.09.05.2004,Belitang Hilir,Kabupaten,Sekadau,Kalimantan Barat
1993,79588,Belitang Dua,61.09.07.2005,Belitang,Kabupaten,Sekadau,Kalimantan Barat
1994,79588,Belitang Satu,61.09.07.2004,Belitang,Kabupaten,Sekadau,Kalimantan Barat
1995,79588,Maboh Permai,61.09.07.2007,Belitang,Kabupaten,Sekadau,Kalimantan Barat
1996,79588,Menua Prama,61.09.07.2006,Belitang,Kabupaten,Sekadau,Kalimantan Barat
1997,79588,Nanga Ansar,61.09.07.2001,Belitang,Kabupaten,Sekadau,Kalimantan Barat
1998,79588,Padak,61.09.07.2002,Belitang,Kabupaten,Sekadau,Kalimantan Barat
1999,79588,Setuntung,61.09.07.2003,Belitang,Kabupaten,Sekadau,Kalimantan Barat
2000,79670,Beloyang,61.10.10.2003,Belimbing Hulu,Kabupaten,Melawi,Kalimantan Barat
2001,79670,Junjung Permai,61.10.10.2005,Belimbing Hulu,Kabupaten,Melawi,Kalimantan Barat
2002,79670,Kayu Bunga,61.10.10.2008,Belimbing Hulu,Kabupaten,Melawi,Kalimantan Barat
2003,79670,Keberak (Nanga Keberak),61.10.10.2006,Belimbing Hulu,Kabupaten,Melawi,Kalimantan Barat
2004,79670,Nanga Raya,61.10.10.2004,Belimbing Hulu,Kabupaten,Melawi,Kalimantan Barat
2005,79670,Nanga Tikan,61.10.10.2002,Belimbing Hulu,Kabupaten,Melawi,Kalimantan Barat
2006,79670,Piawas,61.10.10.2007,Belimbing Hulu,Kabupaten,Melawi,Kalimantan Barat
2007,79670,Tiong Keranji (Tiong Keranjik),61.10.10.2001,Belimbing Hulu,Kabupaten,Melawi,Kalimantan Barat
2008,79671,Balai Lagas (Balai Agas),61.10.01.2007,Belimbing,Kabupaten,Melawi,Kalimantan Barat
2009,79671,Batu Ampar,61.10.01.2003,Belimbing,Kabupaten,Melawi,Kalimantan Barat
2010,79671,Batu Buil,61.10.01.2010,Belimbing,Kabupaten,Melawi,Kalimantan Barat
2011,79671,Batu Nanta,61.10.01.2013,Belimbing,Kabupaten,Melawi,Kalimantan Barat
2012,79671,Belonsat,61.10.01.2014,Belimbing,Kabupaten,Melawi,Kalimantan Barat
2013,79671,Guhung,61.10.01.2011,Belimbing,Kabupaten,Melawi,Kalimantan Barat
2014,79671,Labang,61.10.01.2019,Belimbing,Kabupaten,Melawi,Kalimantan Barat
2015,79671,Laman Bukit,61.10.01.2016,Belimbing,Kabupaten,Melawi,Kalimantan Barat
2016,79671,Langan,61.10.01.2009,Belimbing,Kabupaten,Melawi,Kalimantan Barat
2017,79671,Nanga Entebah (Entebah),61.10.01.2021,Belimbing,Kabupaten,Melawi,Kalimantan Barat
2018,79671,Nanga Menunuk,61.10.01.2023,Belimbing,Kabupaten,Melawi,Kalimantan Barat
2019,79671,Nanga Pau,61.10.01.2020,Belimbing,Kabupaten,Melawi,Kalimantan Barat
2020,79671,Nusa Kenyikap,61.10.01.2002,Belimbing,Kabupaten,Melawi,Kalimantan Barat
2021,79671,Pemuar,61.10.01.2001,Belimbing,Kabupaten,Melawi,Kalimantan Barat
2022,79671,Sepan Tonak,61.10.01.2024,Belimbing,Kabupaten,Melawi,Kalimantan Barat
2023,79671,Tekaban,61.10.01.2017,Belimbing,Kabupaten,Melawi,Kalimantan Barat
2024,79671,Upit (Upet),61.10.01.2008,Belimbing,Kabupaten,Melawi,Kalimantan Barat
2025,78555,Bereng Berkawat,61.03.06.2002,Beduai (Beduwai),Kabupaten,Sanggau,Kalimantan Barat
2026,78555,Kasro Mego (Kasromego),61.03.06.2001,Beduai (Beduwai),Kabupaten,Sanggau,Kalimantan Barat
2027,78555,Mawang Muda,61.03.06.2005,Beduai (Beduwai),Kabupaten,Sanggau,Kalimantan Barat
2028,78555,Sei/Sungai Ilai,61.03.06.2003,Beduai (Beduwai),Kabupaten,Sanggau,Kalimantan Barat
2029,78555,Thang Raya,61.03.06.2004,Beduai (Beduwai),Kabupaten,Sanggau,Kalimantan Barat
2030,78385,Ambarawa,61.12.05.2010,Batu Ampar,Kabupaten,Kubu Raya,Kalimantan Barat
2031,78385,Batu Ampar,61.12.05.2002,Batu Ampar,Kabupaten,Kubu Raya,Kalimantan Barat
2032,78385,Medan Mas,61.12.05.2015,Batu Ampar,Kabupaten,Kubu Raya,Kalimantan Barat
2033,78385,Muara Tiga,61.12.05.2014,Batu Ampar,Kabupaten,Kubu Raya,Kalimantan Barat
2034,78385,Nipah Panjang,61.12.05.2009,Batu Ampar,Kabupaten,Kubu Raya,Kalimantan Barat
2035,78385,Padang Tikar Dua (Padang Tikar II),61.12.05.2005,Batu Ampar,Kabupaten,Kubu Raya,Kalimantan Barat
2036,78385,Padang Tikar Satu (Padang Tikar I),61.12.05.2004,Batu Ampar,Kabupaten,Kubu Raya,Kalimantan Barat
2037,78385,Sumber Agung,61.12.05.2013,Batu Ampar,Kabupaten,Kubu Raya,Kalimantan Barat
2038,78385,Sungaibesar (Sei / Sungai Besar),61.12.05.2007,Batu Ampar,Kabupaten,Kubu Raya,Kalimantan Barat
2039,78385,Sungaijawi (Sei / Sungai Jawi),61.12.05.2008,Batu Ampar,Kabupaten,Kubu Raya,Kalimantan Barat
2040,78385,Sungaikerawang (Sei / Sungai Kerawang),61.12.05.2012,Batu Ampar,Kabupaten,Kubu Raya,Kalimantan Barat
2041,78385,Tanjungberingin (Tanjung Beringin),61.12.05.2001,Batu Ampar,Kabupaten,Kubu Raya,Kalimantan Barat
2042,78385,Tanjungharapan (Tanjung Harapan),61.12.05.2011,Batu Ampar,Kabupaten,Kubu Raya,Kalimantan Barat
2043,78385,Tasik Malaya,61.12.05.2006,Batu Ampar,Kabupaten,Kubu Raya,Kalimantan Barat
2044,78385,Teluknibung (Teluk Nibung),61.12.05.2003,Batu Ampar,Kabupaten,Kubu Raya,Kalimantan Barat
2045,78766,Labian,61.06.12.2005,Batang Lupar,Kabupaten,Kapuas Hulu,Kalimantan Barat
2046,78766,Labian Ira'ang,61.06.12.2010,Batang Lupar,Kabupaten,Kapuas Hulu,Kalimantan Barat
2047,78766,Lanjak Deras,61.06.12.2008,Batang Lupar,Kabupaten,Kapuas Hulu,Kalimantan Barat
2048,78766,Melemba,61.06.12.2007,Batang Lupar,Kabupaten,Kapuas Hulu,Kalimantan Barat
2049,78766,Mensiau,61.06.12.2006,Batang Lupar,Kabupaten,Kapuas Hulu,Kalimantan Barat
2050,78766,Sei/Sungai Abau,61.06.12.2004,Batang Lupar,Kabupaten,Kapuas Hulu,Kalimantan Barat
2051,78766,Sei/Sungai Ajung,61.06.12.2003,Batang Lupar,Kabupaten,Kapuas Hulu,Kalimantan Barat
2052,78766,Sepandan,61.06.12.2002,Batang Lupar,Kabupaten,Kapuas Hulu,Kalimantan Barat
2053,78766,Setulang,61.06.12.2001,Batang Lupar,Kabupaten,Kapuas Hulu,Kalimantan Barat
2054,78766,Sungai Senunuk,61.06.12.2009,Batang Lupar,Kabupaten,Kapuas Hulu,Kalimantan Barat
2055,79364,Gamang,61.08.12.2006,Banyuke Hulu,Kabupaten,Landak,Kalimantan Barat
2056,79364,Kampet,61.08.12.2003,Banyuke Hulu,Kabupaten,Landak,Kalimantan Barat
2057,79364,Padang Pio,61.08.12.2001,Banyuke Hulu,Kabupaten,Landak,Kalimantan Barat
2058,79364,Ringo Lojok,61.08.12.2005,Banyuke Hulu,Kabupaten,Landak,Kalimantan Barat
2059,79364,Semade,61.08.12.2007,Banyuke Hulu,Kabupaten,Landak,Kalimantan Barat
2060,79364,Tembawang Bale,61.08.12.2002,Banyuke Hulu,Kabupaten,Landak,Kalimantan Barat
2061,79364,Untang,61.08.12.2004,Banyuke Hulu,Kabupaten,Landak,Kalimantan Barat
2062,78563,Bulu Bala,61.03.12.2010,Balai,Kabupaten,Sanggau,Kalimantan Barat
2063,78563,Cowet (Cuwet),61.03.12.2004,Balai,Kabupaten,Sanggau,Kalimantan Barat
2064,78563,Empirang Ujung,61.03.12.2009,Balai,Kabupaten,Sanggau,Kalimantan Barat
2065,78563,Hilir,61.03.12.2001,Balai,Kabupaten,Sanggau,Kalimantan Barat
2066,78563,Kawing (Mak Kawing),61.03.12.2006,Balai,Kabupaten,Sanggau,Kalimantan Barat
2067,78563,Kebadu,61.03.12.2005,Balai,Kabupaten,Sanggau,Kalimantan Barat
2068,78563,Padi Kaye,61.03.12.2002,Balai,Kabupaten,Sanggau,Kalimantan Barat
2069,78563,Semoncol,61.03.12.2008,Balai,Kabupaten,Sanggau,Kalimantan Barat
2070,78563,Senyabang,61.03.12.2012,Balai,Kabupaten,Sanggau,Kalimantan Barat
2071,78563,Tae,61.03.12.2007,Balai,Kabupaten,Sanggau,Kalimantan Barat
2072,78563,Temiang Mali,61.03.12.2003,Balai,Kabupaten,Sanggau,Kalimantan Barat
2073,78563,Temiang Taba,61.03.12.2011,Balai,Kabupaten,Sanggau,Kalimantan Barat
2074,78767,Badau,61.06.14.2001,Badau,Kabupaten,Kapuas Hulu,Kalimantan Barat
2075,78767,Janting,61.06.14.2002,Badau,Kabupaten,Kapuas Hulu,Kalimantan Barat
2076,78767,Kekurak,61.06.14.2004,Badau,Kabupaten,Kapuas Hulu,Kalimantan Barat
2077,78767,Pulau Majang,61.06.14.2005,Badau,Kabupaten,Kapuas Hulu,Kalimantan Barat
2078,78767,Sebindang,61.06.14.2007,Badau,Kabupaten,Kapuas Hulu,Kalimantan Barat
2079,78767,Semuntik,61.06.14.2003,Badau,Kabupaten,Kapuas Hulu,Kalimantan Barat
2080,78767,Seriang,61.06.14.2006,Badau,Kabupaten,Kapuas Hulu,Kalimantan Barat
2081,78767,Tajum,61.06.14.2009,Badau,Kabupaten,Kapuas Hulu,Kalimantan Barat
2082,78767,Tinting Seligi,61.06.14.2008,Badau,Kabupaten,Kapuas Hulu,Kalimantan Barat
2083,78353,Anjungan Dalam,61.02.16.2002,Anjongan,Kabupaten,Mempawah,Kalimantan Barat
2084,78353,Anjungan Melancar,61.02.16.1001,Anjongan,Kabupaten,Mempawah,Kalimantan Barat
2085,78353,Dema,61.02.16.2005,Anjongan,Kabupaten,Mempawah,Kalimantan Barat
2086,78353,Kepayang,61.02.16.2003,Anjongan,Kabupaten,Mempawah,Kalimantan Barat
2087,78353,Pak Bulu,61.02.16.2004,Anjongan,Kabupaten,Mempawah,Kalimantan Barat
2088,78684,Bukai Tukun,61.05.15.2022,Ambalau,Kabupaten,Sintang,Kalimantan Barat
2089,78684,Bukit Tinggi,61.05.15.2021,Ambalau,Kabupaten,Sintang,Kalimantan Barat
2090,78684,Buntut Pimpin,61.05.15.2006,Ambalau,Kabupaten,Sintang,Kalimantan Barat
2091,78684,Buntut Purun,61.05.15.2012,Ambalau,Kabupaten,Sintang,Kalimantan Barat
2092,78684,Buntut Sabon,61.05.15.2009,Ambalau,Kabupaten,Sintang,Kalimantan Barat
2093,78684,Dahtah Bungai,61.05.15.2019,Ambalau,Kabupaten,Sintang,Kalimantan Barat
2094,78684,Deme,61.05.15.2032,Ambalau,Kabupaten,Sintang,Kalimantan Barat
2095,78684,Jengkarang,61.05.15.2031,Ambalau,Kabupaten,Sintang,Kalimantan Barat
2096,78684,Kepala Jungai,61.05.15.2007,Ambalau,Kabupaten,Sintang,Kalimantan Barat
2097,78684,Kolangan Juoi,61.05.15.2029,Ambalau,Kabupaten,Sintang,Kalimantan Barat
2098,78684,Korong Daso,61.05.15.2027,Ambalau,Kabupaten,Sintang,Kalimantan Barat
2099,78684,Lunjan Tingang,61.05.15.2020,Ambalau,Kabupaten,Sintang,Kalimantan Barat
2100,78684,Luting Mingan,61.05.15.2028,Ambalau,Kabupaten,Sintang,Kalimantan Barat
2101,78684,Mensuang,61.05.15.2018,Ambalau,Kabupaten,Sintang,Kalimantan Barat
2102,78684,Nanga Ambalau,61.05.15.2002,Ambalau,Kabupaten,Sintang,Kalimantan Barat
2103,78684,Nanga Kemangai,61.05.15.2001,Ambalau,Kabupaten,Sintang,Kalimantan Barat
2104,78684,Nanga Keremoi,61.05.15.2010,Ambalau,Kabupaten,Sintang,Kalimantan Barat
2105,78684,Nanga Kesange,61.05.15.2003,Ambalau,Kabupaten,Sintang,Kalimantan Barat
2106,78684,Nanga Menakon,61.05.15.2004,Ambalau,Kabupaten,Sintang,Kalimantan Barat
2107,78684,Nanga Menantak,61.05.15.2011,Ambalau,Kabupaten,Sintang,Kalimantan Barat
2108,78684,Nanga Mentomoi,61.05.15.2014,Ambalau,Kabupaten,Sintang,Kalimantan Barat
2109,78684,Nanga Pahangan,61.05.15.2033,Ambalau,Kabupaten,Sintang,Kalimantan Barat
2110,78684,Nanga Rade,61.05.15.2030,Ambalau,Kabupaten,Sintang,Kalimantan Barat
2111,78684,Nanga Sakai,61.05.15.2013,Ambalau,Kabupaten,Sintang,Kalimantan Barat
2112,78684,Nanga Sake,61.05.15.2005,Ambalau,Kabupaten,Sintang,Kalimantan Barat
2113,78684,Nanga Ukai,61.05.15.2017,Ambalau,Kabupaten,Sintang,Kalimantan Barat
2114,78684,Nusa Poring,61.05.15.2023,Ambalau,Kabupaten,Sintang,Kalimantan Barat
2115,78684,Patih Jepara,61.05.15.2026,Ambalau,Kabupaten,Sintang,Kalimantan Barat
2116,78684,Pulou Sabhang,61.05.15.2025,Ambalau,Kabupaten,Sintang,Kalimantan Barat
2117,78684,Purut Beribit,61.05.15.2024,Ambalau,Kabupaten,Sintang,Kalimantan Barat
2118,78684,Riam Sabon,61.05.15.2016,Ambalau,Kabupaten,Sintang,Kalimantan Barat
2119,78684,Sungai Tambun,61.05.15.2015,Ambalau,Kabupaten,Sintang,Kalimantan Barat
2120,78684,Tanjung Andan,61.05.15.2008,Ambalau,Kabupaten,Sintang,Kalimantan Barat
2121,78863,Air Durian Jaya,61.04.21.2003,Air Upas,Kabupaten,Ketapang,Kalimantan Barat
2122,78863,Air Upas,61.04.21.2001,Air Upas,Kabupaten,Ketapang,Kalimantan Barat
2123,78863,Banda Sari,61.04.21.2006,Air Upas,Kabupaten,Ketapang,Kalimantan Barat
2124,78863,Gahang,61.04.21.2008,Air Upas,Kabupaten,Ketapang,Kalimantan Barat
2125,78863,Harapan Baru,61.04.21.2004,Air Upas,Kabupaten,Ketapang,Kalimantan Barat
2126,78863,Mekar Jaya,61.04.21.2009,Air Upas,Kabupaten,Ketapang,Kalimantan Barat
2127,78863,Membuluh Baru,61.04.21.2007,Air Upas,Kabupaten,Ketapang,Kalimantan Barat
2128,78863,Sari Bekayas,61.04.21.2002,Air Upas,Kabupaten,Ketapang,Kalimantan Barat
2129,78863,Suka Ria (Sukaria),61.04.21.2005,Air Upas,Kabupaten,Ketapang,Kalimantan Barat
2130,79365,Bentiang Madomang,61.08.05.2014,Air Besar,Kabupaten,Landak,Kalimantan Barat
2131,79365,Dange Aji,61.08.05.2011,Air Besar,Kabupaten,Landak,Kalimantan Barat
2132,79365,Engkadik/Enkadik Pade,61.08.05.2010,Air Besar,Kabupaten,Landak,Kalimantan Barat
2133,79365,Engkangin,61.08.05.2002,Air Besar,Kabupaten,Landak,Kalimantan Barat
2134,79365,Jambu Tembawang,61.08.05.2003,Air Besar,Kabupaten,Landak,Kalimantan Barat
2135,79365,Merayuh,61.08.05.2005,Air Besar,Kabupaten,Landak,Kalimantan Barat
2136,79365,Nyari,61.08.05.2006,Air Besar,Kabupaten,Landak,Kalimantan Barat
2137,79365,Parek (Pare/Sutipadang),61.08.05.2013,Air Besar,Kabupaten,Landak,Kalimantan Barat
2138,79365,Sekendal,61.08.05.2007,Air Besar,Kabupaten,Landak,Kalimantan Barat
2139,79365,Sempatung Lawek,61.08.05.2016,Air Besar,Kabupaten,Landak,Kalimantan Barat
2140,79365,Semuntik,61.08.05.2008,Air Besar,Kabupaten,Landak,Kalimantan Barat
2141,79365,Sepangah,61.08.05.2004,Air Besar,Kabupaten,Landak,Kalimantan Barat
2142,79365,Serimbu,61.08.05.2001,Air Besar,Kabupaten,Landak,Kalimantan Barat
2143,79365,Temoyok,61.08.05.2009,Air Besar,Kabupaten,Landak,Kalimantan Barat
2144,79365,Tengon (Tengon Pelaik),61.08.05.2015,Air Besar,Kabupaten,Landak,Kalimantan Barat
2145,79365,Tenguwe,61.08.05.2012,Air Besar,Kabupaten,Landak,Kalimantan Barat