no,postal_code,urban,area_code,sub_district,dt2,city,province
1,76284,Api Api,64.09.02.2001,Waru,Kabupaten,Penajam Paser Utara,Kalimantan Timur
2,76284,Bangun Mulya,64.09.02.2004,Waru,Kabupaten,Penajam Paser Utara,Kalimantan Timur
3,76284,Sesulu,64.09.02.2002,Waru,Kabupaten,Penajam Paser Utara,Kalimantan Timur
4,76284,Waru,64.09.02.1003,Waru,Kabupaten,Penajam Paser Utara,Kalimantan Timur
5,75760,Gabung Baru,64.07.19.2014,Tering,Kabupaten,Kutai Barat,Kalimantan Timur
6,75760,Kelian Dalam,64.07.19.2008,Tering,Kabupaten,Kutai Barat,Kalimantan Timur
7,75760,Linggang Banjarejo (Banjarejo),64.07.19.2015,Tering,Kabupaten,Kutai Barat,Kalimantan Timur
8,75760,Linggang Jelemuq (Jelemuq),64.07.19.2007,Tering,Kabupaten,Kutai Barat,Kalimantan Timur
9,75760,Linggang Kelubaq (Kelubaq),64.07.19.2005,Tering,Kabupaten,Kutai Barat,Kalimantan Timur
10,75760,Linggang Muara Mujan (Muara Mujan),64.07.19.2009,Tering,Kabupaten,Kutai Barat,Kalimantan Timur
11,75760,Linggang Muyub Ilir (Muyub Ilir),64.07.19.2013,Tering,Kabupaten,Kutai Barat,Kalimantan Timur
12,75760,Linggang Purworejo (Purworejo),64.07.19.2006,Tering,Kabupaten,Kutai Barat,Kalimantan Timur
13,75760,Linggang Tering Seberang (Tering Seberang),64.07.19.2003,Tering,Kabupaten,Kutai Barat,Kalimantan Timur
14,75760,Muyub Aket,64.07.19.2011,Tering,Kabupaten,Kutai Barat,Kalimantan Timur
15,75760,Muyub Ulu,64.07.19.2010,Tering,Kabupaten,Kutai Barat,Kalimantan Timur
16,75760,Tering Baru,64.07.19.2001,Tering,Kabupaten,Kutai Barat,Kalimantan Timur
17,75760,Tering Lama,64.07.19.2002,Tering,Kabupaten,Kutai Barat,Kalimantan Timur
18,75760,Tering Lama Ulu,64.07.19.2016,Tering,Kabupaten,Kutai Barat,Kalimantan Timur
19,75760,Tukul,64.07.19.2004,Tering,Kabupaten,Kutai Barat,Kalimantan Timur
20,75572,Bangun Rejo,64.02.16.2004,Tenggarong Seberang,Kabupaten,Kutai Kartanegara,Kalimantan Timur
21,75572,Bhuana Jaya (Buana Jaya),64.02.16.2008,Tenggarong Seberang,Kabupaten,Kutai Kartanegara,Kalimantan Timur
22,75572,Bukit Pariaman,64.02.16.2007,Tenggarong Seberang,Kabupaten,Kutai Kartanegara,Kalimantan Timur
23,75572,Bukit Raya,64.02.16.2002,Tenggarong Seberang,Kabupaten,Kutai Kartanegara,Kalimantan Timur
24,75572,Embalut,64.02.16.2003,Tenggarong Seberang,Kabupaten,Kutai Kartanegara,Kalimantan Timur
25,75572,Karang Tunggal,64.02.16.2017,Tenggarong Seberang,Kabupaten,Kutai Kartanegara,Kalimantan Timur
26,75572,Kerta Buana,64.02.16.2005,Tenggarong Seberang,Kabupaten,Kutai Kartanegara,Kalimantan Timur
27,75572,Loa Lepu,64.02.16.2014,Tenggarong Seberang,Kabupaten,Kutai Kartanegara,Kalimantan Timur
28,75572,Loa Pari,64.02.16.2016,Tenggarong Seberang,Kabupaten,Kutai Kartanegara,Kalimantan Timur
29,75572,Loa Raya,64.02.16.2011,Tenggarong Seberang,Kabupaten,Kutai Kartanegara,Kalimantan Timur
30,75572,Loa Ulung,64.02.16.2010,Tenggarong Seberang,Kabupaten,Kutai Kartanegara,Kalimantan Timur
31,75572,Manunggal Jaya,64.02.16.2001,Tenggarong Seberang,Kabupaten,Kutai Kartanegara,Kalimantan Timur
32,75572,Mulawarman,64.02.16.2009,Tenggarong Seberang,Kabupaten,Kutai Kartanegara,Kalimantan Timur
33,75572,Perjiwa,64.02.16.2012,Tenggarong Seberang,Kabupaten,Kutai Kartanegara,Kalimantan Timur
34,75572,Separi,64.02.16.2006,Tenggarong Seberang,Kabupaten,Kutai Kartanegara,Kalimantan Timur
35,75572,Suka Maju (Sukamaju),64.02.16.2015,Tenggarong Seberang,Kabupaten,Kutai Kartanegara,Kalimantan Timur
36,75572,Tanjung Batu,64.02.16.2018,Tenggarong Seberang,Kabupaten,Kutai Kartanegara,Kalimantan Timur
37,75572,Teluk Dalam,64.02.16.2013,Tenggarong Seberang,Kabupaten,Kutai Kartanegara,Kalimantan Timur
38,75511,Bendang Raya,64.02.06.2014,Tenggarong,Kabupaten,Kutai Kartanegara,Kalimantan Timur
39,75511,Bukit Biru,64.02.06.1003,Tenggarong,Kabupaten,Kutai Kartanegara,Kalimantan Timur
40,75511,Jahab,64.02.06.1001,Tenggarong,Kabupaten,Kutai Kartanegara,Kalimantan Timur
41,75511,Kampung Baru,64.02.06.1008,Tenggarong,Kabupaten,Kutai Kartanegara,Kalimantan Timur
42,75513,Loa Ipuh,64.02.06.1002,Tenggarong,Kabupaten,Kutai Kartanegara,Kalimantan Timur
43,75511,Loa Ipuh Darat,64.02.06.1013,Tenggarong,Kabupaten,Kutai Kartanegara,Kalimantan Timur
44,75511,Loa Tebu,64.02.06.1009,Tenggarong,Kabupaten,Kutai Kartanegara,Kalimantan Timur
45,75511,Maluhu,64.02.06.1011,Tenggarong,Kabupaten,Kutai Kartanegara,Kalimantan Timur
46,75517,Mangkurawang,64.02.06.1010,Tenggarong,Kabupaten,Kutai Kartanegara,Kalimantan Timur
47,75512,Melayu,64.02.06.1005,Tenggarong,Kabupaten,Kutai Kartanegara,Kalimantan Timur
48,75514,Panji,64.02.06.1006,Tenggarong,Kabupaten,Kutai Kartanegara,Kalimantan Timur
49,75511,Rapak Lambur,64.02.06.2012,Tenggarong,Kabupaten,Kutai Kartanegara,Kalimantan Timur
50,75515,Sukarame,64.02.06.1007,Tenggarong,Kabupaten,Kutai Kartanegara,Kalimantan Timur
51,75511,Timbau,64.02.06.1004,Tenggarong,Kabupaten,Kutai Kartanegara,Kalimantan Timur
52,75682,Danau Redan,64.08.13.2005,Teluk Pandan,Kabupaten,Kutai Timur,Kalimantan Timur
53,75682,Kandolo,64.08.13.2004,Teluk Pandan,Kabupaten,Kutai Timur,Kalimantan Timur
54,75682,Martadinata,64.08.13.2006,Teluk Pandan,Kabupaten,Kutai Timur,Kalimantan Timur
55,75682,Suka Damai,64.08.13.2003,Teluk Pandan,Kabupaten,Kutai Timur,Kalimantan Timur
56,75682,Suka Rahmat,64.08.13.2002,Teluk Pandan,Kabupaten,Kutai Timur,Kalimantan Timur
57,75682,Teluk Pandan,64.08.13.2001,Teluk Pandan,Kabupaten,Kutai Timur,Kalimantan Timur
58,77352,Labanan Jaya,64.03.09.2004,Teluk Bayur,Kabupaten,Berau,Kalimantan Timur
59,77352,Labanan Makarti,64.03.09.2006,Teluk Bayur,Kabupaten,Berau,Kalimantan Timur
60,77352,Labanan Makmur,64.03.09.2005,Teluk Bayur,Kabupaten,Berau,Kalimantan Timur
61,77313,Rinding,64.03.09.1003,Teluk Bayur,Kabupaten,Berau,Kalimantan Timur
62,77315,Teluk Bayur,64.03.09.1002,Teluk Bayur,Kabupaten,Berau,Kalimantan Timur
63,77315,Tumbit Melayu,64.03.09.2001,Teluk Bayur,Kabupaten,Berau,Kalimantan Timur
64,75554,Juk Ayaq (Juk Ayak),64.08.07.2003,Telen,Kabupaten,Kutai Timur,Kalimantan Timur
65,75554,Kernyanyan,64.08.07.2008,Telen,Kabupaten,Kutai Timur,Kalimantan Timur
66,75554,Long Noran,64.08.07.2005,Telen,Kabupaten,Kutai Timur,Kalimantan Timur
67,75554,Long Segar,64.08.07.2004,Telen,Kabupaten,Kutai Timur,Kalimantan Timur
68,75554,Lung Melah,64.08.07.2002,Telen,Kabupaten,Kutai Timur,Kalimantan Timur
69,75554,Marah Haloq,64.08.07.2001,Telen,Kabupaten,Kutai Timur,Kalimantan Timur
70,75554,Muara Pantun,64.08.07.2006,Telen,Kabupaten,Kutai Timur,Kalimantan Timur
71,75554,Rantau Panjang,64.08.07.2007,Telen,Kabupaten,Kutai Timur,Kalimantan Timur
72,77312,Bugis,64.03.05.1005,Tanjung Redeb,Kabupaten,Berau,Kalimantan Timur
73,77315,Gayam,64.03.05.1006,Tanjung Redeb,Kabupaten,Berau,Kalimantan Timur
74,77311,Gunung Panjang,64.03.05.1008,Tanjung Redeb,Kabupaten,Berau,Kalimantan Timur
75,77315,Karang Ambun,64.03.05.1007,Tanjung Redeb,Kabupaten,Berau,Kalimantan Timur
76,77315,Sei/Sungai Bedungun,64.03.05.1003,Tanjung Redeb,Kabupaten,Berau,Kalimantan Timur
77,77315,Tanjung Redeb,64.03.05.1004,Tanjung Redeb,Kabupaten,Berau,Kalimantan Timur
78,76260,Keladen,64.01.02.2004,Tanjung Harapan,Kabupaten,Paser,Kalimantan Timur
79,76260,Labuangkallo (Labuangkalo),64.01.02.2007,Tanjung Harapan,Kabupaten,Paser,Kalimantan Timur
80,76260,Lori,64.01.02.2012,Tanjung Harapan,Kabupaten,Paser,Kalimantan Timur
81,76260,Random,64.01.02.2014,Tanjung Harapan,Kabupaten,Paser,Kalimantan Timur
82,76260,Selengot,64.01.02.2013,Tanjung Harapan,Kabupaten,Paser,Kalimantan Timur
83,76260,Senipah,64.01.02.2015,Tanjung Harapan,Kabupaten,Paser,Kalimantan Timur
84,76260,Tanjung Aru,64.01.02.2006,Tanjung Harapan,Kabupaten,Paser,Kalimantan Timur
85,76251,Janju,64.01.04.2002,Tanah Grogot,Kabupaten,Paser,Kalimantan Timur
86,76251,Jone,64.01.04.2008,Tanah Grogot,Kabupaten,Paser,Kalimantan Timur
87,76251,Muara Pasir,64.01.04.2010,Tanah Grogot,Kabupaten,Paser,Kalimantan Timur
88,76251,Padang Pengrapat,64.01.04.2011,Tanah Grogot,Kabupaten,Paser,Kalimantan Timur
89,76251,Pepara,64.01.04.2005,Tanah Grogot,Kabupaten,Paser,Kalimantan Timur
90,76251,Perepat,64.01.04.2012,Tanah Grogot,Kabupaten,Paser,Kalimantan Timur
91,76251,Pulau Rantau,64.01.04.2013,Tanah Grogot,Kabupaten,Paser,Kalimantan Timur
92,76251,Rantau Panjang,64.01.04.2009,Tanah Grogot,Kabupaten,Paser,Kalimantan Timur
93,76251,Sei/Sungai Tuak,64.01.04.2006,Tanah Grogot,Kabupaten,Paser,Kalimantan Timur
94,76251,Sempulang,64.01.04.2007,Tanah Grogot,Kabupaten,Paser,Kalimantan Timur
95,76251,Senaken,64.01.04.2016,Tanah Grogot,Kabupaten,Paser,Kalimantan Timur
96,76251,Sungai Langir,64.01.04.2014,Tanah Grogot,Kabupaten,Paser,Kalimantan Timur
97,76251,Tanah Grogot,64.01.04.1001,Tanah Grogot,Kabupaten,Paser,Kalimantan Timur
98,76251,Tanah Periuk,64.01.04.2004,Tanah Grogot,Kabupaten,Paser,Kalimantan Timur
99,76251,Tapis,64.01.04.2015,Tanah Grogot,Kabupaten,Paser,Kalimantan Timur
100,76251,Tepian Batang,64.01.04.2003,Tanah Grogot,Kabupaten,Paser,Kalimantan Timur
101,77375,Bumi Jaya,64.03.02.2015,Talisayan,Kabupaten,Berau,Kalimantan Timur
102,77375,Campur Sari,64.03.02.2014,Talisayan,Kabupaten,Berau,Kalimantan Timur
103,77375,Capuak,64.03.02.2023,Talisayan,Kabupaten,Berau,Kalimantan Timur
104,77375,Dumaring,64.03.02.2002,Talisayan,Kabupaten,Berau,Kalimantan Timur
105,77375,Eka Sapta,64.03.02.2021,Talisayan,Kabupaten,Berau,Kalimantan Timur
106,77375,Purna Sari Jaya,64.03.02.2019,Talisayan,Kabupaten,Berau,Kalimantan Timur
107,77375,Suka Murya,64.03.02.2018,Talisayan,Kabupaten,Berau,Kalimantan Timur
108,77375,Sumber Mulya (Sumber Mulia),64.03.02.2017,Talisayan,Kabupaten,Berau,Kalimantan Timur
109,77375,Talisayan,64.03.02.2003,Talisayan,Kabupaten,Berau,Kalimantan Timur
110,77375,Tunggal Bumi,64.03.02.2016,Talisayan,Kabupaten,Berau,Kalimantan Timur
111,75558,Bila Talang,64.02.12.2007,Tabang,Kabupaten,Kutai Kartanegara,Kalimantan Timur
112,75558,Buluk Sen,64.02.12.2004,Tabang,Kabupaten,Kutai Kartanegara,Kalimantan Timur
113,75558,Gunung Sari,64.02.12.2001,Tabang,Kabupaten,Kutai Kartanegara,Kalimantan Timur
114,75558,Kampung Baru,64.02.12.2008,Tabang,Kabupaten,Kutai Kartanegara,Kalimantan Timur
115,75558,Long Lalang,64.02.12.2002,Tabang,Kabupaten,Kutai Kartanegara,Kalimantan Timur
116,75558,Muara Belinau,64.02.12.2016,Tabang,Kabupaten,Kutai Kartanegara,Kalimantan Timur
117,75558,Muara Kebaq,64.02.12.2015,Tabang,Kabupaten,Kutai Kartanegara,Kalimantan Timur
118,75558,Muara Pedohon,64.02.12.2006,Tabang,Kabupaten,Kutai Kartanegara,Kalimantan Timur
119,75558,Muara Ritan,64.02.12.2003,Tabang,Kabupaten,Kutai Kartanegara,Kalimantan Timur
120,75558,Muara Salung,64.02.12.2014,Tabang,Kabupaten,Kutai Kartanegara,Kalimantan Timur
121,75558,Muara Tiq,64.02.12.2013,Tabang,Kabupaten,Kutai Kartanegara,Kalimantan Timur
122,75558,Muara Tubo (Muara Tuboq),64.02.12.2017,Tabang,Kabupaten,Kutai Kartanegara,Kalimantan Timur
123,75558,Ritan Baru,64.02.12.2018,Tabang,Kabupaten,Kutai Kartanegara,Kalimantan Timur
124,75558,Sidomulyo,64.02.12.2010,Tabang,Kabupaten,Kutai Kartanegara,Kalimantan Timur
125,75558,Tabang Lama,64.02.12.2012,Tabang,Kabupaten,Kutai Kartanegara,Kalimantan Timur
126,75558,Tukung Ritan,64.02.12.2019,Tabang,Kabupaten,Kutai Kartanegara,Kalimantan Timur
127,75558,Umaq Bekuay (Umaq Bekuai),64.02.12.2011,Tabang,Kabupaten,Kutai Kartanegara,Kalimantan Timur
128,75558,Umaq Dian,64.02.12.2005,Tabang,Kabupaten,Kutai Kartanegara,Kalimantan Timur
129,75558,Umaq Tukung,64.02.12.2009,Tabang,Kabupaten,Kutai Kartanegara,Kalimantan Timur
130,77374,Buyung-Buyung (Radak),64.03.10.2006,Tabalar,Kabupaten,Berau,Kalimantan Timur
131,77374,Harapan Maju,64.03.10.2007,Tabalar,Kabupaten,Berau,Kalimantan Timur
132,77374,Semurut,64.03.10.2005,Tabalar,Kabupaten,Berau,Kalimantan Timur
133,77374,Tabalar Muara,64.03.10.2002,Tabalar,Kabupaten,Berau,Kalimantan Timur
134,77374,Tabalar Ulu,64.03.10.2004,Tabalar,Kabupaten,Berau,Kalimantan Timur
135,77374,Tubaan,64.03.10.2003,Tabalar,Kabupaten,Berau,Kalimantan Timur
136,75119,Bandara,64.72.08.1005,Sungai Pinang,Kota,Samarinda,Kalimantan Timur
137,75119,Gunung Lingai,64.72.08.1003,Sungai Pinang,Kota,Samarinda,Kalimantan Timur
138,75119,Mugirejo,64.72.08.1004,Sungai Pinang,Kota,Samarinda,Kalimantan Timur
139,75117,Sei/Sungai Pinang Dalam,64.72.08.1002,Sungai Pinang,Kota,Samarinda,Kalimantan Timur
140,75119,Temindung Permai,64.72.08.1001,Sungai Pinang,Kota,Samarinda,Kalimantan Timur
141,75125,Karang Anyar,64.72.06.1007,Sungai Kunjang,Kota,Samarinda,Kalimantan Timur
142,75126,Karang Asam Ilir,64.72.06.1006,Sungai Kunjang,Kota,Samarinda,Kalimantan Timur
143,75126,Karang Asam Ulu,64.72.06.1003,Sungai Kunjang,Kota,Samarinda,Kalimantan Timur
144,75126,Loa Bakung,64.72.06.1001,Sungai Kunjang,Kota,Samarinda,Kalimantan Timur
145,75126,Loa Buah,64.72.06.1002,Sungai Kunjang,Kota,Samarinda,Kalimantan Timur
146,75125,Lok Bahu,64.72.06.1004,Sungai Kunjang,Kota,Samarinda,Kalimantan Timur
147,75127,Teluk Lerong Ulu,64.72.06.1005,Sungai Kunjang,Kota,Samarinda,Kalimantan Timur
148,75771,Bentas,64.07.17.2007,Siluq Ngurai,Kabupaten,Kutai Barat,Kalimantan Timur
149,75771,Betung,64.07.17.2008,Siluq Ngurai,Kabupaten,Kutai Barat,Kalimantan Timur
150,75771,Kaliq,64.07.17.2002,Siluq Ngurai,Kabupaten,Kutai Barat,Kalimantan Timur
151,75771,Kendisiq,64.07.17.2015,Siluq Ngurai,Kabupaten,Kutai Barat,Kalimantan Timur
152,75771,Kenyanyan,64.07.17.2013,Siluq Ngurai,Kabupaten,Kutai Barat,Kalimantan Timur
153,75771,Kiaq,64.07.17.2009,Siluq Ngurai,Kabupaten,Kutai Barat,Kalimantan Timur
154,75771,Lendian Liang Nayuq (Nayuk / Nayung),64.07.17.2012,Siluq Ngurai,Kabupaten,Kutai Barat,Kalimantan Timur
155,75771,Muara Kelawit,64.07.17.2006,Siluq Ngurai,Kabupaten,Kutai Barat,Kalimantan Timur
156,75771,Muara Ponaq,64.07.17.2016,Siluq Ngurai,Kabupaten,Kutai Barat,Kalimantan Timur
157,75771,Muhur,64.07.17.2005,Siluq Ngurai,Kabupaten,Kutai Barat,Kalimantan Timur
158,75771,Penawang,64.07.17.2011,Siluq Ngurai,Kabupaten,Kutai Barat,Kalimantan Timur
159,75771,Rikong,64.07.17.2014,Siluq Ngurai,Kabupaten,Kutai Barat,Kalimantan Timur
160,75771,Sang Sang (Sansang),64.07.17.2004,Siluq Ngurai,Kabupaten,Kutai Barat,Kalimantan Timur
161,75771,Tanah Mea (Tana Mea),64.07.17.2003,Siluq Ngurai,Kabupaten,Kutai Barat,Kalimantan Timur
162,75771,Tebisaq,64.07.17.2001,Siluq Ngurai,Kabupaten,Kutai Barat,Kalimantan Timur
163,75771,Tendiq,64.07.17.2010,Siluq Ngurai,Kabupaten,Kutai Barat,Kalimantan Timur
164,76147,Argo Mulyo,64.09.04.2009,Sepaku,Kabupaten,Penajam Paser Utara,Kalimantan Timur
165,76147,Binuang,64.09.04.2014,Sepaku,Kabupaten,Penajam Paser Utara,Kalimantan Timur
166,76147,Bukit Raya (Sepaku I),64.09.04.2002,Sepaku,Kabupaten,Penajam Paser Utara,Kalimantan Timur
167,76147,Bumi Harapan,64.09.04.2004,Sepaku,Kabupaten,Penajam Paser Utara,Kalimantan Timur
168,76148,Karang Jinawi,64.09.04.2013,Sepaku,Kabupaten,Penajam Paser Utara,Kalimantan Timur
169,76146,Maridan,64.09.04.1007,Sepaku,Kabupaten,Penajam Paser Utara,Kalimantan Timur
170,76149,Mentawir,64.09.04.1008,Sepaku,Kabupaten,Penajam Paser Utara,Kalimantan Timur
171,76147,Pemaluan,64.09.04.1006,Sepaku,Kabupaten,Penajam Paser Utara,Kalimantan Timur
172,76147,Semoi Dua (Semoi II),64.09.04.2010,Sepaku,Kabupaten,Penajam Paser Utara,Kalimantan Timur
173,76148,Sepaku,64.09.04.1005,Sepaku,Kabupaten,Penajam Paser Utara,Kalimantan Timur
174,76147,Suka Raja (Sukaraja / Sepaku II),64.09.04.2003,Sepaku,Kabupaten,Penajam Paser Utara,Kalimantan Timur
175,76147,Suko Mulyo,64.09.04.2011,Sepaku,Kabupaten,Penajam Paser Utara,Kalimantan Timur
176,76147,Telemow,64.09.04.2015,Sepaku,Kabupaten,Penajam Paser Utara,Kalimantan Timur
177,76147,Tengin Baru (Sepaku III),64.09.04.2001,Sepaku,Kabupaten,Penajam Paser Utara,Kalimantan Timur
178,76147,Wono Sari (Wonosari),64.09.04.2012,Sepaku,Kabupaten,Penajam Paser Utara,Kalimantan Timur
179,75764,Leleng,64.07.20.2008,Sekolaq Darat,Kabupaten,Kutai Barat,Kalimantan Timur
180,75764,Sekolaq Darat,64.07.20.2007,Sekolaq Darat,Kabupaten,Kutai Barat,Kalimantan Timur
181,75764,Sekolaq Joleq,64.07.20.2001,Sekolaq Darat,Kabupaten,Kutai Barat,Kalimantan Timur
182,75764,Sekolaq Muliaq,64.07.20.2002,Sekolaq Darat,Kabupaten,Kutai Barat,Kalimantan Timur
183,75764,Sekolaq Oday,64.07.20.2003,Sekolaq Darat,Kabupaten,Kutai Barat,Kalimantan Timur
184,75764,Sember Bangun,64.07.20.2005,Sekolaq Darat,Kabupaten,Kutai Barat,Kalimantan Timur
185,75764,Srimulyo,64.07.20.2004,Sekolaq Darat,Kabupaten,Kutai Barat,Kalimantan Timur
186,75764,Sumber Rejo,64.07.20.2006,Sekolaq Darat,Kabupaten,Kutai Barat,Kalimantan Timur
187,77361,Batu Rajang,64.03.04.2012,Segah,Kabupaten,Berau,Kalimantan Timur
188,77361,Bukit Makmur,64.03.04.2009,Segah,Kabupaten,Berau,Kalimantan Timur
189,77361,Gunung Sari,64.03.04.2007,Segah,Kabupaten,Berau,Kalimantan Timur
190,77361,Harapan Jaya,64.03.04.2010,Segah,Kabupaten,Berau,Kalimantan Timur
191,77361,Long Ayan,64.03.04.2004,Segah,Kabupaten,Berau,Kalimantan Timur
192,77361,Long Ayap,64.03.04.2003,Segah,Kabupaten,Berau,Kalimantan Timur
193,77361,Long La'ai (Long Laay / Laai),64.03.04.2001,Segah,Kabupaten,Berau,Kalimantan Timur
194,77361,Pandan Sari,64.03.04.2008,Segah,Kabupaten,Berau,Kalimantan Timur
195,77361,Punan Mahkam,64.03.04.2006,Segah,Kabupaten,Berau,Kalimantan Timur
196,77361,Punan Malinau,64.03.04.2005,Segah,Kabupaten,Berau,Kalimantan Timur
197,77361,Punan Segah,64.03.04.2002,Segah,Kabupaten,Berau,Kalimantan Timur
198,77361,Siduung Indah,64.03.04.2013,Segah,Kabupaten,Berau,Kalimantan Timur
199,77361,Tepian Buah,64.03.04.2011,Segah,Kabupaten,Berau,Kalimantan Timur
200,75552,Beloro,64.02.07.2003,Sebulu,Kabupaten,Kutai Kartanegara,Kalimantan Timur
201,75552,Giri Agung,64.02.07.2009,Sebulu,Kabupaten,Kutai Kartanegara,Kalimantan Timur
202,75552,Lekaq Kidau,64.02.07.2013,Sebulu,Kabupaten,Kutai Kartanegara,Kalimantan Timur
203,75552,Manunggal Daya,64.02.07.2008,Sebulu,Kabupaten,Kutai Kartanegara,Kalimantan Timur
204,75552,Mekar Jaya,64.02.07.2014,Sebulu,Kabupaten,Kutai Kartanegara,Kalimantan Timur
205,75552,Sanggulan,64.02.07.2012,Sebulu,Kabupaten,Kutai Kartanegara,Kalimantan Timur
206,75552,Sebulu Ilir,64.02.07.2005,Sebulu,Kabupaten,Kutai Kartanegara,Kalimantan Timur
207,75552,Sebulu Moderen (Sebulu Modern),64.02.07.2011,Sebulu,Kabupaten,Kutai Kartanegara,Kalimantan Timur
208,75552,Sebulu Ulu,64.02.07.2004,Sebulu,Kabupaten,Kutai Kartanegara,Kalimantan Timur
209,75552,Segihan,64.02.07.2006,Sebulu,Kabupaten,Kutai Kartanegara,Kalimantan Timur
210,75552,Selerong,64.02.07.2001,Sebulu,Kabupaten,Kutai Kartanegara,Kalimantan Timur
211,75552,Senoni,64.02.07.2010,Sebulu,Kabupaten,Kutai Kartanegara,Kalimantan Timur
212,75552,Sumber Sari,64.02.07.2007,Sebulu,Kabupaten,Kutai Kartanegara,Kalimantan Timur
213,75552,Tanjung Harapan,64.02.07.2002,Sebulu,Kabupaten,Kutai Kartanegara,Kalimantan Timur
214,75686,Benua Baru (Benua Baru Ilir),64.08.05.2006,Sangkulirang,Kabupaten,Kutai Timur,Kalimantan Timur
215,75686,Benua Baru Ulu,64.08.05.2016,Sangkulirang,Kabupaten,Kutai Timur,Kalimantan Timur
216,75686,Kerayaan,64.08.05.2001,Sangkulirang,Kabupaten,Kutai Timur,Kalimantan Timur
217,75686,Kolek,64.08.05.2017,Sangkulirang,Kabupaten,Kutai Timur,Kalimantan Timur
218,75686,Maloy,64.08.05.2015,Sangkulirang,Kabupaten,Kutai Timur,Kalimantan Timur
219,75686,Mandu Dalam,64.08.05.2005,Sangkulirang,Kabupaten,Kutai Timur,Kalimantan Timur
220,75686,Mandu Pantai Sejahtera (Mandau Pantai Sejahtera),64.08.05.2020,Sangkulirang,Kabupaten,Kutai Timur,Kalimantan Timur
221,75686,Pelawan,64.08.05.2012,Sangkulirang,Kabupaten,Kutai Timur,Kalimantan Timur
222,75686,Peridan,64.08.05.2003,Sangkulirang,Kabupaten,Kutai Timur,Kalimantan Timur
223,75686,Perupuk,64.08.05.2019,Sangkulirang,Kabupaten,Kutai Timur,Kalimantan Timur
224,75686,Pulau Miang,64.08.05.2018,Sangkulirang,Kabupaten,Kutai Timur,Kalimantan Timur
225,75686,Saka,64.08.05.2004,Sangkulirang,Kabupaten,Kutai Timur,Kalimantan Timur
226,75686,Sempuyau (Sempayau),64.08.05.2011,Sangkulirang,Kabupaten,Kutai Timur,Kalimantan Timur
227,75686,Tanjung Manis,64.08.05.2002,Sangkulirang,Kabupaten,Kutai Timur,Kalimantan Timur
228,75686,Tepian Terap,64.08.05.2013,Sangkulirang,Kabupaten,Kutai Timur,Kalimantan Timur
229,75681,Sangatta Utara,64.08.04.2001,Sangatta Utara,Kabupaten,Kutai Timur,Kalimantan Timur
230,75681,Singa Gembara,64.08.04.2011,Sangatta Utara,Kabupaten,Kutai Timur,Kalimantan Timur
231,75681,Swarga Bara,64.08.04.2012,Sangatta Utara,Kabupaten,Kutai Timur,Kalimantan Timur
232,75681,Teluk Lingga,64.08.04.1010,Sangatta Utara,Kabupaten,Kutai Timur,Kalimantan Timur
233,75680,Sangatta Selatan (Sangata Selatan),64.08.12.2001,Sangatta Selatan,Kabupaten,Kutai Timur,Kalimantan Timur
234,75680,Sangkima,64.08.12.2003,Sangatta Selatan,Kabupaten,Kutai Timur,Kalimantan Timur
235,75680,Singa Geweh,64.08.12.1002,Sangatta Selatan,Kabupaten,Kutai Timur,Kalimantan Timur
236,75680,Teluk Singkam / Singkama,64.08.12.2004,Sangatta Selatan,Kabupaten,Kutai Timur,Kalimantan Timur
237,75251,Jawa,64.02.15.1001,Sanga Sanga,Kabupaten,Kutai Kartanegara,Kalimantan Timur
238,75256,Pendingin,64.02.15.1002,Sanga Sanga,Kabupaten,Kutai Kartanegara,Kalimantan Timur
239,75254,Sanga-Sanga Dalam,64.02.15.1003,Sanga Sanga,Kabupaten,Kutai Kartanegara,Kalimantan Timur
240,75251,Sanga-Sanga Muara,64.02.15.1005,Sanga Sanga,Kabupaten,Kutai Kartanegara,Kalimantan Timur
241,75251,Sari Jaya (Sarijaya),64.02.15.1004,Sanga Sanga,Kabupaten,Kutai Kartanegara,Kalimantan Timur
242,75685,Manubar,64.08.11.2002,Sandaran,Kabupaten,Kutai Timur,Kalimantan Timur
243,75685,Manubar Dalam,64.08.11.2008,Sandaran,Kabupaten,Kutai Timur,Kalimantan Timur
244,75685,Marukangan,64.08.11.2004,Sandaran,Kabupaten,Kutai Timur,Kalimantan Timur
245,75685,Sandaran,64.08.11.2001,Sandaran,Kabupaten,Kutai Timur,Kalimantan Timur
246,75685,Susuk Dalam,64.08.11.2006,Sandaran,Kabupaten,Kutai Timur,Kalimantan Timur
247,75685,Susuk Luar,64.08.11.2005,Sandaran,Kabupaten,Kutai Timur,Kalimantan Timur
248,75685,Susuk Tengah,64.08.11.2009,Sandaran,Kabupaten,Kutai Timur,Kalimantan Timur
249,75685,Tadoan,64.08.11.2003,Sandaran,Kabupaten,Kutai Timur,Kalimantan Timur
250,75685,Tanjung Mangkaliat,64.08.11.2007,Sandaran,Kabupaten,Kutai Timur,Kalimantan Timur
251,75115,Makroman,64.72.07.1003,Sambutan,Kota,Samarinda,Kalimantan Timur
252,75114,Pulau Atas,64.72.07.1005,Sambutan,Kota,Samarinda,Kalimantan Timur
253,75115,Sambutan,64.72.07.1002,Sambutan,Kota,Samarinda,Kalimantan Timur
254,75114,Sei/Sungai Kapih,64.72.07.1001,Sambutan,Kota,Samarinda,Kalimantan Timur
255,75114,Sindang Sari,64.72.07.1004,Sambutan,Kota,Samarinda,Kalimantan Timur
256,75274,Amborawang Darat (Ambarawang Darat),64.02.20.1005,Samboja Barat,Kabupaten,Kutai Kartanegara,Kalimantan Timur
257,75274,Amborawang Laut (Ambarawang Laut),64.02.20.1009,Samboja Barat,Kabupaten,Kutai Kartanegara,Kalimantan Timur
258,75271,Argo Sari (Argosari),64.02.20.1006,Samboja Barat,Kabupaten,Kutai Kartanegara,Kalimantan Timur
259,75271,Bukit Merdeka,64.02.20.1001,Samboja Barat,Kabupaten,Kutai Kartanegara,Kalimantan Timur
260,75271,Karya Merdeka,64.02.20.1003,Samboja Barat,Kabupaten,Kutai Kartanegara,Kalimantan Timur
261,75273,Margomulyo,64.02.20.1010,Samboja Barat,Kabupaten,Kutai Kartanegara,Kalimantan Timur
262,75271,Salok Api Darat,64.02.20.1007,Samboja Barat,Kabupaten,Kutai Kartanegara,Kalimantan Timur
263,75271,Salok Api Laut,64.02.20.1008,Samboja Barat,Kabupaten,Kutai Kartanegara,Kalimantan Timur
264,75271,Sungai Merdeka,64.02.20.1002,Samboja Barat,Kabupaten,Kutai Kartanegara,Kalimantan Timur
265,75271,Tani Bhakti (Tani Bakti),64.02.20.2004,Samboja Barat,Kabupaten,Kutai Kartanegara,Kalimantan Timur
266,75271,Beringin Agung,64.02.13.2019,Samboja (Semboja),Kabupaten,Kutai Kartanegara,Kalimantan Timur
267,75271,Bukit Raya,64.02.13.2016,Samboja (Semboja),Kabupaten,Kutai Kartanegara,Kalimantan Timur
268,75279,Handil Baru,64.02.13.1012,Samboja (Semboja),Kabupaten,Kutai Kartanegara,Kalimantan Timur
269,75276,Handil Baru Darat,64.02.13.1023,Samboja (Semboja),Kabupaten,Kutai Kartanegara,Kalimantan Timur
270,75276,Kampung Lama,64.02.13.1022,Samboja (Semboja),Kabupaten,Kutai Kartanegara,Kalimantan Timur
271,75271,Karya Jaya,64.02.13.2014,Samboja (Semboja),Kabupaten,Kutai Kartanegara,Kalimantan Timur
272,75279,Muara Sembilang,64.02.13.1013,Samboja (Semboja),Kabupaten,Kutai Kartanegara,Kalimantan Timur
273,75277,Samboja Kuala,64.02.13.1010,Samboja (Semboja),Kabupaten,Kutai Kartanegara,Kalimantan Timur
274,75271,Sanipah,64.02.13.1011,Samboja (Semboja),Kabupaten,Kutai Kartanegara,Kalimantan Timur
275,75271,Sungai Seluang,64.02.13.1007,Samboja (Semboja),Kabupaten,Kutai Kartanegara,Kalimantan Timur
276,75276,Tanjung Harapan,64.02.13.1009,Samboja (Semboja),Kabupaten,Kutai Kartanegara,Kalimantan Timur
277,75271,Teluk Pemedas,64.02.13.1021,Samboja (Semboja),Kabupaten,Kutai Kartanegara,Kalimantan Timur
278,75276,Wonotirto,64.02.13.1008,Samboja (Semboja),Kabupaten,Kutai Kartanegara,Kalimantan Timur
279,77371,Bebanir (Sei Bebanir Bangun),64.03.03.2010,Sambaliung,Kabupaten,Berau,Kalimantan Timur
280,77371,Bena Baru,64.03.03.2015,Sambaliung,Kabupaten,Berau,Kalimantan Timur
281,77371,Gurimbang,64.03.03.2011,Sambaliung,Kabupaten,Berau,Kalimantan Timur
282,77371,Inaran,64.03.03.2004,Sambaliung,Kabupaten,Berau,Kalimantan Timur
283,77371,Long Lanuk,64.03.03.2001,Sambaliung,Kabupaten,Berau,Kalimantan Timur
284,77371,Pegat Bukur,64.03.03.2005,Sambaliung,Kabupaten,Berau,Kalimantan Timur
285,77371,Pesayan,64.03.03.2009,Sambaliung,Kabupaten,Berau,Kalimantan Timur
286,77371,Pilanjau,64.03.03.2008,Sambaliung,Kabupaten,Berau,Kalimantan Timur
287,77371,Rantau Panjang,64.03.03.2006,Sambaliung,Kabupaten,Berau,Kalimantan Timur
288,77371,Sambaliung,64.03.03.1013,Sambaliung,Kabupaten,Berau,Kalimantan Timur
289,77371,Suaran,64.03.03.2007,Sambaliung,Kabupaten,Berau,Kalimantan Timur
290,77371,Sukan Tengah,64.03.03.2012,Sambaliung,Kabupaten,Berau,Kalimantan Timur
291,77371,Tanjung Perangat,64.03.03.2014,Sambaliung,Kabupaten,Berau,Kalimantan Timur
292,77371,Tumbit Dayak,64.03.03.2002,Sambaliung,Kabupaten,Berau,Kalimantan Timur
293,75118,Budaya Pampang,64.72.05.1014,Samarinda Utara,Kota,Samarinda,Kalimantan Timur
294,75118,Lempake,64.72.05.1003,Samarinda Utara,Kota,Samarinda,Kalimantan Timur
295,75119,Sempaja Barat,64.72.05.1012,Samarinda Utara,Kota,Samarinda,Kalimantan Timur
296,75119,Sempaja Selatan,64.72.05.1002,Samarinda Utara,Kota,Samarinda,Kalimantan Timur
297,75119,Sempaja Timur,64.72.05.1013,Samarinda Utara,Kota,Samarinda,Kalimantan Timur
298,75119,Sempaja Utara,64.72.05.1010,Samarinda Utara,Kota,Samarinda,Kalimantan Timur
299,75118,Sungai Siring,64.72.05.1004,Samarinda Utara,Kota,Samarinda,Kalimantan Timur
300,75119,Tanah Merah,64.72.05.1011,Samarinda Utara,Kota,Samarinda,Kalimantan Timur
301,75124,Air Hitam,64.72.03.1006,Samarinda Ulu,Kota,Samarinda,Kalimantan Timur
302,75124,Air Putih,64.72.03.1004,Samarinda Ulu,Kota,Samarinda,Kalimantan Timur
303,75124,Bukit Pinang,64.72.03.1009,Samarinda Ulu,Kota,Samarinda,Kalimantan Timur
304,75123,Dadi Mulya,64.72.03.1007,Samarinda Ulu,Kota,Samarinda,Kalimantan Timur
305,75123,Gunung Kelua,64.72.03.1008,Samarinda Ulu,Kota,Samarinda,Kalimantan Timur
306,75122,Jawa,64.72.03.1002,Samarinda Ulu,Kota,Samarinda,Kalimantan Timur
307,75123,Sidodadi,64.72.03.1005,Samarinda Ulu,Kota,Samarinda,Kalimantan Timur
308,75128,Teluk Lerong Ilir,64.72.03.1001,Samarinda Ulu,Kota,Samarinda,Kalimantan Timur
309,75131,Baqa,64.72.02.1002,Samarinda Seberang,Kota,Samarinda,Kalimantan Timur
310,75131,Gunung Panjang,64.72.02.1011,Samarinda Seberang,Kota,Samarinda,Kalimantan Timur
311,75133,Mangkupalas,64.72.02.1009,Samarinda Seberang,Kota,Samarinda,Kalimantan Timur
312,75133,Mesjid,64.72.02.1003,Samarinda Seberang,Kota,Samarinda,Kalimantan Timur
313,75131,Sungai Keledang,64.72.02.1001,Samarinda Seberang,Kota,Samarinda,Kalimantan Timur
314,75133,Tenun Samarinda,64.72.02.1010,Samarinda Seberang,Kota,Samarinda,Kalimantan Timur
315,75121,Bugis,64.72.09.1004,Samarinda Kota,Kota,Samarinda,Kalimantan Timur
316,75113,Karang Mumus,64.72.09.1001,Samarinda Kota,Kota,Samarinda,Kalimantan Timur
317,75111,Pasar Pagi,64.72.09.1003,Samarinda Kota,Kota,Samarinda,Kalimantan Timur
318,75112,Pelabuhan,64.72.09.1002,Samarinda Kota,Kota,Samarinda,Kalimantan Timur
319,75117,Sungai Pinang Luar,64.72.09.1005,Samarinda Kota,Kota,Samarinda,Kalimantan Timur
320,75117,Pelita,64.72.04.1014,Samarinda Ilir,Kota,Samarinda,Kalimantan Timur
321,75114,Selili,64.72.04.1001,Samarinda Ilir,Kota,Samarinda,Kalimantan Timur
322,75116,Sidodamai,64.72.04.1013,Samarinda Ilir,Kota,Samarinda,Kalimantan Timur
323,75116,Sidomulyo,64.72.04.1003,Samarinda Ilir,Kota,Samarinda,Kalimantan Timur
324,75115,Sungai Dama,64.72.04.1002,Samarinda Ilir,Kota,Samarinda,Kalimantan Timur
325,75683,Kebon Agung,64.08.14.2007,Rantau Pulung,Kabupaten,Kutai Timur,Kalimantan Timur
326,75683,Manunggal Jaya,64.08.14.2005,Rantau Pulung,Kabupaten,Kutai Timur,Kalimantan Timur
327,75683,Margo Mulyo,64.08.14.2003,Rantau Pulung,Kabupaten,Kutai Timur,Kalimantan Timur
328,75683,Masalap Raya,64.08.14.2009,Rantau Pulung,Kabupaten,Kutai Timur,Kalimantan Timur
329,75683,Mukti Jaya,64.08.14.2001,Rantau Pulung,Kabupaten,Kutai Timur,Kalimantan Timur
330,75683,Pulung Sari,64.08.14.2002,Rantau Pulung,Kabupaten,Kutai Timur,Kalimantan Timur
331,75683,Rantau Makmur,64.08.14.2004,Rantau Pulung,Kabupaten,Kutai Timur,Kalimantan Timur
332,75683,Tanjung Labu,64.08.14.2006,Rantau Pulung,Kabupaten,Kutai Timur,Kalimantan Timur
333,75683,Tepian Makmur,64.08.14.2008,Rantau Pulung,Kabupaten,Kutai Timur,Kalimantan Timur
334,77380,Kasai,64.03.07.2009,Pulau Derawan,Kabupaten,Berau,Kalimantan Timur
335,77380,Pegat Batumbuk (Pegat Bertumbuk),64.03.07.2001,Pulau Derawan,Kabupaten,Berau,Kalimantan Timur
336,77380,Pulau Derawan,64.03.07.2004,Pulau Derawan,Kabupaten,Berau,Kalimantan Timur
337,77380,Tanjung Batu,64.03.07.2003,Pulau Derawan,Kabupaten,Berau,Kalimantan Timur
338,77380,Teluk Semanting,64.03.07.2002,Pulau Derawan,Kabupaten,Berau,Kalimantan Timur
339,75763,Bakung,64.07.13.2006,Penyinggahan,Kabupaten,Kutai Barat,Kalimantan Timur
340,75763,Loa Deras,64.07.13.2001,Penyinggahan,Kabupaten,Kutai Barat,Kalimantan Timur
341,75763,Minta,64.07.13.2002,Penyinggahan,Kabupaten,Kutai Barat,Kalimantan Timur
342,75763,Penyinggahan Ilir,64.07.13.2004,Penyinggahan,Kabupaten,Kutai Barat,Kalimantan Timur
343,75763,Penyinggahan Ulu,64.07.13.2005,Penyinggahan,Kabupaten,Kutai Barat,Kalimantan Timur
344,75763,Tanjung Haur,64.07.13.2003,Penyinggahan,Kabupaten,Kutai Barat,Kalimantan Timur
345,76141,Bukit Subur,64.09.01.2021,Penajam,Kabupaten,Penajam Paser Utara,Kalimantan Timur
346,76144,Buluminung (Bulu Minung),64.09.01.1013,Penajam,Kabupaten,Penajam Paser Utara,Kalimantan Timur
347,76145,Gersik,64.09.01.1017,Penajam,Kabupaten,Penajam Paser Utara,Kalimantan Timur
348,76141,Giri Mukti,64.09.01.2020,Penajam,Kabupaten,Penajam Paser Utara,Kalimantan Timur
349,76143,Giri Purwa (Giripurwa),64.09.01.2023,Penajam,Kabupaten,Penajam Paser Utara,Kalimantan Timur
350,76141,Gunung Seteleng,64.09.01.1012,Penajam,Kabupaten,Penajam Paser Utara,Kalimantan Timur
351,76146,Jenebora,64.09.01.1018,Penajam,Kabupaten,Penajam Paser Utara,Kalimantan Timur
352,76143,Kampung Baru,64.09.01.1006,Penajam,Kabupaten,Penajam Paser Utara,Kalimantan Timur
353,76142,Lawe Lawe,64.09.01.1004,Penajam,Kabupaten,Penajam Paser Utara,Kalimantan Timur
354,76141,Nenang,64.09.01.1010,Penajam,Kabupaten,Penajam Paser Utara,Kalimantan Timur
355,76142,Nipah Nipah,64.09.01.1009,Penajam,Kabupaten,Penajam Paser Utara,Kalimantan Timur
356,76146,Pantai Lango,64.09.01.1019,Penajam,Kabupaten,Penajam Paser Utara,Kalimantan Timur
357,76143,Pejala,64.09.01.1005,Penajam,Kabupaten,Penajam Paser Utara,Kalimantan Timur
358,76141,Penajam,64.09.01.1011,Penajam,Kabupaten,Penajam Paser Utara,Kalimantan Timur
359,76144,Petung,64.09.01.1003,Penajam,Kabupaten,Penajam Paser Utara,Kalimantan Timur
360,76145,Riko,64.09.01.1016,Penajam,Kabupaten,Penajam Paser Utara,Kalimantan Timur
361,76143,Salo Loang (Saloloang),64.09.01.1002,Penajam,Kabupaten,Penajam Paser Utara,Kalimantan Timur
362,76142,Sei/Sungai Parit,64.09.01.1008,Penajam,Kabupaten,Penajam Paser Utara,Kalimantan Timur
363,76145,Sepan,64.09.01.1015,Penajam,Kabupaten,Penajam Paser Utara,Kalimantan Timur
364,76142,Sesumpu,64.09.01.1007,Penajam,Kabupaten,Penajam Paser Utara,Kalimantan Timur
365,76143,Sidorejo,64.09.01.2022,Penajam,Kabupaten,Penajam Paser Utara,Kalimantan Timur
366,76144,Sotek,64.09.01.1014,Penajam,Kabupaten,Penajam Paser Utara,Kalimantan Timur
367,76143,Tanjung Tengah,64.09.01.1001,Penajam,Kabupaten,Penajam Paser Utara,Kalimantan Timur
368,76271,Bekoso,64.01.03.2002,Paser Belengkong (Pasir Belengkong),Kabupaten,Paser,Kalimantan Timur
369,76271,Damit,64.01.03.2003,Paser Belengkong (Pasir Belengkong),Kabupaten,Paser,Kalimantan Timur
370,76271,Keresik Bura,64.01.03.2010,Paser Belengkong (Pasir Belengkong),Kabupaten,Paser,Kalimantan Timur
371,76271,Laburan,64.01.03.2008,Paser Belengkong (Pasir Belengkong),Kabupaten,Paser,Kalimantan Timur
372,76271,Laburan Baru,64.01.03.2011,Paser Belengkong (Pasir Belengkong),Kabupaten,Paser,Kalimantan Timur
373,76271,Lempesu,64.01.03.2001,Paser Belengkong (Pasir Belengkong),Kabupaten,Paser,Kalimantan Timur
374,76271,Olong Pinang,64.01.03.2014,Paser Belengkong (Pasir Belengkong),Kabupaten,Paser,Kalimantan Timur
375,76271,Pasir Belengkong,64.01.03.2006,Paser Belengkong (Pasir Belengkong),Kabupaten,Paser,Kalimantan Timur
376,76271,Sangkuriman,64.01.03.2007,Paser Belengkong (Pasir Belengkong),Kabupaten,Paser,Kalimantan Timur
377,76271,Seniung Jaya,64.01.03.2012,Paser Belengkong (Pasir Belengkong),Kabupaten,Paser,Kalimantan Timur
378,76271,Suatang,64.01.03.2004,Paser Belengkong (Pasir Belengkong),Kabupaten,Paser,Kalimantan Timur
379,76271,Suatang Keteban,64.01.03.2015,Paser Belengkong (Pasir Belengkong),Kabupaten,Paser,Kalimantan Timur
380,76271,Suliliran,64.01.03.2005,Paser Belengkong (Pasir Belengkong),Kabupaten,Paser,Kalimantan Timur
381,76271,Suliliran Baru,64.01.03.2009,Paser Belengkong (Pasir Belengkong),Kabupaten,Paser,Kalimantan Timur
382,76271,Sunge Batu,64.01.03.2013,Paser Belengkong (Pasir Belengkong),Kabupaten,Paser,Kalimantan Timur
383,75253,Bantuas,64.72.01.1005,Palaran,Kota,Samarinda,Kalimantan Timur
384,75241,Bukuan,64.72.01.1003,Palaran,Kota,Samarinda,Kalimantan Timur
385,75242,Handil Bakti,64.72.01.1002,Palaran,Kota,Samarinda,Kalimantan Timur
386,75243,Rawa Makmur,64.72.01.1001,Palaran,Kota,Samarinda,Kalimantan Timur
387,75243,Simpang Pasir,64.72.01.1004,Palaran,Kota,Samarinda,Kalimantan Timur
388,75776,Awai,64.07.16.2010,Nyuatan,Kabupaten,Kutai Barat,Kalimantan Timur
389,75777,Dempar,64.07.16.2001,Nyuatan,Kabupaten,Kutai Barat,Kalimantan Timur
390,75777,Intu Lingau,64.07.16.2005,Nyuatan,Kabupaten,Kutai Barat,Kalimantan Timur
391,75777,Jontai,64.07.16.2003,Nyuatan,Kabupaten,Kutai Barat,Kalimantan Timur
392,75776,Lakan Bilem,64.07.16.2008,Nyuatan,Kabupaten,Kutai Barat,Kalimantan Timur
393,75776,Mu'ut,64.07.16.2006,Nyuatan,Kabupaten,Kutai Barat,Kalimantan Timur
394,75777,Sembuan,64.07.16.2004,Nyuatan,Kabupaten,Kutai Barat,Kalimantan Timur
395,75776,Sentalar,64.07.16.2009,Nyuatan,Kabupaten,Kutai Barat,Kalimantan Timur
396,75777,Temula,64.07.16.2002,Nyuatan,Kabupaten,Kutai Barat,Kalimantan Timur
397,75776,Terajuk,64.07.16.2007,Nyuatan,Kabupaten,Kutai Barat,Kalimantan Timur
398,75559,Enggelam,64.02.18.2004,Muara Wis,Kabupaten,Kutai Kartanegara,Kalimantan Timur
399,75559,Lebak Cilong,64.02.18.2006,Muara Wis,Kabupaten,Kutai Kartanegara,Kalimantan Timur
400,75559,Lebak Mantan,64.02.18.2005,Muara Wis,Kabupaten,Kutai Kartanegara,Kalimantan Timur
401,75559,Melintang,64.02.18.2003,Muara Wis,Kabupaten,Kutai Kartanegara,Kalimantan Timur
402,75559,Muara Enggelam,64.02.18.2007,Muara Wis,Kabupaten,Kutai Kartanegara,Kalimantan Timur
403,75559,Muara Wis,64.02.18.2001,Muara Wis,Kabupaten,Kutai Kartanegara,Kalimantan Timur
404,75559,Sebemban,64.02.18.2002,Muara Wis,Kabupaten,Kutai Kartanegara,Kalimantan Timur
405,75655,Benhes,64.08.02.2006,Muara Wahau,Kabupaten,Kutai Timur,Kalimantan Timur
406,75655,Dabeq,64.08.02.2004,Muara Wahau,Kabupaten,Kutai Timur,Kalimantan Timur
407,75655,Diaq Lay,64.08.02.2005,Muara Wahau,Kabupaten,Kutai Timur,Kalimantan Timur
408,75655,Jak Luay,64.08.02.2001,Muara Wahau,Kabupaten,Kutai Timur,Kalimantan Timur
409,75655,Karya Bhakti (Karya Bakti),64.08.02.2009,Muara Wahau,Kabupaten,Kutai Timur,Kalimantan Timur
410,75655,Long Wehea,64.08.02.2010,Muara Wahau,Kabupaten,Kutai Timur,Kalimantan Timur
411,75655,Muara Wahau,64.08.02.2003,Muara Wahau,Kabupaten,Kutai Timur,Kalimantan Timur
412,75655,Nehes Liah Bing (Nehesliah Bing),64.08.02.2002,Muara Wahau,Kabupaten,Kutai Timur,Kalimantan Timur
413,75655,Wahau Baru,64.08.02.2008,Muara Wahau,Kabupaten,Kutai Timur,Kalimantan Timur
414,75655,Wanasari (Wana Sari),64.08.02.2007,Muara Wahau,Kabupaten,Kutai Timur,Kalimantan Timur
415,76250,Biu,64.01.10.2007,Muara Samu,Kabupaten,Paser,Kalimantan Timur
416,76250,Libur Dinding,64.01.10.2003,Muara Samu,Kabupaten,Paser,Kalimantan Timur
417,76250,Luan (Dilibinti),64.01.10.2004,Muara Samu,Kabupaten,Paser,Kalimantan Timur
418,76250,Muara Andeh,64.01.10.2009,Muara Samu,Kabupaten,Paser,Kalimantan Timur
419,76250,Muser,64.01.10.2006,Muara Samu,Kabupaten,Paser,Kalimantan Timur
420,76250,Rantau Atas,64.01.10.2002,Muara Samu,Kabupaten,Paser,Kalimantan Timur
421,76250,Rantau Bintungan,64.01.10.2008,Muara Samu,Kabupaten,Paser,Kalimantan Timur
422,76250,Suweto,64.01.10.2005,Muara Samu,Kabupaten,Paser,Kalimantan Timur
423,76250,Tanjung Pinang,64.01.10.2001,Muara Samu,Kabupaten,Paser,Kalimantan Timur
424,75774,Dasaq,64.07.10.2018,Muara Pahu,Kabupaten,Kutai Barat,Kalimantan Timur
425,75774,Gunung Bayan,64.07.10.2029,Muara Pahu,Kabupaten,Kutai Barat,Kalimantan Timur
426,75774,Jerang Dayak,64.07.10.2015,Muara Pahu,Kabupaten,Kutai Barat,Kalimantan Timur
427,75774,Jerang Melayu,64.07.10.2017,Muara Pahu,Kabupaten,Kutai Barat,Kalimantan Timur
428,75774,Mendung,64.07.10.2016,Muara Pahu,Kabupaten,Kutai Barat,Kalimantan Timur
429,75774,Muara Baroh,64.07.10.2022,Muara Pahu,Kabupaten,Kutai Barat,Kalimantan Timur
430,75774,Muara Beloan,64.07.10.2030,Muara Pahu,Kabupaten,Kutai Barat,Kalimantan Timur
431,75774,Sebelang,64.07.10.2021,Muara Pahu,Kabupaten,Kutai Barat,Kalimantan Timur
432,75774,Tanjung Laong,64.07.10.2024,Muara Pahu,Kabupaten,Kutai Barat,Kalimantan Timur
433,75774,Tanjung Pagar,64.07.10.2025,Muara Pahu,Kabupaten,Kutai Barat,Kalimantan Timur
434,75774,Teluk Tempudau,64.07.10.2023,Muara Pahu,Kabupaten,Kutai Barat,Kalimantan Timur
435,75774,Tepian Ulaq,64.07.10.2020,Muara Pahu,Kabupaten,Kutai Barat,Kalimantan Timur
436,75562,Batuq,64.02.01.2005,Muara Muntai,Kabupaten,Kutai Kartanegara,Kalimantan Timur
437,75562,Jantur,64.02.01.2004,Muara Muntai,Kabupaten,Kutai Kartanegara,Kalimantan Timur
438,75562,Jantur Baru,64.02.01.2013,Muara Muntai,Kabupaten,Kutai Kartanegara,Kalimantan Timur
439,75562,Jantur Selatan,64.02.01.2010,Muara Muntai,Kabupaten,Kutai Kartanegara,Kalimantan Timur
440,75562,Kayu Batu,64.02.01.2009,Muara Muntai,Kabupaten,Kutai Kartanegara,Kalimantan Timur
441,75562,Muara Aloh,64.02.01.2003,Muara Muntai,Kabupaten,Kutai Kartanegara,Kalimantan Timur
442,75562,Muara Leka,64.02.01.2002,Muara Muntai,Kabupaten,Kutai Kartanegara,Kalimantan Timur
443,75562,Muara Muntai Ilir,64.02.01.2008,Muara Muntai,Kabupaten,Kutai Kartanegara,Kalimantan Timur
444,75562,Muara Muntai Ulu,64.02.01.2007,Muara Muntai,Kabupaten,Kutai Kartanegara,Kalimantan Timur
445,75562,Perian,64.02.01.2001,Muara Muntai,Kabupaten,Kutai Kartanegara,Kalimantan Timur
446,75562,Pulau Harapan,64.02.01.2012,Muara Muntai,Kabupaten,Kutai Kartanegara,Kalimantan Timur
447,75562,Rebaq Rinding,64.02.01.2006,Muara Muntai,Kabupaten,Kutai Kartanegara,Kalimantan Timur
448,75562,Tanjung Batuq (Tanjung Batuq Harapan),64.02.01.2011,Muara Muntai,Kabupaten,Kutai Kartanegara,Kalimantan Timur
449,75775,Benggeris,64.07.09.2007,Muara Lawa,Kabupaten,Kutai Barat,Kalimantan Timur
450,75775,Cempedes (Cempedas),64.07.09.2008,Muara Lawa,Kabupaten,Kutai Barat,Kalimantan Timur
451,75775,Dingin,64.07.09.2004,Muara Lawa,Kabupaten,Kutai Barat,Kalimantan Timur
452,75775,Lambing,64.07.09.2006,Muara Lawa,Kabupaten,Kutai Barat,Kalimantan Timur
453,75775,Lataq/Lotaq,64.07.09.2002,Muara Lawa,Kabupaten,Kutai Barat,Kalimantan Timur
454,75775,Muara Begai,64.07.09.2001,Muara Lawa,Kabupaten,Kutai Barat,Kalimantan Timur
455,75775,Muara Lawa,64.07.09.2005,Muara Lawa,Kabupaten,Kutai Barat,Kalimantan Timur
456,75775,Payang,64.07.09.2003,Muara Lawa,Kabupaten,Kutai Barat,Kalimantan Timur
457,76253,Batu Butok,64.01.07.2002,Muara Komam,Kabupaten,Paser,Kalimantan Timur
458,76253,Binangon,64.01.07.2005,Muara Komam,Kabupaten,Paser,Kalimantan Timur
459,76253,Long Sayo,64.01.07.2008,Muara Komam,Kabupaten,Paser,Kalimantan Timur
460,76253,Lusan,64.01.07.2010,Muara Komam,Kabupaten,Paser,Kalimantan Timur
461,76253,Muara Kuaro,64.01.07.2006,Muara Komam,Kabupaten,Paser,Kalimantan Timur
462,76253,Muara Langon,64.01.07.2004,Muara Komam,Kabupaten,Paser,Kalimantan Timur
463,76253,Muara Payang,64.01.07.2009,Muara Komam,Kabupaten,Paser,Kalimantan Timur
464,76253,Muarakomam (Muara Komam),64.01.07.1001,Muara Komam,Kabupaten,Paser,Kalimantan Timur
465,76253,Prayon,64.01.07.2007,Muara Komam,Kabupaten,Paser,Kalimantan Timur
466,76253,Sekuan Makmur,64.01.07.2012,Muara Komam,Kabupaten,Paser,Kalimantan Timur
467,76253,Selerong,64.01.07.2013,Muara Komam,Kabupaten,Paser,Kalimantan Timur
468,76253,Swan Slutung,64.01.07.2011,Muara Komam,Kabupaten,Paser,Kalimantan Timur
469,76253,Uko,64.01.07.2003,Muara Komam,Kabupaten,Paser,Kalimantan Timur
470,75553,Benua Puhun,64.02.11.2004,Muara Kaman,Kabupaten,Kutai Kartanegara,Kalimantan Timur
471,75553,Bukit Jering,64.02.11.2017,Muara Kaman,Kabupaten,Kutai Kartanegara,Kalimantan Timur
472,75553,Bunga Jadi,64.02.11.2014,Muara Kaman,Kabupaten,Kutai Kartanegara,Kalimantan Timur
473,75553,Cipari Makmur,64.02.11.2020,Muara Kaman,Kabupaten,Kutai Kartanegara,Kalimantan Timur
474,75553,Kupang Baru,64.02.11.2015,Muara Kaman,Kabupaten,Kutai Kartanegara,Kalimantan Timur
475,75553,Lebaho Ulaq,64.02.11.2016,Muara Kaman,Kabupaten,Kutai Kartanegara,Kalimantan Timur
476,75553,Liang Buaya,64.02.11.2018,Muara Kaman,Kabupaten,Kutai Kartanegara,Kalimantan Timur
477,75553,Menamang Kanan,64.02.11.2011,Muara Kaman,Kabupaten,Kutai Kartanegara,Kalimantan Timur
478,75553,Menamang Kiri,64.02.11.2010,Muara Kaman,Kabupaten,Kutai Kartanegara,Kalimantan Timur
479,75553,Muara Kaman Ilir,64.02.11.2001,Muara Kaman,Kabupaten,Kutai Kartanegara,Kalimantan Timur
480,75553,Muara Kaman Ulu,64.02.11.2005,Muara Kaman,Kabupaten,Kutai Kartanegara,Kalimantan Timur
481,75553,Muara Siran,64.02.11.2007,Muara Kaman,Kabupaten,Kutai Kartanegara,Kalimantan Timur
482,75553,Panca Jaya,64.02.11.2013,Muara Kaman,Kabupaten,Kutai Kartanegara,Kalimantan Timur
483,75553,Puan Cepak,64.02.11.2019,Muara Kaman,Kabupaten,Kutai Kartanegara,Kalimantan Timur
484,75553,Rantau Hempang,64.02.11.2002,Muara Kaman,Kabupaten,Kutai Kartanegara,Kalimantan Timur
485,75553,Sabintulung,64.02.11.2006,Muara Kaman,Kabupaten,Kutai Kartanegara,Kalimantan Timur
486,75553,Sedulang,64.02.11.2009,Muara Kaman,Kabupaten,Kutai Kartanegara,Kalimantan Timur
487,75553,Sidomukti (Sido Mukti),64.02.11.2012,Muara Kaman,Kabupaten,Kutai Kartanegara,Kalimantan Timur
488,75553,Teratak,64.02.11.2003,Muara Kaman,Kabupaten,Kutai Kartanegara,Kalimantan Timur
489,75553,Tunjungan,64.02.11.2008,Muara Kaman,Kabupaten,Kutai Kartanegara,Kalimantan Timur
490,75265,Dondang,64.02.14.1005,Muara Jawa,Kabupaten,Kutai Kartanegara,Kalimantan Timur
491,75263,Muara Jawa (Muara Jawa Pesisir),64.02.14.1008,Muara Jawa,Kabupaten,Kutai Kartanegara,Kalimantan Timur
492,75263,Muara Jawa Ilir,64.02.14.1001,Muara Jawa,Kabupaten,Kutai Kartanegara,Kalimantan Timur
493,75264,Muara Jawa Tengah,64.02.14.1002,Muara Jawa,Kabupaten,Kutai Kartanegara,Kalimantan Timur
494,75261,Muara Jawa Ulu,64.02.14.1003,Muara Jawa,Kabupaten,Kutai Kartanegara,Kalimantan Timur
495,75267,Muara Kembang,64.02.14.1007,Muara Jawa,Kabupaten,Kutai Kartanegara,Kalimantan Timur
496,75266,Tama Pole (Tamapole),64.02.14.1006,Muara Jawa,Kabupaten,Kutai Kartanegara,Kalimantan Timur
497,75262,Teluk Dalam,64.02.14.1004,Muara Jawa,Kabupaten,Kutai Kartanegara,Kalimantan Timur
498,75656,Batu Balai,64.08.03.2014,Muara Bengkal,Kabupaten,Kutai Timur,Kalimantan Timur
499,75656,Benua Baru,64.08.03.2005,Muara Bengkal,Kabupaten,Kutai Timur,Kalimantan Timur
500,75656,Muara Bengkal Ilir,64.08.03.2003,Muara Bengkal,Kabupaten,Kutai Timur,Kalimantan Timur
501,75656,Muara Bengkal Ulu,64.08.03.2004,Muara Bengkal,Kabupaten,Kutai Timur,Kalimantan Timur
502,75656,Mulupan,64.08.03.2013,Muara Bengkal,Kabupaten,Kutai Timur,Kalimantan Timur
503,75656,Ngayau,64.08.03.2002,Muara Bengkal,Kabupaten,Kutai Timur,Kalimantan Timur
504,75656,Senambah,64.08.03.2001,Muara Bengkal,Kabupaten,Kutai Timur,Kalimantan Timur
505,75382,Badak Baru,64.02.05.2007,Muara Badak,Kabupaten,Kutai Kartanegara,Kalimantan Timur
506,75382,Badak Mekar,64.02.05.2009,Muara Badak,Kabupaten,Kutai Kartanegara,Kalimantan Timur
507,75382,Batu Batu,64.02.05.2011,Muara Badak,Kabupaten,Kutai Kartanegara,Kalimantan Timur
508,75382,Gas Alam Badak I,64.02.05.2010,Muara Badak,Kabupaten,Kutai Kartanegara,Kalimantan Timur
509,75382,Muara Badak Ilir,64.02.05.2004,Muara Badak,Kabupaten,Kutai Kartanegara,Kalimantan Timur
510,75382,Muara Badak Ulu,64.02.05.2003,Muara Badak,Kabupaten,Kutai Kartanegara,Kalimantan Timur
511,75382,Saliki (Seliki),64.02.05.2001,Muara Badak,Kabupaten,Kutai Kartanegara,Kalimantan Timur
512,75382,Sallo Cela (Salo Cella),64.02.05.2012,Muara Badak,Kabupaten,Kutai Kartanegara,Kalimantan Timur
513,75382,Salok Palai,64.02.05.2002,Muara Badak,Kabupaten,Kutai Kartanegara,Kalimantan Timur
514,75382,Suka Damai,64.02.05.2008,Muara Badak,Kabupaten,Kutai Kartanegara,Kalimantan Timur
515,75382,Sungai Bawang,64.02.05.2013,Muara Badak,Kabupaten,Kutai Kartanegara,Kalimantan Timur
516,75382,Tanah Datar,64.02.05.2006,Muara Badak,Kabupaten,Kutai Kartanegara,Kalimantan Timur
517,75382,Tanjung Limau,64.02.05.2005,Muara Badak,Kabupaten,Kutai Kartanegara,Kalimantan Timur
518,75656,Gemar Baru,64.08.01.2009,Muara Ancalong,Kabupaten,Kutai Timur,Kalimantan Timur
519,75656,Kelinjau Ilir,64.08.01.2002,Muara Ancalong,Kabupaten,Kutai Timur,Kalimantan Timur
520,75556,Kelinjau Ulu,64.08.01.2003,Muara Ancalong,Kabupaten,Kutai Timur,Kalimantan Timur
521,75656,Long Nah,64.08.01.2004,Muara Ancalong,Kabupaten,Kutai Timur,Kalimantan Timur
522,75656,Long Poq Baru,64.08.01.2012,Muara Ancalong,Kabupaten,Kutai Timur,Kalimantan Timur
523,75656,Long Tesak,64.08.01.2006,Muara Ancalong,Kabupaten,Kutai Timur,Kalimantan Timur
524,75656,Muara Dun,64.08.01.2013,Muara Ancalong,Kabupaten,Kutai Timur,Kalimantan Timur
525,75656,Senyiur,64.08.01.2001,Muara Ancalong,Kabupaten,Kutai Timur,Kalimantan Timur
526,75656,Teluk Baru,64.08.01.2014,Muara Ancalong,Kabupaten,Kutai Timur,Kalimantan Timur
527,75774,Abit,64.07.18.2011,Mook Manaar Bulatn,Kabupaten,Kutai Barat,Kalimantan Timur
528,75765,Gadur,64.07.18.2008,Mook Manaar Bulatn,Kabupaten,Kutai Barat,Kalimantan Timur
529,75765,Gemuruh,64.07.18.2003,Mook Manaar Bulatn,Kabupaten,Kutai Barat,Kalimantan Timur
530,75765,Gunung Rampah,64.07.18.2014,Mook Manaar Bulatn,Kabupaten,Kutai Barat,Kalimantan Timur
531,75765,Jengan,64.07.18.2015,Mook Manaar Bulatn,Kabupaten,Kutai Barat,Kalimantan Timur
532,75765,Karangan,64.07.18.2004,Mook Manaar Bulatn,Kabupaten,Kutai Barat,Kalimantan Timur
533,75765,Kelumpang,64.07.18.2007,Mook Manaar Bulatn,Kabupaten,Kutai Barat,Kalimantan Timur
534,75765,Linggang Marimun,64.07.18.2006,Mook Manaar Bulatn,Kabupaten,Kutai Barat,Kalimantan Timur
535,75765,Linggang Muara Batuq (Muara Batuq),64.07.18.2009,Mook Manaar Bulatn,Kabupaten,Kutai Barat,Kalimantan Timur
536,75765,Merayaq,64.07.18.2005,Mook Manaar Bulatn,Kabupaten,Kutai Barat,Kalimantan Timur
537,75774,Muara Jawaq,64.07.18.2010,Mook Manaar Bulatn,Kabupaten,Kutai Barat,Kalimantan Timur
538,75765,Muara Kalaq,64.07.18.2016,Mook Manaar Bulatn,Kabupaten,Kutai Barat,Kalimantan Timur
539,75774,Rembayan,64.07.18.2012,Mook Manaar Bulatn,Kabupaten,Kutai Barat,Kalimantan Timur
540,75765,Sakaq Lotoq,64.07.18.2001,Mook Manaar Bulatn,Kabupaten,Kutai Barat,Kalimantan Timur
541,75765,Sakaq Tada,64.07.18.2002,Mook Manaar Bulatn,Kabupaten,Kutai Barat,Kalimantan Timur
542,75774,Tondoh,64.07.18.2017,Mook Manaar Bulatn,Kabupaten,Kutai Barat,Kalimantan Timur
543,75765,Empakuq,64.07.06.2002,Melak,Kabupaten,Kutai Barat,Kalimantan Timur
544,75765,Empas,64.07.06.2001,Melak,Kabupaten,Kutai Barat,Kalimantan Timur
545,75765,Melak Ilir,64.07.06.1006,Melak,Kabupaten,Kutai Barat,Kalimantan Timur
546,75765,Melak Ulu,64.07.06.1011,Melak,Kabupaten,Kutai Barat,Kalimantan Timur
547,75765,Muara Benangaq,64.07.06.2012,Melak,Kabupaten,Kutai Barat,Kalimantan Timur
548,75765,Muara Bunyut,64.07.06.2003,Melak,Kabupaten,Kutai Barat,Kalimantan Timur
549,77381,Bohe Silian (Maratua Bohesilian),64.03.11.2001,Maratua,Kabupaten,Berau,Kalimantan Timur
550,77381,Payung-Payung (Maratua Payung-Payung),64.03.11.2002,Maratua,Kabupaten,Berau,Kalimantan Timur
551,77381,Teluk Alulu (Maratua Teluk Alulu),64.03.11.2003,Maratua,Kabupaten,Berau,Kalimantan Timur
552,77381,Teluk Harapan (Maratua Teluk Harapan),64.03.11.2004,Maratua,Kabupaten,Berau,Kalimantan Timur
553,75385,Bunga Putih,64.02.17.2006,Marang Kayu,Kabupaten,Kutai Kartanegara,Kalimantan Timur
554,75385,Kersik,64.02.17.2005,Marang Kayu,Kabupaten,Kutai Kartanegara,Kalimantan Timur
555,75385,Makarti,64.02.17.2007,Marang Kayu,Kabupaten,Kutai Kartanegara,Kalimantan Timur
556,75385,Prangat Baru (Perangat Baru),64.02.17.2009,Marang Kayu,Kabupaten,Kutai Kartanegara,Kalimantan Timur
557,75385,Prangat Selatan (Perangat Selatan),64.02.17.2008,Marang Kayu,Kabupaten,Kutai Kartanegara,Kalimantan Timur
558,75385,Sambera Baru,64.02.17.2011,Marang Kayu,Kabupaten,Kutai Kartanegara,Kalimantan Timur
559,75385,Santan Ilir,64.02.17.2004,Marang Kayu,Kabupaten,Kutai Kartanegara,Kalimantan Timur
560,75385,Santan Tengah,64.02.17.2003,Marang Kayu,Kabupaten,Kutai Kartanegara,Kalimantan Timur
561,75385,Santan Ulu,64.02.17.2002,Marang Kayu,Kabupaten,Kutai Kartanegara,Kalimantan Timur
562,75385,Sebuntal,64.02.17.2001,Marang Kayu,Kabupaten,Kutai Kartanegara,Kalimantan Timur
563,75385,Semangko (Semangkok),64.02.17.2010,Marang Kayu,Kabupaten,Kutai Kartanegara,Kalimantan Timur
564,75768,Datah Naha,64.11.05.2006,Long Pahangai,Kabupaten,Mahakam Ulu,Kalimantan Timur
565,75768,Delang Kerohong (Delang Krohong),64.11.05.2001,Long Pahangai,Kabupaten,Mahakam Ulu,Kalimantan Timur
566,75768,Lirung Ubing,64.11.05.2007,Long Pahangai,Kabupaten,Mahakam Ulu,Kalimantan Timur
567,75768,Liu Mulang,64.11.05.2011,Long Pahangai,Kabupaten,Mahakam Ulu,Kalimantan Timur
568,75768,Long Isun,64.11.05.2004,Long Pahangai,Kabupaten,Mahakam Ulu,Kalimantan Timur
569,75768,Long Lunuk,64.11.05.2003,Long Pahangai,Kabupaten,Mahakam Ulu,Kalimantan Timur
570,75768,Long Lunuk Baru,64.11.05.2013,Long Pahangai,Kabupaten,Mahakam Ulu,Kalimantan Timur
571,75768,Long Pahangai I,64.11.05.2008,Long Pahangai,Kabupaten,Mahakam Ulu,Kalimantan Timur
572,75768,Long Pahangai II,64.11.05.2009,Long Pahangai,Kabupaten,Mahakam Ulu,Kalimantan Timur
573,75768,Long Pakaq,64.11.05.2002,Long Pahangai,Kabupaten,Mahakam Ulu,Kalimantan Timur
574,75768,Long Pakaq Baru,64.11.05.2012,Long Pahangai,Kabupaten,Mahakam Ulu,Kalimantan Timur
575,75768,Long Tuyoq,64.11.05.2010,Long Pahangai,Kabupaten,Mahakam Ulu,Kalimantan Timur
576,75768,Naha Aru (Naha Aruq),64.11.05.2005,Long Pahangai,Kabupaten,Mahakam Ulu,Kalimantan Timur
577,75656,Melan,64.08.18.2005,Long Mesangat,Kabupaten,Kutai Timur,Kalimantan Timur
578,75656,Mukti Utama,64.08.18.2003,Long Mesangat,Kabupaten,Kutai Timur,Kalimantan Timur
579,75656,Segoy Makmur (Segoi Makmur),64.08.18.2002,Long Mesangat,Kabupaten,Kutai Timur,Kalimantan Timur
580,75656,Sika Makmur,64.08.18.2001,Long Mesangat,Kabupaten,Kutai Timur,Kalimantan Timur
581,75654,Sumber Agung,64.08.18.2007,Long Mesangat,Kabupaten,Kutai Timur,Kalimantan Timur
582,75656,Sumber Sari,64.08.18.2004,Long Mesangat,Kabupaten,Kutai Timur,Kalimantan Timur
583,75654,Tanah Abang,64.08.18.2006,Long Mesangat,Kabupaten,Kutai Timur,Kalimantan Timur
584,76283,Bente Tualan (Bente / Tualan),64.01.08.2004,Long Kali,Kabupaten,Paser,Kalimantan Timur
585,76283,Gunung Putar (Gunungputar),64.01.08.2022,Long Kali,Kabupaten,Paser,Kalimantan Timur
586,76283,Kepala Telake,64.01.08.2012,Long Kali,Kabupaten,Paser,Kalimantan Timur
587,76283,Long Kali,64.01.08.1001,Long Kali,Kabupaten,Paser,Kalimantan Timur
588,76283,Makmur Jaya,64.01.08.2021,Long Kali,Kabupaten,Paser,Kalimantan Timur
589,76283,Maruat,64.01.08.2017,Long Kali,Kabupaten,Paser,Kalimantan Timur
590,76283,Mendik,64.01.08.2005,Long Kali,Kabupaten,Paser,Kalimantan Timur
591,76283,Mendik Bhakti,64.01.08.2015,Long Kali,Kabupaten,Paser,Kalimantan Timur
592,76283,Mendik Karya,64.01.08.2014,Long Kali,Kabupaten,Paser,Kalimantan Timur
593,76283,Mendik Makmur,64.01.08.2013,Long Kali,Kabupaten,Paser,Kalimantan Timur
594,76283,Muara Adang II (Muaraadang II),64.01.08.2020,Long Kali,Kabupaten,Paser,Kalimantan Timur
595,76283,Muara Lambakan,64.01.08.2011,Long Kali,Kabupaten,Paser,Kalimantan Timur
596,76283,Muara Pias,64.01.08.2007,Long Kali,Kabupaten,Paser,Kalimantan Timur
597,76283,Muara Telake,64.01.08.2002,Long Kali,Kabupaten,Paser,Kalimantan Timur
598,76283,Muara Toyu,64.01.08.2008,Long Kali,Kabupaten,Paser,Kalimantan Timur
599,76283,Munggu,64.01.08.2006,Long Kali,Kabupaten,Paser,Kalimantan Timur
600,76283,Perkuwen (Perkuwin),64.01.08.2009,Long Kali,Kabupaten,Paser,Kalimantan Timur
601,76283,Petiku,64.01.08.2019,Long Kali,Kabupaten,Paser,Kalimantan Timur
602,76283,Pinang Jatus,64.01.08.2010,Long Kali,Kabupaten,Paser,Kalimantan Timur
603,76283,Putang,64.01.08.2023,Long Kali,Kabupaten,Paser,Kalimantan Timur
604,76283,Sebakung,64.01.08.2003,Long Kali,Kabupaten,Paser,Kalimantan Timur
605,76283,Sebakung Makmur,64.01.08.2018,Long Kali,Kabupaten,Paser,Kalimantan Timur
606,76283,Sebakung Taka (Sebakung IV),64.01.08.2016,Long Kali,Kabupaten,Paser,Kalimantan Timur
607,75766,Anah,64.07.05.2011,Long Iram,Kabupaten,Kutai Barat,Kalimantan Timur
608,75766,Kelian Luar (Kalian Luar),64.07.05.2021,Long Iram,Kabupaten,Kutai Barat,Kalimantan Timur
609,75766,Keliwai (Keliway),64.07.05.2018,Long Iram,Kabupaten,Kutai Barat,Kalimantan Timur
610,75766,Linggang Muara Leban (Muara Leban),64.07.05.2008,Long Iram,Kabupaten,Kutai Barat,Kalimantan Timur
611,75766,Long Daliq,64.07.05.2015,Long Iram,Kabupaten,Kutai Barat,Kalimantan Timur
612,75766,Long Iram Bayan,64.07.05.2017,Long Iram,Kabupaten,Kutai Barat,Kalimantan Timur
613,75766,Long Iram Ilir,64.07.05.2010,Long Iram,Kabupaten,Kutai Barat,Kalimantan Timur
614,75766,Long Iram Kota,64.07.05.2016,Long Iram,Kabupaten,Kutai Barat,Kalimantan Timur
615,75766,Long Iram Seberang (Longiram Seberang),64.07.05.2009,Long Iram,Kabupaten,Kutai Barat,Kalimantan Timur
616,75766,Sukomulyo (Suko Mulyo),64.07.05.2022,Long Iram,Kabupaten,Kutai Barat,Kalimantan Timur
617,75766,Ujoh Halang,64.07.05.2019,Long Iram,Kabupaten,Kutai Barat,Kalimantan Timur
618,76282,Adang Jaya (Muara Adang I),64.01.06.2023,Long Ikis,Kabupaten,Paser,Kalimantan Timur
619,76282,Atang Pait,64.01.06.2026,Long Ikis,Kabupaten,Paser,Kalimantan Timur
620,76282,Belimbing,64.01.06.2012,Long Ikis,Kabupaten,Paser,Kalimantan Timur
621,76282,Brewe,64.01.06.2025,Long Ikis,Kabupaten,Paser,Kalimantan Timur
622,76282,Bukit Saloka (Bukit Seloka),64.01.06.2015,Long Ikis,Kabupaten,Paser,Kalimantan Timur
623,76282,Jemparing,64.01.06.2010,Long Ikis,Kabupaten,Paser,Kalimantan Timur
624,76282,Kayungo,64.01.06.2009,Long Ikis,Kabupaten,Paser,Kalimantan Timur
625,76282,Kayungo Sari,64.01.06.2018,Long Ikis,Kabupaten,Paser,Kalimantan Timur
626,76282,Kerta Bhakti (Kerta Bakti),64.01.06.2022,Long Ikis,Kabupaten,Paser,Kalimantan Timur
627,76282,Krayan Bahagia,64.01.06.2019,Long Ikis,Kabupaten,Paser,Kalimantan Timur
628,76282,Krayan Jaya,64.01.06.2014,Long Ikis,Kabupaten,Paser,Kalimantan Timur
629,76282,Krayan Makmur,64.01.06.2017,Long Ikis,Kabupaten,Paser,Kalimantan Timur
630,76282,Krayan Sentosa,64.01.06.2016,Long Ikis,Kabupaten,Paser,Kalimantan Timur
631,76282,Lombok,64.01.06.2006,Long Ikis,Kabupaten,Paser,Kalimantan Timur
632,76282,Long Gelang,64.01.06.2013,Long Ikis,Kabupaten,Paser,Kalimantan Timur
633,76282,Long Ikis,64.01.06.1001,Long Ikis,Kabupaten,Paser,Kalimantan Timur
634,76282,Muara Adang,64.01.06.2002,Long Ikis,Kabupaten,Paser,Kalimantan Timur
635,76282,Olung,64.01.06.2008,Long Ikis,Kabupaten,Paser,Kalimantan Timur
636,76282,Pait,64.01.06.2007,Long Ikis,Kabupaten,Paser,Kalimantan Timur
637,76282,Samuntai,64.01.06.2005,Long Ikis,Kabupaten,Paser,Kalimantan Timur
638,76282,Sawit Jaya,64.01.06.2020,Long Ikis,Kabupaten,Paser,Kalimantan Timur
639,76282,Sekurou Jaya,64.01.06.2021,Long Ikis,Kabupaten,Paser,Kalimantan Timur
640,76282,Tajer Mulya,64.01.06.2024,Long Ikis,Kabupaten,Paser,Kalimantan Timur
641,76282,Tajur,64.01.06.2004,Long Ikis,Kabupaten,Paser,Kalimantan Timur
642,76282,Teluk Waru,64.01.06.2003,Long Ikis,Kabupaten,Paser,Kalimantan Timur
643,76282,Tiwei,64.01.06.2011,Long Ikis,Kabupaten,Paser,Kalimantan Timur
644,75770,Datah Bilang Baru,64.11.02.2009,Long Hubung,Kabupaten,Mahakam Ulu,Kalimantan Timur
645,75770,Datah Bilang Ilir,64.11.02.2005,Long Hubung,Kabupaten,Mahakam Ulu,Kalimantan Timur
646,75770,Datah Bilang Ulu,64.11.02.2006,Long Hubung,Kabupaten,Mahakam Ulu,Kalimantan Timur
647,75770,Long Hubung,64.11.02.2001,Long Hubung,Kabupaten,Mahakam Ulu,Kalimantan Timur
648,75770,Long Hubung Ulu,64.11.02.2011,Long Hubung,Kabupaten,Mahakam Ulu,Kalimantan Timur
649,75770,Lutan,64.11.02.2003,Long Hubung,Kabupaten,Mahakam Ulu,Kalimantan Timur
650,75770,Matalibaq,64.11.02.2004,Long Hubung,Kabupaten,Mahakam Ulu,Kalimantan Timur
651,75770,Memahak Teboq,64.11.02.2002,Long Hubung,Kabupaten,Mahakam Ulu,Kalimantan Timur
652,75770,Sirau,64.11.02.2010,Long Hubung,Kabupaten,Mahakam Ulu,Kalimantan Timur
653,75770,Tri Pariq Makmur,64.11.02.2007,Long Hubung,Kabupaten,Mahakam Ulu,Kalimantan Timur
654,75770,Wana Pariq,64.11.02.2008,Long Hubung,Kabupaten,Mahakam Ulu,Kalimantan Timur
655,75767,Batoq Kelo,64.11.01.2009,Long Bagun,Kabupaten,Mahakam Ulu,Kalimantan Timur
656,75767,Batu Majang,64.11.01.2005,Long Bagun,Kabupaten,Mahakam Ulu,Kalimantan Timur
657,75767,Long Bagun Ilir,64.11.01.2007,Long Bagun,Kabupaten,Mahakam Ulu,Kalimantan Timur
658,75767,Long Bagun Ulu,64.11.01.2008,Long Bagun,Kabupaten,Mahakam Ulu,Kalimantan Timur
659,75767,Long Hurai,64.11.01.2001,Long Bagun,Kabupaten,Mahakam Ulu,Kalimantan Timur
660,75767,Long Melaham,64.11.01.2002,Long Bagun,Kabupaten,Mahakam Ulu,Kalimantan Timur
661,75767,Long Merah,64.11.01.2010,Long Bagun,Kabupaten,Mahakam Ulu,Kalimantan Timur
662,75767,Memahak Besar (Mamahak Ilir),64.11.01.2003,Long Bagun,Kabupaten,Mahakam Ulu,Kalimantan Timur
663,75767,Memahak Ulu (Mamahak Ulu),64.11.01.2004,Long Bagun,Kabupaten,Mahakam Ulu,Kalimantan Timur
664,75767,Rukun Damai,64.11.01.2011,Long Bagun,Kabupaten,Mahakam Ulu,Kalimantan Timur
665,75767,Ujoh Bilang,64.11.01.2006,Long Bagun,Kabupaten,Mahakam Ulu,Kalimantan Timur
666,75769,Long Apari,64.11.04.2010,Long Apari,Kabupaten,Mahakam Ulu,Kalimantan Timur
667,75769,Long Kerioq,64.11.04.2002,Long Apari,Kabupaten,Mahakam Ulu,Kalimantan Timur
668,75769,Long Penaneh I,64.11.04.2001,Long Apari,Kabupaten,Mahakam Ulu,Kalimantan Timur
669,75769,Long Penaneh II,64.11.04.2003,Long Apari,Kabupaten,Mahakam Ulu,Kalimantan Timur
670,75769,Long Penaneh III,64.11.04.2005,Long Apari,Kabupaten,Mahakam Ulu,Kalimantan Timur
671,75769,Naha Buan,64.11.04.2007,Long Apari,Kabupaten,Mahakam Ulu,Kalimantan Timur
672,75769,Naha Silat (Noha Silat),64.11.04.2009,Long Apari,Kabupaten,Mahakam Ulu,Kalimantan Timur
673,75769,Naha Tifab (Naha Tivab),64.11.04.2008,Long Apari,Kabupaten,Mahakam Ulu,Kalimantan Timur
674,75769,Tiong Bu'u (Tiong Buu),64.11.04.2006,Long Apari,Kabupaten,Mahakam Ulu,Kalimantan Timur
675,75769,Tiong Ohang,64.11.04.2004,Long Apari,Kabupaten,Mahakam Ulu,Kalimantan Timur
676,75571,Jembayan,64.02.02.2003,Loa Kulu,Kabupaten,Kutai Kartanegara,Kalimantan Timur
677,75571,Jembayan Dalam,64.02.02.2012,Loa Kulu,Kabupaten,Kutai Kartanegara,Kalimantan Timur
678,75571,Jembayan Tengah,64.02.02.2011,Loa Kulu,Kabupaten,Kutai Kartanegara,Kalimantan Timur
679,75571,Jonggon Desa,64.02.02.2001,Loa Kulu,Kabupaten,Kutai Kartanegara,Kalimantan Timur
680,75571,Jonggon Jaya (Karya Utama),64.02.02.2009,Loa Kulu,Kabupaten,Kutai Kartanegara,Kalimantan Timur
681,75571,Jongkang,64.02.02.2015,Loa Kulu,Kabupaten,Kutai Kartanegara,Kalimantan Timur
682,75571,Loa Kulu Kota,64.02.02.2004,Loa Kulu,Kabupaten,Kutai Kartanegara,Kalimantan Timur
683,75571,Loh Sumber,64.02.02.2005,Loa Kulu,Kabupaten,Kutai Kartanegara,Kalimantan Timur
684,75571,Lung Anai,64.02.02.2010,Loa Kulu,Kabupaten,Kutai Kartanegara,Kalimantan Timur
685,75571,Margahayu,64.02.02.2008,Loa Kulu,Kabupaten,Kutai Kartanegara,Kalimantan Timur
686,75571,Ponoragan,64.02.02.2006,Loa Kulu,Kabupaten,Kutai Kartanegara,Kalimantan Timur
687,75571,Rempanga,64.02.02.2007,Loa Kulu,Kabupaten,Kutai Kartanegara,Kalimantan Timur
688,75571,Sepakat,64.02.02.2013,Loa Kulu,Kabupaten,Kutai Kartanegara,Kalimantan Timur
689,75571,Sumber Sari,64.02.02.2014,Loa Kulu,Kabupaten,Kutai Kartanegara,Kalimantan Timur
690,75571,Sungai Payang,64.02.02.2002,Loa Kulu,Kabupaten,Kutai Kartanegara,Kalimantan Timur
691,75131,Harapan Baru,64.72.10.1004,Loa Janan Ilir,Kota,Samarinda,Kalimantan Timur
692,75131,Rapak Dalam,64.72.10.1005,Loa Janan Ilir,Kota,Samarinda,Kalimantan Timur
693,75131,Sengkotek,64.72.10.1003,Loa Janan Ilir,Kota,Samarinda,Kalimantan Timur
694,75131,Simpang Tiga (Loa Janan Ilir),64.72.10.1001,Loa Janan Ilir,Kota,Samarinda,Kalimantan Timur
695,75131,Tani Aman,64.72.10.1002,Loa Janan Ilir,Kota,Samarinda,Kalimantan Timur
696,75391,Bakungan,64.02.03.2001,Loa Janan,Kabupaten,Kutai Kartanegara,Kalimantan Timur
697,75391,Batuah,64.02.03.2006,Loa Janan,Kabupaten,Kutai Kartanegara,Kalimantan Timur
698,75391,Loa Duri Ilir,64.02.03.2007,Loa Janan,Kabupaten,Kutai Kartanegara,Kalimantan Timur
699,75391,Loa Duri Ulu,64.02.03.2002,Loa Janan,Kabupaten,Kutai Kartanegara,Kalimantan Timur
700,75391,Loa Janan Ulu,64.02.03.2003,Loa Janan,Kabupaten,Kutai Kartanegara,Kalimantan Timur
701,75391,Purwajaya,64.02.03.2004,Loa Janan,Kabupaten,Kutai Kartanegara,Kalimantan Timur
702,75391,Tani Bhakti (Tani Bakti),64.02.03.2005,Loa Janan,Kabupaten,Kutai Kartanegara,Kalimantan Timur
703,75391,Tani Harapan,64.02.03.2008,Loa Janan,Kabupaten,Kutai Kartanegara,Kalimantan Timur
704,75576,Linggang Amer,64.07.15.2007,Linggang Bigung,Kabupaten,Kutai Barat,Kalimantan Timur
705,75576,Linggang Bangunsari (Bangun Sari),64.07.15.2008,Linggang Bigung,Kabupaten,Kutai Barat,Kalimantan Timur
706,75576,Linggang Bigung,64.07.15.2006,Linggang Bigung,Kabupaten,Kutai Barat,Kalimantan Timur
707,75576,Linggang Bigung Baru (Bigung Baru),64.07.15.2002,Linggang Bigung,Kabupaten,Kutai Barat,Kalimantan Timur
708,75576,Linggang Kebut,64.07.15.2011,Linggang Bigung,Kabupaten,Kutai Barat,Kalimantan Timur
709,75576,Linggang Mapan,64.07.15.2005,Linggang Bigung,Kabupaten,Kutai Barat,Kalimantan Timur
710,75576,Linggang Melapeh,64.07.15.2004,Linggang Bigung,Kabupaten,Kutai Barat,Kalimantan Timur
711,75576,Linggang Melapeh Baru (Melapeh Baru),64.07.15.2001,Linggang Bigung,Kabupaten,Kutai Barat,Kalimantan Timur
712,75576,Linggang Mencelew,64.07.15.2010,Linggang Bigung,Kabupaten,Kutai Barat,Kalimantan Timur
713,75576,Linggang Purwodadi (Purwadadi),64.07.15.2009,Linggang Bigung,Kabupaten,Kutai Barat,Kalimantan Timur
714,75576,Linggang Tutung (Tutuh / Tutung),64.07.15.2003,Linggang Bigung,Kabupaten,Kutai Barat,Kalimantan Timur
715,75779,Danum Paroy,64.11.03.2004,Laham,Kabupaten,Mahakam Ulu,Kalimantan Timur
716,75779,Laham,64.11.03.2001,Laham,Kabupaten,Mahakam Ulu,Kalimantan Timur
717,75779,Long Gelawang,64.11.03.2002,Laham,Kabupaten,Mahakam Ulu,Kalimantan Timur
718,75779,Muara Ratah,64.11.03.2003,Laham,Kabupaten,Mahakam Ulu,Kalimantan Timur
719,75779,Nyaribungan,64.11.03.2005,Laham,Kabupaten,Mahakam Ulu,Kalimantan Timur
720,76281,Harapan Baru,64.01.05.2004,Kuaro,Kabupaten,Paser,Kalimantan Timur
721,76281,Keluang Paser Jaya,64.01.05.2013,Kuaro,Kabupaten,Paser,Kalimantan Timur
722,76281,Kendarom,64.01.05.2011,Kuaro,Kabupaten,Paser,Kalimantan Timur
723,76281,Kerta Bumi,64.01.05.2008,Kuaro,Kabupaten,Paser,Kalimantan Timur
724,76281,Klempang Sari,64.01.05.2012,Kuaro,Kabupaten,Paser,Kalimantan Timur
725,76281,Kuaro,64.01.05.1001,Kuaro,Kabupaten,Paser,Kalimantan Timur
726,76281,Lolo (Keluang Lolo),64.01.05.2002,Kuaro,Kabupaten,Paser,Kalimantan Timur
727,76281,Modang,64.01.05.2006,Kuaro,Kabupaten,Paser,Kalimantan Timur
728,76281,Padang Jaya,64.01.05.2010,Kuaro,Kabupaten,Paser,Kalimantan Timur
729,76281,Pasir Mayang,64.01.05.2007,Kuaro,Kabupaten,Paser,Kalimantan Timur
730,76281,Pondang Baru (Pondong Baru),64.01.05.2009,Kuaro,Kabupaten,Paser,Kalimantan Timur
731,76281,Rangan,64.01.05.2005,Kuaro,Kabupaten,Paser,Kalimantan Timur
732,76281,Sandeley,64.01.05.2003,Kuaro,Kabupaten,Paser,Kalimantan Timur
733,75561,Benua Baru,64.02.19.2003,Kota Bangun Darat,Kabupaten,Kutai Kartanegara,Kalimantan Timur
734,75561,Kedang Ipil,64.02.19.2001,Kota Bangun Darat,Kabupaten,Kutai Kartanegara,Kalimantan Timur
735,75561,Kota Bangun I,64.02.19.2004,Kota Bangun Darat,Kabupaten,Kutai Kartanegara,Kalimantan Timur
736,75561,Kota Bangun II,64.02.19.2005,Kota Bangun Darat,Kabupaten,Kutai Kartanegara,Kalimantan Timur
737,75561,Kota Bangun III,64.02.19.2006,Kota Bangun Darat,Kabupaten,Kutai Kartanegara,Kalimantan Timur
738,75561,Sari Nadi (Sarinadi),64.02.19.2008,Kota Bangun Darat,Kabupaten,Kutai Kartanegara,Kalimantan Timur
739,75561,Sedulang,64.02.19.2002,Kota Bangun Darat,Kabupaten,Kutai Kartanegara,Kalimantan Timur
740,75561,Suka Bumi (Sukabumi),64.02.19.2009,Kota Bangun Darat,Kabupaten,Kutai Kartanegara,Kalimantan Timur
741,75561,Sumber Sari,64.02.19.2007,Kota Bangun Darat,Kabupaten,Kutai Kartanegara,Kalimantan Timur
742,75561,Wonosari,64.02.19.2010,Kota Bangun Darat,Kabupaten,Kutai Kartanegara,Kalimantan Timur
743,75561,Kedang Murung,64.02.08.2017,Kota Bangun,Kabupaten,Kutai Kartanegara,Kalimantan Timur
744,75561,Kota Bangun (Kota Bangun Seberang),64.02.08.2018,Kota Bangun,Kabupaten,Kutai Kartanegara,Kalimantan Timur
745,75561,Kota Bangun Ilir,64.02.08.2006,Kota Bangun,Kabupaten,Kutai Kartanegara,Kalimantan Timur
746,75561,Kota Bangun Ulu,64.02.08.2005,Kota Bangun,Kabupaten,Kutai Kartanegara,Kalimantan Timur
747,75561,Liang,64.02.08.2007,Kota Bangun,Kabupaten,Kutai Kartanegara,Kalimantan Timur
748,75561,Liang Ulu,64.02.08.2019,Kota Bangun,Kabupaten,Kutai Kartanegara,Kalimantan Timur
749,75561,Loleng,64.02.08.2004,Kota Bangun,Kabupaten,Kutai Kartanegara,Kalimantan Timur
750,75561,Muhuran,64.02.08.2008,Kota Bangun,Kabupaten,Kutai Kartanegara,Kalimantan Timur
751,75561,Pela,64.02.08.2009,Kota Bangun,Kabupaten,Kutai Kartanegara,Kalimantan Timur
752,75561,Sangkuliman,64.02.08.2021,Kota Bangun,Kabupaten,Kutai Kartanegara,Kalimantan Timur
753,75561,Sebelimbingan,64.02.08.2020,Kota Bangun,Kabupaten,Kutai Kartanegara,Kalimantan Timur
754,75555,Kombeng Indah (Kongbeng Indah),64.08.08.2006,Kombeng (Kongbeng),Kabupaten,Kutai Timur,Kalimantan Timur
755,75555,Makmur Jaya,64.08.08.2001,Kombeng (Kongbeng),Kabupaten,Kutai Timur,Kalimantan Timur
756,75555,Marga Mulya (Marga Mulia),64.08.08.2002,Kombeng (Kongbeng),Kabupaten,Kutai Timur,Kalimantan Timur
757,75555,Miau Baru,64.08.08.2007,Kombeng (Kongbeng),Kabupaten,Kutai Timur,Kalimantan Timur
758,75555,Sidomulyo,64.08.08.2004,Kombeng (Kongbeng),Kabupaten,Kutai Timur,Kalimantan Timur
759,75555,Sri Pantun,64.08.08.2005,Kombeng (Kongbeng),Kabupaten,Kutai Timur,Kalimantan Timur
760,75555,Sukamaju (Suka Maju),64.08.08.2003,Kombeng (Kongbeng),Kabupaten,Kutai Timur,Kalimantan Timur
761,75564,Kahala,64.02.09.2004,Kenohan,Kabupaten,Kutai Kartanegara,Kalimantan Timur
762,75564,Kahala Ilir,64.02.09.2009,Kenohan,Kabupaten,Kutai Kartanegara,Kalimantan Timur
763,75564,Lamin Pulut,64.02.09.2002,Kenohan,Kabupaten,Kutai Kartanegara,Kalimantan Timur
764,75564,Lamin Telihan,64.02.09.2001,Kenohan,Kabupaten,Kutai Kartanegara,Kalimantan Timur
765,75564,Semayang,64.02.09.2006,Kenohan,Kabupaten,Kutai Kartanegara,Kalimantan Timur
766,75564,Teluk Bingkai,64.02.09.2003,Kenohan,Kabupaten,Kutai Kartanegara,Kalimantan Timur
767,75564,Teluk Muda,64.02.09.2007,Kenohan,Kabupaten,Kutai Kartanegara,Kalimantan Timur
768,75564,Tuana Tuha,64.02.09.2008,Kenohan,Kabupaten,Kutai Kartanegara,Kalimantan Timur
769,75564,Tubuhan,64.02.09.2005,Kenohan,Kabupaten,Kutai Kartanegara,Kalimantan Timur
770,75557,Bukit Layang,64.02.10.2011,Kembang Janggut,Kabupaten,Kutai Kartanegara,Kalimantan Timur
771,75557,Genting Tanah,64.02.10.2001,Kembang Janggut,Kabupaten,Kutai Kartanegara,Kalimantan Timur
772,75557,Hambau,64.02.10.2003,Kembang Janggut,Kabupaten,Kutai Kartanegara,Kalimantan Timur
773,75557,Kelekat,64.02.10.2005,Kembang Janggut,Kabupaten,Kutai Kartanegara,Kalimantan Timur
774,75557,Kembang Janggut,64.02.10.2004,Kembang Janggut,Kabupaten,Kutai Kartanegara,Kalimantan Timur
775,75557,Loa Sakoh,64.02.10.2002,Kembang Janggut,Kabupaten,Kutai Kartanegara,Kalimantan Timur
776,75557,Long Beleh Haloq,64.02.10.2007,Kembang Janggut,Kabupaten,Kutai Kartanegara,Kalimantan Timur
777,75557,Long Beleh Modang,64.02.10.2008,Kembang Janggut,Kabupaten,Kutai Kartanegara,Kalimantan Timur
778,75557,Muai,64.02.10.2009,Kembang Janggut,Kabupaten,Kutai Kartanegara,Kalimantan Timur
779,75557,Perdana,64.02.10.2010,Kembang Janggut,Kabupaten,Kutai Kartanegara,Kalimantan Timur
780,75557,Pulau Pinang,64.02.10.2006,Kembang Janggut,Kabupaten,Kutai Kartanegara,Kalimantan Timur
781,77362,Lesan Dayak,64.03.01.2006,Kelay,Kabupaten,Berau,Kalimantan Timur
782,77362,Long Beliu,64.03.01.2007,Kelay,Kabupaten,Berau,Kalimantan Timur
783,77362,Long Duhung,64.03.01.2008,Kelay,Kabupaten,Berau,Kalimantan Timur
784,77362,Long Keluh,64.03.01.2010,Kelay,Kabupaten,Berau,Kalimantan Timur
785,77362,Long Lamcin,64.03.01.2009,Kelay,Kabupaten,Berau,Kalimantan Timur
786,77362,Long Pelay,64.03.01.2011,Kelay,Kabupaten,Berau,Kalimantan Timur
787,77362,Long Sului,64.03.01.2013,Kelay,Kabupaten,Berau,Kalimantan Timur
788,77362,Mapulu,64.03.01.2012,Kelay,Kabupaten,Berau,Kalimantan Timur
789,77362,Merabu,64.03.01.2001,Kelay,Kabupaten,Berau,Kalimantan Timur
790,77362,Merapun,64.03.01.2003,Kelay,Kabupaten,Berau,Kalimantan Timur
791,77362,Merasa,64.03.01.2005,Kelay,Kabupaten,Berau,Kalimantan Timur
792,77362,Muara Lesan,64.03.01.2004,Kelay,Kabupaten,Berau,Kalimantan Timur
793,77362,Panaan,64.03.01.2002,Kelay,Kabupaten,Berau,Kalimantan Timur
794,77362,Sido Bangen,64.03.01.2014,Kelay,Kabupaten,Berau,Kalimantan Timur
795,75619,Bukit Permata,64.08.15.2008,Kaubun,Kabupaten,Kutai Timur,Kalimantan Timur
796,75619,Bumi Etam,64.08.15.2001,Kaubun,Kabupaten,Kutai Timur,Kalimantan Timur
797,75619,Bumi Jaya,64.08.15.2003,Kaubun,Kabupaten,Kutai Timur,Kalimantan Timur
798,75619,Bumi Rapak,64.08.15.2002,Kaubun,Kabupaten,Kutai Timur,Kalimantan Timur
799,75619,Cipta Graha,64.08.15.2004,Kaubun,Kabupaten,Kutai Timur,Kalimantan Timur
800,75619,Kadungan Jaya,64.08.15.2005,Kaubun,Kabupaten,Kutai Timur,Kalimantan Timur
801,75619,Mata Air,64.08.15.2007,Kaubun,Kabupaten,Kutai Timur,Kalimantan Timur
802,75619,Pengadan Baru,64.08.15.2006,Kaubun,Kabupaten,Kutai Timur,Kalimantan Timur
803,75684,Baay,64.08.16.2004,Karangan,Kabupaten,Kutai Timur,Kalimantan Timur
804,75684,Batu Lepoq,64.08.16.2002,Karangan,Kabupaten,Kutai Timur,Kalimantan Timur
805,75684,Karangan Dalam,64.08.16.2001,Karangan,Kabupaten,Kutai Timur,Kalimantan Timur
806,75684,Karangan Hilir,64.08.16.2007,Karangan,Kabupaten,Kutai Timur,Kalimantan Timur
807,75684,Karangan Seberang,64.08.16.2006,Karangan,Kabupaten,Kutai Timur,Kalimantan Timur
808,75684,Mukti Lestari,64.08.16.2005,Karangan,Kabupaten,Kutai Timur,Kalimantan Timur
809,75684,Pengadan (Pengadaan Baru),64.08.16.2003,Karangan,Kabupaten,Kutai Timur,Kalimantan Timur
810,75617,Bangun Jaya,64.08.10.2009,Kaliorang,Kabupaten,Kutai Timur,Kalimantan Timur
811,75617,Bukit Harapan,64.08.10.2007,Kaliorang,Kabupaten,Kutai Timur,Kalimantan Timur
812,75617,Bukit Makmur,64.08.10.2006,Kaliorang,Kabupaten,Kutai Timur,Kalimantan Timur
813,75617,Bumi Sejahtera,64.08.10.2010,Kaliorang,Kabupaten,Kutai Timur,Kalimantan Timur
814,75617,Citra Manunggal Jaya,64.08.10.2008,Kaliorang,Kabupaten,Kutai Timur,Kalimantan Timur
815,75617,Kaliorang,64.08.10.2001,Kaliorang,Kabupaten,Kutai Timur,Kalimantan Timur
816,75617,Selangkau,64.08.10.2013,Kaliorang,Kabupaten,Kutai Timur,Kalimantan Timur
817,75773,Bekokong Makmur (Resak Bekokong),64.07.11.2012,Jempang,Kabupaten,Kutai Barat,Kalimantan Timur
818,75773,Lembonah,64.07.11.2002,Jempang,Kabupaten,Kutai Barat,Kalimantan Timur
819,75773,Mancong,64.07.11.2004,Jempang,Kabupaten,Kutai Barat,Kalimantan Timur
820,75773,Muara Nayan,64.07.11.2003,Jempang,Kabupaten,Kutai Barat,Kalimantan Timur
821,75773,Muara Ohong,64.07.11.2006,Jempang,Kabupaten,Kutai Barat,Kalimantan Timur
822,75773,Muara Tae,64.07.11.2011,Jempang,Kabupaten,Kutai Barat,Kalimantan Timur
823,75773,Pentat,64.07.11.2001,Jempang,Kabupaten,Kutai Barat,Kalimantan Timur
824,75773,Perigiq,64.07.11.2005,Jempang,Kabupaten,Kutai Barat,Kalimantan Timur
825,75773,Pulau Lanting,64.07.11.2010,Jempang,Kabupaten,Kutai Barat,Kalimantan Timur
826,75773,Tanjung Isuy,64.07.11.2008,Jempang,Kabupaten,Kutai Barat,Kalimantan Timur
827,75773,Tanjung Jan,64.07.11.2009,Jempang,Kabupaten,Kutai Barat,Kalimantan Timur
828,75773,Tanjung Jone,64.07.11.2007,Jempang,Kabupaten,Kutai Barat,Kalimantan Timur
829,77352,Batu-Batu,64.03.06.2011,Gunung Tabur,Kabupaten,Berau,Kalimantan Timur
830,77352,Birang,64.03.06.2002,Gunung Tabur,Kabupaten,Berau,Kalimantan Timur
831,77352,Gunung Tabur,64.03.06.1003,Gunung Tabur,Kabupaten,Berau,Kalimantan Timur
832,77352,Maluang,64.03.06.2004,Gunung Tabur,Kabupaten,Berau,Kalimantan Timur
833,77352,Melati Jaya,64.03.06.2010,Gunung Tabur,Kabupaten,Berau,Kalimantan Timur
834,77352,Merancang Ilir,64.03.06.2008,Gunung Tabur,Kabupaten,Berau,Kalimantan Timur
835,77352,Merancang Ulu,64.03.06.2007,Gunung Tabur,Kabupaten,Berau,Kalimantan Timur
836,77352,Pulau Besing,64.03.06.2009,Gunung Tabur,Kabupaten,Berau,Kalimantan Timur
837,77352,Sambakungan,64.03.06.2006,Gunung Tabur,Kabupaten,Berau,Kalimantan Timur
838,77352,Samburakat,64.03.06.2005,Gunung Tabur,Kabupaten,Berau,Kalimantan Timur
839,77352,Tasuk,64.03.06.2001,Gunung Tabur,Kabupaten,Berau,Kalimantan Timur
840,75777,Benung,64.07.08.2014,Damai,Kabupaten,Kutai Barat,Kalimantan Timur
841,75777,Bermai,64.07.08.2002,Damai,Kabupaten,Kutai Barat,Kalimantan Timur
842,75777,Besiq,64.07.08.2001,Damai,Kabupaten,Kutai Barat,Kalimantan Timur
843,75777,Damai Kota,64.07.08.2008,Damai,Kabupaten,Kutai Barat,Kalimantan Timur
844,75777,Damai Seberang,64.07.08.2006,Damai,Kabupaten,Kutai Barat,Kalimantan Timur
845,75777,Jengan Danum,64.07.08.2011,Damai,Kabupaten,Kutai Barat,Kalimantan Timur
846,75777,Keay,64.07.08.2012,Damai,Kabupaten,Kutai Barat,Kalimantan Timur
847,75777,Kelian,64.07.08.2022,Damai,Kabupaten,Kutai Barat,Kalimantan Timur
848,75777,Lumpat Dahuq,64.07.08.2009,Damai,Kabupaten,Kutai Barat,Kalimantan Timur
849,75777,Mantar,64.07.08.2004,Damai,Kabupaten,Kutai Barat,Kalimantan Timur
850,75777,Mendika,64.07.08.2007,Damai,Kabupaten,Kutai Barat,Kalimantan Timur
851,75777,Muara Bomboy,64.07.08.2005,Damai,Kabupaten,Kutai Barat,Kalimantan Timur
852,75777,Muara Niliq,64.07.08.2003,Damai,Kabupaten,Kutai Barat,Kalimantan Timur
853,75777,Muara Nyahing,64.07.08.2020,Damai,Kabupaten,Kutai Barat,Kalimantan Timur
854,75777,Muara Tokong,64.07.08.2010,Damai,Kabupaten,Kutai Barat,Kalimantan Timur
855,75777,Sempatn,64.07.08.2021,Damai,Kabupaten,Kutai Barat,Kalimantan Timur
856,75777,Tapulang,64.07.08.2013,Damai,Kabupaten,Kutai Barat,Kalimantan Timur
857,75556,Long Bentuq (Long Bentuk),64.08.06.2001,Busang,Kabupaten,Kutai Timur,Kalimantan Timur
858,75556,Long Lees,64.08.06.2003,Busang,Kabupaten,Kutai Timur,Kalimantan Timur
859,75556,Long Nyelong,64.08.06.2006,Busang,Kabupaten,Kutai Timur,Kalimantan Timur
860,75556,Long Pejeng,64.08.06.2002,Busang,Kabupaten,Kutai Timur,Kalimantan Timur
861,75556,Mekar Baru,64.08.06.2004,Busang,Kabupaten,Kutai Timur,Kalimantan Timur
862,75556,Rantau Sentosa,64.08.06.2005,Busang,Kabupaten,Kutai Timur,Kalimantan Timur
863,75311,Api-Api,64.74.01.1006,Bontang Utara,Kota,Bontang,Kalimantan Timur
864,75311,Bontang Baru,64.74.01.1002,Bontang Utara,Kota,Bontang,Kalimantan Timur
865,75312,Bontang Kuala,64.74.01.1001,Bontang Utara,Kota,Bontang,Kalimantan Timur
866,75314,Guntung,64.74.01.1004,Bontang Utara,Kota,Bontang,Kalimantan Timur
867,75311,Gunung Elai,64.74.01.1005,Bontang Utara,Kota,Bontang,Kalimantan Timur
868,75314,Loktuan (Lok Tuan),64.74.01.1003,Bontang Utara,Kota,Bontang,Kalimantan Timur
869,75325,Berebas Pantai (Berbas Pantai),64.74.02.1003,Bontang Selatan,Kota,Bontang,Kalimantan Timur
870,75325,Berebas Tengah (Berbas Tengah),64.74.02.1002,Bontang Selatan,Kota,Bontang,Kalimantan Timur
871,75325,Bontang Lestari,64.74.02.1005,Bontang Selatan,Kota,Bontang,Kalimantan Timur
872,75324,Satimpo,64.74.02.1004,Bontang Selatan,Kota,Bontang,Kalimantan Timur
873,75321,Tanjung Laut,64.74.02.1001,Bontang Selatan,Kota,Bontang,Kalimantan Timur
874,75325,Tanjung Laut Indah,64.74.02.1006,Bontang Selatan,Kota,Bontang,Kalimantan Timur
875,75313,Belimbing,64.74.03.1001,Bontang Barat,Kota,Bontang,Kalimantan Timur
876,75383,Kanaan,64.74.03.1003,Bontang Barat,Kota,Bontang,Kalimantan Timur
877,75383,Telihan (Gunung Telihan),64.74.03.1002,Bontang Barat,Kota,Bontang,Kalimantan Timur
878,75772,Bukit Harapan,64.07.12.2016,Bongan,Kabupaten,Kutai Barat,Kalimantan Timur
879,75772,Deraya,64.07.12.2004,Bongan,Kabupaten,Kutai Barat,Kalimantan Timur
880,75772,Gerungung (Gerunggung),64.07.12.2001,Bongan,Kabupaten,Kutai Barat,Kalimantan Timur
881,75772,Jambuk,64.07.12.2008,Bongan,Kabupaten,Kutai Barat,Kalimantan Timur
882,75772,Jambuk Makmur,64.07.12.2012,Bongan,Kabupaten,Kutai Barat,Kalimantan Timur
883,75772,Lemper,64.07.12.2005,Bongan,Kabupaten,Kutai Barat,Kalimantan Timur
884,75772,Muara Gusik,64.07.12.2009,Bongan,Kabupaten,Kutai Barat,Kalimantan Timur
885,75772,Muara Kedang,64.07.12.2011,Bongan,Kabupaten,Kutai Barat,Kalimantan Timur
886,75772,Muara Siram,64.07.12.2006,Bongan,Kabupaten,Kutai Barat,Kalimantan Timur
887,75772,Muaram Siram I (Siram Makmur),64.07.12.2014,Bongan,Kabupaten,Kutai Barat,Kalimantan Timur
888,75772,Muaram Siram II (Siram Jaya),64.07.12.2015,Bongan,Kabupaten,Kutai Barat,Kalimantan Timur
889,75772,Penawai,64.07.12.2010,Bongan,Kabupaten,Kutai Barat,Kalimantan Timur
890,75772,Pereng Taliq (Pereng Talik),64.07.12.2002,Bongan,Kabupaten,Kutai Barat,Kalimantan Timur
891,75772,Resak,64.07.12.2007,Bongan,Kabupaten,Kutai Barat,Kalimantan Timur
892,75772,Tanjung Sari,64.07.12.2019,Bongan,Kabupaten,Kutai Barat,Kalimantan Timur
893,75772,Tanjung Soke,64.07.12.2003,Bongan,Kabupaten,Kutai Barat,Kalimantan Timur
894,77373,Biduk-Biduk,64.03.08.2001,Biduk-Biduk,Kabupaten,Berau,Kalimantan Timur
895,77373,Giring-Giring,64.03.08.2009,Biduk-Biduk,Kabupaten,Berau,Kalimantan Timur
896,77373,Pantai Harapan,64.03.08.2002,Biduk-Biduk,Kabupaten,Berau,Kalimantan Timur
897,77373,Tanjung Prepat (Tanjung Perepat),64.03.08.2003,Biduk-Biduk,Kabupaten,Berau,Kalimantan Timur
898,77373,Teluk Sulaiman,64.03.08.2008,Biduk-Biduk,Kabupaten,Berau,Kalimantan Timur
899,77373,Teluk Sumbang,64.03.08.2004,Biduk-Biduk,Kabupaten,Berau,Kalimantan Timur
900,77372,Biatan Bapinang,64.03.13.2006,Biatan,Kabupaten,Berau,Kalimantan Timur
901,77372,Biatan Baru,64.03.13.2007,Biatan,Kabupaten,Berau,Kalimantan Timur
902,77372,Biatan Ilir,64.03.13.2002,Biatan,Kabupaten,Berau,Kalimantan Timur
903,77372,Biatan Lempake,64.03.13.2004,Biatan,Kabupaten,Berau,Kalimantan Timur
904,77372,Biatan Ulu,64.03.13.2001,Biatan,Kabupaten,Berau,Kalimantan Timur
905,77372,Bukit Makmur Jaya,64.03.13.2008,Biatan,Kabupaten,Berau,Kalimantan Timur
906,77372,Karangan,64.03.13.2003,Biatan,Kabupaten,Berau,Kalimantan Timur
907,77372,Manunggal Jaya,64.03.13.2005,Biatan,Kabupaten,Berau,Kalimantan Timur
908,75778,Anan Jaya,64.07.14.2005,Bentian Besar,Kabupaten,Kutai Barat,Kalimantan Timur
909,75778,Dilang Puti,64.07.14.2009,Bentian Besar,Kabupaten,Kutai Barat,Kalimantan Timur
910,75778,Jelmu Sibak,64.07.14.2006,Bentian Besar,Kabupaten,Kutai Barat,Kalimantan Timur
911,75778,Penarung,64.07.14.2008,Bentian Besar,Kabupaten,Kutai Barat,Kalimantan Timur
912,75778,Randa Empas,64.07.14.2001,Bentian Besar,Kabupaten,Kutai Barat,Kalimantan Timur
913,75778,Sambung,64.07.14.2004,Bentian Besar,Kabupaten,Kutai Barat,Kalimantan Timur
914,75778,Suakong,64.07.14.2007,Bentian Besar,Kabupaten,Kutai Barat,Kalimantan Timur
915,75778,Tende,64.07.14.2003,Bentian Besar,Kabupaten,Kutai Barat,Kalimantan Timur
916,75778,Tuquk/Tukuq,64.07.14.2002,Bentian Besar,Kabupaten,Kutai Barat,Kalimantan Timur
917,75618,Keraitan,64.08.09.2003,Bengalon,Kabupaten,Kutai Timur,Kalimantan Timur
918,75618,Muara Bengalon,64.08.09.2008,Bengalon,Kabupaten,Kutai Timur,Kalimantan Timur
919,75618,Sekerat,64.08.09.2002,Bengalon,Kabupaten,Kutai Timur,Kalimantan Timur
920,75618,Sepaso (Sepaso Induk),64.08.09.2001,Bengalon,Kabupaten,Kutai Timur,Kalimantan Timur
921,75618,Sepaso Barat,64.08.09.2011,Bengalon,Kabupaten,Kutai Timur,Kalimantan Timur
922,75618,Sepaso Selatan,64.08.09.2007,Bengalon,Kabupaten,Kutai Timur,Kalimantan Timur
923,75618,Sepaso Timur,64.08.09.2006,Bengalon,Kabupaten,Kutai Timur,Kalimantan Timur
924,75618,Tebangan Lebak/Lembak,64.08.09.2005,Bengalon,Kabupaten,Kutai Timur,Kalimantan Timur
925,75618,Tepian Baru,64.08.09.2009,Bengalon,Kabupaten,Kutai Timur,Kalimantan Timur
926,75618,Tepian Indah,64.08.09.2010,Bengalon,Kabupaten,Kutai Timur,Kalimantan Timur
927,75618,Tepian Langsat,64.08.09.2004,Bengalon,Kabupaten,Kutai Timur,Kalimantan Timur
928,76252,Batu Kajang (Batu Sopang),64.01.01.2011,Batu Sopang,Kabupaten,Paser,Kalimantan Timur
929,76252,Busui,64.01.01.2010,Batu Sopang,Kabupaten,Paser,Kalimantan Timur
930,76252,Kasungai,64.01.01.2014,Batu Sopang,Kabupaten,Paser,Kalimantan Timur
931,76252,Legai,64.01.01.2012,Batu Sopang,Kabupaten,Paser,Kalimantan Timur
932,76252,Rantau Buta,64.01.01.2015,Batu Sopang,Kabupaten,Paser,Kalimantan Timur
933,76252,Rantau Layung,64.01.01.2016,Batu Sopang,Kabupaten,Paser,Kalimantan Timur
934,76252,Samuranggau (Samurangau),64.01.01.2009,Batu Sopang,Kabupaten,Paser,Kalimantan Timur
935,76252,Sei/Sungai Terik,64.01.01.2013,Batu Sopang,Kabupaten,Paser,Kalimantan Timur
936,76252,Songka,64.01.01.2017,Batu Sopang,Kabupaten,Paser,Kalimantan Timur
937,77373,Ampen Medang,64.03.12.2005,Batu Putih,Kabupaten,Berau,Kalimantan Timur
938,77373,Balik Kukuk (Balikukup),64.03.12.2006,Batu Putih,Kabupaten,Berau,Kalimantan Timur
939,77373,Batu Putih,64.03.12.2003,Batu Putih,Kabupaten,Berau,Kalimantan Timur
940,77372,Kayu Indah,64.03.12.2002,Batu Putih,Kabupaten,Berau,Kalimantan Timur
941,77373,Lobang Kelatak,64.03.12.2004,Batu Putih,Kabupaten,Berau,Kalimantan Timur
942,77372,Sumber Agung,64.03.12.2007,Batu Putih,Kabupaten,Berau,Kalimantan Timur
943,77372,Tembudan,64.03.12.2001,Batu Putih,Kabupaten,Berau,Kalimantan Timur
944,76261,Bai Jaya,64.01.09.2011,Batu Engau,Kabupaten,Paser,Kalimantan Timur
945,76261,Kerang,64.01.09.2001,Batu Engau,Kabupaten,Paser,Kalimantan Timur
946,76261,Kerang Dayo,64.01.09.2009,Batu Engau,Kabupaten,Paser,Kalimantan Timur
947,76261,Langgai,64.01.09.2006,Batu Engau,Kabupaten,Paser,Kalimantan Timur
948,76261,Lomu,64.01.09.2002,Batu Engau,Kabupaten,Paser,Kalimantan Timur
949,76261,Mengkudu,64.01.09.2004,Batu Engau,Kabupaten,Paser,Kalimantan Timur
950,76261,Pengguren Jaya,64.01.09.2012,Batu Engau,Kabupaten,Paser,Kalimantan Timur
951,76261,Petangis,64.01.09.2007,Batu Engau,Kabupaten,Paser,Kalimantan Timur
952,76261,Riwang,64.01.09.2005,Batu Engau,Kabupaten,Paser,Kalimantan Timur
953,76261,Saing Prupuk,64.01.09.2010,Batu Engau,Kabupaten,Paser,Kalimantan Timur
954,76261,Segendang,64.01.09.2003,Batu Engau,Kabupaten,Paser,Kalimantan Timur
955,76261,Tampakan,64.01.09.2008,Batu Engau,Kabupaten,Paser,Kalimantan Timur
956,76261,Tebru Paser Damai,64.01.09.2013,Batu Engau,Kabupaten,Paser,Kalimantan Timur
957,75654,Batu Timbau,64.08.17.2001,Batu Ampar,Kabupaten,Kutai Timur,Kalimantan Timur
958,75654,Batu Timbau Ulu,64.08.17.2007,Batu Ampar,Kabupaten,Kutai Timur,Kalimantan Timur
959,75654,Beno Harapan (Benua Harapan),64.08.17.2002,Batu Ampar,Kabupaten,Kutai Timur,Kalimantan Timur
960,75654,Himba Lestari,64.08.17.2005,Batu Ampar,Kabupaten,Kutai Timur,Kalimantan Timur
961,75654,Mawai Indah,64.08.17.2004,Batu Ampar,Kabupaten,Kutai Timur,Kalimantan Timur
962,75654,Mugi Rahayu,64.08.17.2003,Batu Ampar,Kabupaten,Kutai Timur,Kalimantan Timur
963,75654,Telaga,64.08.17.2006,Batu Ampar,Kabupaten,Kutai Timur,Kalimantan Timur
964,75776,Asa,64.07.07.2007,Barong Tongkok,Kabupaten,Kutai Barat,Kalimantan Timur
965,75776,Balok Asa,64.07.07.2020,Barong Tongkok,Kabupaten,Kutai Barat,Kalimantan Timur
966,75776,Barong Tongkok,64.07.07.1001,Barong Tongkok,Kabupaten,Kutai Barat,Kalimantan Timur
967,75776,Belempung Ulaq,64.07.07.2022,Barong Tongkok,Kabupaten,Kutai Barat,Kalimantan Timur
968,75776,Engkuni Pasek,64.07.07.2003,Barong Tongkok,Kabupaten,Kutai Barat,Kalimantan Timur
969,75776,Geleo Asa,64.07.07.2016,Barong Tongkok,Kabupaten,Kutai Barat,Kalimantan Timur
970,75776,Geleo Baru,64.07.07.2015,Barong Tongkok,Kabupaten,Kutai Barat,Kalimantan Timur
971,75776,Gemuhan Asa,64.07.07.2014,Barong Tongkok,Kabupaten,Kutai Barat,Kalimantan Timur
972,75776,Juaq Asa,64.07.07.2011,Barong Tongkok,Kabupaten,Kutai Barat,Kalimantan Timur
973,75776,Juhan Asa,64.07.07.2006,Barong Tongkok,Kabupaten,Kutai Barat,Kalimantan Timur
974,75776,Mencimai,64.07.07.2002,Barong Tongkok,Kabupaten,Kutai Barat,Kalimantan Timur
975,75776,Muara Asa,64.07.07.2009,Barong Tongkok,Kabupaten,Kutai Barat,Kalimantan Timur
976,75776,Ngenyan Asa,64.07.07.2013,Barong Tongkok,Kabupaten,Kutai Barat,Kalimantan Timur
977,75776,Ombau Asa,64.07.07.2012,Barong Tongkok,Kabupaten,Kutai Barat,Kalimantan Timur
978,75776,Ongko Asa,64.07.07.2010,Barong Tongkok,Kabupaten,Kutai Barat,Kalimantan Timur
979,75776,Pepas Eheng,64.07.07.2004,Barong Tongkok,Kabupaten,Kutai Barat,Kalimantan Timur
980,75776,Pepas/Pepes Asa,64.07.07.2008,Barong Tongkok,Kabupaten,Kutai Barat,Kalimantan Timur
981,75776,Rejo Basuki,64.07.07.2017,Barong Tongkok,Kabupaten,Kutai Barat,Kalimantan Timur
982,75776,Sendawar,64.07.07.2019,Barong Tongkok,Kabupaten,Kutai Barat,Kalimantan Timur
983,75776,Simpang Raya,64.07.07.1021,Barong Tongkok,Kabupaten,Kutai Barat,Kalimantan Timur
984,75776,Sumber Sari,64.07.07.2018,Barong Tongkok,Kabupaten,Kutai Barat,Kalimantan Timur
985,76136,Batu Ampar,64.71.03.1001,Balikpapan Utara,Kota,Balikpapan,Kalimantan Timur
986,76129,Graha Indah,64.71.03.1006,Balikpapan Utara,Kota,Balikpapan,Kalimantan Timur
987,76125,Gunungsamarinda (Gunung Samarinda),64.71.03.1002,Balikpapan Utara,Kota,Balikpapan,Kalimantan Timur
988,76128,Gunungsamarinda Baru (Gunung Samarinda Baru),64.71.03.1005,Balikpapan Utara,Kota,Balikpapan,Kalimantan Timur
989,76127,Karang Joang,64.71.03.1003,Balikpapan Utara,Kota,Balikpapan,Kalimantan Timur
990,76125,Muararapak (Muara Rapak),64.71.03.1004,Balikpapan Utara,Kota,Balikpapan,Kalimantan Timur
991,76117,Lamaru,64.71.01.1002,Balikpapan Timur,Kota,Balikpapan,Kalimantan Timur
992,76116,Manggar,64.71.01.1001,Balikpapan Timur,Kota,Balikpapan,Kalimantan Timur
993,76116,Manggar Baru,64.71.01.1004,Balikpapan Timur,Kota,Balikpapan,Kalimantan Timur
994,76118,Teritip,64.71.01.1003,Balikpapan Timur,Kota,Balikpapan,Kalimantan Timur
995,76121,Gunungsari Ilir (Gunung Sari Ilir),64.71.04.1002,Balikpapan Tengah,Kota,Balikpapan,Kalimantan Timur
996,76122,Gunungsari Ulu (Gunung Sari Ulu),64.71.04.1001,Balikpapan Tengah,Kota,Balikpapan,Kalimantan Timur
997,76123,Karang Jati,64.71.04.1004,Balikpapan Tengah,Kota,Balikpapan,Kalimantan Timur
998,76124,Karang Rejo,64.71.04.1003,Balikpapan Tengah,Kota,Balikpapan,Kalimantan Timur
999,76122,Mekar Sari,64.71.04.1005,Balikpapan Tengah,Kota,Balikpapan,Kalimantan Timur
1000,76124,Sumber Rejo,64.71.04.1006,Balikpapan Tengah,Kota,Balikpapan,Kalimantan Timur
1001,76114,Damai Bahagia,64.71.05.1012,Balikpapan Selatan,Kota,Balikpapan,Kalimantan Timur
1002,76114,Damai Baru,64.71.05.1011,Balikpapan Selatan,Kota,Balikpapan,Kalimantan Timur
1003,76114,Gunungbahagia (Gunung Bahagia),64.71.05.1006,Balikpapan Selatan,Kota,Balikpapan,Kalimantan Timur
1004,76115,Sepinggan,64.71.05.1002,Balikpapan Selatan,Kota,Balikpapan,Kalimantan Timur
1005,76115,Sepinggan Baru,64.71.05.1008,Balikpapan Selatan,Kota,Balikpapan,Kalimantan Timur
1006,76115,Sepinggan Raya,64.71.05.1009,Balikpapan Selatan,Kota,Balikpapan,Kalimantan Timur
1007,76114,Sungainangka (Sungai Nangka),64.71.05.1010,Balikpapan Selatan,Kota,Balikpapan,Kalimantan Timur
1008,76114,Damai,64.71.06.1005,Balikpapan Kota,Kota,Balikpapan,Kalimantan Timur
1009,76113,Klandasan Ilir,64.71.06.1004,Balikpapan Kota,Kota,Balikpapan,Kalimantan Timur
1010,76112,Klandasan Ulu,64.71.06.1003,Balikpapan Kota,Kota,Balikpapan,Kalimantan Timur
1011,76111,Prapatan,64.71.06.1001,Balikpapan Kota,Kota,Balikpapan,Kalimantan Timur
1012,76111,Telaga Sari,64.71.06.1002,Balikpapan Kota,Kota,Balikpapan,Kalimantan Timur
1013,76131,Baru Ilir,64.71.02.1001,Balikpapan Barat,Kota,Balikpapan,Kalimantan Timur
1014,76132,Baru Tengah,64.71.02.1002,Balikpapan Barat,Kota,Balikpapan,Kalimantan Timur
1015,76133,Baru Ulu,64.71.02.1003,Balikpapan Barat,Kota,Balikpapan,Kalimantan Timur
1016,76134,Kariangau,64.71.02.1004,Balikpapan Barat,Kota,Balikpapan,Kalimantan Timur
1017,76131,Marga Sari,64.71.02.1006,Balikpapan Barat,Kota,Balikpapan,Kalimantan Timur
1018,76131,Margo Mulyo,64.71.02.1005,Balikpapan Barat,Kota,Balikpapan,Kalimantan Timur
1019,76285,Babulu Darat,64.09.03.2001,Babulu,Kabupaten,Penajam Paser Utara,Kalimantan Timur
1020,76285,Babulu Laut,64.09.03.2003,Babulu,Kabupaten,Penajam Paser Utara,Kalimantan Timur
1021,76285,Gunung Intan,64.09.03.2004,Babulu,Kabupaten,Penajam Paser Utara,Kalimantan Timur
1022,76285,Gunung Makmur,64.09.03.2005,Babulu,Kabupaten,Penajam Paser Utara,Kalimantan Timur
1023,76285,Gunung Mulia,64.09.03.2011,Babulu,Kabupaten,Penajam Paser Utara,Kalimantan Timur
1024,76285,Labangka,64.09.03.2002,Babulu,Kabupaten,Penajam Paser Utara,Kalimantan Timur
1025,76285,Labangka Barat,64.09.03.2012,Babulu,Kabupaten,Penajam Paser Utara,Kalimantan Timur
1026,76285,Rawa Mulia,64.09.03.2007,Babulu,Kabupaten,Penajam Paser Utara,Kalimantan Timur
1027,76285,Rintik,64.09.03.2010,Babulu,Kabupaten,Penajam Paser Utara,Kalimantan Timur
1028,76285,Sebakung Jaya,64.09.03.2006,Babulu,Kabupaten,Penajam Paser Utara,Kalimantan Timur
1029,76285,Sri Raharja,64.09.03.2008,Babulu,Kabupaten,Penajam Paser Utara,Kalimantan Timur
1030,76285,Sumber Sari,64.09.03.2009,Babulu,Kabupaten,Penajam Paser Utara,Kalimantan Timur
1031,75381,Anggana,64.02.04.2005,Anggana,Kabupaten,Kutai Kartanegara,Kalimantan Timur
1032,75381,Handil Terusan,64.02.04.2008,Anggana,Kabupaten,Kutai Kartanegara,Kalimantan Timur
1033,75381,Kutai Lama,64.02.04.2004,Anggana,Kabupaten,Kutai Kartanegara,Kalimantan Timur
1034,75381,Muara Pantuan,64.02.04.2002,Anggana,Kabupaten,Kutai Kartanegara,Kalimantan Timur
1035,75381,Sepatin,64.02.04.2001,Anggana,Kabupaten,Kutai Kartanegara,Kalimantan Timur
1036,76131,Sidomulyo,64.02.04.2007,Anggana,Kabupaten,Kutai Kartanegara,Kalimantan Timur
1037,75381,Sungai Meriam,64.02.04.2006,Anggana,Kabupaten,Kutai Kartanegara,Kalimantan Timur
1038,75381,Tani Baru,64.02.04.2003,Anggana,Kabupaten,Kutai Kartanegara,Kalimantan Timur