no,postal_code,urban,area_code,sub_district,dt2,city,province
1,33784,Bukit Terap,19.03.06.2005,Tukak Sadai,Kabupaten,Bangka Selatan,Kepulauan Bangka Belitung
2,33784,Pasir Putih,19.03.06.2003,Tukak Sadai,Kabupaten,Bangka Selatan,Kepulauan Bangka Belitung
3,33784,Sadai,19.03.06.2001,Tukak Sadai,Kabupaten,Bangka Selatan,Kepulauan Bangka Belitung
4,33784,Tiram,19.03.06.2004,Tukak Sadai,Kabupaten,Bangka Selatan,Kepulauan Bangka Belitung
5,33784,Tukak,19.03.06.2002,Tukak Sadai,Kabupaten,Bangka Selatan,Kepulauan Bangka Belitung
6,33783,Bikang,19.03.01.2006,Toboali,Kabupaten,Bangka Selatan,Kepulauan Bangka Belitung
7,33783,Gadung,19.03.01.2007,Toboali,Kabupaten,Bangka Selatan,Kepulauan Bangka Belitung
8,33783,Jeriji,19.03.01.2005,Toboali,Kabupaten,Bangka Selatan,Kepulauan Bangka Belitung
9,33783,Kaposang/Keposang,19.03.01.2012,Toboali,Kabupaten,Bangka Selatan,Kepulauan Bangka Belitung
10,33783,Kepoh,19.03.01.2010,Toboali,Kabupaten,Bangka Selatan,Kepulauan Bangka Belitung
11,33783,Rias,19.03.01.2008,Toboali,Kabupaten,Bangka Selatan,Kepulauan Bangka Belitung
12,33783,Rindik,19.03.01.2013,Toboali,Kabupaten,Bangka Selatan,Kepulauan Bangka Belitung
13,33783,Serdang,19.03.01.2004,Toboali,Kabupaten,Bangka Selatan,Kepulauan Bangka Belitung
14,33783,Tanjungketapang (Tanjung Ketapang),19.03.01.1003,Toboali,Kabupaten,Bangka Selatan,Kepulauan Bangka Belitung
15,33783,Teladan,19.03.01.1002,Toboali,Kabupaten,Bangka Selatan,Kepulauan Bangka Belitung
16,33783,Toboali,19.03.01.1001,Toboali,Kabupaten,Bangka Selatan,Kepulauan Bangka Belitung
17,33365,Air Lintang,19.05.05.2007,Tempilang,Kabupaten,Bangka Barat,Kepulauan Bangka Belitung
18,33365,Benteng Kota,19.05.05.2006,Tempilang,Kabupaten,Bangka Barat,Kepulauan Bangka Belitung
19,33365,Buyan Kelumbi,19.05.05.2004,Tempilang,Kabupaten,Bangka Barat,Kepulauan Bangka Belitung
20,33365,Penyampak,19.05.05.2005,Tempilang,Kabupaten,Bangka Barat,Kepulauan Bangka Belitung
21,33365,Sangku,19.05.05.2003,Tempilang,Kabupaten,Bangka Barat,Kepulauan Bangka Belitung
22,33365,Simpang Yul,19.05.05.2009,Tempilang,Kabupaten,Bangka Barat,Kepulauan Bangka Belitung
23,33365,Sinar Surya,19.05.05.2008,Tempilang,Kabupaten,Bangka Barat,Kepulauan Bangka Belitung
24,33365,Tanjung Niur (Tanjungniur),19.05.05.2002,Tempilang,Kabupaten,Bangka Barat,Kepulauan Bangka Belitung
25,33365,Tempilang,19.05.05.2001,Tempilang,Kabupaten,Bangka Barat,Kepulauan Bangka Belitung
26,33411,Aik Ketekok,19.02.01.2014,Tanjung Pandan,Kabupaten,Belitung,Kepulauan Bangka Belitung
27,33414,Aik Pelempang Jaya (Aik Palempang Jaya),19.02.01.2013,Tanjung Pandan,Kabupaten,Belitung,Kepulauan Bangka Belitung
28,33413,Aik Rayak,19.02.01.2015,Tanjung Pandan,Kabupaten,Belitung,Kepulauan Bangka Belitung
29,33411,Air Merbau,19.02.01.2012,Tanjung Pandan,Kabupaten,Belitung,Kepulauan Bangka Belitung
30,33415,Air Saga,19.02.01.2010,Tanjung Pandan,Kabupaten,Belitung,Kepulauan Bangka Belitung
31,33411,Buluh Tumbang,19.02.01.2003,Tanjung Pandan,Kabupaten,Belitung,Kepulauan Bangka Belitung
32,33411,Dukong,19.02.01.2007,Tanjung Pandan,Kabupaten,Belitung,Kepulauan Bangka Belitung
33,33417,Juru Seberang,19.02.01.2008,Tanjung Pandan,Kabupaten,Belitung,Kepulauan Bangka Belitung
34,33411,Kampong Damai,19.02.01.1016,Tanjung Pandan,Kabupaten,Belitung,Kepulauan Bangka Belitung
35,33411,Kota,19.02.01.1001,Tanjung Pandan,Kabupaten,Belitung,Kepulauan Bangka Belitung
36,33411,Lesung Batang,19.02.01.1005,Tanjung Pandan,Kabupaten,Belitung,Kepulauan Bangka Belitung
37,33414,Paal Satu,19.02.01.1011,Tanjung Pandan,Kabupaten,Belitung,Kepulauan Bangka Belitung
38,33412,Pangkallalang,19.02.01.1006,Tanjung Pandan,Kabupaten,Belitung,Kepulauan Bangka Belitung
39,33411,Parit,19.02.01.1002,Tanjung Pandan,Kabupaten,Belitung,Kepulauan Bangka Belitung
40,33413,Perawas,19.02.01.2004,Tanjung Pandan,Kabupaten,Belitung,Kepulauan Bangka Belitung
41,33411,Tanjungpendam,19.02.01.1009,Tanjung Pandan,Kabupaten,Belitung,Kepulauan Bangka Belitung
42,33121,Batin Tikal,19.71.02.1003,Taman Sari,Kota,Pangkal Pinang,Kepulauan Bangka Belitung
43,33127,Gedung Nasional,19.71.02.1002,Taman Sari,Kota,Pangkal Pinang,Kepulauan Bangka Belitung
44,33123,Kejaksaan,19.71.02.1005,Taman Sari,Kota,Pangkal Pinang,Kepulauan Bangka Belitung
45,33121,Opas Indah,19.71.02.1001,Taman Sari,Kota,Pangkal Pinang,Kepulauan Bangka Belitung
46,33121,Rawa Bangun,19.71.02.1004,Taman Sari,Kota,Pangkal Pinang,Kepulauan Bangka Belitung
47,33211,Bukit Betung,19.01.01.1013,Sungailiat (Sungai Liat),Kabupaten,Bangka,Kepulauan Bangka Belitung
48,33211,Jelitik,19.01.01.1010,Sungailiat (Sungai Liat),Kabupaten,Bangka,Kepulauan Bangka Belitung
49,33211,Kenanga,19.01.01.1005,Sungailiat (Sungai Liat),Kabupaten,Bangka,Kepulauan Bangka Belitung
50,33213,Kudai,19.01.01.1003,Sungailiat (Sungai Liat),Kabupaten,Bangka,Kepulauan Bangka Belitung
51,33211,Lubuk Kelik,19.01.01.1012,Sungailiat (Sungai Liat),Kabupaten,Bangka,Kepulauan Bangka Belitung
52,33212,Matras,19.01.01.1009,Sungailiat (Sungai Liat),Kabupaten,Bangka,Kepulauan Bangka Belitung
53,33215,Parit Padang,19.01.01.1006,Sungailiat (Sungai Liat),Kabupaten,Bangka,Kepulauan Bangka Belitung
54,33211,Rebo,19.01.01.2007,Sungailiat (Sungai Liat),Kabupaten,Bangka,Kepulauan Bangka Belitung
55,33212,Sinar Baru,19.01.01.1004,Sungailiat (Sungai Liat),Kabupaten,Bangka,Kepulauan Bangka Belitung
56,33212,Sinar Jaya Jelutung,19.01.01.1008,Sungailiat (Sungai Liat),Kabupaten,Bangka,Kepulauan Bangka Belitung
57,33214,Sri Menanti,19.01.01.1002,Sungailiat (Sungai Liat),Kabupaten,Bangka,Kepulauan Bangka Belitung
58,33211,Sungailiat,19.01.01.1001,Sungailiat (Sungai Liat),Kabupaten,Bangka,Kepulauan Bangka Belitung
59,33211,Surya Timur,19.01.01.1011,Sungailiat (Sungai Liat),Kabupaten,Bangka,Kepulauan Bangka Belitung
60,33675,Kemingking,19.04.03.2007,Sungai Selan,Kabupaten,Bangka Tengah,Kepulauan Bangka Belitung
61,33675,Kerakas,19.04.03.2011,Sungai Selan,Kabupaten,Bangka Tengah,Kepulauan Bangka Belitung
62,33675,Kerantai,19.04.03.2002,Sungai Selan,Kabupaten,Bangka Tengah,Kepulauan Bangka Belitung
63,33675,Keretak,19.04.03.2003,Sungai Selan,Kabupaten,Bangka Tengah,Kepulauan Bangka Belitung
64,33675,Keretak Atas,19.04.03.2013,Sungai Selan,Kabupaten,Bangka Tengah,Kepulauan Bangka Belitung
65,33675,Lampur,19.04.03.2004,Sungai Selan,Kabupaten,Bangka Tengah,Kepulauan Bangka Belitung
66,33675,Melabun,19.04.03.2012,Sungai Selan,Kabupaten,Bangka Tengah,Kepulauan Bangka Belitung
67,33675,Munggu,19.04.03.2006,Sungai Selan,Kabupaten,Bangka Tengah,Kepulauan Bangka Belitung
68,33675,Romadhon (Romadhoni),19.04.03.2010,Sungai Selan,Kabupaten,Bangka Tengah,Kepulauan Bangka Belitung
69,33675,Sarang Mandi (Sarangmandi),19.04.03.2005,Sungai Selan,Kabupaten,Bangka Tengah,Kepulauan Bangka Belitung
70,33675,Sungai Selan,19.04.03.1001,Sungai Selan,Kabupaten,Bangka Tengah,Kepulauan Bangka Belitung
71,33675,Sungai Selan Atas,19.04.03.2008,Sungai Selan,Kabupaten,Bangka Tengah,Kepulauan Bangka Belitung
72,33675,Tanjung Pura,19.04.03.2009,Sungai Selan,Kabupaten,Bangka Tengah,Kepulauan Bangka Belitung
73,33366,Air Menduyung,19.05.02.2013,Simpang Teritip,Kabupaten,Bangka Barat,Kepulauan Bangka Belitung
74,33366,Air Nyatoh,19.05.02.2005,Simpang Teritip,Kabupaten,Bangka Barat,Kepulauan Bangka Belitung
75,33366,Berang,19.05.02.2006,Simpang Teritip,Kabupaten,Bangka Barat,Kepulauan Bangka Belitung
76,33366,Bukit Terak,19.05.02.2012,Simpang Teritip,Kabupaten,Bangka Barat,Kepulauan Bangka Belitung
77,33366,Ibul,19.05.02.2010,Simpang Teritip,Kabupaten,Bangka Barat,Kepulauan Bangka Belitung
78,33366,Kundi,19.05.02.2002,Simpang Teritip,Kabupaten,Bangka Barat,Kepulauan Bangka Belitung
79,33366,Mayang,19.05.02.2003,Simpang Teritip,Kabupaten,Bangka Barat,Kepulauan Bangka Belitung
80,33366,Pangek,19.05.02.2011,Simpang Teritip,Kabupaten,Bangka Barat,Kepulauan Bangka Belitung
81,33366,Pelangas,19.05.02.2001,Simpang Teritip,Kabupaten,Bangka Barat,Kepulauan Bangka Belitung
82,33366,Peradong,19.05.02.2004,Simpang Teritip,Kabupaten,Bangka Barat,Kepulauan Bangka Belitung
83,33366,Rambat,19.05.02.2007,Simpang Teritip,Kabupaten,Bangka Barat,Kepulauan Bangka Belitung
84,33366,Simpang Gong (Simpang Gung),19.05.02.2008,Simpang Teritip,Kabupaten,Bangka Barat,Kepulauan Bangka Belitung
85,33366,Simpang Tiga,19.05.02.2009,Simpang Teritip,Kabupaten,Bangka Barat,Kepulauan Bangka Belitung
86,33777,Bangka Kota,19.03.04.2003,Simpang Rimba,Kabupaten,Bangka Selatan,Kepulauan Bangka Belitung
87,33777,Gudang,19.03.04.2002,Simpang Rimba,Kabupaten,Bangka Selatan,Kepulauan Bangka Belitung
88,33777,Jelutung II,19.03.04.2001,Simpang Rimba,Kabupaten,Bangka Selatan,Kepulauan Bangka Belitung
89,33777,Permis,19.03.04.2007,Simpang Rimba,Kabupaten,Bangka Selatan,Kepulauan Bangka Belitung
90,33777,Rajik,19.03.04.2004,Simpang Rimba,Kabupaten,Bangka Selatan,Kepulauan Bangka Belitung
91,33777,Sebagin,19.03.04.2005,Simpang Rimba,Kabupaten,Bangka Selatan,Kepulauan Bangka Belitung
92,33777,Simpang Rimba,19.03.04.2006,Simpang Rimba,Kabupaten,Bangka Selatan,Kepulauan Bangka Belitung
93,33563,Aik Madu,19.06.06.2003,Simpang Renggiang,Kabupaten,Belitung Timur,Kepulauan Bangka Belitung
94,33563,Lintang,19.06.06.2004,Simpang Renggiang,Kabupaten,Belitung Timur,Kepulauan Bangka Belitung
95,33563,Renggiang,19.06.06.2002,Simpang Renggiang,Kabupaten,Belitung Timur,Kepulauan Bangka Belitung
96,33563,Simpang Tiga,19.06.06.2001,Simpang Renggiang,Kabupaten,Belitung Timur,Kepulauan Bangka Belitung
97,33560,Dukong,19.06.07.2004,Simpang Pesak,Kabupaten,Belitung Timur,Kepulauan Bangka Belitung
98,33560,Simpang Pesak,19.06.07.2001,Simpang Pesak,Kabupaten,Belitung Timur,Kepulauan Bangka Belitung
99,33560,Tanjung Batu Itam,19.06.07.2002,Simpang Pesak,Kabupaten,Belitung Timur,Kepulauan Bangka Belitung
100,33560,Tanjung Kelumpang,19.06.07.2003,Simpang Pesak,Kabupaten,Belitung Timur,Kepulauan Bangka Belitung
101,33674,Beruas,19.04.04.2004,Simpang Katis,Kabupaten,Bangka Tengah,Kepulauan Bangka Belitung
102,33674,Celuak,19.04.04.2002,Simpang Katis,Kabupaten,Bangka Tengah,Kepulauan Bangka Belitung
103,33674,Katis,19.04.04.2009,Simpang Katis,Kabupaten,Bangka Tengah,Kepulauan Bangka Belitung
104,33674,Pasir Garam,19.04.04.2008,Simpang Katis,Kabupaten,Bangka Tengah,Kepulauan Bangka Belitung
105,33674,Pinang Sebatang,19.04.04.2010,Simpang Katis,Kabupaten,Bangka Tengah,Kepulauan Bangka Belitung
106,33674,Puput,19.04.04.2005,Simpang Katis,Kabupaten,Bangka Tengah,Kepulauan Bangka Belitung
107,33674,Simpang Katis,19.04.04.2001,Simpang Katis,Kabupaten,Bangka Tengah,Kepulauan Bangka Belitung
108,33674,Sungkap,19.04.04.2003,Simpang Katis,Kabupaten,Bangka Tengah,Kepulauan Bangka Belitung
109,33674,Terak,19.04.04.2007,Simpang Katis,Kabupaten,Bangka Tengah,Kepulauan Bangka Belitung
110,33674,Teru,19.04.04.2006,Simpang Katis,Kabupaten,Bangka Tengah,Kepulauan Bangka Belitung
111,33414,Air Selumar,19.02.04.2006,Sijuk,Kabupaten,Belitung,Kepulauan Bangka Belitung
112,33414,Air Seruk (Air Seru),19.02.04.2004,Sijuk,Kabupaten,Belitung,Kepulauan Bangka Belitung
113,33414,Batu Itam,19.02.04.2002,Sijuk,Kabupaten,Belitung,Kepulauan Bangka Belitung
114,33414,Keciput,19.02.04.2008,Sijuk,Kabupaten,Belitung,Kepulauan Bangka Belitung
115,33414,Pelepak Pute,19.02.04.2009,Sijuk,Kabupaten,Belitung,Kepulauan Bangka Belitung
116,33414,Sijuk,19.02.04.2001,Sijuk,Kabupaten,Belitung,Kepulauan Bangka Belitung
117,33414,Sungai Padang,19.02.04.2007,Sijuk,Kabupaten,Belitung,Kepulauan Bangka Belitung
118,33414,Tanjong Tinggi,19.02.04.2010,Sijuk,Kabupaten,Belitung,Kepulauan Bangka Belitung
119,33414,Tanjung Binga,19.02.04.2005,Sijuk,Kabupaten,Belitung,Kepulauan Bangka Belitung
120,33414,Terong,19.02.04.2003,Sijuk,Kabupaten,Belitung,Kepulauan Bangka Belitung
121,33481,Petaling,19.02.03.2002,Selat Nasik,Kabupaten,Belitung,Kepulauan Bangka Belitung
122,33481,Pulau Gersik (Pulau Gresik),19.02.03.2004,Selat Nasik,Kabupaten,Belitung,Kepulauan Bangka Belitung
123,33481,Selat Nasik,19.02.03.2001,Selat Nasik,Kabupaten,Belitung,Kepulauan Bangka Belitung
124,33481,Suak Gual,19.02.03.2003,Selat Nasik,Kabupaten,Belitung,Kepulauan Bangka Belitung
125,33254,Banyu Asin,19.01.07.2008,Riau Silip,Kabupaten,Bangka,Kepulauan Bangka Belitung
126,33254,Berbura,19.01.07.2009,Riau Silip,Kabupaten,Bangka,Kepulauan Bangka Belitung
127,33254,Cit,19.01.07.2004,Riau Silip,Kabupaten,Bangka,Kepulauan Bangka Belitung
128,33254,Deniang,19.01.07.2005,Riau Silip,Kabupaten,Bangka,Kepulauan Bangka Belitung
129,33254,Mapur,19.01.07.2007,Riau Silip,Kabupaten,Bangka,Kepulauan Bangka Belitung
130,33254,Pangkal Niur,19.01.07.2002,Riau Silip,Kabupaten,Bangka,Kepulauan Bangka Belitung
131,33254,Pugul,19.01.07.2003,Riau Silip,Kabupaten,Bangka,Kepulauan Bangka Belitung
132,33254,Riau,19.01.07.2001,Riau Silip,Kabupaten,Bangka,Kepulauan Bangka Belitung
133,33254,Silip,19.01.07.2006,Riau Silip,Kabupaten,Bangka,Kepulauan Bangka Belitung
134,33135,Asam,19.71.04.1006,Rangkui,Kota,Pangkal Pinang,Kepulauan Bangka Belitung
135,33138,Bintang,19.71.04.1002,Rangkui,Kota,Pangkal Pinang,Kepulauan Bangka Belitung
136,33139,Gajah Mada,19.71.04.1010,Rangkui,Kota,Pangkal Pinang,Kepulauan Bangka Belitung
137,33134,Keramat,19.71.04.1009,Rangkui,Kota,Pangkal Pinang,Kepulauan Bangka Belitung
138,33132,Masjid Jamik,19.71.04.1005,Rangkui,Kota,Pangkal Pinang,Kepulauan Bangka Belitung
139,33136,Melintang,19.71.04.1007,Rangkui,Kota,Pangkal Pinang,Kepulauan Bangka Belitung
140,33137,Parit Lalang,19.71.04.1008,Rangkui,Kota,Pangkal Pinang,Kepulauan Bangka Belitung
141,33133,Pintu Air,19.71.04.1001,Rangkui,Kota,Pangkal Pinang,Kepulauan Bangka Belitung
142,33779,Batu Betumpang,19.03.07.2001,Pulau Besar (Pulaubesar),Kabupaten,Bangka Selatan,Kepulauan Bangka Belitung
143,33779,Fajar Indah (Trans 1),19.03.07.2005,Pulau Besar (Pulaubesar),Kabupaten,Bangka Selatan,Kepulauan Bangka Belitung
144,33779,Panca Tunggal (Trans 3),19.03.07.2003,Pulau Besar (Pulaubesar),Kabupaten,Bangka Selatan,Kepulauan Bangka Belitung
145,33779,Sukajaya,19.03.07.2002,Pulau Besar (Pulaubesar),Kabupaten,Bangka Selatan,Kepulauan Bangka Belitung
146,33779,Sumber Jaya Permai (Trans 4),19.03.07.2004,Pulau Besar (Pulaubesar),Kabupaten,Bangka Selatan,Kepulauan Bangka Belitung
147,33179,Kayu Besi,19.01.08.2007,Puding Besar,Kabupaten,Bangka,Kepulauan Bangka Belitung
148,33179,Kota Waringin,19.01.08.2006,Puding Besar,Kabupaten,Bangka,Kepulauan Bangka Belitung
149,33179,Labu,19.01.08.2002,Puding Besar,Kabupaten,Bangka,Kepulauan Bangka Belitung
150,33179,Nibung,19.01.08.2003,Puding Besar,Kabupaten,Bangka,Kepulauan Bangka Belitung
151,33179,Puding Besar (Pudingbesar),19.01.08.2001,Puding Besar,Kabupaten,Bangka,Kepulauan Bangka Belitung
152,33179,Saing,19.01.08.2005,Puding Besar,Kabupaten,Bangka,Kepulauan Bangka Belitung
153,33179,Tanah Bawah,19.01.08.2004,Puding Besar,Kabupaten,Bangka,Kepulauan Bangka Belitung
154,33255,Air Duren,19.01.05.2002,Pemali,Kabupaten,Bangka,Kepulauan Bangka Belitung
155,33255,Air Ruai,19.01.05.2001,Pemali,Kabupaten,Bangka,Kepulauan Bangka Belitung
156,33255,Karya Makmur,19.01.05.2006,Pemali,Kabupaten,Bangka,Kepulauan Bangka Belitung
157,33255,Pemali,19.01.05.2005,Pemali,Kabupaten,Bangka,Kepulauan Bangka Belitung
158,33251,Penyamun,19.01.05.2003,Pemali,Kabupaten,Bangka,Kepulauan Bangka Belitung
159,33251,Sempan,19.01.05.2004,Pemali,Kabupaten,Bangka,Kepulauan Bangka Belitung
160,33778,Bedengung,19.03.05.2006,Payung,Kabupaten,Bangka Selatan,Kepulauan Bangka Belitung
161,33778,Irat,19.03.05.2005,Payung,Kabupaten,Bangka Selatan,Kepulauan Bangka Belitung
162,33778,Malik,19.03.05.2002,Payung,Kabupaten,Bangka Selatan,Kepulauan Bangka Belitung
163,33778,Nadung,19.03.05.2008,Payung,Kabupaten,Bangka Selatan,Kepulauan Bangka Belitung
164,33778,Paku,19.03.05.2012,Payung,Kabupaten,Bangka Selatan,Kepulauan Bangka Belitung
165,33778,Pangkal Buluh (Pangkalbuluh),19.03.05.2004,Payung,Kabupaten,Bangka Selatan,Kepulauan Bangka Belitung
166,33778,Payung,19.03.05.2001,Payung,Kabupaten,Bangka Selatan,Kepulauan Bangka Belitung
167,33778,Ranggung,19.03.05.2009,Payung,Kabupaten,Bangka Selatan,Kepulauan Bangka Belitung
168,33778,Sengir,19.03.05.2003,Payung,Kabupaten,Bangka Selatan,Kepulauan Bangka Belitung
169,33363,Air Gantang,19.05.06.2006,Parittiga,Kabupaten,Bangka Barat,Kepulauan Bangka Belitung
170,33363,Bakit,19.05.06.2004,Parittiga,Kabupaten,Bangka Barat,Kepulauan Bangka Belitung
171,33363,Cupat,19.05.06.2003,Parittiga,Kabupaten,Bangka Barat,Kepulauan Bangka Belitung
172,33363,Kapit,19.05.06.2008,Parittiga,Kabupaten,Bangka Barat,Kepulauan Bangka Belitung
173,33363,Kelabat,19.05.06.2007,Parittiga,Kabupaten,Bangka Barat,Kepulauan Bangka Belitung
174,33363,Puput,19.05.06.2005,Parittiga,Kabupaten,Bangka Barat,Kepulauan Bangka Belitung
175,33363,Sekar Biru,19.05.06.2001,Parittiga,Kabupaten,Bangka Barat,Kepulauan Bangka Belitung
176,33363,Semulut,19.05.06.2009,Parittiga,Kabupaten,Bangka Barat,Kepulauan Bangka Belitung
177,33363,Telak,19.05.06.2002,Parittiga,Kabupaten,Bangka Barat,Kepulauan Bangka Belitung
178,33363,Teluk Limau,19.05.06.2010,Parittiga,Kabupaten,Bangka Barat,Kepulauan Bangka Belitung
179,33684,Air Mesu (Airmesu),19.04.02.2004,Pangkalan Baru,Kabupaten,Bangka Tengah,Kepulauan Bangka Belitung
180,33684,Air Mesu Timur,19.04.02.2020,Pangkalan Baru,Kabupaten,Bangka Tengah,Kepulauan Bangka Belitung
181,33684,Batu Belubang,19.04.02.2018,Pangkalan Baru,Kabupaten,Bangka Tengah,Kepulauan Bangka Belitung
182,33684,Beluluk,19.04.02.2014,Pangkalan Baru,Kabupaten,Bangka Tengah,Kepulauan Bangka Belitung
183,33684,Benteng,19.04.02.2010,Pangkalan Baru,Kabupaten,Bangka Tengah,Kepulauan Bangka Belitung
184,33684,Dul,19.04.02.1001,Pangkalan Baru,Kabupaten,Bangka Tengah,Kepulauan Bangka Belitung
185,33684,Jeruk,19.04.02.2013,Pangkalan Baru,Kabupaten,Bangka Tengah,Kepulauan Bangka Belitung
186,33684,Kebintik,19.04.02.2021,Pangkalan Baru,Kabupaten,Bangka Tengah,Kepulauan Bangka Belitung
187,33684,Mangkol,19.04.02.2006,Pangkalan Baru,Kabupaten,Bangka Tengah,Kepulauan Bangka Belitung
188,33684,Padang Baru,19.04.02.2012,Pangkalan Baru,Kabupaten,Bangka Tengah,Kepulauan Bangka Belitung
189,33684,Pedindang (Pelindang / Selindung),19.04.02.2016,Pangkalan Baru,Kabupaten,Bangka Tengah,Kepulauan Bangka Belitung
190,33684,Tanjung Gunung,19.04.02.2007,Pangkalan Baru,Kabupaten,Bangka Tengah,Kepulauan Bangka Belitung
191,33113,Ampui,19.71.03.1007,Pangkal Balam,Kota,Pangkal Pinang,Kepulauan Bangka Belitung
192,33111,Ketapang,19.71.03.1006,Pangkal Balam,Kota,Pangkal Pinang,Kepulauan Bangka Belitung
193,33115,Lontong Pancur,19.71.03.1005,Pangkal Balam,Kota,Pangkal Pinang,Kepulauan Bangka Belitung
194,33115,Pasir Garam,19.71.03.1004,Pangkal Balam,Kota,Pangkal Pinang,Kepulauan Bangka Belitung
195,33111,Rejo Sari (Rejosari),19.71.03.1008,Pangkal Balam,Kota,Pangkal Pinang,Kepulauan Bangka Belitung
196,33683,Baskara Bakti/Bhakti,19.04.05.2006,Namang,Kabupaten,Bangka Tengah,Kepulauan Bangka Belitung
197,33683,Belilik,19.04.05.2005,Namang,Kabupaten,Bangka Tengah,Kepulauan Bangka Belitung
198,33683,Bukit Kijang,19.04.05.2008,Namang,Kabupaten,Bangka Tengah,Kepulauan Bangka Belitung
199,33683,Cambai,19.04.05.2002,Namang,Kabupaten,Bangka Tengah,Kepulauan Bangka Belitung
200,33683,Cambai Selatan,19.04.05.2009,Namang,Kabupaten,Bangka Tengah,Kepulauan Bangka Belitung
201,33683,Jelutung,19.04.05.2004,Namang,Kabupaten,Bangka Tengah,Kepulauan Bangka Belitung
202,33683,Kayu Besi,19.04.05.2003,Namang,Kabupaten,Bangka Tengah,Kepulauan Bangka Belitung
203,33683,Namang,19.04.05.2001,Namang,Kabupaten,Bangka Tengah,Kepulauan Bangka Belitung
204,33172,Air Anyir,19.01.03.2008,Merawang,Kabupaten,Bangka,Kepulauan Bangka Belitung
205,33172,Balun Ijuk,19.01.03.2002,Merawang,Kabupaten,Bangka,Kepulauan Bangka Belitung
206,33172,Batu Rusa (Baturusa),19.01.03.2001,Merawang,Kabupaten,Bangka,Kepulauan Bangka Belitung
207,33172,Dwi Makmur,19.01.03.2009,Merawang,Kabupaten,Bangka,Kepulauan Bangka Belitung
208,33172,Jada Bahrin,19.01.03.2010,Merawang,Kabupaten,Bangka,Kepulauan Bangka Belitung
209,33172,Jurung,19.01.03.2004,Merawang,Kabupaten,Bangka,Kepulauan Bangka Belitung
210,33172,Kimak,19.01.03.2005,Merawang,Kabupaten,Bangka,Kepulauan Bangka Belitung
211,33172,Merawang,19.01.03.2007,Merawang,Kabupaten,Bangka,Kepulauan Bangka Belitung
212,33172,Pagarawan,19.01.03.2006,Merawang,Kabupaten,Bangka,Kepulauan Bangka Belitung
213,33172,Riding Panjang,19.01.03.2003,Merawang,Kabupaten,Bangka,Kepulauan Bangka Belitung
214,33351,Air Belo,19.05.01.2005,Mentok (Muntok),Kabupaten,Bangka Barat,Kepulauan Bangka Belitung
215,33351,Air Limau,19.05.01.2007,Mentok (Muntok),Kabupaten,Bangka Barat,Kepulauan Bangka Belitung
216,33351,Air Putih,19.05.01.2004,Mentok (Muntok),Kabupaten,Bangka Barat,Kepulauan Bangka Belitung
217,33351,Belo Laut (Belolaut),19.05.01.2006,Mentok (Muntok),Kabupaten,Bangka Barat,Kepulauan Bangka Belitung
218,33311,Keranggan,19.05.01.1008,Mentok (Muntok),Kabupaten,Bangka Barat,Kepulauan Bangka Belitung
219,33311,Menjelang,19.05.01.1009,Mentok (Muntok),Kabupaten,Bangka Barat,Kepulauan Bangka Belitung
220,33312,Sungai Baru,19.05.01.1003,Mentok (Muntok),Kabupaten,Bangka Barat,Kepulauan Bangka Belitung
221,33313,Sungai Daeng,19.05.01.1002,Mentok (Muntok),Kabupaten,Bangka Barat,Kepulauan Bangka Belitung
222,33311,Tanjung,19.05.01.1001,Mentok (Muntok),Kabupaten,Bangka Barat,Kepulauan Bangka Belitung
223,33173,Air Buluh,19.01.04.2011,Mendo Barat,Kabupaten,Bangka,Kepulauan Bangka Belitung
224,33173,Air Duren,19.01.04.2009,Mendo Barat,Kabupaten,Bangka,Kepulauan Bangka Belitung
225,33173,Cengkong Abang,19.01.04.2006,Mendo Barat,Kabupaten,Bangka,Kepulauan Bangka Belitung
226,33173,Kace,19.01.04.2007,Mendo Barat,Kabupaten,Bangka,Kepulauan Bangka Belitung
227,33173,Kace Timur,19.01.04.2014,Mendo Barat,Kabupaten,Bangka,Kepulauan Bangka Belitung
228,33173,Kemuja,19.01.04.2008,Mendo Barat,Kabupaten,Bangka,Kepulauan Bangka Belitung
229,33173,Kota Kapur,19.01.04.2010,Mendo Barat,Kabupaten,Bangka,Kepulauan Bangka Belitung
230,33173,Labuh Air Pandan,19.01.04.2013,Mendo Barat,Kabupaten,Bangka,Kepulauan Bangka Belitung
231,33173,Mendo (Menduk),19.01.04.2004,Mendo Barat,Kabupaten,Bangka,Kepulauan Bangka Belitung
232,33173,Paya Benua (Payabenua),19.01.04.2005,Mendo Barat,Kabupaten,Bangka,Kepulauan Bangka Belitung
233,33173,Penagan,19.01.04.2002,Mendo Barat,Kabupaten,Bangka,Kepulauan Bangka Belitung
234,33173,Petaling,19.01.04.2001,Mendo Barat,Kabupaten,Bangka,Kepulauan Bangka Belitung
235,33173,Petaling Banjar,19.01.04.2015,Mendo Barat,Kabupaten,Bangka,Kepulauan Bangka Belitung
236,33173,Rukam,19.01.04.2012,Mendo Barat,Kabupaten,Bangka,Kepulauan Bangka Belitung
237,33173,Zed,19.01.04.2003,Mendo Barat,Kabupaten,Bangka,Kepulauan Bangka Belitung
238,33452,Bantan,19.02.02.2006,Membalong,Kabupaten,Belitung,Kepulauan Bangka Belitung
239,33452,Gunung Riting,19.02.02.2011,Membalong,Kabupaten,Belitung,Kepulauan Bangka Belitung
240,33452,Kembiri,19.02.02.2005,Membalong,Kabupaten,Belitung,Kepulauan Bangka Belitung
241,33452,Lassar,19.02.02.2003,Membalong,Kabupaten,Belitung,Kepulauan Bangka Belitung
242,33452,Membalong,19.02.02.2001,Membalong,Kabupaten,Belitung,Kepulauan Bangka Belitung
243,33452,Mentigi,19.02.02.2008,Membalong,Kabupaten,Belitung,Kepulauan Bangka Belitung
244,33452,Padang Kandis,19.02.02.2012,Membalong,Kabupaten,Belitung,Kepulauan Bangka Belitung
245,33452,Perpat,19.02.02.2002,Membalong,Kabupaten,Belitung,Kepulauan Bangka Belitung
246,33452,Pulau Seliu,19.02.02.2009,Membalong,Kabupaten,Belitung,Kepulauan Bangka Belitung
247,33452,Pulau Sumedang,19.02.02.2010,Membalong,Kabupaten,Belitung,Kepulauan Bangka Belitung
248,33452,Simpang Rusa,19.02.02.2004,Membalong,Kabupaten,Belitung,Kepulauan Bangka Belitung
249,33452,Tanjungrusa (Tanjung Rusa),19.02.02.2007,Membalong,Kabupaten,Belitung,Kepulauan Bangka Belitung
250,33512,Baru,19.06.01.2007,Manggar,Kabupaten,Belitung Timur,Kepulauan Bangka Belitung
251,33517,Bentaian Jaya,19.06.01.2013,Manggar,Kabupaten,Belitung Timur,Kepulauan Bangka Belitung
252,33511,Buku Limau (Pulau Buku Limau),19.06.01.2010,Manggar,Kabupaten,Belitung Timur,Kepulauan Bangka Belitung
253,33517,Kelubi,19.06.01.2004,Manggar,Kabupaten,Belitung Timur,Kepulauan Bangka Belitung
254,33512,Kurnia Jaya,19.06.01.2002,Manggar,Kabupaten,Belitung Timur,Kepulauan Bangka Belitung
255,33511,Lalang,19.06.01.2006,Manggar,Kabupaten,Belitung Timur,Kepulauan Bangka Belitung
256,33511,Lalang Jaya,19.06.01.2001,Manggar,Kabupaten,Belitung Timur,Kepulauan Bangka Belitung
257,33517,Mekar Jaya,19.06.01.2012,Manggar,Kabupaten,Belitung Timur,Kepulauan Bangka Belitung
258,33516,Padang,19.06.01.2003,Manggar,Kabupaten,Belitung Timur,Kepulauan Bangka Belitung
259,33682,Batu Beriga,19.04.06.2002,Lubuk Besar,Kabupaten,Bangka Tengah,Kepulauan Bangka Belitung
260,33682,Belimbing,19.04.06.2009,Lubuk Besar,Kabupaten,Bangka Tengah,Kepulauan Bangka Belitung
261,33682,Kulur,19.04.06.2004,Lubuk Besar,Kabupaten,Bangka Tengah,Kepulauan Bangka Belitung
262,33682,Kulur Ilir (Kulur Hilir),19.04.06.2008,Lubuk Besar,Kabupaten,Bangka Tengah,Kepulauan Bangka Belitung
263,33682,Lubuk Besar,19.04.06.2003,Lubuk Besar,Kabupaten,Bangka Tengah,Kepulauan Bangka Belitung
264,33682,Lubuk Lingkuk,19.04.06.2005,Lubuk Besar,Kabupaten,Bangka Tengah,Kepulauan Bangka Belitung
265,33682,Lubuk Pabrik,19.04.06.2006,Lubuk Besar,Kabupaten,Bangka Tengah,Kepulauan Bangka Belitung
266,33682,Perlang,19.04.06.2001,Lubuk Besar,Kabupaten,Bangka Tengah,Kepulauan Bangka Belitung
267,33682,Trubus,19.04.06.2007,Lubuk Besar,Kabupaten,Bangka Tengah,Kepulauan Bangka Belitung
268,33792,Kumbung,19.03.02.2004,Lepar (Lepar Pongok),Kabupaten,Bangka Selatan,Kepulauan Bangka Belitung
269,33792,Penutuk,19.03.02.2005,Lepar (Lepar Pongok),Kabupaten,Bangka Selatan,Kepulauan Bangka Belitung
270,33792,Tanjunglabu (Tanjung Labu),19.03.02.2001,Lepar (Lepar Pongok),Kabupaten,Bangka Selatan,Kepulauan Bangka Belitung
271,33792,Tanjungsangkar (Tanjung Sangkar),19.03.02.2002,Lepar (Lepar Pongok),Kabupaten,Bangka Selatan,Kepulauan Bangka Belitung
272,33681,Arung Dalam,19.04.01.1002,Koba,Kabupaten,Bangka Tengah,Kepulauan Bangka Belitung
273,33681,Berok,19.04.01.1017,Koba,Kabupaten,Bangka Tengah,Kepulauan Bangka Belitung
274,33681,Guntung,19.04.01.2006,Koba,Kabupaten,Bangka Tengah,Kepulauan Bangka Belitung
275,33681,Koba,19.04.01.1001,Koba,Kabupaten,Bangka Tengah,Kepulauan Bangka Belitung
276,33681,Kurau (Timur),19.04.01.2005,Koba,Kabupaten,Bangka Tengah,Kepulauan Bangka Belitung
277,33681,Kurau Barat,19.04.01.2010,Koba,Kabupaten,Bangka Tengah,Kepulauan Bangka Belitung
278,33681,Nibung,19.04.01.2003,Koba,Kabupaten,Bangka Tengah,Kepulauan Bangka Belitung
279,33681,Padang Mulia (Padang Mulya),19.04.01.1018,Koba,Kabupaten,Bangka Tengah,Kepulauan Bangka Belitung
280,33681,Penyak,19.04.01.2007,Koba,Kabupaten,Bangka Tengah,Kepulauan Bangka Belitung
281,33681,Simpang Perlang,19.04.01.1019,Koba,Kabupaten,Bangka Tengah,Kepulauan Bangka Belitung
282,33681,Terentang III,19.04.01.2008,Koba,Kabupaten,Bangka Tengah,Kepulauan Bangka Belitung
283,33791,Celagen,19.03.08.2002,Kepulauan Pongok,Kabupaten,Bangka Selatan,Kepulauan Bangka Belitung
284,33791,Pongok,19.03.08.2001,Kepulauan Pongok,Kabupaten,Bangka Selatan,Kepulauan Bangka Belitung
285,33572,Buding,19.06.04.2005,Kelapa Kampit,Kabupaten,Belitung Timur,Kepulauan Bangka Belitung
286,33572,Cendil,19.06.04.2003,Kelapa Kampit,Kabupaten,Belitung Timur,Kepulauan Bangka Belitung
287,33572,Mayang,19.06.04.2006,Kelapa Kampit,Kabupaten,Belitung Timur,Kepulauan Bangka Belitung
288,33572,Mentawak,19.06.04.2001,Kelapa Kampit,Kabupaten,Belitung Timur,Kepulauan Bangka Belitung
289,33572,Pembaharuan,19.06.04.2007,Kelapa Kampit,Kabupaten,Belitung Timur,Kepulauan Bangka Belitung
290,33572,Senyubuk,19.06.04.2002,Kelapa Kampit,Kabupaten,Belitung Timur,Kepulauan Bangka Belitung
291,33364,Air Bulin,19.05.04.2013,Kelapa,Kabupaten,Bangka Barat,Kepulauan Bangka Belitung
292,33364,Beruas,19.05.04.2008,Kelapa,Kabupaten,Bangka Barat,Kepulauan Bangka Belitung
293,33364,Dendang,19.05.04.2005,Kelapa,Kabupaten,Bangka Barat,Kepulauan Bangka Belitung
294,33364,Kacung,19.05.04.2006,Kelapa,Kabupaten,Bangka Barat,Kepulauan Bangka Belitung
295,33364,Kayu Arang (Kayuarang),19.05.04.2003,Kelapa,Kabupaten,Bangka Barat,Kepulauan Bangka Belitung
296,33364,Kelapa,19.05.04.1001,Kelapa,Kabupaten,Bangka Barat,Kepulauan Bangka Belitung
297,33364,Mancung,19.05.04.2002,Kelapa,Kabupaten,Bangka Barat,Kepulauan Bangka Belitung
298,33364,Pangkal Beras,19.05.04.2014,Kelapa,Kabupaten,Bangka Barat,Kepulauan Bangka Belitung
299,33364,Pusuk,19.05.04.2004,Kelapa,Kabupaten,Bangka Barat,Kepulauan Bangka Belitung
300,33364,Sinar Sari,19.05.04.2007,Kelapa,Kabupaten,Bangka Barat,Kepulauan Bangka Belitung
301,33364,Tebing,19.05.04.2009,Kelapa,Kabupaten,Bangka Barat,Kepulauan Bangka Belitung
302,33364,Terentang,19.05.04.2010,Kelapa,Kabupaten,Bangka Barat,Kepulauan Bangka Belitung
303,33364,Tugang,19.05.04.2012,Kelapa,Kabupaten,Bangka Barat,Kepulauan Bangka Belitung
304,33364,Tuik,19.05.04.2011,Kelapa,Kabupaten,Bangka Barat,Kepulauan Bangka Belitung
305,33362,Air Kuang,19.05.03.2021,Jebus,Kabupaten,Bangka Barat,Kepulauan Bangka Belitung
306,33362,Jebus,19.05.03.2001,Jebus,Kabupaten,Bangka Barat,Kepulauan Bangka Belitung
307,33362,Ketap,19.05.03.2009,Jebus,Kabupaten,Bangka Barat,Kepulauan Bangka Belitung
308,33362,Limbung,19.05.03.2004,Jebus,Kabupaten,Bangka Barat,Kepulauan Bangka Belitung
309,33362,Mislak,19.05.03.2018,Jebus,Kabupaten,Bangka Barat,Kepulauan Bangka Belitung
310,33362,Pebuar,19.05.03.2019,Jebus,Kabupaten,Bangka Barat,Kepulauan Bangka Belitung
311,33362,Ranggi Asam,19.05.03.2008,Jebus,Kabupaten,Bangka Barat,Kepulauan Bangka Belitung
312,33362,Rukam,19.05.03.2005,Jebus,Kabupaten,Bangka Barat,Kepulauan Bangka Belitung
313,33362,Sinar Manik,19.05.03.2020,Jebus,Kabupaten,Bangka Barat,Kepulauan Bangka Belitung
314,33362,Sungai Buluh,19.05.03.2002,Jebus,Kabupaten,Bangka Barat,Kepulauan Bangka Belitung
315,33362,Tumbak Petar,19.05.03.2003,Jebus,Kabupaten,Bangka Barat,Kepulauan Bangka Belitung
316,33145,Bukitbesar (Bukit Besar),19.71.07.1003,Girimaya,Kota,Pangkal Pinang,Kepulauan Bangka Belitung
317,33141,Bukitintan (Batu Intan),19.71.07.1002,Girimaya,Kota,Pangkal Pinang,Kepulauan Bangka Belitung
318,33142,Pasar Padi,19.71.07.1001,Girimaya,Kota,Pangkal Pinang,Kepulauan Bangka Belitung
319,33146,Semabung Baru,19.71.07.1005,Girimaya,Kota,Pangkal Pinang,Kepulauan Bangka Belitung
320,33143,Sriwijaya,19.71.07.1004,Girimaya,Kota,Pangkal Pinang,Kepulauan Bangka Belitung
321,33123,Air Kepala Tujuh,19.71.05.1007,Gerunggang,Kota,Pangkal Pinang,Kepulauan Bangka Belitung
322,33123,Bukitmerapin (Bukit Merapin / Bukit Merapen),19.71.05.1002,Gerunggang,Kota,Pangkal Pinang,Kepulauan Bangka Belitung
323,33123,Bukitsari (Bukit Sari),19.71.05.1004,Gerunggang,Kota,Pangkal Pinang,Kepulauan Bangka Belitung
324,33125,Kacang Pedang,19.71.05.1006,Gerunggang,Kota,Pangkal Pinang,Kepulauan Bangka Belitung
325,33123,Taman Bunga,19.71.05.1001,Gerunggang,Kota,Pangkal Pinang,Kepulauan Bangka Belitung
326,33124,Tua Tunu (Tua Tunu indah),19.71.05.1005,Gerunggang,Kota,Pangkal Pinang,Kepulauan Bangka Belitung
327,33562,Batu Penyu,19.06.02.2010,Gantung,Kabupaten,Belitung Timur,Kepulauan Bangka Belitung
328,33562,Gantung,19.06.02.2001,Gantung,Kabupaten,Belitung Timur,Kepulauan Bangka Belitung
329,33562,Jangkar Asam,19.06.02.2003,Gantung,Kabupaten,Belitung Timur,Kepulauan Bangka Belitung
330,33562,Lenggang,19.06.02.2009,Gantung,Kabupaten,Belitung Timur,Kepulauan Bangka Belitung
331,33562,Lilangan,19.06.02.2004,Gantung,Kabupaten,Belitung Timur,Kepulauan Bangka Belitung
332,33562,Limbongan,19.06.02.2011,Gantung,Kabupaten,Belitung Timur,Kepulauan Bangka Belitung
333,33562,Selingsing,19.06.02.2002,Gantung,Kabupaten,Belitung Timur,Kepulauan Bangka Belitung
334,33111,Air Salemba,19.71.06.1005,Gabek,Kota,Pangkal Pinang,Kepulauan Bangka Belitung
335,33116,Gabek Dua,19.71.06.1004,Gabek,Kota,Pangkal Pinang,Kepulauan Bangka Belitung
336,33118,Gabek Satu,19.71.06.1003,Gabek,Kota,Pangkal Pinang,Kepulauan Bangka Belitung
337,33119,Jerambah Gantung,19.71.06.1006,Gabek,Kota,Pangkal Pinang,Kepulauan Bangka Belitung
338,33117,Selindung (Selindung Lama),19.71.06.1001,Gabek,Kota,Pangkal Pinang,Kepulauan Bangka Belitung
339,33117,Selindung Baru,19.71.06.1002,Gabek,Kota,Pangkal Pinang,Kepulauan Bangka Belitung
340,33561,Balok,19.06.03.2008,Dendang,Kabupaten,Belitung Timur,Kepulauan Bangka Belitung
341,33561,Dendang,19.06.03.2001,Dendang,Kabupaten,Belitung Timur,Kepulauan Bangka Belitung
342,33561,Jangkang,19.06.03.2002,Dendang,Kabupaten,Belitung Timur,Kepulauan Bangka Belitung
343,33561,Nyuruk,19.06.03.2005,Dendang,Kabupaten,Belitung Timur,Kepulauan Bangka Belitung
344,33571,Air Kelik,19.06.05.2001,Damar,Kabupaten,Belitung Timur,Kepulauan Bangka Belitung
345,33571,Burong Mandi (Burung Mandi),19.06.05.2003,Damar,Kabupaten,Belitung Timur,Kepulauan Bangka Belitung
346,33515,Mempaya,19.06.05.2002,Damar,Kabupaten,Belitung Timur,Kepulauan Bangka Belitung
347,33514,Mengkubang,19.06.05.2004,Damar,Kabupaten,Belitung Timur,Kepulauan Bangka Belitung
348,33513,Sukamandi,19.06.05.2005,Damar,Kabupaten,Belitung Timur,Kepulauan Bangka Belitung
349,33149,Air Itam,19.71.01.1007,Bukit Intan (Bukitintan),Kota,Pangkal Pinang,Kepulauan Bangka Belitung
350,33147,Air Mawar,19.71.01.1011,Bukit Intan (Bukitintan),Kota,Pangkal Pinang,Kepulauan Bangka Belitung
351,33148,Bacang,19.71.01.1006,Bukit Intan (Bukitintan),Kota,Pangkal Pinang,Kepulauan Bangka Belitung
352,33147,Pasir Putih,19.71.01.1008,Bukit Intan (Bukitintan),Kota,Pangkal Pinang,Kepulauan Bangka Belitung
353,33147,Semabung Lama,19.71.01.1004,Bukit Intan (Bukitintan),Kota,Pangkal Pinang,Kepulauan Bangka Belitung
354,33147,Sinar Bulan,19.71.01.1010,Bukit Intan (Bukitintan),Kota,Pangkal Pinang,Kepulauan Bangka Belitung
355,33147,Temberan,19.71.01.1009,Bukit Intan (Bukitintan),Kota,Pangkal Pinang,Kepulauan Bangka Belitung
356,33253,Air Asam,19.01.02.1010,Belinyu,Kabupaten,Bangka,Kepulauan Bangka Belitung
357,33253,Air Jukung,19.01.02.1002,Belinyu,Kabupaten,Bangka,Kepulauan Bangka Belitung
358,33253,Belinyu,19.01.02.1012,Belinyu,Kabupaten,Bangka,Kepulauan Bangka Belitung
359,33253,Bintet,19.01.02.2008,Belinyu,Kabupaten,Bangka,Kepulauan Bangka Belitung
360,33253,Bukit Ketok,19.01.02.1003,Belinyu,Kabupaten,Bangka,Kepulauan Bangka Belitung
361,33253,Gunung Muda,19.01.02.2004,Belinyu,Kabupaten,Bangka,Kepulauan Bangka Belitung
362,33253,Gunung Pelawan,19.01.02.2005,Belinyu,Kabupaten,Bangka,Kepulauan Bangka Belitung
363,33253,Kuto Panji,19.01.02.1001,Belinyu,Kabupaten,Bangka,Kepulauan Bangka Belitung
364,33253,Lumut,19.01.02.2007,Belinyu,Kabupaten,Bangka,Kepulauan Bangka Belitung
365,33253,Mantung,19.01.02.1011,Belinyu,Kabupaten,Bangka,Kepulauan Bangka Belitung
366,33253,Remodong Indah,19.01.02.1009,Belinyu,Kabupaten,Bangka,Kepulauan Bangka Belitung
367,33253,Riding Panjang,19.01.02.2006,Belinyu,Kabupaten,Bangka,Kepulauan Bangka Belitung
368,33252,Bakam,19.01.06.2001,Bakam,Kabupaten,Bangka,Kepulauan Bangka Belitung
369,33252,Bukit Layang,19.01.06.2008,Bakam,Kabupaten,Bangka,Kepulauan Bangka Belitung
370,33252,Dalil,19.01.06.2003,Bakam,Kabupaten,Bangka,Kepulauan Bangka Belitung
371,33252,Kapuk,19.01.06.2002,Bakam,Kabupaten,Bangka,Kepulauan Bangka Belitung
372,33252,Mabat,19.01.06.2007,Bakam,Kabupaten,Bangka,Kepulauan Bangka Belitung
373,33252,Mangka,19.01.06.2006,Bakam,Kabupaten,Bangka,Kepulauan Bangka Belitung
374,33252,Maras Senang,19.01.06.2009,Bakam,Kabupaten,Bangka,Kepulauan Bangka Belitung
375,33252,Neknang,19.01.06.2004,Bakam,Kabupaten,Bangka,Kepulauan Bangka Belitung
376,33252,Tiang Tarah (Tiang Tara),19.01.06.2005,Bakam,Kabupaten,Bangka,Kepulauan Bangka Belitung
377,33451,Air Batu Buding (Air Batu),19.02.05.2002,Badau,Kabupaten,Belitung,Kepulauan Bangka Belitung
378,33451,Badau,19.02.05.2001,Badau,Kabupaten,Belitung,Kepulauan Bangka Belitung
379,33451,Cerucuk,19.02.05.2005,Badau,Kabupaten,Belitung,Kepulauan Bangka Belitung
380,33451,Ibul,19.02.05.2007,Badau,Kabupaten,Belitung,Kepulauan Bangka Belitung
381,33451,Kacang Butor (Kacang Botor),19.02.05.2004,Badau,Kabupaten,Belitung,Kepulauan Bangka Belitung
382,33451,Pegantungan,19.02.05.2006,Badau,Kabupaten,Belitung,Kepulauan Bangka Belitung
383,33451,Sungai Samak,19.02.05.2003,Badau,Kabupaten,Belitung,Kepulauan Bangka Belitung
384,33782,Airbara (Air Bara),19.03.03.2008,Airgegas (Air Gegas),Kabupaten,Bangka Selatan,Kepulauan Bangka Belitung
385,33782,Airgegas (Air Gegas),19.03.03.2001,Airgegas (Air Gegas),Kabupaten,Bangka Selatan,Kepulauan Bangka Belitung
386,33782,Bencah,19.03.03.2004,Airgegas (Air Gegas),Kabupaten,Bangka Selatan,Kepulauan Bangka Belitung
387,33782,Delas,19.03.03.2002,Airgegas (Air Gegas),Kabupaten,Bangka Selatan,Kepulauan Bangka Belitung
388,33782,Nangka,19.03.03.2006,Airgegas (Air Gegas),Kabupaten,Bangka Selatan,Kepulauan Bangka Belitung
389,33782,Nyelanding,19.03.03.2005,Airgegas (Air Gegas),Kabupaten,Bangka Selatan,Kepulauan Bangka Belitung
390,33782,Pergam,19.03.03.2003,Airgegas (Air Gegas),Kabupaten,Bangka Selatan,Kepulauan Bangka Belitung
391,33782,Ranggas,19.03.03.2007,Airgegas (Air Gegas),Kabupaten,Bangka Selatan,Kepulauan Bangka Belitung
392,33782,Sidoharjo,19.03.03.2009,Airgegas (Air Gegas),Kabupaten,Bangka Selatan,Kepulauan Bangka Belitung
393,33782,Tepus,19.03.03.2010,Airgegas (Air Gegas),Kabupaten,Bangka Selatan,Kepulauan Bangka Belitung