no,postal_code,urban,area_code,sub_district,dt2,city,province
1,29669,Alai,21.02.11.1001,Ungar,Kabupaten,Karimun,Kepulauan Riau
2,29669,Batu Limau,21.02.11.2002,Ungar,Kabupaten,Karimun,Kepulauan Riau
3,29669,Ngal,21.02.11.2003,Ungar,Kabupaten,Karimun,Kepulauan Riau
4,29669,Sungai Buluh (Sungaibuluh),21.02.11.2004,Ungar,Kabupaten,Karimun,Kepulauan Riau
5,29157,Toapaya,21.01.12.2001,Toapaya,Kabupaten,Bintan,Kepulauan Riau
6,29157,Toapaya Asri,21.01.12.1004,Toapaya,Kabupaten,Bintan,Kepulauan Riau
7,29157,Toapaya Selatan,21.01.12.2003,Toapaya,Kabupaten,Bintan,Kepulauan Riau
8,29157,Toapaya Utara,21.01.12.2002,Toapaya,Kabupaten,Bintan,Kepulauan Riau
9,29873,Pulau Batang,21.04.12.2003,Temiang Pesisir,Kabupaten,Lingga,Kepulauan Riau
10,29873,Tajur Biru,21.04.12.2002,Temiang Pesisir,Kabupaten,Lingga,Kepulauan Riau
11,29873,Temiang,21.04.12.2001,Temiang Pesisir,Kabupaten,Lingga,Kepulauan Riau
12,29133,Bintan Buyu,21.01.08.2001,Teluk Bintan,Kabupaten,Bintan,Kepulauan Riau
13,29136,Pangkil,21.01.08.2002,Teluk Bintan,Kabupaten,Bintan,Kepulauan Riau
14,29134,Penaga,21.01.08.2003,Teluk Bintan,Kabupaten,Bintan,Kepulauan Riau
15,29135,Pengujan,21.01.08.2004,Teluk Bintan,Kabupaten,Bintan,Kepulauan Riau
16,29132,Tembeling,21.01.08.2005,Teluk Bintan,Kabupaten,Bintan,Kepulauan Riau
17,29132,Tembeling Tanjung,21.01.08.1006,Teluk Bintan,Kabupaten,Bintan,Kepulauan Riau
18,29154,Berakit,21.01.10.2001,Telok Sebong (Teluk Sebong),Kabupaten,Bintan,Kepulauan Riau
19,29154,Ekang Anculai,21.01.10.2002,Telok Sebong (Teluk Sebong),Kabupaten,Bintan,Kepulauan Riau
20,29154,Kota Baru,21.01.10.1007,Telok Sebong (Teluk Sebong),Kabupaten,Bintan,Kepulauan Riau
21,29154,Pengudang,21.01.10.2003,Telok Sebong (Teluk Sebong),Kabupaten,Bintan,Kepulauan Riau
22,29154,Sebung/Sebong Lagoi,21.01.10.2004,Telok Sebong (Teluk Sebong),Kabupaten,Bintan,Kepulauan Riau
23,29154,Sebung/Sebong Pereh,21.01.10.2005,Telok Sebong (Teluk Sebong),Kabupaten,Bintan,Kepulauan Riau
24,29154,Sri Bintan,21.01.10.2006,Telok Sebong (Teluk Sebong),Kabupaten,Bintan,Kepulauan Riau
25,29668,Harjosari,21.02.05.1008,Tebing,Kabupaten,Karimun,Kepulauan Riau
26,29668,Kapling,21.02.05.1003,Tebing,Kabupaten,Karimun,Kepulauan Riau
27,29668,Pamak,21.02.05.1004,Tebing,Kabupaten,Karimun,Kepulauan Riau
28,29668,Pongkar,21.02.05.2007,Tebing,Kabupaten,Karimun,Kepulauan Riau
29,29668,Tebing,21.02.05.1001,Tebing,Kabupaten,Karimun,Kepulauan Riau
30,29668,Teluk Uma,21.02.05.1002,Tebing,Kabupaten,Karimun,Kepulauan Riau
31,29122,Air Raja,21.72.02.1003,Tanjung Pinang Timur,Kota,Tanjung Pinang,Kepulauan Riau
32,29125,Batu IX (Sembilan),21.72.02.1004,Tanjung Pinang Timur,Kota,Tanjung Pinang,Kepulauan Riau
33,29122,Kampung Bulang,21.72.02.1002,Tanjung Pinang Timur,Kota,Tanjung Pinang,Kepulauan Riau
34,29123,Melayu Kota Piring,21.72.02.1001,Tanjung Pinang Timur,Kota,Tanjung Pinang,Kepulauan Riau
35,29122,Pinang Kencana,21.72.02.1005,Tanjung Pinang Timur,Kota,Tanjung Pinang,Kepulauan Riau
36,29115,Kampung Bugis,21.72.03.1005,Tanjung Pinang Kota,Kota,Tanjung Pinang,Kepulauan Riau
37,29114,Penyengat,21.72.03.1004,Tanjung Pinang Kota,Kota,Tanjung Pinang,Kepulauan Riau
38,29111,Senggarang,21.72.03.1003,Tanjung Pinang Kota,Kota,Tanjung Pinang,Kepulauan Riau
39,29111,Tanjung Pinang Kota,21.72.03.1001,Tanjung Pinang Kota,Kota,Tanjung Pinang,Kepulauan Riau
40,29111,Bukit Cermin,21.72.01.1004,Tanjung Pinang Barat,Kota,Tanjung Pinang,Kepulauan Riau
41,29113,Kampung Baru,21.72.01.1003,Tanjung Pinang Barat,Kota,Tanjung Pinang,Kepulauan Riau
42,29112,Kemboja,21.72.01.1002,Tanjung Pinang Barat,Kota,Tanjung Pinang,Kepulauan Riau
43,29113,Tanjung Pinang Barat,21.72.01.1001,Tanjung Pinang Barat,Kota,Tanjung Pinang,Kepulauan Riau
44,29193,Batu Lepuk,21.01.09.2002,Tambelan,Kabupaten,Bintan,Kepulauan Riau
45,29193,Kampung Hilir,21.01.09.2003,Tambelan,Kabupaten,Bintan,Kepulauan Riau
46,29193,Kampung Melayu,21.01.09.2004,Tambelan,Kabupaten,Bintan,Kepulauan Riau
47,29193,Kukup,21.01.09.2007,Tambelan,Kabupaten,Bintan,Kepulauan Riau
48,29193,Pengikik,21.01.09.2008,Tambelan,Kabupaten,Bintan,Kepulauan Riau
49,29193,Pulau Mentebung,21.01.09.2005,Tambelan,Kabupaten,Bintan,Kepulauan Riau
50,29193,Pulau Pinang,21.01.09.2006,Tambelan,Kabupaten,Bintan,Kepulauan Riau
51,29193,Teluk Sekuni,21.01.09.1001,Tambelan,Kabupaten,Bintan,Kepulauan Riau
52,29663,Buluh Patah,21.02.14.2006,Sugie Besar,Kabupaten,Karimun,Kepulauan Riau
53,29663,Keban,21.02.14.2003,Sugie Besar,Kabupaten,Karimun,Kepulauan Riau
54,29663,Niur Permai,21.02.14.2002,Sugie Besar,Kabupaten,Karimun,Kepulauan Riau
55,29663,Rawa Jaya (Rawajaya),21.02.14.2004,Sugie Besar,Kabupaten,Karimun,Kepulauan Riau
56,29663,Selat Mie,21.02.14.2007,Sugie Besar,Kabupaten,Karimun,Kepulauan Riau
57,29663,Sugie,21.02.14.2001,Sugie Besar,Kabupaten,Karimun,Kepulauan Riau
58,29663,Tanjung Pelanduk,21.02.14.2005,Sugie Besar,Kabupaten,Karimun,Kepulauan Riau
59,29779,Meliah,21.03.09.2003,Subi,Kabupaten,Natuna,Kepulauan Riau
60,29779,Meliah Selatan,21.03.09.2008,Subi,Kabupaten,Natuna,Kepulauan Riau
61,29779,Subi,21.03.09.2001,Subi,Kabupaten,Natuna,Kepulauan Riau
62,29779,Subi Besar,21.03.09.2002,Subi,Kabupaten,Natuna,Kepulauan Riau
63,29779,Subi Besar Timur,21.03.09.2007,Subi,Kabupaten,Natuna,Kepulauan Riau
64,29779,Terayak,21.03.09.2005,Subi,Kabupaten,Natuna,Kepulauan Riau
65,29785,Air Kumpai,21.03.22.2001,Suak Midai,Kabupaten,Natuna,Kepulauan Riau
66,29785,Batu Belanak,21.03.22.2002,Suak Midai,Kabupaten,Natuna,Kepulauan Riau
67,29785,Gunung Jambat,21.03.22.2003,Suak Midai,Kabupaten,Natuna,Kepulauan Riau
68,29878,Berlian,21.04.09.1004,Singkep Selatan,Kabupaten,Lingga,Kepulauan Riau
69,29878,Marok Kecil,21.04.09.2001,Singkep Selatan,Kabupaten,Lingga,Kepulauan Riau
70,29878,Pulau Lalang (Berhala),21.04.09.2002,Singkep Selatan,Kabupaten,Lingga,Kepulauan Riau
71,29878,Resang,21.04.09.2003,Singkep Selatan,Kabupaten,Lingga,Kepulauan Riau
72,29870,Berindat,21.04.06.2001,Singkep Pesisir,Kabupaten,Lingga,Kepulauan Riau
73,29870,Kote (Kota),21.04.06.2004,Singkep Pesisir,Kabupaten,Lingga,Kepulauan Riau
74,29870,Lanjut,21.04.06.2003,Singkep Pesisir,Kabupaten,Lingga,Kepulauan Riau
75,29870,Pelakak,21.04.06.2006,Singkep Pesisir,Kabupaten,Lingga,Kepulauan Riau
76,29870,Persing,21.04.06.2005,Singkep Pesisir,Kabupaten,Lingga,Kepulauan Riau
77,29870,Sedamai,21.04.06.2002,Singkep Pesisir,Kabupaten,Lingga,Kepulauan Riau
78,29875,Bakong,21.04.04.2001,Singkep Barat,Kabupaten,Lingga,Kepulauan Riau
79,29875,Bukit Belah,21.04.04.2015,Singkep Barat,Kabupaten,Lingga,Kepulauan Riau
80,29875,Jagoh (Jaqoh),21.04.04.2009,Singkep Barat,Kabupaten,Lingga,Kepulauan Riau
81,29875,Kuala Raya,21.04.04.2002,Singkep Barat,Kabupaten,Lingga,Kepulauan Riau
82,29875,Langkap,21.04.04.2013,Singkep Barat,Kabupaten,Lingga,Kepulauan Riau
83,29875,Marok Tua,21.04.04.2003,Singkep Barat,Kabupaten,Lingga,Kepulauan Riau
84,29875,Raya,21.04.04.1006,Singkep Barat,Kabupaten,Lingga,Kepulauan Riau
85,29875,Sungai Buluh,21.04.04.2005,Singkep Barat,Kabupaten,Lingga,Kepulauan Riau
86,29875,Sungai Harapan,21.04.04.2008,Singkep Barat,Kabupaten,Lingga,Kepulauan Riau
87,29875,Sungai Raya,21.04.04.2007,Singkep Barat,Kabupaten,Lingga,Kepulauan Riau
88,29875,Tanjung Irat,21.04.04.2014,Singkep Barat,Kabupaten,Lingga,Kepulauan Riau
89,29875,Tinjul,21.04.04.2012,Singkep Barat,Kabupaten,Lingga,Kepulauan Riau
90,29871,Batu Berdaun,21.04.01.2008,Singkep,Kabupaten,Lingga,Kepulauan Riau
91,29871,Batu Kacang,21.04.01.2010,Singkep,Kabupaten,Lingga,Kepulauan Riau
92,29871,Dabo,21.04.01.1001,Singkep,Kabupaten,Lingga,Kepulauan Riau
93,29871,Dabo Lama,21.04.01.1007,Singkep,Kabupaten,Lingga,Kepulauan Riau
94,29871,Sungailumpur,21.04.01.1012,Singkep,Kabupaten,Lingga,Kepulauan Riau
95,29871,Tanjung Harapan,21.04.01.2009,Singkep,Kabupaten,Lingga,Kepulauan Riau
96,29796,Bayat,21.05.08.2003,Siantan Utara,Kabupaten,Kepulauan Anambas,Kepulauan Riau
97,29796,Mubur,21.05.08.2001,Siantan Utara,Kabupaten,Kepulauan Anambas,Kepulauan Riau
98,29796,Piasan,21.05.08.2002,Siantan Utara,Kabupaten,Kepulauan Anambas,Kepulauan Riau
99,29794,Air Putih,21.05.03.2005,Siantan Timur,Kabupaten,Kepulauan Anambas,Kepulauan Riau
100,29794,Batu Belah,21.05.03.2002,Siantan Timur,Kabupaten,Kepulauan Anambas,Kepulauan Riau
101,29794,Munjan,21.05.03.2003,Siantan Timur,Kabupaten,Kepulauan Anambas,Kepulauan Riau
102,29794,Nyamuk,21.05.03.2001,Siantan Timur,Kabupaten,Kepulauan Anambas,Kepulauan Riau
103,29794,Serat,21.05.03.2004,Siantan Timur,Kabupaten,Kepulauan Anambas,Kepulauan Riau
104,29794,Temburun,21.05.03.2006,Siantan Timur,Kabupaten,Kepulauan Anambas,Kepulauan Riau
105,29795,Air Asuk,21.05.07.2001,Siantan Tengah,Kabupaten,Kepulauan Anambas,Kepulauan Riau
106,29795,Air Sena,21.05.07.2002,Siantan Tengah,Kabupaten,Kepulauan Anambas,Kepulauan Riau
107,29795,Lidi,21.05.07.2004,Siantan Tengah,Kabupaten,Kepulauan Anambas,Kepulauan Riau
108,29795,Liuk,21.05.07.2005,Siantan Tengah,Kabupaten,Kepulauan Anambas,Kepulauan Riau
109,29795,Teluk Siantan,21.05.07.2003,Siantan Tengah,Kabupaten,Kepulauan Anambas,Kepulauan Riau
110,29795,Teluk Sunting,21.05.07.2006,Siantan Tengah,Kabupaten,Kepulauan Anambas,Kepulauan Riau
111,29790,Air Bini,21.05.04.2007,Siantan Selatan,Kabupaten,Kepulauan Anambas,Kepulauan Riau
112,29790,Kiabu,21.05.04.2001,Siantan Selatan,Kabupaten,Kepulauan Anambas,Kepulauan Riau
113,29790,Lingai,21.05.04.2006,Siantan Selatan,Kabupaten,Kepulauan Anambas,Kepulauan Riau
114,29790,Mengkait,21.05.04.2003,Siantan Selatan,Kabupaten,Kepulauan Anambas,Kepulauan Riau
115,29790,Telaga,21.05.04.2002,Siantan Selatan,Kabupaten,Kepulauan Anambas,Kepulauan Riau
116,29790,Telaga Kecil,21.05.04.2005,Siantan Selatan,Kabupaten,Kepulauan Anambas,Kepulauan Riau
117,29790,Tiangau,21.05.04.2004,Siantan Selatan,Kabupaten,Kepulauan Anambas,Kepulauan Riau
118,29791,Pesisir Timur,21.05.01.2005,Siantan,Kabupaten,Kepulauan Anambas,Kepulauan Riau
119,29791,Sri Tanjung,21.05.01.2006,Siantan,Kabupaten,Kepulauan Anambas,Kepulauan Riau
120,29791,Tarempa Barat Daya,21.05.01.2007,Siantan,Kabupaten,Kepulauan Anambas,Kepulauan Riau
121,29791,Tarempa Selatan,21.05.01.2003,Siantan,Kabupaten,Kepulauan Anambas,Kepulauan Riau
122,29791,Tarempa Timur,21.05.01.2004,Siantan,Kabupaten,Kepulauan Anambas,Kepulauan Riau
123,29791,Terempa (Tarempa),21.05.01.1001,Siantan,Kabupaten,Kepulauan Anambas,Kepulauan Riau
124,29791,Terempa Barat (Tarempa Barat),21.05.01.2002,Siantan,Kabupaten,Kepulauan Anambas,Kepulauan Riau
125,29153,Busung,21.01.15.2001,Seri Kuala Lobam (Sri),Kabupaten,Bintan,Kepulauan Riau
126,29153,Kuala Sempang,21.01.15.2004,Seri Kuala Lobam (Sri),Kabupaten,Bintan,Kepulauan Riau
127,29153,Tanjung Permai,21.01.15.1005,Seri Kuala Lobam (Sri),Kabupaten,Bintan,Kepulauan Riau
128,29153,Teluk Lobam,21.01.15.1003,Seri Kuala Lobam (Sri),Kabupaten,Bintan,Kepulauan Riau
129,29153,Teluk Sasah,21.01.15.2002,Seri Kuala Lobam (Sri),Kabupaten,Bintan,Kepulauan Riau
130,29780,Air Nusa,21.03.19.2002,Serasan Timur,Kabupaten,Natuna,Kepulauan Riau
131,29780,Air Ringau,21.03.19.2004,Serasan Timur,Kabupaten,Natuna,Kepulauan Riau
132,29780,Arung Ayam,21.03.19.2001,Serasan Timur,Kabupaten,Natuna,Kepulauan Riau
133,29780,Payak,21.03.19.2005,Serasan Timur,Kabupaten,Natuna,Kepulauan Riau
134,29781,Batu Berlian (Batu Berian),21.03.06.2005,Serasan,Kabupaten,Natuna,Kepulauan Riau
135,29781,Jermalik,21.03.06.2011,Serasan,Kabupaten,Natuna,Kepulauan Riau
136,29781,Kampung Hilir,21.03.06.2002,Serasan,Kabupaten,Natuna,Kepulauan Riau
137,29781,Pangkalan,21.03.06.2010,Serasan,Kabupaten,Natuna,Kepulauan Riau
138,29781,Serasan,21.03.06.1003,Serasan,Kabupaten,Natuna,Kepulauan Riau
139,29781,Tanjung Balau,21.03.06.2007,Serasan,Kabupaten,Natuna,Kepulauan Riau
140,29781,Tanjung Setelung,21.03.06.2006,Serasan,Kabupaten,Natuna,Kepulauan Riau
141,29873,Baran,21.04.03.2015,Senayang,Kabupaten,Lingga,Kepulauan Riau
142,29873,Laboh (Labo),21.04.03.2012,Senayang,Kabupaten,Lingga,Kepulauan Riau
143,29873,Mamut,21.04.03.2002,Senayang,Kabupaten,Lingga,Kepulauan Riau
144,29873,Penaah,21.04.03.2013,Senayang,Kabupaten,Lingga,Kepulauan Riau
145,29873,Senayang,21.04.03.1001,Senayang,Kabupaten,Lingga,Kepulauan Riau
146,29877,Pantai Harapan,21.04.08.2004,Selayar,Kabupaten,Lingga,Kepulauan Riau
147,29877,Penuba,21.04.08.2002,Selayar,Kabupaten,Lingga,Kepulauan Riau
148,29877,Penuba Timur,21.04.08.2003,Selayar,Kabupaten,Lingga,Kepulauan Riau
149,29877,Selayar,21.04.08.2001,Selayar,Kabupaten,Lingga,Kepulauan Riau
150,29661,Parit,21.02.13.2001,Selat Gelam,Kabupaten,Karimun,Kepulauan Riau
151,29661,Selat Mendaun (Selatmendaun),21.02.13.2003,Selat Gelam,Kabupaten,Karimun,Kepulauan Riau
152,29661,Tulang,21.02.13.2002,Selat Gelam,Kabupaten,Karimun,Kepulauan Riau
153,29427,Patam Lestari,21.71.03.1008,Sekupang,Kota,Batam,Kepulauan Riau
154,29428,Sungai Harapan,21.71.03.1001,Sekupang,Kota,Batam,Kepulauan Riau
155,29428,Tanjung Pinggir,21.71.03.1002,Sekupang,Kota,Batam,Kepulauan Riau
156,29425,Tanjung Riau,21.71.03.1003,Sekupang,Kota,Batam,Kepulauan Riau
157,29426,Tiban Baru,21.71.03.1006,Sekupang,Kota,Batam,Kepulauan Riau
158,29426,Tiban Indah,21.71.03.1005,Sekupang,Kota,Batam,Kepulauan Riau
159,29425,Tiban Lama,21.71.03.1007,Sekupang,Kota,Batam,Kepulauan Riau
160,29437,Duriangkang (Duriangka),21.71.07.1002,Sei Beduk (Sungai Beduk),Kota,Batam,Kepulauan Riau
161,29437,Mangsang (Mangsa),21.71.07.1003,Sei Beduk (Sungai Beduk),Kota,Batam,Kepulauan Riau
162,29433,Muka Kuning,21.71.07.1001,Sei Beduk (Sungai Beduk),Kota,Batam,Kepulauan Riau
163,29437,Tanjung Piayu,21.71.07.1004,Sei Beduk (Sungai Beduk),Kota,Batam,Kepulauan Riau
164,29439,Sagulung Kota,21.71.11.1004,Sagulung,Kota,Batam,Kepulauan Riau
165,29439,Sungai Binti,21.71.11.1002,Sagulung,Kota,Batam,Kepulauan Riau
166,29439,Sungai Langkai,21.71.11.1005,Sagulung,Kota,Batam,Kepulauan Riau
167,29439,Sungai Lekop,21.71.11.1003,Sagulung,Kota,Batam,Kepulauan Riau
168,29439,Sungai Pelenggut/Pelunggut,21.71.11.1006,Sagulung,Kota,Batam,Kepulauan Riau
169,29439,Tembesi,21.71.11.1001,Sagulung,Kota,Batam,Kepulauan Riau
170,29786,Pulau Tiga,21.03.21.2001,Pulau Tiga Barat,Kabupaten,Natuna,Kepulauan Riau
171,29786,Selading,21.03.21.2004,Pulau Tiga Barat,Kabupaten,Natuna,Kepulauan Riau
172,29786,Setumuk,21.03.21.2003,Pulau Tiga Barat,Kabupaten,Natuna,Kepulauan Riau
173,29786,Tanjung Kumbik Utara,21.03.21.2002,Pulau Tiga Barat,Kabupaten,Natuna,Kepulauan Riau
174,29788,Sabang Mawang,21.03.11.2001,Pulau Tiga,Kabupaten,Natuna,Kepulauan Riau
175,29788,Sabang Mawang Barat,21.03.11.2006,Pulau Tiga,Kabupaten,Natuna,Kepulauan Riau
176,29788,Sededap,21.03.11.2003,Pulau Tiga,Kabupaten,Natuna,Kepulauan Riau
177,29788,Serantas,21.03.11.2005,Pulau Tiga,Kabupaten,Natuna,Kepulauan Riau
178,29788,Tanjung Batang,21.03.11.2004,Pulau Tiga,Kabupaten,Natuna,Kepulauan Riau
179,29788,Teluk Labuh,21.03.11.2010,Pulau Tiga,Kabupaten,Natuna,Kepulauan Riau
180,29775,Kelarik Barat,21.03.24.2001,Pulau Seluan,Kabupaten,Natuna,Kepulauan Riau
181,29775,Seluan Barat,21.03.24.2002,Pulau Seluan,Kabupaten,Natuna,Kepulauan Riau
182,29779,Pulau Kerdau,21.03.23.2002,Pulau Panjang,Kabupaten,Natuna,Kepulauan Riau
183,29779,Pulau Panjang,21.03.23.2001,Pulau Panjang,Kabupaten,Natuna,Kepulauan Riau
184,29789,Air Payang,21.03.10.2002,Pulau Laut,Kabupaten,Natuna,Kepulauan Riau
185,29789,Kadur,21.03.10.2003,Pulau Laut,Kabupaten,Natuna,Kepulauan Riau
186,29789,Tanjung Pala,21.03.10.2001,Pulau Laut,Kabupaten,Natuna,Kepulauan Riau
187,29796,Belibak,21.05.02.2015,Palmatak,Kabupaten,Kepulauan Anambas,Kepulauan Riau
188,29796,Candi,21.05.02.2007,Palmatak,Kabupaten,Kepulauan Anambas,Kepulauan Riau
189,29796,Ladan,21.05.02.2003,Palmatak,Kabupaten,Kepulauan Anambas,Kepulauan Riau
190,29796,Langir,21.05.02.2006,Palmatak,Kabupaten,Kepulauan Anambas,Kepulauan Riau
191,29796,Piabung,21.05.02.2005,Palmatak,Kabupaten,Kepulauan Anambas,Kepulauan Riau
192,29796,Putik,21.05.02.2008,Palmatak,Kabupaten,Kepulauan Anambas,Kepulauan Riau
193,29796,Tebang,21.05.02.2002,Palmatak,Kabupaten,Kepulauan Anambas,Kepulauan Riau
194,29466,Batu Besar,21.71.04.1002,Nongsa,Kota,Batam,Kepulauan Riau
195,29467,Kabil,21.71.04.1003,Nongsa,Kota,Batam,Kepulauan Riau
196,29468,Ngenang,21.71.04.1004,Nongsa,Kota,Batam,Kepulauan Riau
197,29465,Sambau,21.71.04.1001,Nongsa,Kota,Batam,Kepulauan Riau
198,29663,Jang (Pulau Jang),21.02.01.2009,Moro,Kabupaten,Karimun,Kepulauan Riau
199,29663,Moro,21.02.01.1003,Moro,Kabupaten,Karimun,Kepulauan Riau
200,29663,Moro Timur,21.02.01.1010,Moro,Kabupaten,Karimun,Kepulauan Riau
201,29663,Pauh,21.02.01.2004,Moro,Kabupaten,Karimun,Kepulauan Riau
202,29663,Pulau Moro (Pulaumoro),21.02.01.2014,Moro,Kabupaten,Karimun,Kepulauan Riau
203,29784,Air Putih,21.03.04.2005,Midai,Kabupaten,Natuna,Kepulauan Riau
204,29784,Sabang Barat,21.03.04.1003,Midai,Kabupaten,Natuna,Kepulauan Riau
205,29784,Sebelat,21.03.04.2001,Midai,Kabupaten,Natuna,Kepulauan Riau
206,29667,Darussalam,21.02.10.1002,Meral Barat,Kabupaten,Karimun,Kepulauan Riau
207,29667,Pangke,21.02.10.2003,Meral Barat,Kabupaten,Karimun,Kepulauan Riau
208,29667,Pangke Barat,21.02.10.2004,Meral Barat,Kabupaten,Karimun,Kepulauan Riau
209,29667,Pasir Panjang,21.02.10.1001,Meral Barat,Kabupaten,Karimun,Kepulauan Riau
210,29666,Baran Barat,21.02.04.1002,Meral,Kabupaten,Karimun,Kepulauan Riau
211,29666,Baran Timur,21.02.04.1006,Meral,Kabupaten,Karimun,Kepulauan Riau
212,29666,Meral Kota,21.02.04.1001,Meral,Kabupaten,Karimun,Kepulauan Riau
213,29666,Parit Benut (Pasir Benut),21.02.04.1008,Meral,Kabupaten,Karimun,Kepulauan Riau
214,29666,Sungai Pasir,21.02.04.1007,Meral,Kabupaten,Karimun,Kepulauan Riau
215,29666,Sungai Raya,21.02.04.1003,Meral,Kabupaten,Karimun,Kepulauan Riau
216,29156,Dendun,21.01.13.2004,Mantang,Kabupaten,Bintan,Kepulauan Riau
217,29156,Mantang Baru,21.01.13.2001,Mantang,Kabupaten,Bintan,Kepulauan Riau
218,29156,Mantang Besar,21.01.13.2002,Mantang,Kabupaten,Bintan,Kepulauan Riau
219,29156,Mantang Lama,21.01.13.2003,Mantang,Kabupaten,Bintan,Kepulauan Riau
220,29432,Baloi Indah,21.71.06.1006,Lubuk Baja,Kota,Batam,Kepulauan Riau
221,29441,Batu Selicin,21.71.06.1004,Lubuk Baja,Kota,Batam,Kepulauan Riau
222,29443,Kampung Pelita,21.71.06.1001,Lubuk Baja,Kota,Batam,Kepulauan Riau
223,29444,Lubuk Baja Kota,21.71.06.1003,Lubuk Baja,Kota,Batam,Kepulauan Riau
224,29445,Tanjung Uma,21.71.06.1005,Lubuk Baja,Kota,Batam,Kepulauan Riau
225,29874,Bukit Harapan,21.04.05.2001,Lingga Utara,Kabupaten,Lingga,Kepulauan Riau
226,29874,Duara,21.04.05.2002,Lingga Utara,Kabupaten,Lingga,Kepulauan Riau
227,29874,Limbung,21.04.05.2003,Lingga Utara,Kabupaten,Lingga,Kepulauan Riau
228,29874,Linau,21.04.05.2008,Lingga Utara,Kabupaten,Lingga,Kepulauan Riau
229,29874,Pancur,21.04.05.1007,Lingga Utara,Kabupaten,Lingga,Kepulauan Riau
230,29874,Rantau Panjang,21.04.05.2010,Lingga Utara,Kabupaten,Lingga,Kepulauan Riau
231,29874,Resun,21.04.05.2004,Lingga Utara,Kabupaten,Lingga,Kepulauan Riau
232,29874,Resun Pesisir,21.04.05.2012,Lingga Utara,Kabupaten,Lingga,Kepulauan Riau
233,29874,Sekanah,21.04.05.2005,Lingga Utara,Kabupaten,Lingga,Kepulauan Riau
234,29874,Sungaibesar (Sungai Besar),21.04.05.2009,Lingga Utara,Kabupaten,Lingga,Kepulauan Riau
235,29874,Belungkur,21.04.07.2008,Lingga Timur,Kabupaten,Lingga,Kepulauan Riau
236,29872,Bukitlangkap (Bukit Langkap),21.04.07.2001,Lingga Timur,Kabupaten,Lingga,Kepulauan Riau
237,29872,Kerandin,21.04.07.2004,Lingga Timur,Kabupaten,Lingga,Kepulauan Riau
238,29872,Keton,21.04.07.2002,Lingga Timur,Kabupaten,Lingga,Kepulauan Riau
239,29872,Kudung,21.04.07.2006,Lingga Timur,Kabupaten,Lingga,Kepulauan Riau
240,29872,Pekaka,21.04.07.2003,Lingga Timur,Kabupaten,Lingga,Kepulauan Riau
241,29872,Sungai Pinang,21.04.07.2005,Lingga Timur,Kabupaten,Lingga,Kepulauan Riau
242,29874,Teluk,21.04.07.2007,Lingga Timur,Kabupaten,Lingga,Kepulauan Riau
243,29872,Daik,21.04.02.1010,Lingga,Kabupaten,Lingga,Kepulauan Riau
244,29872,Daik Sepincan,21.04.02.1020,Lingga,Kabupaten,Lingga,Kepulauan Riau
245,29872,Kelombok,21.04.02.2002,Lingga,Kabupaten,Lingga,Kepulauan Riau
246,29872,Kelumu,21.04.02.2006,Lingga,Kabupaten,Lingga,Kepulauan Riau
247,29872,Mentuda,21.04.02.2007,Lingga,Kabupaten,Lingga,Kepulauan Riau
248,29872,Mepar,21.04.02.2003,Lingga,Kabupaten,Lingga,Kepulauan Riau
249,29872,Merawang,21.04.02.2008,Lingga,Kabupaten,Lingga,Kepulauan Riau
250,29872,Musai,21.04.02.2012,Lingga,Kabupaten,Lingga,Kepulauan Riau
251,29872,Nerekeh,21.04.02.2019,Lingga,Kabupaten,Lingga,Kepulauan Riau
252,29872,Panggak Darat,21.04.02.2009,Lingga,Kabupaten,Lingga,Kepulauan Riau
253,29872,Panggak Laut,21.04.02.2011,Lingga,Kabupaten,Lingga,Kepulauan Riau
254,29872,Pekajang,21.04.02.2001,Lingga,Kabupaten,Lingga,Kepulauan Riau
255,29796,Batu Ampar,21.05.10.2003,Kute Siantan,Kabupaten,Kepulauan Anambas,Kepulauan Riau
256,29796,Matak,21.05.10.2004,Kute Siantan,Kabupaten,Kepulauan Anambas,Kepulauan Riau
257,29796,Payalaman,21.05.10.2001,Kute Siantan,Kabupaten,Kepulauan Anambas,Kepulauan Riau
258,29796,Payamaram,21.05.10.2002,Kute Siantan,Kabupaten,Kepulauan Anambas,Kepulauan Riau
259,29796,Teluk Bayur,21.05.10.2005,Kute Siantan,Kabupaten,Kepulauan Anambas,Kepulauan Riau
260,29662,Perayun,21.02.07.2010,Kundur Utara,Kabupaten,Karimun,Kepulauan Riau
261,29662,Sungai Ungar Utara,21.02.07.2003,Kundur Utara,Kabupaten,Karimun,Kepulauan Riau
262,29662,Tanjung Berlian Barat,21.02.07.2013,Kundur Utara,Kabupaten,Karimun,Kepulauan Riau
263,29662,Tanjung Berlian Kota,21.02.07.1012,Kundur Utara,Kabupaten,Karimun,Kepulauan Riau
264,29662,Teluk Radang,21.02.07.2004,Kundur Utara,Kabupaten,Karimun,Kepulauan Riau
265,29662,Gemuruh,21.02.08.2005,Kundur Barat,Kabupaten,Karimun,Kepulauan Riau
266,29662,Kundur,21.02.08.2004,Kundur Barat,Kabupaten,Karimun,Kepulauan Riau
267,29662,Sawang,21.02.08.1001,Kundur Barat,Kabupaten,Karimun,Kepulauan Riau
268,29662,Sawang Laut,21.02.08.2003,Kundur Barat,Kabupaten,Karimun,Kepulauan Riau
269,29662,Sawang Selatan,21.02.08.2002,Kundur Barat,Kabupaten,Karimun,Kepulauan Riau
270,29662,Gading Sari,21.02.02.1009,Kundur,Kabupaten,Karimun,Kepulauan Riau
271,29662,Lubuk,21.02.02.2006,Kundur,Kabupaten,Karimun,Kepulauan Riau
272,29662,Sungai Sebesi,21.02.02.2004,Kundur,Kabupaten,Karimun,Kepulauan Riau
273,29662,Sungai Ungar,21.02.02.2005,Kundur,Kabupaten,Karimun,Kepulauan Riau
274,29662,Tanjung Batu Barat,21.02.02.1001,Kundur,Kabupaten,Karimun,Kepulauan Riau
275,29662,Tanjung Batu Kota,21.02.02.1002,Kundur,Kabupaten,Karimun,Kepulauan Riau
276,29876,Busung Panjang,21.04.10.2001,Kepulauan Posek,Kabupaten,Lingga,Kepulauan Riau
277,29876,Posek,21.04.10.2002,Kepulauan Posek,Kabupaten,Lingga,Kepulauan Riau
278,29876,Suak Buaya,21.04.10.2003,Kepulauan Posek,Kabupaten,Lingga,Kepulauan Riau
279,29873,Benan,21.04.11.2001,Katang Bidare,Kabupaten,Lingga,Kepulauan Riau
280,29873,Mensanak,21.04.11.2002,Katang Bidare,Kabupaten,Lingga,Kepulauan Riau
281,29873,Pulau Bukit,21.04.11.2003,Katang Bidare,Kabupaten,Lingga,Kepulauan Riau
282,29873,Pulau Duyung,21.04.11.2004,Katang Bidare,Kabupaten,Lingga,Kepulauan Riau
283,29873,Pulau Medang,21.04.11.2005,Katang Bidare,Kabupaten,Lingga,Kepulauan Riau
284,29661,Lubuk Semut,21.02.03.1006,Karimun,Kabupaten,Karimun,Kepulauan Riau
285,29661,Sungai Lakam Barat (Sungailakam Barat),21.02.03.1008,Karimun,Kabupaten,Karimun,Kepulauan Riau
286,29661,Sungai Lakam Timur (Sungailakam Timur),21.02.03.1003,Karimun,Kabupaten,Karimun,Kepulauan Riau
287,29661,Tanjung Balai,21.02.03.1001,Karimun,Kabupaten,Karimun,Kepulauan Riau
288,29661,Tanjung Balai Kota,21.02.03.1007,Karimun,Kabupaten,Karimun,Kepulauan Riau
289,29661,Teluk Air (Telukair),21.02.03.1002,Karimun,Kabupaten,Karimun,Kepulauan Riau
290,29793,Bukit Padi,21.05.05.2003,Jemaja Timur,Kabupaten,Kepulauan Anambas,Kepulauan Riau
291,29793,Genting Pulur,21.05.05.2004,Jemaja Timur,Kabupaten,Kepulauan Anambas,Kepulauan Riau
292,29793,Kuala Maras,21.05.05.2001,Jemaja Timur,Kabupaten,Kepulauan Anambas,Kepulauan Riau
293,29793,Ulu Maras,21.05.05.2002,Jemaja Timur,Kabupaten,Kepulauan Anambas,Kepulauan Riau
294,29792,Impol,21.05.09.2001,Jemaja Barat,Kabupaten,Kepulauan Anambas,Kepulauan Riau
295,29792,Keramut,21.05.09.2002,Jemaja Barat,Kabupaten,Kepulauan Anambas,Kepulauan Riau
296,29792,Sunggak,21.05.09.2003,Jemaja Barat,Kabupaten,Kepulauan Anambas,Kepulauan Riau
297,29792,Air Biru,21.05.06.2006,Jemaja,Kabupaten,Kepulauan Anambas,Kepulauan Riau
298,29792,Batu Berapit,21.05.06.2008,Jemaja,Kabupaten,Kepulauan Anambas,Kepulauan Riau
299,29792,Landak,21.05.06.2009,Jemaja,Kabupaten,Kepulauan Anambas,Kepulauan Riau
300,29792,Letung,21.05.06.1005,Jemaja,Kabupaten,Kepulauan Anambas,Kepulauan Riau
301,29792,Mampok,21.05.06.2001,Jemaja,Kabupaten,Kepulauan Anambas,Kepulauan Riau
302,29792,Rewak,21.05.06.2002,Jemaja,Kabupaten,Kepulauan Anambas,Kepulauan Riau
303,29155,Gunung Kijang,21.01.04.2001,Gunung Kijang,Kabupaten,Bintan,Kepulauan Riau
304,29155,Kawal,21.01.04.1005,Gunung Kijang,Kabupaten,Bintan,Kepulauan Riau
305,29155,Malang Rapat,21.01.04.2002,Gunung Kijang,Kabupaten,Bintan,Kepulauan Riau
306,29155,Teluk Bakau,21.01.04.2003,Gunung Kijang,Kabupaten,Bintan,Kepulauan Riau
307,29483,Air Raja,21.71.08.1008,Galang,Kota,Batam,Kepulauan Riau
308,29484,Galang Baru (Pulau),21.71.08.1003,Galang,Kota,Batam,Kepulauan Riau
309,29486,Karas (Pulau Karas),21.71.08.1002,Galang,Kota,Batam,Kepulauan Riau
310,29487,Pulau Abang,21.71.08.1007,Galang,Kota,Batam,Kepulauan Riau
311,29482,Rempang Cate,21.71.08.1005,Galang,Kota,Batam,Kepulauan Riau
312,29481,Sembulang (Pulau Rempang),21.71.08.1004,Galang,Kota,Batam,Kepulauan Riau
313,29485,Sijantung,21.71.08.1001,Galang,Kota,Batam,Kepulauan Riau
314,29483,Subang Mas,21.71.08.1006,Galang,Kota,Batam,Kepulauan Riau
315,29665,Sanglar,21.02.09.2002,Durai,Kabupaten,Karimun,Kepulauan Riau
316,29665,Semembang (Simembang),21.02.09.2004,Durai,Kabupaten,Karimun,Kepulauan Riau
317,29665,Tanjung Kilang,21.02.09.2003,Durai,Kabupaten,Karimun,Kepulauan Riau
318,29665,Telaga Tujuh,21.02.09.2005,Durai,Kabupaten,Karimun,Kepulauan Riau
319,29664,Buru,21.02.06.1001,Buru,Kabupaten,Karimun,Kepulauan Riau
320,29664,Lubuk Puding,21.02.06.1002,Buru,Kabupaten,Karimun,Kepulauan Riau
321,29664,Tanjung Batu Kecil,21.02.06.2004,Buru,Kabupaten,Karimun,Kepulauan Riau
322,29664,Tanjung Hutan,21.02.06.2003,Buru,Kabupaten,Karimun,Kepulauan Riau
323,29775,Belakang Gunung,21.03.08.2006,Bunguran Utara,Kabupaten,Natuna,Kepulauan Riau
324,29775,Gunung Durian,21.03.08.2008,Bunguran Utara,Kabupaten,Natuna,Kepulauan Riau
325,29775,Kelarik,21.03.08.2002,Bunguran Utara,Kabupaten,Natuna,Kepulauan Riau
326,29775,Kelarik Air Mali,21.03.08.2004,Bunguran Utara,Kabupaten,Natuna,Kepulauan Riau
327,29775,Kelarik Utara,21.03.08.2001,Bunguran Utara,Kabupaten,Natuna,Kepulauan Riau
328,29775,Teluk Buton,21.03.08.2005,Bunguran Utara,Kabupaten,Natuna,Kepulauan Riau
329,29776,Ceruk,21.03.15.2002,Bunguran Timur Laut,Kabupaten,Natuna,Kepulauan Riau
330,29776,Kelanga,21.03.15.2003,Bunguran Timur Laut,Kabupaten,Natuna,Kepulauan Riau
331,29776,Limau Manis,21.03.15.2006,Bunguran Timur Laut,Kabupaten,Natuna,Kepulauan Riau
332,29776,Pengadah,21.03.15.2004,Bunguran Timur Laut,Kabupaten,Natuna,Kepulauan Riau
333,29776,Sebadai Ulu,21.03.15.2005,Bunguran Timur Laut,Kabupaten,Natuna,Kepulauan Riau
334,29776,Seleman,21.03.15.2007,Bunguran Timur Laut,Kabupaten,Natuna,Kepulauan Riau
335,29776,Tanjung,21.03.15.2001,Bunguran Timur Laut,Kabupaten,Natuna,Kepulauan Riau
336,29777,Bandarsyah,21.03.07.1017,Bunguran Timur,Kabupaten,Natuna,Kepulauan Riau
337,29777,Batu Gajah,21.03.07.2014,Bunguran Timur,Kabupaten,Natuna,Kepulauan Riau
338,29777,Batu Hitam,21.03.07.1019,Bunguran Timur,Kabupaten,Natuna,Kepulauan Riau
339,29777,Ranai Darat,21.03.07.1016,Bunguran Timur,Kabupaten,Natuna,Kepulauan Riau
340,29777,Ranai Kota,21.03.07.1011,Bunguran Timur,Kabupaten,Natuna,Kepulauan Riau
341,29777,Sepempang,21.03.07.2004,Bunguran Timur,Kabupaten,Natuna,Kepulauan Riau
342,29777,Sungai Ulu,21.03.07.2002,Bunguran Timur,Kabupaten,Natuna,Kepulauan Riau
343,29778,Air Lengit,21.03.16.2003,Bunguran Tengah,Kabupaten,Natuna,Kepulauan Riau
344,29778,Harapan Jaya,21.03.16.2002,Bunguran Tengah,Kabupaten,Natuna,Kepulauan Riau
345,29778,Tapau,21.03.16.2001,Bunguran Tengah,Kabupaten,Natuna,Kepulauan Riau
346,29783,Cemaga,21.03.18.2001,Bunguran Selatan,Kabupaten,Natuna,Kepulauan Riau
347,29783,Cemaga Selatan,21.03.18.2002,Bunguran Selatan,Kabupaten,Natuna,Kepulauan Riau
348,29783,Cemaga Tengah,21.03.18.2004,Bunguran Selatan,Kabupaten,Natuna,Kepulauan Riau
349,29783,Cemaga Utara,21.03.18.2003,Bunguran Selatan,Kabupaten,Natuna,Kepulauan Riau
350,29787,Batubi Jaya,21.03.20.2001,Bunguran Batubi,Kabupaten,Natuna,Kepulauan Riau
351,29787,Gunung Putri,21.03.20.2002,Bunguran Batubi,Kabupaten,Natuna,Kepulauan Riau
352,29787,Sedanau Timur,21.03.20.2004,Bunguran Batubi,Kabupaten,Natuna,Kepulauan Riau
353,29787,Sedarat Baru,21.03.20.2003,Bunguran Batubi,Kabupaten,Natuna,Kepulauan Riau
354,29787,Semedang,21.03.20.2005,Bunguran Batubi,Kabupaten,Natuna,Kepulauan Riau
355,29782,Binjai,21.03.05.2012,Bunguran Barat,Kabupaten,Natuna,Kepulauan Riau
356,29782,Mekar Jaya,21.03.05.2007,Bunguran Barat,Kabupaten,Natuna,Kepulauan Riau
357,29782,Piantengah (Pian Tengah),21.03.05.2013,Bunguran Barat,Kabupaten,Natuna,Kepulauan Riau
358,29782,Sedanau,21.03.05.1008,Bunguran Barat,Kabupaten,Natuna,Kepulauan Riau
359,29782,Selaut,21.03.05.2015,Bunguran Barat,Kabupaten,Natuna,Kepulauan Riau
360,29474,Batu Legong,21.71.05.1004,Bulang,Kota,Batam,Kepulauan Riau
361,29471,Bulang Lintang,21.71.05.1001,Bulang,Kota,Batam,Kepulauan Riau
362,29473,Pantai Gelam,21.71.05.1005,Bulang,Kota,Batam,Kepulauan Riau
363,29472,Pulau Buluh,21.71.05.1002,Bulang,Kota,Batam,Kepulauan Riau
364,29476,Pulau Setokok,21.71.05.1006,Bulang,Kota,Batam,Kepulauan Riau
365,29475,Temoyong,21.71.05.1003,Bulang,Kota,Batam,Kepulauan Riau
366,29124,Dompak,21.72.04.1002,Bukit Bestari,Kota,Tanjung Pinang,Kepulauan Riau
367,29124,Sei Jang,21.72.04.1004,Bukit Bestari,Kota,Tanjung Pinang,Kepulauan Riau
368,29124,Tanjung Ayun Sakti,21.72.04.1003,Bukit Bestari,Kota,Tanjung Pinang,Kepulauan Riau
369,29122,Tanjung Pinang Timur,21.72.04.1001,Bukit Bestari,Kota,Tanjung Pinang,Kepulauan Riau
370,29122,Tanjung Unggat,21.72.04.1005,Bukit Bestari,Kota,Tanjung Pinang,Kepulauan Riau
371,29152,Lancang Kuning,21.01.07.2005,Bintan Utara,Kabupaten,Bintan,Kepulauan Riau
372,29152,Tanjung Uban Kota,21.01.07.1001,Bintan Utara,Kabupaten,Bintan,Kepulauan Riau
373,29152,Tanjung Uban Selatan,21.01.07.1003,Bintan Utara,Kabupaten,Bintan,Kepulauan Riau
374,29152,Tanjung Uban Timur,21.01.07.1011,Bintan Utara,Kabupaten,Bintan,Kepulauan Riau
375,29152,Tanjung Uban Utara,21.01.07.1002,Bintan Utara,Kabupaten,Bintan,Kepulauan Riau
376,29150,Gunung Lengkuas,21.01.06.1010,Bintan Timur,Kabupaten,Bintan,Kepulauan Riau
377,29150,Kijang Kota,21.01.06.1008,Bintan Timur,Kabupaten,Bintan,Kepulauan Riau
378,29150,Sungai Enam,21.01.06.1011,Bintan Timur,Kabupaten,Bintan,Kepulauan Riau
379,29150,Sungai Lekop,21.01.06.1009,Bintan Timur,Kabupaten,Bintan,Kepulauan Riau
380,29151,Air Glubi/Gelubi,21.01.14.2004,Bintan Pesisir,Kabupaten,Bintan,Kepulauan Riau
381,29151,Kelong,21.01.14.2001,Bintan Pesisir,Kabupaten,Bintan,Kepulauan Riau
382,29151,Mapur,21.01.14.2002,Bintan Pesisir,Kabupaten,Bintan,Kepulauan Riau
383,29151,Numbing,21.01.14.2003,Bintan Pesisir,Kabupaten,Bintan,Kepulauan Riau
384,29458,Bengkong Indah,21.71.09.1001,Bengkong,Kota,Batam,Kepulauan Riau
385,29458,Bengkong Laut,21.71.09.1002,Bengkong,Kota,Batam,Kepulauan Riau
386,29432,Sadai,21.71.09.1003,Bengkong,Kota,Batam,Kepulauan Riau
387,29432,Tanjung Buntung,21.71.09.1004,Bengkong,Kota,Batam,Kepulauan Riau
388,29660,Degong,21.02.12.2006,Belat,Kabupaten,Karimun,Kepulauan Riau
389,29660,Lebuh,21.02.12.2002,Belat,Kabupaten,Karimun,Kepulauan Riau
390,29660,Penarah,21.02.12.2003,Belat,Kabupaten,Karimun,Kepulauan Riau
391,29660,Sebele,21.02.12.2001,Belat,Kabupaten,Karimun,Kepulauan Riau
392,29660,Sungai Asam,21.02.12.2004,Belat,Kabupaten,Karimun,Kepulauan Riau
393,29660,Tebias,21.02.12.2005,Belat,Kabupaten,Karimun,Kepulauan Riau
394,29413,Kasu,21.71.01.1003,Belakang Padang,Kota,Batam,Kepulauan Riau
395,29414,Pecong,21.71.01.1005,Belakang Padang,Kota,Batam,Kepulauan Riau
396,29412,Pemping,21.71.01.1002,Belakang Padang,Kota,Batam,Kepulauan Riau
397,29416,Pulau Terung (Pulau Terong),21.71.01.1004,Belakang Padang,Kota,Batam,Kepulauan Riau
398,29416,Sekanak Raya,21.71.01.1007,Belakang Padang,Kota,Batam,Kepulauan Riau
399,29416,Tanjung Sari,21.71.01.1006,Belakang Padang,Kota,Batam,Kepulauan Riau
400,29452,Batu Merah,21.71.02.1003,Batu Ampar,Kota,Batam,Kepulauan Riau
401,29454,Kampung Seraya,21.71.02.1004,Batu Ampar,Kota,Batam,Kepulauan Riau
402,29453,Sungai Jodoh,21.71.02.1002,Batu Ampar,Kota,Batam,Kepulauan Riau
403,29453,Tanjung Sengkuang,21.71.02.1001,Batu Ampar,Kota,Batam,Kepulauan Riau
404,29438,Bukit Tempayan,21.71.12.1004,Batu Aji,Kota,Batam,Kepulauan Riau
405,29438,Buliang,21.71.12.1002,Batu Aji,Kota,Batam,Kepulauan Riau
406,29422,Kibing,21.71.12.1003,Batu Aji,Kota,Batam,Kepulauan Riau
407,29424,Tanjung Uncang,21.71.12.1001,Batu Aji,Kota,Batam,Kepulauan Riau
408,29431,Baloi Permai,21.71.10.1001,Batam Kota,Kota,Batam,Kepulauan Riau
409,29464,Belian,21.71.10.1004,Batam Kota,Kota,Batam,Kepulauan Riau
410,29432,Sukajadi,21.71.10.1005,Batam Kota,Kota,Batam,Kepulauan Riau
411,29433,Sungai Panas,21.71.10.1006,Batam Kota,Kota,Batam,Kepulauan Riau
412,29432,Taman Baloi,21.71.10.1002,Batam Kota,Kota,Batam,Kepulauan Riau
413,29461,Teluk Tering,21.71.10.1003,Batam Kota,Kota,Batam,Kepulauan Riau
414,29873,Batu Belubang,21.04.13.2001,Bakung Serumpun,Kabupaten,Lingga,Kepulauan Riau
415,29873,Cempa,21.04.13.2002,Bakung Serumpun,Kabupaten,Lingga,Kepulauan Riau
416,29873,Pasir Panjang,21.04.13.2003,Bakung Serumpun,Kabupaten,Lingga,Kepulauan Riau
417,29873,Rejai,21.04.13.2006,Bakung Serumpun,Kabupaten,Lingga,Kepulauan Riau
418,29873,Tanjung Kelit,21.04.13.2004,Bakung Serumpun,Kabupaten,Lingga,Kepulauan Riau
419,29873,Tanjung Lipat,21.04.13.2005,Bakung Serumpun,Kabupaten,Lingga,Kepulauan Riau