no,postal_code,urban,area_code,sub_district,dt2,city,province
1,97854,Fritu,82.02.04.2003,Weda Utara,Kabupaten,Halmahera Tengah,Maluku Utara
2,97854,Gemaf,82.02.04.2001,Weda Utara,Kabupaten,Halmahera Tengah,Maluku Utara
3,97854,Kiya,82.02.04.2008,Weda Utara,Kabupaten,Halmahera Tengah,Maluku Utara
4,97854,Sagea,82.02.04.2002,Weda Utara,Kabupaten,Halmahera Tengah,Maluku Utara
5,97854,Waleh,82.02.04.2004,Weda Utara,Kabupaten,Halmahera Tengah,Maluku Utara
6,97852,Dotte,82.02.09.2001,Weda Timur,Kabupaten,Halmahera Tengah,Maluku Utara
7,97852,Kotalo,82.02.09.2003,Weda Timur,Kabupaten,Halmahera Tengah,Maluku Utara
8,97852,Messa,82.02.09.2002,Weda Timur,Kabupaten,Halmahera Tengah,Maluku Utara
9,97852,Yeke,82.02.09.2004,Weda Timur,Kabupaten,Halmahera Tengah,Maluku Utara
10,97853,Kobe,82.02.07.2004,Weda Tengah,Kabupaten,Halmahera Tengah,Maluku Utara
11,97853,Kulo Jaya,82.02.07.2007,Weda Tengah,Kabupaten,Halmahera Tengah,Maluku Utara
12,97853,Lililef Sawai (Lelilef Sawai),82.02.07.2002,Weda Tengah,Kabupaten,Halmahera Tengah,Maluku Utara
13,97853,Lililef Waibulan (Lelilef Waibulen),82.02.07.2001,Weda Tengah,Kabupaten,Halmahera Tengah,Maluku Utara
14,97853,Sawai Itepo,82.02.07.2003,Weda Tengah,Kabupaten,Halmahera Tengah,Maluku Utara
15,97853,Woejerana,82.02.07.2006,Weda Tengah,Kabupaten,Halmahera Tengah,Maluku Utara
16,97853,Woekob,82.02.07.2005,Weda Tengah,Kabupaten,Halmahera Tengah,Maluku Utara
17,97851,Air Salobar,82.02.05.2008,Weda Selatan,Kabupaten,Halmahera Tengah,Maluku Utara
18,97851,Kluting Jaya,82.02.05.2005,Weda Selatan,Kabupaten,Halmahera Tengah,Maluku Utara
19,97851,Lembah Asri,82.02.05.2006,Weda Selatan,Kabupaten,Halmahera Tengah,Maluku Utara
20,97851,Loleo,82.02.05.2003,Weda Selatan,Kabupaten,Halmahera Tengah,Maluku Utara
21,97851,Sosowomo,82.02.05.2002,Weda Selatan,Kabupaten,Halmahera Tengah,Maluku Utara
22,97851,Sumber Sari,82.02.05.2007,Weda Selatan,Kabupaten,Halmahera Tengah,Maluku Utara
23,97851,Tilope (Tiloppe),82.02.05.2001,Weda Selatan,Kabupaten,Halmahera Tengah,Maluku Utara
24,97851,Wairoro Indah,82.02.05.2004,Weda Selatan,Kabupaten,Halmahera Tengah,Maluku Utara
25,97850,Fidy Jaya,82.02.01.2020,Weda,Kabupaten,Halmahera Tengah,Maluku Utara
26,97850,Goeng,82.02.01.2024,Weda,Kabupaten,Halmahera Tengah,Maluku Utara
27,97850,Nurweda,82.02.01.2022,Weda,Kabupaten,Halmahera Tengah,Maluku Utara
28,97850,Nusliko,82.02.01.2004,Weda,Kabupaten,Halmahera Tengah,Maluku Utara
29,97850,Sidanga,82.02.01.2021,Weda,Kabupaten,Halmahera Tengah,Maluku Utara
30,97850,Weda / Wedana,82.02.01.2023,Weda,Kabupaten,Halmahera Tengah,Maluku Utara
31,97850,Were,82.02.01.2005,Weda,Kabupaten,Halmahera Tengah,Maluku Utara
32,97869,Bololo,82.06.06.2005,Wasile Utara,Kabupaten,Halmahera Timur,Maluku Utara
33,97869,Dowongi Jaya,82.06.06.2007,Wasile Utara,Kabupaten,Halmahera Timur,Maluku Utara
34,97869,Helaitetor,82.06.06.2006,Wasile Utara,Kabupaten,Halmahera Timur,Maluku Utara
35,97869,Iga,82.06.06.2002,Wasile Utara,Kabupaten,Halmahera Timur,Maluku Utara
36,97869,Labi Labi,82.06.06.2001,Wasile Utara,Kabupaten,Halmahera Timur,Maluku Utara
37,97869,Majiko Tongone,82.06.06.2008,Wasile Utara,Kabupaten,Halmahera Timur,Maluku Utara
38,97869,Marimoi,82.06.06.2004,Wasile Utara,Kabupaten,Halmahera Timur,Maluku Utara
39,97869,Tatam,82.06.06.2003,Wasile Utara,Kabupaten,Halmahera Timur,Maluku Utara
40,97868,Akedaga (Ake Daga),82.06.07.2003,Wasile Timur,Kabupaten,Halmahera Timur,Maluku Utara
41,97868,Daka Ino,82.06.07.2002,Wasile Timur,Kabupaten,Halmahera Timur,Maluku Utara
42,97868,Dodaga,82.06.07.2001,Wasile Timur,Kabupaten,Halmahera Timur,Maluku Utara
43,97868,Rawamangun,82.06.07.2007,Wasile Timur,Kabupaten,Halmahera Timur,Maluku Utara
44,97868,Sidomulyo,82.06.07.2008,Wasile Timur,Kabupaten,Halmahera Timur,Maluku Utara
45,97868,Tobo Ino (Toboino),82.06.07.2004,Wasile Timur,Kabupaten,Halmahera Timur,Maluku Utara
46,97868,Tutuling Jaya,82.06.07.2005,Wasile Timur,Kabupaten,Halmahera Timur,Maluku Utara
47,97868,Woka Jaya,82.06.07.2006,Wasile Timur,Kabupaten,Halmahera Timur,Maluku Utara
48,97867,Boki Miake (Bokimaake),82.06.05.2006,Wasile Tengah,Kabupaten,Halmahera Timur,Maluku Utara
49,97867,Foli (Foly),82.06.05.2004,Wasile Tengah,Kabupaten,Halmahera Timur,Maluku Utara
50,97867,Hate Tabako (Hatetabako),82.06.05.2001,Wasile Tengah,Kabupaten,Halmahera Timur,Maluku Utara
51,97867,Kakaraino,82.06.05.2008,Wasile Tengah,Kabupaten,Halmahera Timur,Maluku Utara
52,97867,Lolobata,82.06.05.2002,Wasile Tengah,Kabupaten,Halmahera Timur,Maluku Utara
53,97867,Nyaolako,82.06.05.2005,Wasile Tengah,Kabupaten,Halmahera Timur,Maluku Utara
54,97867,Puao,82.06.05.2003,Wasile Tengah,Kabupaten,Halmahera Timur,Maluku Utara
55,97867,Silalaysang (Silalayang),82.06.05.2007,Wasile Tengah,Kabupaten,Halmahera Timur,Maluku Utara
56,97866,Ake Jawi,82.06.04.2018,Wasile Selatan,Kabupaten,Halmahera Timur,Maluku Utara
57,97866,Bina Gara (Binagara),82.06.04.2009,Wasile Selatan,Kabupaten,Halmahera Timur,Maluku Utara
58,97866,Bukutio,82.06.04.2024,Wasile Selatan,Kabupaten,Halmahera Timur,Maluku Utara
59,97866,Ekor,82.06.04.2019,Wasile Selatan,Kabupaten,Halmahera Timur,Maluku Utara
60,97866,Ekorino,82.06.04.2020,Wasile Selatan,Kabupaten,Halmahera Timur,Maluku Utara
61,97866,Fayaul,82.06.04.2008,Wasile Selatan,Kabupaten,Halmahera Timur,Maluku Utara
62,97866,Ino Jaya,82.06.04.2017,Wasile Selatan,Kabupaten,Halmahera Timur,Maluku Utara
63,97866,Jiko Moi,82.06.04.2021,Wasile Selatan,Kabupaten,Halmahera Timur,Maluku Utara
64,97866,Loleba,82.06.04.2003,Wasile Selatan,Kabupaten,Halmahera Timur,Maluku Utara
65,97866,Minamin,82.06.04.2006,Wasile Selatan,Kabupaten,Halmahera Timur,Maluku Utara
66,97866,Nanas,82.06.04.2014,Wasile Selatan,Kabupaten,Halmahera Timur,Maluku Utara
67,97866,Nusa Ambu (Nusa Ambo),82.06.04.2002,Wasile Selatan,Kabupaten,Halmahera Timur,Maluku Utara
68,97866,Nusa Jaya,82.06.04.2001,Wasile Selatan,Kabupaten,Halmahera Timur,Maluku Utara
69,97866,Pintatu,82.06.04.2005,Wasile Selatan,Kabupaten,Halmahera Timur,Maluku Utara
70,97866,Saolat,82.06.04.2013,Wasile Selatan,Kabupaten,Halmahera Timur,Maluku Utara
71,97866,Saramake (Saramaake),82.06.04.2007,Wasile Selatan,Kabupaten,Halmahera Timur,Maluku Utara
72,97866,Sondo-Sondo,82.06.04.2016,Wasile Selatan,Kabupaten,Halmahera Timur,Maluku Utara
73,97866,Tabanalow (Tabanalou / Tabanoli),82.06.04.2012,Wasile Selatan,Kabupaten,Halmahera Timur,Maluku Utara
74,97866,Talaga Jaya,82.06.04.2015,Wasile Selatan,Kabupaten,Halmahera Timur,Maluku Utara
75,97866,Tanure,82.06.04.2022,Wasile Selatan,Kabupaten,Halmahera Timur,Maluku Utara
76,97866,Tomares,82.06.04.2011,Wasile Selatan,Kabupaten,Halmahera Timur,Maluku Utara
77,97866,Waijoi,82.06.04.2004,Wasile Selatan,Kabupaten,Halmahera Timur,Maluku Utara
78,97866,Wasile,82.06.04.2010,Wasile Selatan,Kabupaten,Halmahera Timur,Maluku Utara
79,97866,Yawal,82.06.04.2023,Wasile Selatan,Kabupaten,Halmahera Timur,Maluku Utara
80,97865,Batu Raja,82.06.01.2014,Wasile,Kabupaten,Halmahera Timur,Maluku Utara
81,97865,Bulapapo (Gulapapo),82.06.01.2016,Wasile,Kabupaten,Halmahera Timur,Maluku Utara
82,97865,Bumi Restu,82.06.01.2009,Wasile,Kabupaten,Halmahera Timur,Maluku Utara
83,97865,Cemara Jaya,82.06.01.2008,Wasile,Kabupaten,Halmahera Timur,Maluku Utara
84,97865,Mekar Sari,82.06.01.2015,Wasile,Kabupaten,Halmahera Timur,Maluku Utara
85,97865,Subaim,82.06.01.2006,Wasile,Kabupaten,Halmahera Timur,Maluku Utara
86,97865,Waisuba,82.06.01.2027,Wasile,Kabupaten,Halmahera Timur,Maluku Utara
87,97767,Gorua,82.03.10.2001,Tobelo Utara,Kabupaten,Halmahera Utara,Maluku Utara
88,97767,Gorua Selatan,82.03.10.2006,Tobelo Utara,Kabupaten,Halmahera Utara,Maluku Utara
89,97767,Gorua Utara,82.03.10.2007,Tobelo Utara,Kabupaten,Halmahera Utara,Maluku Utara
90,97767,Kokota Jaya (Kokotua Jaya),82.03.10.2008,Tobelo Utara,Kabupaten,Halmahera Utara,Maluku Utara
91,97767,Luari,82.03.10.2003,Tobelo Utara,Kabupaten,Halmahera Utara,Maluku Utara
92,97767,Popilo,82.03.10.2002,Tobelo Utara,Kabupaten,Halmahera Utara,Maluku Utara
93,97767,Popilo Utara (Popila Utara),82.03.10.2004,Tobelo Utara,Kabupaten,Halmahera Utara,Maluku Utara
94,97767,Ruko,82.03.10.2009,Tobelo Utara,Kabupaten,Halmahera Utara,Maluku Utara
95,97767,Tolonua Selatan,82.03.10.2010,Tobelo Utara,Kabupaten,Halmahera Utara,Maluku Utara
96,97767,Tolonuo,82.03.10.2005,Tobelo Utara,Kabupaten,Halmahera Utara,Maluku Utara
97,97767,Gonga,82.03.12.2005,Tobelo Timur,Kabupaten,Halmahera Utara,Maluku Utara
98,97767,Katana,82.03.12.2004,Tobelo Timur,Kabupaten,Halmahera Utara,Maluku Utara
99,97767,Mawea,82.03.12.2002,Tobelo Timur,Kabupaten,Halmahera Utara,Maluku Utara
100,97767,Meti,82.03.12.2003,Tobelo Timur,Kabupaten,Halmahera Utara,Maluku Utara
101,97767,Todokuiha,82.03.12.2006,Tobelo Timur,Kabupaten,Halmahera Utara,Maluku Utara
102,97767,Yaro,82.03.12.2001,Tobelo Timur,Kabupaten,Halmahera Utara,Maluku Utara
103,97768,Kali Upa,82.03.11.2006,Tobelo Tengah,Kabupaten,Halmahera Utara,Maluku Utara
104,97768,Kalipitu,82.03.11.2005,Tobelo Tengah,Kabupaten,Halmahera Utara,Maluku Utara
105,97768,Lina Ino,82.03.11.2007,Tobelo Tengah,Kabupaten,Halmahera Utara,Maluku Utara
106,97768,Mahia (Wosi/Wosia Tengah),82.03.11.2008,Tobelo Tengah,Kabupaten,Halmahera Utara,Maluku Utara
107,97768,Pitu,82.03.11.2002,Tobelo Tengah,Kabupaten,Halmahera Utara,Maluku Utara
108,97768,Tanjung Niara (Wosi/Wosia Selatan),82.03.11.2009,Tobelo Tengah,Kabupaten,Halmahera Utara,Maluku Utara
109,97768,Upa,82.03.11.2001,Tobelo Tengah,Kabupaten,Halmahera Utara,Maluku Utara
110,97768,WKO,82.03.11.2004,Tobelo Tengah,Kabupaten,Halmahera Utara,Maluku Utara
111,97768,Wosi (Wosia),82.03.11.2003,Tobelo Tengah,Kabupaten,Halmahera Utara,Maluku Utara
112,97768,Efi Efi,82.03.06.2003,Tobelo Selatan,Kabupaten,Halmahera Utara,Maluku Utara
113,97768,Gamhoku,82.03.06.2002,Tobelo Selatan,Kabupaten,Halmahera Utara,Maluku Utara
114,97768,Kakara B,82.03.06.2015,Tobelo Selatan,Kabupaten,Halmahera Utara,Maluku Utara
115,97768,Kupa Kupa,82.03.06.2001,Tobelo Selatan,Kabupaten,Halmahera Utara,Maluku Utara
116,97768,Kupa Kupa Selatan,82.03.06.2022,Tobelo Selatan,Kabupaten,Halmahera Utara,Maluku Utara
117,97768,Leleoto,82.03.06.2006,Tobelo Selatan,Kabupaten,Halmahera Utara,Maluku Utara
118,97768,Lemah Ino,82.03.06.2024,Tobelo Selatan,Kabupaten,Halmahera Utara,Maluku Utara
119,97768,Paca,82.03.06.2005,Tobelo Selatan,Kabupaten,Halmahera Utara,Maluku Utara
120,97768,Pale,82.03.06.2021,Tobelo Selatan,Kabupaten,Halmahera Utara,Maluku Utara
121,97768,Talaga Paca,82.03.06.2018,Tobelo Selatan,Kabupaten,Halmahera Utara,Maluku Utara
122,97768,Tioua,82.03.06.2020,Tobelo Selatan,Kabupaten,Halmahera Utara,Maluku Utara
123,97768,Tobe,82.03.06.2009,Tobelo Selatan,Kabupaten,Halmahera Utara,Maluku Utara
124,97768,Tomahalu (Toma Halu),82.03.06.2004,Tobelo Selatan,Kabupaten,Halmahera Utara,Maluku Utara
125,97762,Birinoa,82.03.13.2004,Tobelo Barat,Kabupaten,Halmahera Utara,Maluku Utara
126,97762,Kusuri,82.03.13.2001,Tobelo Barat,Kabupaten,Halmahera Utara,Maluku Utara
127,97762,Sukamaju,82.03.13.2002,Tobelo Barat,Kabupaten,Halmahera Utara,Maluku Utara
128,97762,Togoliua,82.03.13.2003,Tobelo Barat,Kabupaten,Halmahera Utara,Maluku Utara
129,97762,Wangongira,82.03.13.2005,Tobelo Barat,Kabupaten,Halmahera Utara,Maluku Utara
130,97762,Gamsungi,82.03.05.2004,Tobelo,Kabupaten,Halmahera Utara,Maluku Utara
131,97762,Gosoma,82.03.05.2014,Tobelo,Kabupaten,Halmahera Utara,Maluku Utara
132,97762,Gura,82.03.05.2005,Tobelo,Kabupaten,Halmahera Utara,Maluku Utara
133,97762,Kakara (Kakara A),82.03.05.2012,Tobelo,Kabupaten,Halmahera Utara,Maluku Utara
134,97762,Kumo,82.03.05.2013,Tobelo,Kabupaten,Halmahera Utara,Maluku Utara
135,97762,MKCM,82.03.05.2018,Tobelo,Kabupaten,Halmahera Utara,Maluku Utara
136,97762,Rawajaya,82.03.05.2015,Tobelo,Kabupaten,Halmahera Utara,Maluku Utara
137,97762,Tagalaya,82.03.05.2024,Tobelo,Kabupaten,Halmahera Utara,Maluku Utara
138,97762,Wari,82.03.05.2006,Tobelo,Kabupaten,Halmahera Utara,Maluku Utara
139,97762,Wari Ino,82.03.05.2025,Tobelo,Kabupaten,Halmahera Utara,Maluku Utara
140,97823,Afa Afa,82.72.05.1006,Tidore Utara,Kota,Tidore Kepulauan,Maluku Utara
141,97823,Bobo (Bobo Menjadi),82.72.05.1008,Tidore Utara,Kota,Tidore Kepulauan,Maluku Utara
142,97823,Fobaharu,82.72.05.1002,Tidore Utara,Kota,Tidore Kepulauan,Maluku Utara
143,97823,Gubu Kusuma,82.72.05.1009,Tidore Utara,Kota,Tidore Kepulauan,Maluku Utara
144,97823,Jaya,82.72.05.1003,Tidore Utara,Kota,Tidore Kepulauan,Maluku Utara
145,97823,Maitara,82.72.05.2007,Tidore Utara,Kota,Tidore Kepulauan,Maluku Utara
146,97823,Maitara Selatan,82.72.05.2012,Tidore Utara,Kota,Tidore Kepulauan,Maluku Utara
147,97823,Maitara Tengah,82.72.05.2014,Tidore Utara,Kota,Tidore Kepulauan,Maluku Utara
148,97823,Maitara Utara,82.72.05.2013,Tidore Utara,Kota,Tidore Kepulauan,Maluku Utara
149,97823,Mareku,82.72.05.1005,Tidore Utara,Kota,Tidore Kepulauan,Maluku Utara
150,97823,Ome,82.72.05.1004,Tidore Utara,Kota,Tidore Kepulauan,Maluku Utara
151,97823,Rum,82.72.05.1001,Tidore Utara,Kota,Tidore Kepulauan,Maluku Utara
152,97823,Rum Balibunga,82.72.05.1011,Tidore Utara,Kota,Tidore Kepulauan,Maluku Utara
153,97823,Sirongo Folaraha,82.72.05.1010,Tidore Utara,Kota,Tidore Kepulauan,Maluku Utara
154,97822,Cobodoe,82.72.08.1005,Tidore Timur,Kota,Tidore Kepulauan,Maluku Utara
155,97822,Dowora,82.72.08.1003,Tidore Timur,Kota,Tidore Kepulauan,Maluku Utara
156,97822,Doyado,82.72.08.1006,Tidore Timur,Kota,Tidore Kepulauan,Maluku Utara
157,97822,Jiko Cobo,82.72.08.1007,Tidore Timur,Kota,Tidore Kepulauan,Maluku Utara
158,97822,Kalaodi,82.72.08.1004,Tidore Timur,Kota,Tidore Kepulauan,Maluku Utara
159,97822,Mafututu,82.72.08.1001,Tidore Timur,Kota,Tidore Kepulauan,Maluku Utara
160,97822,Tosa,82.72.08.1002,Tidore Timur,Kota,Tidore Kepulauan,Maluku Utara
161,97821,Dokiri,82.72.04.1002,Tidore Selatan,Kota,Tidore Kepulauan,Maluku Utara
162,97821,Gurabati,82.72.04.1005,Tidore Selatan,Kota,Tidore Kepulauan,Maluku Utara
163,97821,Mare Gam (Maregam),82.72.04.2008,Tidore Selatan,Kota,Tidore Kepulauan,Maluku Utara
164,97821,Mare Kofo (Marekofo),82.72.04.2007,Tidore Selatan,Kota,Tidore Kepulauan,Maluku Utara
165,97821,Toloa,82.72.04.1001,Tidore Selatan,Kota,Tidore Kepulauan,Maluku Utara
166,97821,Tomalou,82.72.04.1004,Tidore Selatan,Kota,Tidore Kepulauan,Maluku Utara
167,97821,Tongowai,82.72.04.1006,Tidore Selatan,Kota,Tidore Kepulauan,Maluku Utara
168,97821,Tuguiha,82.72.04.1003,Tidore Selatan,Kota,Tidore Kepulauan,Maluku Utara
169,97813,Folarora,82.72.01.1014,Tidore,Kota,Tidore Kepulauan,Maluku Utara
170,97812,Gamtufkange,82.72.01.1002,Tidore,Kota,Tidore Kepulauan,Maluku Utara
171,97813,Goto,82.72.01.1012,Tidore,Kota,Tidore Kepulauan,Maluku Utara
172,97813,Gurabunga,82.72.01.1008,Tidore,Kota,Tidore Kepulauan,Maluku Utara
173,97813,Indonesiana,82.72.01.1003,Tidore,Kota,Tidore Kepulauan,Maluku Utara
174,97813,Seli,82.72.01.1005,Tidore,Kota,Tidore Kepulauan,Maluku Utara
175,97813,Soadara,82.72.01.1006,Tidore,Kota,Tidore Kepulauan,Maluku Utara
176,97811,Soasio,82.72.01.1001,Tidore,Kota,Tidore Kepulauan,Maluku Utara
177,97813,Tambula,82.72.01.1016,Tidore,Kota,Tidore Kepulauan,Maluku Utara
178,97813,Tomagoba,82.72.01.1013,Tidore,Kota,Tidore Kepulauan,Maluku Utara
179,97813,Topo,82.72.01.1007,Tidore,Kota,Tidore Kepulauan,Maluku Utara
180,97813,Topo Tiga,82.72.01.1015,Tidore,Kota,Tidore Kepulauan,Maluku Utara
181,97813,Tuguwaji,82.72.01.1017,Tidore,Kota,Tidore Kepulauan,Maluku Utara
182,97747,Bula,82.71.08.1006,Ternate Barat,Kota,Ternate,Maluku Utara
183,97747,Kulaba,82.71.08.1007,Ternate Barat,Kota,Ternate,Maluku Utara
184,97747,Loto,82.71.08.1002,Ternate Barat,Kota,Ternate,Maluku Utara
185,97747,Sulamadaha,82.71.08.1004,Ternate Barat,Kota,Ternate,Maluku Utara
186,97747,Takome,82.71.08.1003,Ternate Barat,Kota,Ternate,Maluku Utara
187,97747,Tobololo,82.71.08.1005,Ternate Barat,Kota,Ternate,Maluku Utara
188,97747,Togafo,82.71.08.1001,Ternate Barat,Kota,Ternate,Maluku Utara
189,97794,Air Bulan,82.08.04.2012,Taliabu Utara,Kabupaten,Pulau Taliabu,Maluku Utara
190,97794,Air Kalimat,82.08.04.2013,Taliabu Utara,Kabupaten,Pulau Taliabu,Maluku Utara
191,97794,Bua Mbono (Mbono),82.08.04.2008,Taliabu Utara,Kabupaten,Pulau Taliabu,Maluku Utara
192,97794,Dege,82.08.04.2011,Taliabu Utara,Kabupaten,Pulau Taliabu,Maluku Utara
193,97794,Gela,82.08.04.2004,Taliabu Utara,Kabupaten,Pulau Taliabu,Maluku Utara
194,97794,Hai,82.08.04.2009,Taliabu Utara,Kabupaten,Pulau Taliabu,Maluku Utara
195,97794,Jorjoga,82.08.04.2003,Taliabu Utara,Kabupaten,Pulau Taliabu,Maluku Utara
196,97794,London,82.08.04.2018,Taliabu Utara,Kabupaten,Pulau Taliabu,Maluku Utara
197,97794,Mananga,82.08.04.2001,Taliabu Utara,Kabupaten,Pulau Taliabu,Maluku Utara
198,97794,Minton,82.08.04.2005,Taliabu Utara,Kabupaten,Pulau Taliabu,Maluku Utara
199,97794,Natang Kuning,82.08.04.2016,Taliabu Utara,Kabupaten,Pulau Taliabu,Maluku Utara
200,97794,Nunca,82.08.04.2006,Taliabu Utara,Kabupaten,Pulau Taliabu,Maluku Utara
201,97794,Nunu,82.08.04.2017,Taliabu Utara,Kabupaten,Pulau Taliabu,Maluku Utara
202,97794,Padang,82.08.04.2015,Taliabu Utara,Kabupaten,Pulau Taliabu,Maluku Utara
203,97794,Sahu,82.08.04.2007,Taliabu Utara,Kabupaten,Pulau Taliabu,Maluku Utara
204,97794,Tanjung Una,82.08.04.2002,Taliabu Utara,Kabupaten,Pulau Taliabu,Maluku Utara
205,97794,Tikong,82.08.04.2010,Taliabu Utara,Kabupaten,Pulau Taliabu,Maluku Utara
206,97794,Ufung,82.08.04.2014,Taliabu Utara,Kabupaten,Pulau Taliabu,Maluku Utara
207,97794,Wahe,82.08.04.2019,Taliabu Utara,Kabupaten,Pulau Taliabu,Maluku Utara
208,97794,Belo,82.08.06.2006,Taliabu Timur Selatan,Kabupaten,Pulau Taliabu,Maluku Utara
209,97794,Kamaya,82.08.06.2007,Taliabu Timur Selatan,Kabupaten,Pulau Taliabu,Maluku Utara
210,97794,Kawadang,82.08.06.2003,Taliabu Timur Selatan,Kabupaten,Pulau Taliabu,Maluku Utara
211,97794,Losseng,82.08.06.2002,Taliabu Timur Selatan,Kabupaten,Pulau Taliabu,Maluku Utara
212,97794,Mantarara,82.08.06.2005,Taliabu Timur Selatan,Kabupaten,Pulau Taliabu,Maluku Utara
213,97794,Sofan,82.08.06.2004,Taliabu Timur Selatan,Kabupaten,Pulau Taliabu,Maluku Utara
214,97794,Waikadai,82.08.06.2001,Taliabu Timur Selatan,Kabupaten,Pulau Taliabu,Maluku Utara
215,97794,Waikadai Sula,82.08.06.2009,Taliabu Timur Selatan,Kabupaten,Pulau Taliabu,Maluku Utara
216,97794,Waikoka,82.08.06.2008,Taliabu Timur Selatan,Kabupaten,Pulau Taliabu,Maluku Utara
217,97794,Parigi,82.08.05.2002,Taliabu Timur,Kabupaten,Pulau Taliabu,Maluku Utara
218,97794,Penu,82.08.05.2001,Taliabu Timur,Kabupaten,Pulau Taliabu,Maluku Utara
219,97794,Samuya,82.08.05.2003,Taliabu Timur,Kabupaten,Pulau Taliabu,Maluku Utara
220,97794,Tubang,82.08.05.2004,Taliabu Timur,Kabupaten,Pulau Taliabu,Maluku Utara
221,97794,Bahu,82.08.07.2001,Taliabu Selatan,Kabupaten,Pulau Taliabu,Maluku Utara
222,97794,Bapenu,82.08.07.2002,Taliabu Selatan,Kabupaten,Pulau Taliabu,Maluku Utara
223,97794,Galebo,82.08.07.2008,Taliabu Selatan,Kabupaten,Pulau Taliabu,Maluku Utara
224,97794,Kilo,82.08.07.2003,Taliabu Selatan,Kabupaten,Pulau Taliabu,Maluku Utara
225,97794,Maluli,82.08.07.2007,Taliabu Selatan,Kabupaten,Pulau Taliabu,Maluku Utara
226,97794,Nggaki,82.08.07.2005,Taliabu Selatan,Kabupaten,Pulau Taliabu,Maluku Utara
227,97794,Nggoli,82.08.07.2009,Taliabu Selatan,Kabupaten,Pulau Taliabu,Maluku Utara
228,97794,Pancado,82.08.07.2004,Taliabu Selatan,Kabupaten,Pulau Taliabu,Maluku Utara
229,97794,Sumbong,82.08.07.2006,Taliabu Selatan,Kabupaten,Pulau Taliabu,Maluku Utara
230,97794,Beringin Jaya,82.08.02.2003,Taliabu Barat Laut,Kabupaten,Pulau Taliabu,Maluku Utara
231,97794,Kasango,82.08.02.2004,Taliabu Barat Laut,Kabupaten,Pulau Taliabu,Maluku Utara
232,97794,Nggele,82.08.02.2001,Taliabu Barat Laut,Kabupaten,Pulau Taliabu,Maluku Utara
233,97794,Onemay (Oneway),82.08.02.2005,Taliabu Barat Laut,Kabupaten,Pulau Taliabu,Maluku Utara
234,97794,Salati,82.08.02.2002,Taliabu Barat Laut,Kabupaten,Pulau Taliabu,Maluku Utara
235,97794,Bobong,82.08.01.2001,Taliabu Barat,Kabupaten,Pulau Taliabu,Maluku Utara
236,97794,Holbota,82.08.01.2007,Taliabu Barat,Kabupaten,Pulau Taliabu,Maluku Utara
237,97794,Kawalo,82.08.01.2003,Taliabu Barat,Kabupaten,Pulau Taliabu,Maluku Utara
238,97794,Kilong,82.08.01.2011,Taliabu Barat,Kabupaten,Pulau Taliabu,Maluku Utara
239,97794,Kramat,82.08.01.2006,Taliabu Barat,Kabupaten,Pulau Taliabu,Maluku Utara
240,97794,Limbo,82.08.01.2004,Taliabu Barat,Kabupaten,Pulau Taliabu,Maluku Utara
241,97794,Loho Bubba,82.08.01.2010,Taliabu Barat,Kabupaten,Pulau Taliabu,Maluku Utara
242,97794,Meranti Jaya (Maranti Jaya),82.08.01.2005,Taliabu Barat,Kabupaten,Pulau Taliabu,Maluku Utara
243,97794,Pancoran,82.08.01.2008,Taliabu Barat,Kabupaten,Pulau Taliabu,Maluku Utara
244,97794,Ratahaya,82.08.01.2012,Taliabu Barat,Kabupaten,Pulau Taliabu,Maluku Utara
245,97794,Talo,82.08.01.2002,Taliabu Barat,Kabupaten,Pulau Taliabu,Maluku Utara
246,97794,Wayo,82.08.01.2009,Taliabu Barat,Kabupaten,Pulau Taliabu,Maluku Utara
247,97794,Woyo,82.08.01.2013,Taliabu Barat,Kabupaten,Pulau Taliabu,Maluku Utara
248,97794,Fayaunana,82.08.08.2004,Tabona,Kabupaten,Pulau Taliabu,Maluku Utara
249,97794,Habunuha,82.08.08.2005,Tabona,Kabupaten,Pulau Taliabu,Maluku Utara
250,97794,Kabunu,82.08.08.2002,Tabona,Kabupaten,Pulau Taliabu,Maluku Utara
251,97794,Kataga,82.08.08.2006,Tabona,Kabupaten,Pulau Taliabu,Maluku Utara
252,97794,Peleng,82.08.08.2003,Tabona,Kabupaten,Pulau Taliabu,Maluku Utara
253,97794,Tabona,82.08.08.2001,Tabona,Kabupaten,Pulau Taliabu,Maluku Utara
254,97794,Wolio,82.08.08.2007,Tabona,Kabupaten,Pulau Taliabu,Maluku Utara
255,97795,Baleha,82.05.08.2002,Sulabesi Timur,Kabupaten,Kepulauan Sula,Maluku Utara
256,97795,Fatkauyon,82.05.08.2003,Sulabesi Timur,Kabupaten,Kepulauan Sula,Maluku Utara
257,97795,Sama,82.05.08.2005,Sulabesi Timur,Kabupaten,Kepulauan Sula,Maluku Utara
258,97795,Waigoiyofa,82.05.08.2001,Sulabesi Timur,Kabupaten,Kepulauan Sula,Maluku Utara
259,97795,Wailia,82.05.08.2004,Sulabesi Timur,Kabupaten,Kepulauan Sula,Maluku Utara
260,97795,Waisepa,82.05.08.2006,Sulabesi Timur,Kabupaten,Kepulauan Sula,Maluku Utara
261,97799,Bega,82.05.07.2005,Sulabesi Tengah,Kabupaten,Kepulauan Sula,Maluku Utara
262,97799,Fat Iba,82.05.07.2004,Sulabesi Tengah,Kabupaten,Kepulauan Sula,Maluku Utara
263,97799,Manaf,82.05.07.2006,Sulabesi Tengah,Kabupaten,Kepulauan Sula,Maluku Utara
264,97799,Soamole,82.05.07.2002,Sulabesi Tengah,Kabupaten,Kepulauan Sula,Maluku Utara
265,97799,Waiboga,82.05.07.2001,Sulabesi Tengah,Kabupaten,Kepulauan Sula,Maluku Utara
266,97799,Waiman,82.05.07.2003,Sulabesi Tengah,Kabupaten,Kepulauan Sula,Maluku Utara
267,97798,Fuata,82.05.09.2002,Sulabesi Selatan,Kabupaten,Kepulauan Sula,Maluku Utara
268,97798,Skom,82.05.09.2004,Sulabesi Selatan,Kabupaten,Kepulauan Sula,Maluku Utara
269,97798,Wai Tamua,82.05.09.2005,Sulabesi Selatan,Kabupaten,Kepulauan Sula,Maluku Utara
270,97798,Waigai,82.05.09.2001,Sulabesi Selatan,Kabupaten,Kepulauan Sula,Maluku Utara
271,97798,Wainib,82.05.09.2003,Sulabesi Selatan,Kabupaten,Kepulauan Sula,Maluku Utara
272,97797,Kabau Darat,82.05.03.2008,Sulabesi Barat,Kabupaten,Kepulauan Sula,Maluku Utara
273,97797,Kabau Pantai,82.05.03.2006,Sulabesi Barat,Kabupaten,Kepulauan Sula,Maluku Utara
274,97797,Nahi,82.05.03.2009,Sulabesi Barat,Kabupaten,Kepulauan Sula,Maluku Utara
275,97797,Ona,82.05.03.2007,Sulabesi Barat,Kabupaten,Kepulauan Sula,Maluku Utara
276,97797,Paratina,82.05.03.2010,Sulabesi Barat,Kabupaten,Kepulauan Sula,Maluku Utara
277,97797,Wai Ina,82.05.03.2005,Sulabesi Barat,Kabupaten,Kepulauan Sula,Maluku Utara
278,97796,Bajo,82.05.18.2002,Sanana Utara,Kabupaten,Kepulauan Sula,Maluku Utara
279,97796,Fokalik,82.05.18.2007,Sanana Utara,Kabupaten,Kepulauan Sula,Maluku Utara
280,97796,Fukweu,82.05.18.2004,Sanana Utara,Kabupaten,Kepulauan Sula,Maluku Utara
281,97796,Malbufa,82.05.18.2006,Sanana Utara,Kabupaten,Kepulauan Sula,Maluku Utara
282,97796,Man-Gega,82.05.18.2001,Sanana Utara,Kabupaten,Kepulauan Sula,Maluku Utara
283,97796,Pohea,82.05.18.2003,Sanana Utara,Kabupaten,Kepulauan Sula,Maluku Utara
284,97796,Wainin,82.05.18.2005,Sanana Utara,Kabupaten,Kepulauan Sula,Maluku Utara
285,97795,Fagudu,82.05.02.2002,Sanana,Kabupaten,Kepulauan Sula,Maluku Utara
286,97795,Falahu,82.05.02.2004,Sanana,Kabupaten,Kepulauan Sula,Maluku Utara
287,97795,Fatcei,82.05.02.2005,Sanana,Kabupaten,Kepulauan Sula,Maluku Utara
288,97795,Fogi,82.05.02.2006,Sanana,Kabupaten,Kepulauan Sula,Maluku Utara
289,97795,Mangon,82.05.02.2001,Sanana,Kabupaten,Kepulauan Sula,Maluku Utara
290,97795,Pastina,82.05.02.2010,Sanana,Kabupaten,Kepulauan Sula,Maluku Utara
291,97795,Umaloya,82.05.02.2009,Sanana,Kabupaten,Kepulauan Sula,Maluku Utara
292,97795,Wai Ipa,82.05.02.2008,Sanana,Kabupaten,Kepulauan Sula,Maluku Utara
293,97795,Waibau,82.05.02.2003,Sanana,Kabupaten,Kepulauan Sula,Maluku Utara
294,97795,Waihama,82.05.02.2007,Sanana,Kabupaten,Kepulauan Sula,Maluku Utara
295,97795,Wailau,82.05.02.2011,Sanana,Kabupaten,Kepulauan Sula,Maluku Utara
296,97758,Air Panas,82.01.09.2018,Sahu Timur,Kabupaten,Halmahera Barat,Maluku Utara
297,97758,Akelamo,82.01.09.2004,Sahu Timur,Kabupaten,Halmahera Barat,Maluku Utara
298,97758,Aketola,82.01.09.2007,Sahu Timur,Kabupaten,Halmahera Barat,Maluku Utara
299,97758,Awer,82.01.09.2006,Sahu Timur,Kabupaten,Halmahera Barat,Maluku Utara
300,97758,Campaka,82.01.09.2015,Sahu Timur,Kabupaten,Halmahera Barat,Maluku Utara
301,97758,Gamiyel (Gamnyial),82.01.09.2010,Sahu Timur,Kabupaten,Halmahera Barat,Maluku Utara
302,97758,Gamomeng,82.01.09.2003,Sahu Timur,Kabupaten,Halmahera Barat,Maluku Utara
303,97758,Gamsugi (Gamsungi),82.01.09.2013,Sahu Timur,Kabupaten,Halmahera Barat,Maluku Utara
304,97758,Goal,82.01.09.2016,Sahu Timur,Kabupaten,Halmahera Barat,Maluku Utara
305,97758,Golago Kusuma,82.01.09.2011,Sahu Timur,Kabupaten,Halmahera Barat,Maluku Utara
306,97758,Hoku Hoku Gam,82.01.09.2009,Sahu Timur,Kabupaten,Halmahera Barat,Maluku Utara
307,97758,Idam Gamlamo (Idamgamlamo),82.01.09.2002,Sahu Timur,Kabupaten,Halmahera Barat,Maluku Utara
308,97758,Loce,82.01.09.2001,Sahu Timur,Kabupaten,Halmahera Barat,Maluku Utara
309,97758,Ngaon,82.01.09.2012,Sahu Timur,Kabupaten,Halmahera Barat,Maluku Utara
310,97758,Sidodadi,82.01.09.2017,Sahu Timur,Kabupaten,Halmahera Barat,Maluku Utara
311,97758,Taba Campaka,82.01.09.2014,Sahu Timur,Kabupaten,Halmahera Barat,Maluku Utara
312,97758,Taraudu Kusu,82.01.09.2005,Sahu Timur,Kabupaten,Halmahera Barat,Maluku Utara
313,97758,Tibobo,82.01.09.2008,Sahu Timur,Kabupaten,Halmahera Barat,Maluku Utara
314,97753,Balisoan Utara,82.01.04.2034,Sahu,Kabupaten,Halmahera Barat,Maluku Utara
315,97753,Balisoang (Balisoan),82.01.04.2009,Sahu,Kabupaten,Halmahera Barat,Maluku Utara
316,97753,Dere,82.01.04.2033,Sahu,Kabupaten,Halmahera Barat,Maluku Utara
317,97753,Golo,82.01.04.2013,Sahu,Kabupaten,Halmahera Barat,Maluku Utara
318,97753,Goro Goro,82.01.04.2007,Sahu,Kabupaten,Halmahera Barat,Maluku Utara
319,97753,Jara Kore (Jaraoke),82.01.04.2029,Sahu,Kabupaten,Halmahera Barat,Maluku Utara
320,97753,Lako Akederi (Lako Akediri),82.01.04.2028,Sahu,Kabupaten,Halmahera Barat,Maluku Utara
321,97753,Lako Akelamo,82.01.04.2002,Sahu,Kabupaten,Halmahera Barat,Maluku Utara
322,97753,Peot,82.01.04.2005,Sahu,Kabupaten,Halmahera Barat,Maluku Utara
323,97753,Ropu Tengah Balu (Ropu Tengah Hulu),82.01.04.2030,Sahu,Kabupaten,Halmahera Barat,Maluku Utara
324,97753,Sasur,82.01.04.2006,Sahu,Kabupaten,Halmahera Barat,Maluku Utara
325,97753,Sasur Pantai,82.01.04.2035,Sahu,Kabupaten,Halmahera Barat,Maluku Utara
326,97753,Susupu,82.01.04.2001,Sahu,Kabupaten,Halmahera Barat,Maluku Utara
327,97753,Tacici,82.01.04.2011,Sahu,Kabupaten,Halmahera Barat,Maluku Utara
328,97753,Tacim,82.01.04.2008,Sahu,Kabupaten,Halmahera Barat,Maluku Utara
329,97753,Taraudu,82.01.04.2012,Sahu,Kabupaten,Halmahera Barat,Maluku Utara
330,97753,Taruba,82.01.04.2003,Sahu,Kabupaten,Halmahera Barat,Maluku Utara
331,97753,Todahe,82.01.04.2004,Sahu,Kabupaten,Halmahera Barat,Maluku Utara
332,97753,Worat Worat,82.01.04.2010,Sahu,Kabupaten,Halmahera Barat,Maluku Utara
333,97747,Afe Taduma,82.71.01.1005,Pulau Ternate,Kota,Ternate,Maluku Utara
334,97747,Dorpedu,82.71.01.1019,Pulau Ternate,Kota,Ternate,Maluku Utara
335,97747,Foramadiahi,82.71.01.1002,Pulau Ternate,Kota,Ternate,Maluku Utara
336,97747,Jambula,82.71.01.1001,Pulau Ternate,Kota,Ternate,Maluku Utara
337,97747,Kastela,82.71.01.1003,Pulau Ternate,Kota,Ternate,Maluku Utara
338,97747,Rua,82.71.01.1004,Pulau Ternate,Kota,Ternate,Maluku Utara
339,97770,Aru Burung,82.07.06.2002,Pulau Rao,Kabupaten,Pulau Morotai,Maluku Utara
340,97770,Leo Leo,82.07.06.2004,Pulau Rao,Kabupaten,Pulau Morotai,Maluku Utara
341,97770,Lou Madoro,82.07.06.2003,Pulau Rao,Kabupaten,Pulau Morotai,Maluku Utara
342,97770,Posi-Posi (Posi Posi Rao),82.07.06.2001,Pulau Rao,Kabupaten,Pulau Morotai,Maluku Utara
343,97770,Sami Nyamau (Saminyamau),82.07.06.2005,Pulau Rao,Kabupaten,Pulau Morotai,Maluku Utara
344,97785,Dalam,82.04.01.2005,Pulau Makian,Kabupaten,Halmahera Selatan,Maluku Utara
345,97785,Dauri,82.04.01.2012,Pulau Makian,Kabupaten,Halmahera Selatan,Maluku Utara
346,97785,Gitang,82.04.01.2006,Pulau Makian,Kabupaten,Halmahera Selatan,Maluku Utara
347,97785,Gorup,82.04.01.2003,Pulau Makian,Kabupaten,Halmahera Selatan,Maluku Utara
348,97785,Gurua,82.04.01.2013,Pulau Makian,Kabupaten,Halmahera Selatan,Maluku Utara
349,97785,Kyowor,82.04.01.2007,Pulau Makian,Kabupaten,Halmahera Selatan,Maluku Utara
350,97785,Matentengin,82.04.01.2008,Pulau Makian,Kabupaten,Halmahera Selatan,Maluku Utara
351,97785,Ploili,82.04.01.2011,Pulau Makian,Kabupaten,Halmahera Selatan,Maluku Utara
352,97785,Rabutdaiyo,82.04.01.2001,Pulau Makian,Kabupaten,Halmahera Selatan,Maluku Utara
353,97785,Sangapati,82.04.01.2009,Pulau Makian,Kabupaten,Halmahera Selatan,Maluku Utara
354,97785,Suma,82.04.01.2010,Pulau Makian,Kabupaten,Halmahera Selatan,Maluku Utara
355,97785,Waigitang,82.04.01.2022,Pulau Makian,Kabupaten,Halmahera Selatan,Maluku Utara
356,97785,Wailoa,82.04.01.2014,Pulau Makian,Kabupaten,Halmahera Selatan,Maluku Utara
357,97785,Walo,82.04.01.2004,Pulau Makian,Kabupaten,Halmahera Selatan,Maluku Utara
358,97785,Waykion,82.04.01.2002,Pulau Makian,Kabupaten,Halmahera Selatan,Maluku Utara
359,97745,Dorari Isa,82.71.07.1003,Pulau Hiri,Kota,Ternate,Maluku Utara
360,97745,Faudu,82.71.07.1001,Pulau Hiri,Kota,Ternate,Maluku Utara
361,97745,Mado,82.71.07.1005,Pulau Hiri,Kota,Ternate,Maluku Utara
362,97745,Tafraka,82.71.07.1006,Pulau Hiri,Kota,Ternate,Maluku Utara
363,97745,Togolobe,82.71.07.1004,Pulau Hiri,Kota,Ternate,Maluku Utara
364,97745,Tomajiko,82.71.07.1002,Pulau Hiri,Kota,Ternate,Maluku Utara
365,97859,Elfanun,82.02.03.2007,Pulau Gebe,Kabupaten,Halmahera Tengah,Maluku Utara
366,97859,Kacepi,82.02.03.2002,Pulau Gebe,Kabupaten,Halmahera Tengah,Maluku Utara
367,97859,Kapaleo,82.02.03.2001,Pulau Gebe,Kabupaten,Halmahera Tengah,Maluku Utara
368,97859,Sanafi,82.02.03.2003,Pulau Gebe,Kabupaten,Halmahera Tengah,Maluku Utara
369,97859,Sonof Kacepo,82.02.03.2006,Pulau Gebe,Kabupaten,Halmahera Tengah,Maluku Utara
370,97859,Umera,82.02.03.2004,Pulau Gebe,Kabupaten,Halmahera Tengah,Maluku Utara
371,97859,Umiyal,82.02.03.2005,Pulau Gebe,Kabupaten,Halmahera Tengah,Maluku Utara
372,97859,Yang,82.02.03.2008,Pulau Gebe,Kabupaten,Halmahera Tengah,Maluku Utara
373,97743,Bido,82.71.05.1004,Pulau Batang Dua,Kota,Ternate,Maluku Utara
374,97743,Lelewi,82.71.05.1003,Pulau Batang Dua,Kota,Ternate,Maluku Utara
375,97743,Mayau,82.71.05.1001,Pulau Batang Dua,Kota,Ternate,Maluku Utara
376,97743,Pantai Sagu,82.71.05.1005,Pulau Batang Dua,Kota,Ternate,Maluku Utara
377,97743,Perum Bersatu,82.71.05.1006,Pulau Batang Dua,Kota,Ternate,Maluku Utara
378,97743,Tifure,82.71.05.1002,Pulau Batang Dua,Kota,Ternate,Maluku Utara
379,97858,Bilifitu,82.02.06.2006,Patani Utara,Kabupaten,Halmahera Tengah,Maluku Utara
380,97858,Gemia,82.02.06.2001,Patani Utara,Kabupaten,Halmahera Tengah,Maluku Utara
381,97858,Maliforo,82.02.06.2011,Patani Utara,Kabupaten,Halmahera Tengah,Maluku Utara
382,97858,Pantura Jaya,82.02.06.2008,Patani Utara,Kabupaten,Halmahera Tengah,Maluku Utara
383,97858,Tepeleo,82.02.06.2002,Patani Utara,Kabupaten,Halmahera Tengah,Maluku Utara
384,97858,Tepeleo Batudua,82.02.06.2007,Patani Utara,Kabupaten,Halmahera Tengah,Maluku Utara
385,97857,Damuli,82.02.10.2003,Patani Timur,Kabupaten,Halmahera Tengah,Maluku Utara
386,97857,Masure,82.02.10.2005,Patani Timur,Kabupaten,Halmahera Tengah,Maluku Utara
387,97857,Nursifa,82.02.10.2002,Patani Timur,Kabupaten,Halmahera Tengah,Maluku Utara
388,97857,Palo,82.02.10.2006,Patani Timur,Kabupaten,Halmahera Tengah,Maluku Utara
389,97857,Peniti,82.02.10.2004,Patani Timur,Kabupaten,Halmahera Tengah,Maluku Utara
390,97857,Sakam,82.02.10.2001,Patani Timur,Kabupaten,Halmahera Tengah,Maluku Utara
391,97856,Banemo,82.02.08.2001,Patani Barat,Kabupaten,Halmahera Tengah,Maluku Utara
392,97856,Bobane Indah,82.02.08.2003,Patani Barat,Kabupaten,Halmahera Tengah,Maluku Utara
393,97856,Bobane Jaya,82.02.08.2002,Patani Barat,Kabupaten,Halmahera Tengah,Maluku Utara
394,97856,Mareala (Moreala),82.02.08.2004,Patani Barat,Kabupaten,Halmahera Tengah,Maluku Utara
395,97856,Sibenpope (Sibenpopo),82.02.08.2005,Patani Barat,Kabupaten,Halmahera Tengah,Maluku Utara
396,97855,Baka Jaya,82.02.02.2013,Patani,Kabupaten,Halmahera Tengah,Maluku Utara
397,97855,Kipai,82.02.02.2005,Patani,Kabupaten,Halmahera Tengah,Maluku Utara
398,97855,Wailegi,82.02.02.2004,Patani,Kabupaten,Halmahera Tengah,Maluku Utara
399,97855,Yeisowo,82.02.02.2006,Patani,Kabupaten,Halmahera Tengah,Maluku Utara
400,97855,Yondeliu,82.02.02.2012,Patani,Kabupaten,Halmahera Tengah,Maluku Utara
401,97792,Cap,82.04.30.2001,Obi Utara,Kabupaten,Halmahera Selatan,Maluku Utara
402,97792,Galala,82.04.30.2003,Obi Utara,Kabupaten,Halmahera Selatan,Maluku Utara
403,97792,Madopolo (Madapolo),82.04.30.2002,Obi Utara,Kabupaten,Halmahera Selatan,Maluku Utara
404,97792,Madopolo Barat (Madapolo Barat),82.04.30.2004,Obi Utara,Kabupaten,Halmahera Selatan,Maluku Utara
405,97792,Madopolo Timur (Madapolo Timur),82.04.30.2007,Obi Utara,Kabupaten,Halmahera Selatan,Maluku Utara
406,97792,Pasir Putih,82.04.30.2006,Obi Utara,Kabupaten,Halmahera Selatan,Maluku Utara
407,97792,Waringi,82.04.30.2005,Obi Utara,Kabupaten,Halmahera Selatan,Maluku Utara
408,97792,Kello (Kelo),82.04.29.2001,Obi Timur,Kabupaten,Halmahera Selatan,Maluku Utara
409,97792,Sum,82.04.29.2002,Obi Timur,Kabupaten,Halmahera Selatan,Maluku Utara
410,97792,Susepe (Sosepe),82.04.29.2003,Obi Timur,Kabupaten,Halmahera Selatan,Maluku Utara
411,97792,Wooi,82.04.29.2004,Obi Timur,Kabupaten,Halmahera Selatan,Maluku Utara
412,97792,Bobo,82.04.05.2003,Obi Selatan,Kabupaten,Halmahera Selatan,Maluku Utara
413,97792,Fluk,82.04.05.2002,Obi Selatan,Kabupaten,Halmahera Selatan,Maluku Utara
414,97792,Gambaru,82.04.05.2008,Obi Selatan,Kabupaten,Halmahera Selatan,Maluku Utara
415,97792,Loleo,82.04.05.2005,Obi Selatan,Kabupaten,Halmahera Selatan,Maluku Utara
416,97792,Mano,82.04.05.2004,Obi Selatan,Kabupaten,Halmahera Selatan,Maluku Utara
417,97792,Ocimaloleo,82.04.05.2009,Obi Selatan,Kabupaten,Halmahera Selatan,Maluku Utara
418,97792,Soligi,82.04.05.2007,Obi Selatan,Kabupaten,Halmahera Selatan,Maluku Utara
419,97792,Wayaloar,82.04.05.2001,Obi Selatan,Kabupaten,Halmahera Selatan,Maluku Utara
420,97792,Alam Kenanga,82.04.28.2001,Obi Barat,Kabupaten,Halmahera Selatan,Maluku Utara
421,97792,Alam Pelita,82.04.28.2002,Obi Barat,Kabupaten,Halmahera Selatan,Maluku Utara
422,97792,Jikohai (Jikohay),82.04.28.2003,Obi Barat,Kabupaten,Halmahera Selatan,Maluku Utara
423,97792,Manatahan,82.04.28.2004,Obi Barat,Kabupaten,Halmahera Selatan,Maluku Utara
424,97792,Soa Sangaji (Soasangaji),82.04.28.2005,Obi Barat,Kabupaten,Halmahera Selatan,Maluku Utara
425,97792,Tapa,82.04.28.2006,Obi Barat,Kabupaten,Halmahera Selatan,Maluku Utara
426,97792,Air Mangga Indah,82.04.06.2014,Obi,Kabupaten,Halmahera Selatan,Maluku Utara
427,97792,Akegula,82.04.06.2020,Obi,Kabupaten,Halmahera Selatan,Maluku Utara
428,97792,Anggai,82.04.06.2006,Obi,Kabupaten,Halmahera Selatan,Maluku Utara
429,97792,Baru,82.04.06.2002,Obi,Kabupaten,Halmahera Selatan,Maluku Utara
430,97792,Buton,82.04.06.2003,Obi,Kabupaten,Halmahera Selatan,Maluku Utara
431,97792,Jikotamo,82.04.06.2004,Obi,Kabupaten,Halmahera Selatan,Maluku Utara
432,97792,Kawasi,82.04.06.2021,Obi,Kabupaten,Halmahera Selatan,Maluku Utara
433,97792,Laiwui,82.04.06.2001,Obi,Kabupaten,Halmahera Selatan,Maluku Utara
434,97792,Sambiki,82.04.06.2005,Obi,Kabupaten,Halmahera Selatan,Maluku Utara
435,97827,Ake Kolano,82.72.02.2007,Oba Utara,Kota,Tidore Kepulauan,Maluku Utara
436,97827,Ampera,82.72.02.2012,Oba Utara,Kota,Tidore Kepulauan,Maluku Utara
437,97827,Balbar,82.72.02.2009,Oba Utara,Kota,Tidore Kepulauan,Maluku Utara
438,97827,Bukit Durian,82.72.02.2010,Oba Utara,Kota,Tidore Kepulauan,Maluku Utara
439,97827,Galala,82.72.02.2011,Oba Utara,Kota,Tidore Kepulauan,Maluku Utara
440,97827,Garojou,82.72.02.2014,Oba Utara,Kota,Tidore Kepulauan,Maluku Utara
441,97827,Gosale,82.72.02.2015,Oba Utara,Kota,Tidore Kepulauan,Maluku Utara
442,97827,Guraping,82.72.02.1002,Oba Utara,Kota,Tidore Kepulauan,Maluku Utara
443,97827,Kaiyasa,82.72.02.2001,Oba Utara,Kota,Tidore Kepulauan,Maluku Utara
444,97827,Kusu,82.72.02.2013,Oba Utara,Kota,Tidore Kepulauan,Maluku Utara
445,97827,Oba,82.72.02.2005,Oba Utara,Kota,Tidore Kepulauan,Maluku Utara
446,97827,Sofifi,82.72.02.1003,Oba Utara,Kota,Tidore Kepulauan,Maluku Utara
447,97827,Somahode,82.72.02.2006,Oba Utara,Kota,Tidore Kepulauan,Maluku Utara
448,97826,Akedotilou,82.72.06.2005,Oba Tengah,Kota,Tidore Kepulauan,Maluku Utara
449,97826,Akeguraci,82.72.06.2006,Oba Tengah,Kota,Tidore Kepulauan,Maluku Utara
450,97826,Akelamo,82.72.06.1001,Oba Tengah,Kota,Tidore Kepulauan,Maluku Utara
451,97826,Akesai,82.72.06.2007,Oba Tengah,Kota,Tidore Kepulauan,Maluku Utara
452,97826,Aketobatu,82.72.06.2004,Oba Tengah,Kota,Tidore Kepulauan,Maluku Utara
453,97826,Aketobololo,82.72.06.2003,Oba Tengah,Kota,Tidore Kepulauan,Maluku Utara
454,97826,Baringin Jaya,82.72.06.2010,Oba Tengah,Kota,Tidore Kepulauan,Maluku Utara
455,97826,Fanaha,82.72.06.2012,Oba Tengah,Kota,Tidore Kepulauan,Maluku Utara
456,97826,Lola,82.72.06.2002,Oba Tengah,Kota,Tidore Kepulauan,Maluku Utara
457,97826,Siokona,82.72.06.2014,Oba Tengah,Kota,Tidore Kepulauan,Maluku Utara
458,97826,Tadupi,82.72.06.2009,Oba Tengah,Kota,Tidore Kepulauan,Maluku Utara
459,97826,Tauno,82.72.06.2011,Oba Tengah,Kota,Tidore Kepulauan,Maluku Utara
460,97826,Togeme,82.72.06.2008,Oba Tengah,Kota,Tidore Kepulauan,Maluku Utara
461,97826,Yehu,82.72.06.2013,Oba Tengah,Kota,Tidore Kepulauan,Maluku Utara
462,97825,Hager,82.72.07.2003,Oba Selatan,Kota,Tidore Kepulauan,Maluku Utara
463,97825,Lifofa,82.72.07.2002,Oba Selatan,Kota,Tidore Kepulauan,Maluku Utara
464,97825,Maidi,82.72.07.2001,Oba Selatan,Kota,Tidore Kepulauan,Maluku Utara
465,97825,Nuku,82.72.07.2007,Oba Selatan,Kota,Tidore Kepulauan,Maluku Utara
466,97825,Selamalofo,82.72.07.2005,Oba Selatan,Kota,Tidore Kepulauan,Maluku Utara
467,97825,Tagalaya,82.72.07.2006,Oba Selatan,Kota,Tidore Kepulauan,Maluku Utara
468,97825,Wama,82.72.07.2004,Oba Selatan,Kota,Tidore Kepulauan,Maluku Utara
469,97824,Bale,82.72.03.2008,Oba,Kota,Tidore Kepulauan,Maluku Utara
470,97824,Gita,82.72.03.2002,Oba,Kota,Tidore Kepulauan,Maluku Utara
471,97824,Koli,82.72.03.2009,Oba,Kota,Tidore Kepulauan,Maluku Utara
472,97824,Kosa,82.72.03.2010,Oba,Kota,Tidore Kepulauan,Maluku Utara
473,97824,Kususinopa,82.72.03.2005,Oba,Kota,Tidore Kepulauan,Maluku Utara
474,97824,Payahe,82.72.03.1004,Oba,Kota,Tidore Kepulauan,Maluku Utara
475,97824,Sigela Yef,82.72.03.2014,Oba,Kota,Tidore Kepulauan,Maluku Utara
476,97824,Talagamori,82.72.03.2015,Oba,Kota,Tidore Kepulauan,Maluku Utara
477,97824,Talasi,82.72.03.2013,Oba,Kota,Tidore Kepulauan,Maluku Utara
478,97824,Todopa,82.72.03.2012,Oba,Kota,Tidore Kepulauan,Maluku Utara
479,97824,Toseho,82.72.03.2003,Oba,Kota,Tidore Kepulauan,Maluku Utara
480,97824,Tului,82.72.03.2011,Oba,Kota,Tidore Kepulauan,Maluku Utara
481,97824,Woda,82.72.03.2001,Oba,Kota,Tidore Kepulauan,Maluku Utara
482,97741,Figur,82.71.04.1006,Moti,Kota,Ternate,Maluku Utara
483,97741,Moti Kota,82.71.04.1002,Moti,Kota,Ternate,Maluku Utara
484,97741,Tadenas,82.71.04.1007,Moti,Kota,Ternate,Maluku Utara
485,97741,Tafaga,82.71.04.1004,Moti,Kota,Ternate,Maluku Utara
486,97741,Tafamutu,82.71.04.1003,Moti,Kota,Ternate,Maluku Utara
487,97741,Takofi,82.71.04.1001,Moti,Kota,Ternate,Maluku Utara
488,97773,Bere Bere,82.07.04.2001,Morotai Utara,Kabupaten,Pulau Morotai,Maluku Utara
489,97773,Bido,82.07.04.2005,Morotai Utara,Kabupaten,Pulau Morotai,Maluku Utara
490,97773,Goa Hira,82.07.04.2013,Morotai Utara,Kabupaten,Pulau Morotai,Maluku Utara
491,97773,Gorua,82.07.04.2006,Morotai Utara,Kabupaten,Pulau Morotai,Maluku Utara
492,97773,Gorua Selatan,82.07.04.2014,Morotai Utara,Kabupaten,Pulau Morotai,Maluku Utara
493,97773,Kenari,82.07.04.2009,Morotai Utara,Kabupaten,Pulau Morotai,Maluku Utara
494,97773,Korago,82.07.04.2007,Morotai Utara,Kabupaten,Pulau Morotai,Maluku Utara
495,97773,Loleo Jaya,82.07.04.2010,Morotai Utara,Kabupaten,Pulau Morotai,Maluku Utara
496,97773,Lusuo (Losuo),82.07.04.2008,Morotai Utara,Kabupaten,Pulau Morotai,Maluku Utara
497,97773,Maba,82.07.04.2011,Morotai Utara,Kabupaten,Pulau Morotai,Maluku Utara
498,97773,Sakita,82.07.04.2002,Morotai Utara,Kabupaten,Pulau Morotai,Maluku Utara
499,97773,Tanjung Saleh,82.07.04.2012,Morotai Utara,Kabupaten,Pulau Morotai,Maluku Utara
500,97773,Tawakali,82.07.04.2003,Morotai Utara,Kabupaten,Pulau Morotai,Maluku Utara
501,97773,Yao,82.07.04.2004,Morotai Utara,Kabupaten,Pulau Morotai,Maluku Utara
502,97772,Buho Buho,82.07.05.2001,Morotai Timur,Kabupaten,Pulau Morotai,Maluku Utara
503,97777,Doku Mira,82.07.05.2015,Morotai Timur,Kabupaten,Pulau Morotai,Maluku Utara
504,97776,Gamlamo,82.07.05.2014,Morotai Timur,Kabupaten,Pulau Morotai,Maluku Utara
505,97775,Gosoma Maluku,82.07.05.2013,Morotai Timur,Kabupaten,Pulau Morotai,Maluku Utara
506,97774,Hino,82.07.05.2012,Morotai Timur,Kabupaten,Pulau Morotai,Maluku Utara
507,97772,Lifao,82.07.05.2004,Morotai Timur,Kabupaten,Pulau Morotai,Maluku Utara
508,97772,Mira,82.07.05.2003,Morotai Timur,Kabupaten,Pulau Morotai,Maluku Utara
509,97772,Rahmat,82.07.05.2005,Morotai Timur,Kabupaten,Pulau Morotai,Maluku Utara
510,97771,Sambiki Baru,82.07.05.2008,Morotai Timur,Kabupaten,Pulau Morotai,Maluku Utara
511,97771,Sambiki Tua (Sambiki),82.07.05.2006,Morotai Timur,Kabupaten,Pulau Morotai,Maluku Utara
512,97771,Sangowo,82.07.05.2007,Morotai Timur,Kabupaten,Pulau Morotai,Maluku Utara
513,97771,Sangowo Barat,82.07.05.2009,Morotai Timur,Kabupaten,Pulau Morotai,Maluku Utara
514,97771,Sangowo Timur,82.07.05.2010,Morotai Timur,Kabupaten,Pulau Morotai,Maluku Utara
515,97773,Seseli Jaya,82.07.05.2011,Morotai Timur,Kabupaten,Pulau Morotai,Maluku Utara
516,97772,Wewemo,82.07.05.2002,Morotai Timur,Kabupaten,Pulau Morotai,Maluku Utara
517,97770,Aru Irian,82.07.02.2005,Morotai Selatan Barat,Kabupaten,Pulau Morotai,Maluku Utara
518,97770,Bobula,82.07.02.2020,Morotai Selatan Barat,Kabupaten,Pulau Morotai,Maluku Utara
519,97770,Cio Dalam,82.07.02.2016,Morotai Selatan Barat,Kabupaten,Pulau Morotai,Maluku Utara
520,97770,Cio Gerong,82.07.02.2008,Morotai Selatan Barat,Kabupaten,Pulau Morotai,Maluku Utara
521,97770,Cio Maloleo,82.07.02.2019,Morotai Selatan Barat,Kabupaten,Pulau Morotai,Maluku Utara
522,97770,Cucumare,82.07.02.2004,Morotai Selatan Barat,Kabupaten,Pulau Morotai,Maluku Utara
523,97770,Ngele Ngele Besar,82.07.02.2014,Morotai Selatan Barat,Kabupaten,Pulau Morotai,Maluku Utara
524,97770,Ngele Ngele Kecil,82.07.02.2003,Morotai Selatan Barat,Kabupaten,Pulau Morotai,Maluku Utara
525,97770,Raja,82.07.02.2015,Morotai Selatan Barat,Kabupaten,Pulau Morotai,Maluku Utara
526,97770,Tiley (Tiley Kusu),82.07.02.2002,Morotai Selatan Barat,Kabupaten,Pulau Morotai,Maluku Utara
527,97770,Tiley Pantai,82.07.02.2018,Morotai Selatan Barat,Kabupaten,Pulau Morotai,Maluku Utara
528,97770,Tutuhu (Tuthu),82.07.02.2007,Morotai Selatan Barat,Kabupaten,Pulau Morotai,Maluku Utara
529,97770,Usbar Pantai,82.07.02.2017,Morotai Selatan Barat,Kabupaten,Pulau Morotai,Maluku Utara
530,97770,Waringin,82.07.02.2006,Morotai Selatan Barat,Kabupaten,Pulau Morotai,Maluku Utara
531,97770,Wayabula,82.07.02.2001,Morotai Selatan Barat,Kabupaten,Pulau Morotai,Maluku Utara
532,97771,Aha,82.07.01.2018,Morotai Selatan,Kabupaten,Pulau Morotai,Maluku Utara
533,97771,Daeo,82.07.01.2011,Morotai Selatan,Kabupaten,Pulau Morotai,Maluku Utara
534,97771,Daeo Majiko,82.07.01.2023,Morotai Selatan,Kabupaten,Pulau Morotai,Maluku Utara
535,97771,Darame,82.07.01.2003,Morotai Selatan,Kabupaten,Pulau Morotai,Maluku Utara
536,97771,Daruba,82.07.01.2002,Morotai Selatan,Kabupaten,Pulau Morotai,Maluku Utara
537,97771,Dehegila,82.07.01.2012,Morotai Selatan,Kabupaten,Pulau Morotai,Maluku Utara
538,97771,Falila,82.07.01.2021,Morotai Selatan,Kabupaten,Pulau Morotai,Maluku Utara
539,97771,Galo Galo,82.07.01.2014,Morotai Selatan,Kabupaten,Pulau Morotai,Maluku Utara
540,97771,Gotalamo,82.07.01.2001,Morotai Selatan,Kabupaten,Pulau Morotai,Maluku Utara
541,97771,Joubela,82.07.01.2017,Morotai Selatan,Kabupaten,Pulau Morotai,Maluku Utara
542,97771,Juanga,82.07.01.2006,Morotai Selatan,Kabupaten,Pulau Morotai,Maluku Utara
543,97771,Koloray (Kolorai),82.07.01.2015,Morotai Selatan,Kabupaten,Pulau Morotai,Maluku Utara
544,97771,Mandiri,82.07.01.2020,Morotai Selatan,Kabupaten,Pulau Morotai,Maluku Utara
545,97771,Momojiu,82.07.01.2008,Morotai Selatan,Kabupaten,Pulau Morotai,Maluku Utara
546,97771,Morodadi,82.07.01.2024,Morotai Selatan,Kabupaten,Pulau Morotai,Maluku Utara
547,97771,Muhajirin,82.07.01.2019,Morotai Selatan,Kabupaten,Pulau Morotai,Maluku Utara
548,97771,Nakamura,82.07.01.2025,Morotai Selatan,Kabupaten,Pulau Morotai,Maluku Utara
549,97771,Pandanga (Pandangan),82.07.01.2005,Morotai Selatan,Kabupaten,Pulau Morotai,Maluku Utara
550,97771,Pilowo,82.07.01.2013,Morotai Selatan,Kabupaten,Pulau Morotai,Maluku Utara
551,97771,Sabala,82.07.01.2022,Morotai Selatan,Kabupaten,Pulau Morotai,Maluku Utara
552,97771,Sabatai Baru,82.07.01.2009,Morotai Selatan,Kabupaten,Pulau Morotai,Maluku Utara
553,97771,Sabatai Tua,82.07.01.2010,Morotai Selatan,Kabupaten,Pulau Morotai,Maluku Utara
554,97771,Totodoku,82.07.01.2007,Morotai Selatan,Kabupaten,Pulau Morotai,Maluku Utara
555,97771,Wawama,82.07.01.2004,Morotai Selatan,Kabupaten,Pulau Morotai,Maluku Utara
556,97771,Yayasan,82.07.01.2016,Morotai Selatan,Kabupaten,Pulau Morotai,Maluku Utara
557,97772,Aru,82.07.03.2007,Morotai Jaya,Kabupaten,Pulau Morotai,Maluku Utara
558,97772,Bere Bere Kecil,82.07.03.2003,Morotai Jaya,Kabupaten,Pulau Morotai,Maluku Utara
559,97772,Cempaka,82.07.03.2014,Morotai Jaya,Kabupaten,Pulau Morotai,Maluku Utara
560,97772,Cendana,82.07.03.2009,Morotai Jaya,Kabupaten,Pulau Morotai,Maluku Utara
561,97772,Gorugo,82.07.03.2012,Morotai Jaya,Kabupaten,Pulau Morotai,Maluku Utara
562,97772,Hapo,82.07.03.2005,Morotai Jaya,Kabupaten,Pulau Morotai,Maluku Utara
563,97772,Libano,82.07.03.2006,Morotai Jaya,Kabupaten,Pulau Morotai,Maluku Utara
564,97772,Loleo,82.07.03.2013,Morotai Jaya,Kabupaten,Pulau Morotai,Maluku Utara
565,97772,Pangeo,82.07.03.2001,Morotai Jaya,Kabupaten,Pulau Morotai,Maluku Utara
566,97772,Podimor Padange,82.07.03.2010,Morotai Jaya,Kabupaten,Pulau Morotai,Maluku Utara
567,97772,Sopi,82.07.03.2002,Morotai Jaya,Kabupaten,Pulau Morotai,Maluku Utara
568,97772,Sopi Majiko,82.07.03.2011,Morotai Jaya,Kabupaten,Pulau Morotai,Maluku Utara
569,97772,Titigogoli,82.07.03.2004,Morotai Jaya,Kabupaten,Pulau Morotai,Maluku Utara
570,97772,Towara,82.07.03.2008,Morotai Jaya,Kabupaten,Pulau Morotai,Maluku Utara
571,97793,Kawata,82.05.10.2001,Mangoli Utara Timur,Kabupaten,Kepulauan Sula,Maluku Utara
572,97793,Pelita Jaya,82.05.10.2003,Mangoli Utara Timur,Kabupaten,Kepulauan Sula,Maluku Utara
573,97793,Waisakai,82.05.10.2002,Mangoli Utara Timur,Kabupaten,Kepulauan Sula,Maluku Utara
574,97793,Waisum,82.05.10.2004,Mangoli Utara Timur,Kabupaten,Kepulauan Sula,Maluku Utara
575,97793,Falabisahaya,82.05.13.2001,Mangoli Utara,Kabupaten,Kepulauan Sula,Maluku Utara
576,97793,Minaluli,82.05.13.2006,Mangoli Utara,Kabupaten,Kepulauan Sula,Maluku Utara
577,97793,Modapia,82.05.13.2002,Mangoli Utara,Kabupaten,Kepulauan Sula,Maluku Utara
578,97793,Modapuhi,82.05.13.2003,Mangoli Utara,Kabupaten,Kepulauan Sula,Maluku Utara
579,97793,Modapuhi Trans,82.05.13.2007,Mangoli Utara,Kabupaten,Kepulauan Sula,Maluku Utara
580,97793,Pastabulu,82.05.13.2004,Mangoli Utara,Kabupaten,Kepulauan Sula,Maluku Utara
581,97793,Saniahaya,82.05.13.2005,Mangoli Utara,Kabupaten,Kepulauan Sula,Maluku Utara
582,97793,Karamat Titdoy,82.05.01.2013,Mangoli Timur,Kabupaten,Kepulauan Sula,Maluku Utara
583,97793,Kau/Kou (Kow),82.05.01.2006,Mangoli Timur,Kabupaten,Kepulauan Sula,Maluku Utara
584,97793,Naflo,82.05.01.2016,Mangoli Timur,Kabupaten,Kepulauan Sula,Maluku Utara
585,97793,Waitamela,82.05.01.2007,Mangoli Timur,Kabupaten,Kepulauan Sula,Maluku Utara
586,97793,Waitina,82.05.01.2001,Mangoli Timur,Kabupaten,Kepulauan Sula,Maluku Utara
587,97793,Buruakol,82.05.11.2001,Mangoli Tengah,Kabupaten,Kepulauan Sula,Maluku Utara
588,97793,Capalulu,82.05.11.2002,Mangoli Tengah,Kabupaten,Kepulauan Sula,Maluku Utara
589,97793,Jere,82.05.11.2009,Mangoli Tengah,Kabupaten,Kepulauan Sula,Maluku Utara
590,97793,Mangoli,82.05.11.2004,Mangoli Tengah,Kabupaten,Kepulauan Sula,Maluku Utara
591,97793,Paslal,82.05.11.2006,Mangoli Tengah,Kabupaten,Kepulauan Sula,Maluku Utara
592,97793,Urifola,82.05.11.2003,Mangoli Tengah,Kabupaten,Kepulauan Sula,Maluku Utara
593,97793,Wai U,82.05.11.2008,Mangoli Tengah,Kabupaten,Kepulauan Sula,Maluku Utara
594,97793,Wailoba,82.05.11.2005,Mangoli Tengah,Kabupaten,Kepulauan Sula,Maluku Utara
595,97793,Waitulia,82.05.11.2007,Mangoli Tengah,Kabupaten,Kepulauan Sula,Maluku Utara
596,97793,Auponhia,82.05.12.2004,Mangoli Selatan,Kabupaten,Kepulauan Sula,Maluku Utara
597,97793,Buya,82.05.12.2003,Mangoli Selatan,Kabupaten,Kepulauan Sula,Maluku Utara
598,97793,Kaporo,82.05.12.2001,Mangoli Selatan,Kabupaten,Kepulauan Sula,Maluku Utara
599,97793,Waikafia,82.05.12.2002,Mangoli Selatan,Kabupaten,Kepulauan Sula,Maluku Utara
600,97793,Wailab,82.05.12.2005,Mangoli Selatan,Kabupaten,Kepulauan Sula,Maluku Utara
601,97793,Dofa,82.05.06.2001,Mangoli Barat,Kabupaten,Kepulauan Sula,Maluku Utara
602,97793,Johor (Johor Perda),82.05.06.2017,Mangoli Barat,Kabupaten,Kepulauan Sula,Maluku Utara
603,97793,Lekokadai,82.05.06.2002,Mangoli Barat,Kabupaten,Kepulauan Sula,Maluku Utara
604,97793,Lekosula,82.05.06.2003,Mangoli Barat,Kabupaten,Kepulauan Sula,Maluku Utara
605,97793,Lelyaba,82.05.06.2018,Mangoli Barat,Kabupaten,Kepulauan Sula,Maluku Utara
606,97793,Pas Ipa,82.05.06.2009,Mangoli Barat,Kabupaten,Kepulauan Sula,Maluku Utara
607,97793,Pelita,82.05.06.2014,Mangoli Barat,Kabupaten,Kepulauan Sula,Maluku Utara
608,97791,Akedabo,82.04.20.2005,Mandioli Utara,Kabupaten,Halmahera Selatan,Maluku Utara
609,97792,Bobo,82.04.20.2006,Mandioli Utara,Kabupaten,Halmahera Selatan,Maluku Utara
610,97791,Indong,82.04.20.2002,Mandioli Utara,Kabupaten,Halmahera Selatan,Maluku Utara
611,97791,Leleongusu (Loleongusu),82.04.20.2004,Mandioli Utara,Kabupaten,Halmahera Selatan,Maluku Utara
612,97791,Pelita (Pelita Jaya),82.04.20.2001,Mandioli Utara,Kabupaten,Halmahera Selatan,Maluku Utara
613,97791,Waya,82.04.20.2003,Mandioli Utara,Kabupaten,Halmahera Selatan,Maluku Utara
614,97791,Bahu,82.04.19.2002,Mandioli Selatan,Kabupaten,Halmahera Selatan,Maluku Utara
615,97791,Galala,82.04.19.2004,Mandioli Selatan,Kabupaten,Halmahera Selatan,Maluku Utara
616,97791,Jiko (Jeko),82.04.19.2003,Mandioli Selatan,Kabupaten,Halmahera Selatan,Maluku Utara
617,97791,Lele,82.04.19.2001,Mandioli Selatan,Kabupaten,Halmahera Selatan,Maluku Utara
618,97791,Tabalema,82.04.19.2005,Mandioli Selatan,Kabupaten,Halmahera Selatan,Maluku Utara
619,97791,Yoyok,82.04.19.2006,Mandioli Selatan,Kabupaten,Halmahera Selatan,Maluku Utara
620,97766,Balisosang,82.03.08.2024,Malifut,Kabupaten,Halmahera Utara,Maluku Utara
621,97766,Bobawa,82.03.08.2007,Malifut,Kabupaten,Halmahera Utara,Maluku Utara
622,97766,Bukit Tinggi,82.03.08.2019,Malifut,Kabupaten,Halmahera Utara,Maluku Utara
623,97766,Gayok,82.03.08.2027,Malifut,Kabupaten,Halmahera Utara,Maluku Utara
624,97766,Mailoa,82.03.08.2015,Malifut,Kabupaten,Halmahera Utara,Maluku Utara
625,97766,Malapa,82.03.08.2014,Malifut,Kabupaten,Halmahera Utara,Maluku Utara
626,97766,Matsa,82.03.08.2005,Malifut,Kabupaten,Halmahera Utara,Maluku Utara
627,97766,Ngofa Bobawa (Ngofabobawa),82.03.08.2013,Malifut,Kabupaten,Halmahera Utara,Maluku Utara
628,97766,Ngofa Gita (Ngofagita),82.03.08.2002,Malifut,Kabupaten,Halmahera Utara,Maluku Utara
629,97766,Ngofa Kiaha (Ngofakiaha),82.03.08.2001,Malifut,Kabupaten,Halmahera Utara,Maluku Utara
630,97766,Peleri,82.03.08.2016,Malifut,Kabupaten,Halmahera Utara,Maluku Utara
631,97766,Sabaleh,82.03.08.2010,Malifut,Kabupaten,Halmahera Utara,Maluku Utara
632,97766,Samsuma,82.03.08.2003,Malifut,Kabupaten,Halmahera Utara,Maluku Utara
633,97766,Soma,82.03.08.2012,Malifut,Kabupaten,Halmahera Utara,Maluku Utara
634,97766,Sosol/Malifut,82.03.08.2025,Malifut,Kabupaten,Halmahera Utara,Maluku Utara
635,97766,Tabobo (Tobobo),82.03.08.2023,Malifut,Kabupaten,Halmahera Utara,Maluku Utara
636,97766,Tafasoho,82.03.08.2009,Malifut,Kabupaten,Halmahera Utara,Maluku Utara
637,97766,Tagono,82.03.08.2011,Malifut,Kabupaten,Halmahera Utara,Maluku Utara
638,97766,Tahane,82.03.08.2004,Malifut,Kabupaten,Halmahera Utara,Maluku Utara
639,97766,Talapao,82.03.08.2008,Malifut,Kabupaten,Halmahera Utara,Maluku Utara
640,97766,Terpadu,82.03.08.2022,Malifut,Kabupaten,Halmahera Utara,Maluku Utara
641,97766,Wangeotek (Wangeotak),82.03.08.2026,Malifut,Kabupaten,Halmahera Utara,Maluku Utara
642,97784,Bobawae,82.04.10.2002,Makian Barat,Kabupaten,Halmahera Selatan,Maluku Utara
643,97784,Malapat,82.04.10.2001,Makian Barat,Kabupaten,Halmahera Selatan,Maluku Utara
644,97784,Mateketen,82.04.10.2005,Makian Barat,Kabupaten,Halmahera Selatan,Maluku Utara
645,97784,Ombawa,82.04.10.2003,Makian Barat,Kabupaten,Halmahera Selatan,Maluku Utara
646,97784,Sebelei,82.04.10.2007,Makian Barat,Kabupaten,Halmahera Selatan,Maluku Utara
647,97784,Talapaon,82.04.10.2006,Makian Barat,Kabupaten,Halmahera Selatan,Maluku Utara
648,97784,Tegono,82.04.10.2004,Makian Barat,Kabupaten,Halmahera Selatan,Maluku Utara
649,97864,Doromoi,82.06.09.2008,Maba Utara,Kabupaten,Halmahera Timur,Maluku Utara
650,97864,Dorosago (Dorosagu),82.06.09.2002,Maba Utara,Kabupaten,Halmahera Timur,Maluku Utara
651,97864,Jara-jara (Jarajara),82.06.09.2007,Maba Utara,Kabupaten,Halmahera Timur,Maluku Utara
652,97864,Lili,82.06.09.2009,Maba Utara,Kabupaten,Halmahera Timur,Maluku Utara
653,97864,Lolasita,82.06.09.2004,Maba Utara,Kabupaten,Halmahera Timur,Maluku Utara
654,97864,Patlean,82.06.09.2003,Maba Utara,Kabupaten,Halmahera Timur,Maluku Utara
655,97864,Patlean Jaya,82.06.09.2010,Maba Utara,Kabupaten,Halmahera Timur,Maluku Utara
656,97864,Pumlanga,82.06.09.2006,Maba Utara,Kabupaten,Halmahera Timur,Maluku Utara
657,97864,Sosolat,82.06.09.2001,Maba Utara,Kabupaten,Halmahera Timur,Maluku Utara
658,97864,Wasileo,82.06.09.2005,Maba Utara,Kabupaten,Halmahera Timur,Maluku Utara
659,97863,Babasaram,82.06.08.2011,Maba Tengah,Kabupaten,Halmahera Timur,Maluku Utara
660,97863,Bangul,82.06.08.2004,Maba Tengah,Kabupaten,Halmahera Timur,Maluku Utara
661,97863,Bebsili,82.06.08.2008,Maba Tengah,Kabupaten,Halmahera Timur,Maluku Utara
662,97863,Beringin Lamo (Baringin),82.06.08.2002,Maba Tengah,Kabupaten,Halmahera Timur,Maluku Utara
663,97863,Dorolamo,82.06.08.2006,Maba Tengah,Kabupaten,Halmahera Timur,Maluku Utara
664,97863,Gaifoli,82.06.08.2010,Maba Tengah,Kabupaten,Halmahera Timur,Maluku Utara
665,97863,Marasipno,82.06.08.2005,Maba Tengah,Kabupaten,Halmahera Timur,Maluku Utara
666,97863,Maratana (Marathana Jaya ),82.06.08.2007,Maba Tengah,Kabupaten,Halmahera Timur,Maluku Utara
667,97863,Miaf,82.06.08.2003,Maba Tengah,Kabupaten,Halmahera Timur,Maluku Utara
668,97863,Tatangapu,82.06.08.2012,Maba Tengah,Kabupaten,Halmahera Timur,Maluku Utara
669,97863,Wayamli (Wayamly),82.06.08.2001,Maba Tengah,Kabupaten,Halmahera Timur,Maluku Utara
670,97863,Yawanli,82.06.08.2009,Maba Tengah,Kabupaten,Halmahera Timur,Maluku Utara
671,97861,Bicoli,82.06.03.2001,Maba Selatan,Kabupaten,Halmahera Timur,Maluku Utara
672,97861,Gotowasi,82.06.03.2005,Maba Selatan,Kabupaten,Halmahera Timur,Maluku Utara
673,97861,Kasuba,82.06.03.2010,Maba Selatan,Kabupaten,Halmahera Timur,Maluku Utara
674,97861,Loleo Lamo (Loloelamo),82.06.03.2004,Maba Selatan,Kabupaten,Halmahera Timur,Maluku Utara
675,97861,Momole,82.06.03.2012,Maba Selatan,Kabupaten,Halmahera Timur,Maluku Utara
676,97861,Pateley (Petelei),82.06.03.2003,Maba Selatan,Kabupaten,Halmahera Timur,Maluku Utara
677,97861,Sil,82.06.03.2013,Maba Selatan,Kabupaten,Halmahera Timur,Maluku Utara
678,97861,Sowoli,82.06.03.2014,Maba Selatan,Kabupaten,Halmahera Timur,Maluku Utara
679,97861,Waci,82.06.03.2002,Maba Selatan,Kabupaten,Halmahera Timur,Maluku Utara
680,97860,Baburino,82.06.02.2025,Maba,Kabupaten,Halmahera Timur,Maluku Utara
681,97860,Buli,82.06.02.2001,Maba,Kabupaten,Halmahera Timur,Maluku Utara
682,97860,Buli Asal,82.06.02.2002,Maba,Kabupaten,Halmahera Timur,Maluku Utara
683,97860,Buli Karya,82.06.02.2003,Maba,Kabupaten,Halmahera Timur,Maluku Utara
684,97860,Gamesan,82.06.02.2024,Maba,Kabupaten,Halmahera Timur,Maluku Utara
685,97860,Geltoli,82.06.02.2013,Maba,Kabupaten,Halmahera Timur,Maluku Utara
686,97860,Pekaulan,82.06.02.2014,Maba,Kabupaten,Halmahera Timur,Maluku Utara
687,97860,Sailal,82.06.02.2012,Maba,Kabupaten,Halmahera Timur,Maluku Utara
688,97860,Teluk Buli,82.06.02.2023,Maba,Kabupaten,Halmahera Timur,Maluku Utara
689,97860,Wayafly (Wayafli / Wayamli),82.06.02.2011,Maba,Kabupaten,Halmahera Timur,Maluku Utara
690,97763,Apule (Apulea),82.03.09.2002,Loloda Utara,Kabupaten,Halmahera Utara,Maluku Utara
691,97763,Asimiro (Asmiro),82.03.09.2003,Loloda Utara,Kabupaten,Halmahera Utara,Maluku Utara
692,97763,Dorume,82.03.09.2001,Loloda Utara,Kabupaten,Halmahera Utara,Maluku Utara
693,97763,Dotia (Doitia),82.03.09.2004,Loloda Utara,Kabupaten,Halmahera Utara,Maluku Utara
694,97763,Galao,82.03.09.2023,Loloda Utara,Kabupaten,Halmahera Utara,Maluku Utara
695,97763,Gisik,82.03.09.2007,Loloda Utara,Kabupaten,Halmahera Utara,Maluku Utara
696,97763,Igo,82.03.09.2022,Loloda Utara,Kabupaten,Halmahera Utara,Maluku Utara
697,97763,Kailupa,82.03.09.2006,Loloda Utara,Kabupaten,Halmahera Utara,Maluku Utara
698,97763,Kapa Kapa,82.03.09.2008,Loloda Utara,Kabupaten,Halmahera Utara,Maluku Utara
699,97763,Momojiu,82.03.09.2028,Loloda Utara,Kabupaten,Halmahera Utara,Maluku Utara
700,97763,Ngajam,82.03.09.2005,Loloda Utara,Kabupaten,Halmahera Utara,Maluku Utara
701,97763,Pacao (Pocao),82.03.09.2009,Loloda Utara,Kabupaten,Halmahera Utara,Maluku Utara
702,97763,Podol,82.03.09.2027,Loloda Utara,Kabupaten,Halmahera Utara,Maluku Utara
703,97763,Posi Posi,82.03.09.2011,Loloda Utara,Kabupaten,Halmahera Utara,Maluku Utara
704,97763,Supu,82.03.09.2012,Loloda Utara,Kabupaten,Halmahera Utara,Maluku Utara
705,97763,Tate,82.03.09.2010,Loloda Utara,Kabupaten,Halmahera Utara,Maluku Utara
706,97763,Teru-Teru,82.03.09.2024,Loloda Utara,Kabupaten,Halmahera Utara,Maluku Utara
707,97763,Wori Moi,82.03.09.2026,Loloda Utara,Kabupaten,Halmahera Utara,Maluku Utara
708,97755,Aruku,82.01.10.2010,Loloda Tengah,Kabupaten,Halmahera Barat,Maluku Utara
709,97755,Baja,82.01.10.2003,Loloda Tengah,Kabupaten,Halmahera Barat,Maluku Utara
710,97755,Bakun Pantai,82.01.10.2009,Loloda Tengah,Kabupaten,Halmahera Barat,Maluku Utara
711,97755,Barataku,82.01.10.2005,Loloda Tengah,Kabupaten,Halmahera Barat,Maluku Utara
712,97755,Bilote,82.01.10.2008,Loloda Tengah,Kabupaten,Halmahera Barat,Maluku Utara
713,97755,Gam Kahe (Gamkahe),82.01.10.2004,Loloda Tengah,Kabupaten,Halmahera Barat,Maluku Utara
714,97755,Jangailulu (Jange Lili),82.01.10.2002,Loloda Tengah,Kabupaten,Halmahera Barat,Maluku Utara
715,97755,Jano,82.01.10.2001,Loloda Tengah,Kabupaten,Halmahera Barat,Maluku Utara
716,97755,Pumadada (Puma Dada),82.01.10.2006,Loloda Tengah,Kabupaten,Halmahera Barat,Maluku Utara
717,97755,Tosomolo,82.01.10.2007,Loloda Tengah,Kabupaten,Halmahera Barat,Maluku Utara
718,97763,Cera,82.03.19.2010,Loloda Kepulauan,Kabupaten,Halmahera Utara,Maluku Utara
719,97763,Dagasuli,82.03.19.2006,Loloda Kepulauan,Kabupaten,Halmahera Utara,Maluku Utara
720,97763,Dama,82.03.19.2002,Loloda Kepulauan,Kabupaten,Halmahera Utara,Maluku Utara
721,97763,Dedeta,82.03.19.2007,Loloda Kepulauan,Kabupaten,Halmahera Utara,Maluku Utara
722,97763,Dowonggila,82.03.19.2003,Loloda Kepulauan,Kabupaten,Halmahera Utara,Maluku Utara
723,97763,Fitako,82.03.19.2008,Loloda Kepulauan,Kabupaten,Halmahera Utara,Maluku Utara
724,97763,Jikolamo,82.03.19.2005,Loloda Kepulauan,Kabupaten,Halmahera Utara,Maluku Utara
725,97763,Salube,82.03.19.2001,Loloda Kepulauan,Kabupaten,Halmahera Utara,Maluku Utara
726,97763,Tobo Tobo,82.03.19.2009,Loloda Kepulauan,Kabupaten,Halmahera Utara,Maluku Utara
727,97763,Tuakara,82.03.19.2004,Loloda Kepulauan,Kabupaten,Halmahera Utara,Maluku Utara
728,97755,Bakun,82.01.02.2010,Loloda,Kabupaten,Halmahera Barat,Maluku Utara
729,97755,Bantoli (Bantol),82.01.02.2023,Loloda,Kabupaten,Halmahera Barat,Maluku Utara
730,97755,Bosala,82.01.02.2019,Loloda,Kabupaten,Halmahera Barat,Maluku Utara
731,97755,Buo,82.01.02.2011,Loloda,Kabupaten,Halmahera Barat,Maluku Utara
732,97755,Kahatola,82.01.02.2018,Loloda,Kabupaten,Halmahera Barat,Maluku Utara
733,97755,Kedi,82.01.02.2001,Loloda,Kabupaten,Halmahera Barat,Maluku Utara
734,97755,Laba Besar,82.01.02.2007,Loloda,Kabupaten,Halmahera Barat,Maluku Utara
735,97755,Laba Kecil,82.01.02.2008,Loloda,Kabupaten,Halmahera Barat,Maluku Utara
736,97755,Linggua,82.01.02.2024,Loloda,Kabupaten,Halmahera Barat,Maluku Utara
737,97755,Salu,82.01.02.2020,Loloda,Kabupaten,Halmahera Barat,Maluku Utara
738,97755,Soasio (Soa-Sio),82.01.02.2002,Loloda,Kabupaten,Halmahera Barat,Maluku Utara
739,97755,Tasye,82.01.02.2006,Loloda,Kabupaten,Halmahera Barat,Maluku Utara
740,97755,Tolofuo,82.01.02.2004,Loloda,Kabupaten,Halmahera Barat,Maluku Utara
741,97755,Tomodo,82.01.02.2025,Loloda,Kabupaten,Halmahera Barat,Maluku Utara
742,97755,Totala,82.01.02.2003,Loloda,Kabupaten,Halmahera Barat,Maluku Utara
743,97755,Totala Jaya,82.01.02.2026,Loloda,Kabupaten,Halmahera Barat,Maluku Utara
744,97755,Tuguis,82.01.02.2005,Loloda,Kabupaten,Halmahera Barat,Maluku Utara
745,97794,Balohang (Balahong),82.08.03.2005,Lede,Kabupaten,Pulau Taliabu,Maluku Utara
746,97794,Langganu,82.08.03.2004,Lede,Kabupaten,Pulau Taliabu,Maluku Utara
747,97794,Lede,82.08.03.2001,Lede,Kabupaten,Pulau Taliabu,Maluku Utara
748,97794,Todoli,82.08.03.2002,Lede,Kabupaten,Pulau Taliabu,Maluku Utara
749,97794,Tolong,82.08.03.2003,Lede,Kabupaten,Pulau Taliabu,Maluku Utara
750,97735,Akehuda,82.71.03.1020,Kota Ternate Utara,Kota,Ternate,Maluku Utara
751,97727,Dufa Dufa,82.71.03.1013,Kota Ternate Utara,Kota,Ternate,Maluku Utara
752,97726,Kasturian,82.71.03.1009,Kota Ternate Utara,Kota,Ternate,Maluku Utara
753,97725,Salero,82.71.03.1010,Kota Ternate Utara,Kota,Ternate,Maluku Utara
754,97727,Sangaji,82.71.03.1012,Kota Ternate Utara,Kota,Ternate,Maluku Utara
755,97736,Sangaji Utara,82.71.03.1019,Kota Ternate Utara,Kota,Ternate,Maluku Utara
756,97729,Sango,82.71.03.1016,Kota Ternate Utara,Kota,Ternate,Maluku Utara
757,97725,Soa,82.71.03.1007,Kota Ternate Utara,Kota,Ternate,Maluku Utara
758,97723,Soa Sio,82.71.03.1008,Kota Ternate Utara,Kota,Ternate,Maluku Utara
759,97728,Tabam,82.71.03.1015,Kota Ternate Utara,Kota,Ternate,Maluku Utara
760,97728,Tafure,82.71.03.1014,Kota Ternate Utara,Kota,Ternate,Maluku Utara
761,97737,Tarau,82.71.03.1017,Kota Ternate Utara,Kota,Ternate,Maluku Utara
762,97726,Toboleu,82.71.03.1011,Kota Ternate Utara,Kota,Ternate,Maluku Utara
763,97738,Tubo,82.71.03.1021,Kota Ternate Utara,Kota,Ternate,Maluku Utara
764,97721,Gamalama,82.71.06.1009,Kota Ternate Tengah,Kota,Ternate,Maluku Utara
765,97722,Kalumpang,82.71.06.1010,Kota Ternate Tengah,Kota,Ternate,Maluku Utara
766,97712,Kampung Pisang,82.71.06.1006,Kota Ternate Tengah,Kota,Ternate,Maluku Utara
767,97731,Kota Baru,82.71.06.1008,Kota Ternate Tengah,Kota,Ternate,Maluku Utara
768,97724,Makassar Barat (Makasar Barat),82.71.06.1013,Kota Ternate Tengah,Kota,Ternate,Maluku Utara
769,97724,Makassar Timur (Makasar Timur),82.71.06.1014,Kota Ternate Tengah,Kota,Ternate,Maluku Utara
770,97711,Maliaro,82.71.06.1005,Kota Ternate Tengah,Kota,Ternate,Maluku Utara
771,97711,Marikurubu,82.71.06.1007,Kota Ternate Tengah,Kota,Ternate,Maluku Utara
772,97723,Moya,82.71.06.1011,Kota Ternate Tengah,Kota,Ternate,Maluku Utara
773,97713,Muhajirin,82.71.06.1003,Kota Ternate Tengah,Kota,Ternate,Maluku Utara
774,97732,Salahuddin,82.71.06.1015,Kota Ternate Tengah,Kota,Ternate,Maluku Utara
775,97722,Santiong,82.71.06.1012,Kota Ternate Tengah,Kota,Ternate,Maluku Utara
776,97712,Stadion,82.71.06.1004,Kota Ternate Tengah,Kota,Ternate,Maluku Utara
777,97714,Takoma,82.71.06.1001,Kota Ternate Tengah,Kota,Ternate,Maluku Utara
778,97713,Tanah Raja,82.71.06.1002,Kota Ternate Tengah,Kota,Ternate,Maluku Utara
779,97711,Tongole,82.71.06.1016,Kota Ternate Tengah,Kota,Ternate,Maluku Utara
780,97713,Bastiong Karance,82.71.02.1024,Kota Ternate Selatan,Kota,Ternate,Maluku Utara
781,97716,Bastiong Talangame,82.71.02.1006,Kota Ternate Selatan,Kota,Ternate,Maluku Utara
782,97718,Fitu,82.71.02.1003,Kota Ternate Selatan,Kota,Ternate,Maluku Utara
783,97719,Gambesi,82.71.02.1002,Kota Ternate Selatan,Kota,Ternate,Maluku Utara
784,97716,Jati,82.71.02.1009,Kota Ternate Selatan,Kota,Ternate,Maluku Utara
785,97713,Jati Perumnas,82.71.02.1022,Kota Ternate Selatan,Kota,Ternate,Maluku Utara
786,97718,Kalumata,82.71.02.1004,Kota Ternate Selatan,Kota,Ternate,Maluku Utara
787,97733,Kayu Merah,82.71.02.1005,Kota Ternate Selatan,Kota,Ternate,Maluku Utara
788,97734,Mangga Dua,82.71.02.1008,Kota Ternate Selatan,Kota,Ternate,Maluku Utara
789,97713,Mangga Dua Utara,82.71.02.1021,Kota Ternate Selatan,Kota,Ternate,Maluku Utara
790,97713,Ngade,82.71.02.1025,Kota Ternate Selatan,Kota,Ternate,Maluku Utara
791,97719,Sasa,82.71.02.1001,Kota Ternate Selatan,Kota,Ternate,Maluku Utara
792,97715,Tanah Tinggi,82.71.02.1011,Kota Ternate Selatan,Kota,Ternate,Maluku Utara
793,97713,Tanah Tinggi Barat,82.71.02.1020,Kota Ternate Selatan,Kota,Ternate,Maluku Utara
794,97715,Toboko,82.71.02.1010,Kota Ternate Selatan,Kota,Ternate,Maluku Utara
795,97713,Tobona (Tabona),82.71.02.1023,Kota Ternate Selatan,Kota,Ternate,Maluku Utara
796,97717,Ubo-Ubo,82.71.02.1007,Kota Ternate Selatan,Kota,Ternate,Maluku Utara
797,97862,Maba Sangaji (Gotowasi),82.06.10.2005,Kota Maba,Kabupaten,Halmahera Timur,Maluku Utara
798,97862,Soa Laipoh,82.06.10.2002,Kota Maba,Kabupaten,Halmahera Timur,Maluku Utara
799,97862,Soa Sangaji,82.06.10.2003,Kota Maba,Kabupaten,Halmahera Timur,Maluku Utara
800,97862,Soagimalaha (Soa Gimalaha),82.06.10.2004,Kota Maba,Kabupaten,Halmahera Timur,Maluku Utara
801,97862,Tewil,82.06.10.2006,Kota Maba,Kabupaten,Halmahera Timur,Maluku Utara
802,97862,Wai Lukum (Wailukum),82.06.10.2001,Kota Maba,Kabupaten,Halmahera Timur,Maluku Utara
803,97786,Gonone,82.04.25.2001,Kepulauan Joronga,Kabupaten,Halmahera Selatan,Maluku Utara
804,97786,Kakupang (Kukupang),82.04.25.2002,Kepulauan Joronga,Kabupaten,Halmahera Selatan,Maluku Utara
805,97786,Kurunga,82.04.25.2003,Kepulauan Joronga,Kabupaten,Halmahera Selatan,Maluku Utara
806,97786,Liboba Hijrah,82.04.25.2004,Kepulauan Joronga,Kabupaten,Halmahera Selatan,Maluku Utara
807,97786,Pulau Gala,82.04.25.2005,Kepulauan Joronga,Kabupaten,Halmahera Selatan,Maluku Utara
808,97786,Tawabi,82.04.25.2006,Kepulauan Joronga,Kabupaten,Halmahera Selatan,Maluku Utara
809,97786,Yomen,82.04.25.2007,Kepulauan Joronga,Kabupaten,Halmahera Selatan,Maluku Utara
810,97790,Bajo,82.04.18.2002,Kepulauan Botanglomang,Kabupaten,Halmahera Selatan,Maluku Utara
811,97790,Batutaga,82.04.18.2007,Kepulauan Botanglomang,Kabupaten,Halmahera Selatan,Maluku Utara
812,97790,Kampung Baru,82.04.18.2006,Kepulauan Botanglomang,Kabupaten,Halmahera Selatan,Maluku Utara
813,97790,Paisumbaos (Pasimbaos),82.04.18.2008,Kepulauan Botanglomang,Kabupaten,Halmahera Selatan,Maluku Utara
814,97790,Prapakanda,82.04.18.2004,Kepulauan Botanglomang,Kabupaten,Halmahera Selatan,Maluku Utara
815,97790,Sawanakar (Sawangakar/Sawangkang),82.04.18.2001,Kepulauan Botanglomang,Kabupaten,Halmahera Selatan,Maluku Utara
816,97790,Tanjung Obit,82.04.18.2003,Kepulauan Botanglomang,Kabupaten,Halmahera Selatan,Maluku Utara
817,97790,Toin,82.04.18.2005,Kepulauan Botanglomang,Kabupaten,Halmahera Selatan,Maluku Utara
818,97781,Ake Jailolo,82.04.13.2004,Kayoa Utara,Kabupaten,Halmahera Selatan,Maluku Utara
819,97781,Gayap,82.04.13.2003,Kayoa Utara,Kabupaten,Halmahera Selatan,Maluku Utara
820,97781,Laromabati (Loromabati),82.04.13.2002,Kayoa Utara,Kabupaten,Halmahera Selatan,Maluku Utara
821,97781,Modayama,82.04.13.2001,Kayoa Utara,Kabupaten,Halmahera Selatan,Maluku Utara
822,97781,Ngokomalako,82.04.13.2006,Kayoa Utara,Kabupaten,Halmahera Selatan,Maluku Utara
823,97781,Wayasipang,82.04.13.2005,Kayoa Utara,Kabupaten,Halmahera Selatan,Maluku Utara
824,97780,Laluin,82.04.12.2002,Kayoa Selatan,Kabupaten,Halmahera Selatan,Maluku Utara
825,97780,Ngute Ngute,82.04.12.2001,Kayoa Selatan,Kabupaten,Halmahera Selatan,Maluku Utara
826,97780,Orimakurunga,82.04.12.2005,Kayoa Selatan,Kabupaten,Halmahera Selatan,Maluku Utara
827,97780,Pasir Putih,82.04.12.2006,Kayoa Selatan,Kabupaten,Halmahera Selatan,Maluku Utara
828,97780,Posi Posi,82.04.12.2003,Kayoa Selatan,Kabupaten,Halmahera Selatan,Maluku Utara
829,97780,Sagawele,82.04.12.2004,Kayoa Selatan,Kabupaten,Halmahera Selatan,Maluku Utara
830,97781,Bokimiake,82.04.11.2001,Kayoa Barat,Kabupaten,Halmahera Selatan,Maluku Utara
831,97781,Busua,82.04.11.2003,Kayoa Barat,Kabupaten,Halmahera Selatan,Maluku Utara
832,97781,Fofao,82.04.11.2004,Kayoa Barat,Kabupaten,Halmahera Selatan,Maluku Utara
833,97781,Hatejawa,82.04.11.2002,Kayoa Barat,Kabupaten,Halmahera Selatan,Maluku Utara
834,97780,Bajo,82.04.02.2022,Kayoa,Kabupaten,Halmahera Selatan,Maluku Utara
835,97780,Buli,82.04.02.2018,Kayoa,Kabupaten,Halmahera Selatan,Maluku Utara
836,97780,Dorolamo,82.04.02.2030,Kayoa,Kabupaten,Halmahera Selatan,Maluku Utara
837,97780,Gafi,82.04.02.2005,Kayoa,Kabupaten,Halmahera Selatan,Maluku Utara
838,97780,Gunange,82.04.02.2020,Kayoa,Kabupaten,Halmahera Selatan,Maluku Utara
839,97780,Guruapin,82.04.02.2023,Kayoa,Kabupaten,Halmahera Selatan,Maluku Utara
840,97780,Karamat,82.04.02.2024,Kayoa,Kabupaten,Halmahera Selatan,Maluku Utara
841,97780,Kida,82.04.02.2017,Kayoa,Kabupaten,Halmahera Selatan,Maluku Utara
842,97780,Laigoma,82.04.02.2006,Kayoa,Kabupaten,Halmahera Selatan,Maluku Utara
843,97780,Lelei,82.04.02.2021,Kayoa,Kabupaten,Halmahera Selatan,Maluku Utara
844,97780,Ligua,82.04.02.2016,Kayoa,Kabupaten,Halmahera Selatan,Maluku Utara
845,97780,Siko,82.04.02.2004,Kayoa,Kabupaten,Halmahera Selatan,Maluku Utara
846,97780,Talimau,82.04.02.2019,Kayoa,Kabupaten,Halmahera Selatan,Maluku Utara
847,97780,Tawabi,82.04.02.2029,Kayoa,Kabupaten,Halmahera Selatan,Maluku Utara
848,97790,Jeret,82.04.16.2007,Kasiruta Timur,Kabupaten,Halmahera Selatan,Maluku Utara
849,97790,Kasiruta Dalam,82.04.16.2008,Kasiruta Timur,Kabupaten,Halmahera Selatan,Maluku Utara
850,97790,Kou Balabala (Koubalabala),82.04.16.2004,Kasiruta Timur,Kabupaten,Halmahera Selatan,Maluku Utara
851,97790,Loleo Jaya,82.04.16.2001,Kasiruta Timur,Kabupaten,Halmahera Selatan,Maluku Utara
852,97790,Loleo Mekar (Loleomekar),82.04.16.2005,Kasiruta Timur,Kabupaten,Halmahera Selatan,Maluku Utara
853,97790,Marituso (Maritosu),82.04.16.2003,Kasiruta Timur,Kabupaten,Halmahera Selatan,Maluku Utara
854,97790,Tawa,82.04.16.2002,Kasiruta Timur,Kabupaten,Halmahera Selatan,Maluku Utara
855,97790,Tutuhu (Tutuha),82.04.16.2006,Kasiruta Timur,Kabupaten,Halmahera Selatan,Maluku Utara
856,97790,Arumamang,82.04.15.2004,Kasiruta Barat,Kabupaten,Halmahera Selatan,Maluku Utara
857,97790,Bisori,82.04.15.2007,Kasiruta Barat,Kabupaten,Halmahera Selatan,Maluku Utara
858,97790,Doko (Doku),82.04.15.2006,Kasiruta Barat,Kabupaten,Halmahera Selatan,Maluku Utara
859,97790,Imbu Imbu,82.04.15.2010,Kasiruta Barat,Kabupaten,Halmahera Selatan,Maluku Utara
860,97790,Kukupang (Kakupang),82.04.15.2009,Kasiruta Barat,Kabupaten,Halmahera Selatan,Maluku Utara
861,97790,Lata Lata,82.04.15.2002,Kasiruta Barat,Kabupaten,Halmahera Selatan,Maluku Utara
862,97790,Marikapal,82.04.15.2008,Kasiruta Barat,Kabupaten,Halmahera Selatan,Maluku Utara
863,97790,Palamea,82.04.15.2005,Kasiruta Barat,Kabupaten,Halmahera Selatan,Maluku Utara
864,97790,Sengga Baru,82.04.15.2003,Kasiruta Barat,Kabupaten,Halmahera Selatan,Maluku Utara
865,97790,Sidanga,82.04.15.2001,Kasiruta Barat,Kabupaten,Halmahera Selatan,Maluku Utara
866,97764,Bobale,82.03.20.2008,Kao Utara,Kabupaten,Halmahera Utara,Maluku Utara
867,97764,Bori,82.03.20.2005,Kao Utara,Kabupaten,Halmahera Utara,Maluku Utara
868,97764,Boulamo,82.03.20.2010,Kao Utara,Kabupaten,Halmahera Utara,Maluku Utara
869,97764,Daru,82.03.20.2007,Kao Utara,Kabupaten,Halmahera Utara,Maluku Utara
870,97764,Doro,82.03.20.2006,Kao Utara,Kabupaten,Halmahera Utara,Maluku Utara
871,97764,Dowongimaiti,82.03.20.2012,Kao Utara,Kabupaten,Halmahera Utara,Maluku Utara
872,97764,Gamlaha,82.03.20.2009,Kao Utara,Kabupaten,Halmahera Utara,Maluku Utara
873,97764,Gulo,82.03.20.2002,Kao Utara,Kabupaten,Halmahera Utara,Maluku Utara
874,97764,Pediwang (Pidiwang),82.03.20.2004,Kao Utara,Kabupaten,Halmahera Utara,Maluku Utara
875,97764,Tunuo,82.03.20.2003,Kao Utara,Kabupaten,Halmahera Utara,Maluku Utara
876,97764,Warudu,82.03.20.2011,Kao Utara,Kabupaten,Halmahera Utara,Maluku Utara
877,97764,Wateto,82.03.20.2001,Kao Utara,Kabupaten,Halmahera Utara,Maluku Utara
878,97765,Akelamo Raya (Akelamo Kao),82.03.22.2009,Kao Teluk,Kabupaten,Halmahera Utara,Maluku Utara
879,97765,Barumadehe,82.03.22.2004,Kao Teluk,Kabupaten,Halmahera Utara,Maluku Utara
880,97765,Bobane Igo (Bobaneigo),82.03.22.2007,Kao Teluk,Kabupaten,Halmahera Utara,Maluku Utara
881,97765,Dum Dum,82.03.22.2011,Kao Teluk,Kabupaten,Halmahera Utara,Maluku Utara
882,97765,Gamsungi,82.03.22.2010,Kao Teluk,Kabupaten,Halmahera Utara,Maluku Utara
883,97765,Kuntum Mekar,82.03.22.2005,Kao Teluk,Kabupaten,Halmahera Utara,Maluku Utara
884,97765,Makaeling,82.03.22.2002,Kao Teluk,Kabupaten,Halmahera Utara,Maluku Utara
885,97765,Pasir Putih,82.03.22.2006,Kao Teluk,Kabupaten,Halmahera Utara,Maluku Utara
886,97765,Tetewang,82.03.22.2008,Kao Teluk,Kabupaten,Halmahera Utara,Maluku Utara
887,97765,Tiowor,82.03.22.2001,Kao Teluk,Kabupaten,Halmahera Utara,Maluku Utara
888,97765,Tobanoma,82.03.22.2003,Kao Teluk,Kabupaten,Halmahera Utara,Maluku Utara
889,97764,Bailengit,82.03.21.2009,Kao Barat,Kabupaten,Halmahera Utara,Maluku Utara
890,97764,Beringin Agung,82.03.21.2020,Kao Barat,Kabupaten,Halmahera Utara,Maluku Utara
891,97764,Gaga Apok (Gagaapok),82.03.21.2001,Kao Barat,Kabupaten,Halmahera Utara,Maluku Utara
892,97764,Kai,82.03.21.2013,Kao Barat,Kabupaten,Halmahera Utara,Maluku Utara
893,97764,Leleseng (Lelesang),82.03.21.2006,Kao Barat,Kabupaten,Halmahera Utara,Maluku Utara
894,97764,Makarti,82.03.21.2015,Kao Barat,Kabupaten,Halmahera Utara,Maluku Utara
895,97764,Margomolyo (Margomoyo),82.03.21.2021,Kao Barat,Kabupaten,Halmahera Utara,Maluku Utara
896,97764,Momoda,82.03.21.2003,Kao Barat,Kabupaten,Halmahera Utara,Maluku Utara
897,97764,Ngoali,82.03.21.2002,Kao Barat,Kabupaten,Halmahera Utara,Maluku Utara
898,97764,Parseba,82.03.21.2011,Kao Barat,Kabupaten,Halmahera Utara,Maluku Utara
899,97764,Pitago,82.03.21.2012,Kao Barat,Kabupaten,Halmahera Utara,Maluku Utara
900,97764,Sangaji Jaya,82.03.21.2016,Kao Barat,Kabupaten,Halmahera Utara,Maluku Utara
901,97764,Soa Hukum,82.03.21.2007,Kao Barat,Kabupaten,Halmahera Utara,Maluku Utara
902,97764,Soa Maetek (Soamaetek),82.03.21.2008,Kao Barat,Kabupaten,Halmahera Utara,Maluku Utara
903,97764,Takimo,82.03.21.2017,Kao Barat,Kabupaten,Halmahera Utara,Maluku Utara
904,97764,Toboulamo,82.03.21.2014,Kao Barat,Kabupaten,Halmahera Utara,Maluku Utara
905,97764,Tolabit,82.03.21.2005,Kao Barat,Kabupaten,Halmahera Utara,Maluku Utara
906,97764,Toliwang,82.03.21.2004,Kao Barat,Kabupaten,Halmahera Utara,Maluku Utara
907,97764,Torawat,82.03.21.2018,Kao Barat,Kabupaten,Halmahera Utara,Maluku Utara
908,97764,Tuguis,82.03.21.2010,Kao Barat,Kabupaten,Halmahera Utara,Maluku Utara
909,97764,Wonosari,82.03.21.2019,Kao Barat,Kabupaten,Halmahera Utara,Maluku Utara
910,97764,Biang,82.03.07.2036,Kao,Kabupaten,Halmahera Utara,Maluku Utara
911,97764,Goruang,82.03.07.2050,Kao,Kabupaten,Halmahera Utara,Maluku Utara
912,97764,Jati,82.03.07.2002,Kao,Kabupaten,Halmahera Utara,Maluku Utara
913,97764,Kao,82.03.07.2001,Kao,Kabupaten,Halmahera Utara,Maluku Utara
914,97764,Kukumutuk,82.03.07.2038,Kao,Kabupaten,Halmahera Utara,Maluku Utara
915,97764,Kusu,82.03.07.2003,Kao,Kabupaten,Halmahera Utara,Maluku Utara
916,97764,Kusu Lofra,82.03.07.2051,Kao,Kabupaten,Halmahera Utara,Maluku Utara
917,97764,Patang,82.03.07.2037,Kao,Kabupaten,Halmahera Utara,Maluku Utara
918,97764,Popon,82.03.07.2012,Kao,Kabupaten,Halmahera Utara,Maluku Utara
919,97764,Sasur,82.03.07.2011,Kao,Kabupaten,Halmahera Utara,Maluku Utara
920,97764,Soa Sangaji Dim-Dim (Soasangaji Dim Dim),82.03.07.2010,Kao,Kabupaten,Halmahera Utara,Maluku Utara
921,97764,Sumber Agung,82.03.07.2052,Kao,Kabupaten,Halmahera Utara,Maluku Utara
922,97764,Waringin Lamo,82.03.07.2039,Kao,Kabupaten,Halmahera Utara,Maluku Utara
923,97764,Waringin Lelewi,82.03.07.2009,Kao,Kabupaten,Halmahera Utara,Maluku Utara
924,97751,Akeara,82.01.05.2009,Jailolo Selatan,Kabupaten,Halmahera Barat,Maluku Utara
925,97751,Akejailolo (Ake Jailolo),82.01.05.2006,Jailolo Selatan,Kabupaten,Halmahera Barat,Maluku Utara
926,97751,Akelaha,82.01.05.2010,Jailolo Selatan,Kabupaten,Halmahera Barat,Maluku Utara
927,97751,Akelamo Cinga-Cinga,82.01.05.2031,Jailolo Selatan,Kabupaten,Halmahera Barat,Maluku Utara
928,97751,Akesahu Madutu,82.01.05.2032,Jailolo Selatan,Kabupaten,Halmahera Barat,Maluku Utara
929,97751,Bangkit Rahmat,82.01.05.2024,Jailolo Selatan,Kabupaten,Halmahera Barat,Maluku Utara
930,97751,Biamaahi,82.01.05.2007,Jailolo Selatan,Kabupaten,Halmahera Barat,Maluku Utara
931,97751,Bobane Dano,82.01.05.2025,Jailolo Selatan,Kabupaten,Halmahera Barat,Maluku Utara
932,97751,Bobaneigo Madihutu,82.01.05.2029,Jailolo Selatan,Kabupaten,Halmahera Barat,Maluku Utara
933,97751,Braha,82.01.05.2023,Jailolo Selatan,Kabupaten,Halmahera Barat,Maluku Utara
934,97751,Dodinga,82.01.05.2011,Jailolo Selatan,Kabupaten,Halmahera Barat,Maluku Utara
935,97751,Domato,82.01.05.2003,Jailolo Selatan,Kabupaten,Halmahera Barat,Maluku Utara
936,97751,Gamlenge,82.01.05.2005,Jailolo Selatan,Kabupaten,Halmahera Barat,Maluku Utara
937,97751,Hijrah,82.01.05.2027,Jailolo Selatan,Kabupaten,Halmahera Barat,Maluku Utara
938,97751,Moiso,82.01.05.2022,Jailolo Selatan,Kabupaten,Halmahera Barat,Maluku Utara
939,97751,Ratem,82.01.05.2028,Jailolo Selatan,Kabupaten,Halmahera Barat,Maluku Utara
940,97751,Rioribati,82.01.05.2014,Jailolo Selatan,Kabupaten,Halmahera Barat,Maluku Utara
941,97751,Sidangoli Gam,82.01.05.2001,Jailolo Selatan,Kabupaten,Halmahera Barat,Maluku Utara
942,97751,Sidongoli Dehe (Sidangoli Dehe),82.01.05.2002,Jailolo Selatan,Kabupaten,Halmahera Barat,Maluku Utara
943,97751,Suka Damai,82.01.05.2026,Jailolo Selatan,Kabupaten,Halmahera Barat,Maluku Utara
944,97751,Taba Damai (DB),82.01.05.2021,Jailolo Selatan,Kabupaten,Halmahera Barat,Maluku Utara
945,97751,Tataleka,82.01.05.2004,Jailolo Selatan,Kabupaten,Halmahera Barat,Maluku Utara
946,97751,Tetewang Joronga,82.01.05.2030,Jailolo Selatan,Kabupaten,Halmahera Barat,Maluku Utara
947,97751,Tewe,82.01.05.2012,Jailolo Selatan,Kabupaten,Halmahera Barat,Maluku Utara
948,97751,Toniku,82.01.05.2013,Jailolo Selatan,Kabupaten,Halmahera Barat,Maluku Utara
949,97751,Tuguraci,82.01.05.2008,Jailolo Selatan,Kabupaten,Halmahera Barat,Maluku Utara
950,97752,Acango,82.01.01.2018,Jailolo,Kabupaten,Halmahera Barat,Maluku Utara
951,97752,Akediri,82.01.01.2020,Jailolo,Kabupaten,Halmahera Barat,Maluku Utara
952,97752,Bobanehena,82.01.01.2007,Jailolo,Kabupaten,Halmahera Barat,Maluku Utara
953,97752,Bobo,82.01.01.2009,Jailolo,Kabupaten,Halmahera Barat,Maluku Utara
954,97752,Bobo Jiko,82.01.01.2037,Jailolo,Kabupaten,Halmahera Barat,Maluku Utara
955,97752,Buku Bualawa,82.01.01.2026,Jailolo,Kabupaten,Halmahera Barat,Maluku Utara
956,97752,Buku Maadu,82.01.01.2040,Jailolo,Kabupaten,Halmahera Barat,Maluku Utara
957,97752,Buku Matiti (Bukumatiti),82.01.01.2022,Jailolo,Kabupaten,Halmahera Barat,Maluku Utara
958,97752,Galala,82.01.01.2006,Jailolo,Kabupaten,Halmahera Barat,Maluku Utara
959,97752,Gam Lamo (Gamlamo),82.01.01.2004,Jailolo,Kabupaten,Halmahera Barat,Maluku Utara
960,97752,Gamtala,82.01.01.2014,Jailolo,Kabupaten,Halmahera Barat,Maluku Utara
961,97752,Guaimaadu,82.01.01.2002,Jailolo,Kabupaten,Halmahera Barat,Maluku Utara
962,97752,Guaria (Guaeria),82.01.01.2035,Jailolo,Kabupaten,Halmahera Barat,Maluku Utara
963,97752,Gufasa,82.01.01.2001,Jailolo,Kabupaten,Halmahera Barat,Maluku Utara
964,97752,Hate Bicara,82.01.01.2034,Jailolo,Kabupaten,Halmahera Barat,Maluku Utara
965,97752,Huku-Huku Kie (Hoku Hoku Kie),82.01.01.2017,Jailolo,Kabupaten,Halmahera Barat,Maluku Utara
966,97752,Idam Dehe (Idamdehe),82.01.01.2011,Jailolo,Kabupaten,Halmahera Barat,Maluku Utara
967,97752,Idamdehe Gamsungi,82.01.01.2012,Jailolo,Kabupaten,Halmahera Barat,Maluku Utara
968,97752,Jalan Baru,82.01.01.2003,Jailolo,Kabupaten,Halmahera Barat,Maluku Utara
969,97752,Kuripasai,82.01.01.2039,Jailolo,Kabupaten,Halmahera Barat,Maluku Utara
970,97752,Lolory (Loloy / Lolori),82.01.01.2015,Jailolo,Kabupaten,Halmahera Barat,Maluku Utara
971,97752,Marmabati (Marimbati),82.01.01.2013,Jailolo,Kabupaten,Halmahera Barat,Maluku Utara
972,97752,Matui,82.01.01.2025,Jailolo,Kabupaten,Halmahera Barat,Maluku Utara
973,97752,Pateng,82.01.01.2036,Jailolo,Kabupaten,Halmahera Barat,Maluku Utara
974,97752,Payo,82.01.01.2008,Jailolo,Kabupaten,Halmahera Barat,Maluku Utara
975,97752,Pornity (Porniti),82.01.01.2021,Jailolo,Kabupaten,Halmahera Barat,Maluku Utara
976,97752,Saria,82.01.01.2010,Jailolo,Kabupaten,Halmahera Barat,Maluku Utara
977,97752,Soakonora,82.01.01.2005,Jailolo,Kabupaten,Halmahera Barat,Maluku Utara
978,97752,Tauro,82.01.01.2027,Jailolo,Kabupaten,Halmahera Barat,Maluku Utara
979,97752,Tedeng,82.01.01.2019,Jailolo,Kabupaten,Halmahera Barat,Maluku Utara
980,97752,Toboso (Taboso / Tobosa / Tabaso),82.01.01.2016,Jailolo,Kabupaten,Halmahera Barat,Maluku Utara
981,97752,Todowongi (Todowangi),82.01.01.2023,Jailolo,Kabupaten,Halmahera Barat,Maluku Utara
982,97752,Tuada,82.01.01.2024,Jailolo,Kabupaten,Halmahera Barat,Maluku Utara
983,97752,Ulo,82.01.01.2038,Jailolo,Kabupaten,Halmahera Barat,Maluku Utara
984,97757,Aru Jaya,82.01.07.2016,Ibu Utara,Kabupaten,Halmahera Barat,Maluku Utara
985,97757,Barona (Borona),82.01.07.2009,Ibu Utara,Kabupaten,Halmahera Barat,Maluku Utara
986,97757,Duono,82.01.07.2004,Ibu Utara,Kabupaten,Halmahera Barat,Maluku Utara
987,97757,Goin,82.01.07.2005,Ibu Utara,Kabupaten,Halmahera Barat,Maluku Utara
988,97757,Pasalulu,82.01.07.2012,Ibu Utara,Kabupaten,Halmahera Barat,Maluku Utara
989,97757,Podol,82.01.07.2001,Ibu Utara,Kabupaten,Halmahera Barat,Maluku Utara
990,97757,Sangaji Nyeku,82.01.07.2006,Ibu Utara,Kabupaten,Halmahera Barat,Maluku Utara
991,97757,Soasangaji,82.01.07.2015,Ibu Utara,Kabupaten,Halmahera Barat,Maluku Utara
992,97757,Tengowango (Teongowango),82.01.07.2002,Ibu Utara,Kabupaten,Halmahera Barat,Maluku Utara
993,97757,Todoke,82.01.07.2010,Ibu Utara,Kabupaten,Halmahera Barat,Maluku Utara
994,97757,Togoreba Sungi (Tugureba Sungi),82.01.07.2008,Ibu Utara,Kabupaten,Halmahera Barat,Maluku Utara
995,97757,Togoreba Tua,82.01.07.2013,Ibu Utara,Kabupaten,Halmahera Barat,Maluku Utara
996,97757,Togowo,82.01.07.2003,Ibu Utara,Kabupaten,Halmahera Barat,Maluku Utara
997,97757,Tolisaor,82.01.07.2011,Ibu Utara,Kabupaten,Halmahera Barat,Maluku Utara
998,97757,Tuguis,82.01.07.2007,Ibu Utara,Kabupaten,Halmahera Barat,Maluku Utara
999,97757,Tukuoku,82.01.07.2014,Ibu Utara,Kabupaten,Halmahera Barat,Maluku Utara
1000,97756,Adu,82.01.08.2013,Ibu Selatan,Kabupaten,Halmahera Barat,Maluku Utara
1001,97756,Baru,82.01.08.2003,Ibu Selatan,Kabupaten,Halmahera Barat,Maluku Utara
1002,97756,Bataka,82.01.08.2007,Ibu Selatan,Kabupaten,Halmahera Barat,Maluku Utara
1003,97756,Gamkonora,82.01.08.2010,Ibu Selatan,Kabupaten,Halmahera Barat,Maluku Utara
1004,97756,Gamsida,82.01.08.2014,Ibu Selatan,Kabupaten,Halmahera Barat,Maluku Utara
1005,97756,Gamsungi,82.01.08.2006,Ibu Selatan,Kabupaten,Halmahera Barat,Maluku Utara
1006,97756,Jere,82.01.08.2005,Ibu Selatan,Kabupaten,Halmahera Barat,Maluku Utara
1007,97756,Nanas,82.01.08.2004,Ibu Selatan,Kabupaten,Halmahera Barat,Maluku Utara
1008,97756,Ngalo Ngalo,82.01.08.2015,Ibu Selatan,Kabupaten,Halmahera Barat,Maluku Utara
1009,97756,Ngawet,82.01.08.2012,Ibu Selatan,Kabupaten,Halmahera Barat,Maluku Utara
1010,97756,Sarau,82.01.08.2011,Ibu Selatan,Kabupaten,Halmahera Barat,Maluku Utara
1011,97756,Talaga,82.01.08.2008,Ibu Selatan,Kabupaten,Halmahera Barat,Maluku Utara
1012,97756,Tobelos,82.01.08.2009,Ibu Selatan,Kabupaten,Halmahera Barat,Maluku Utara
1013,97756,Tobobol (Tabobol),82.01.08.2002,Ibu Selatan,Kabupaten,Halmahera Barat,Maluku Utara
1014,97756,Tosoa,82.01.08.2001,Ibu Selatan,Kabupaten,Halmahera Barat,Maluku Utara
1015,97756,Tuguaer,82.01.08.2016,Ibu Selatan,Kabupaten,Halmahera Barat,Maluku Utara
1016,97754,Ake Boso,82.01.03.2042,Ibu,Kabupaten,Halmahera Barat,Maluku Utara
1017,97754,Akesibu,82.01.03.2016,Ibu,Kabupaten,Halmahera Barat,Maluku Utara
1018,97754,Gam Ici,82.01.03.2021,Ibu,Kabupaten,Halmahera Barat,Maluku Utara
1019,97754,Gamlamo (Gam Lamo),82.01.03.2023,Ibu,Kabupaten,Halmahera Barat,Maluku Utara
1020,97754,Kampung Baru,82.01.03.2043,Ibu,Kabupaten,Halmahera Barat,Maluku Utara
1021,97754,Kie Ici (Kie Lei),82.01.03.2018,Ibu,Kabupaten,Halmahera Barat,Maluku Utara
1022,97754,Maritango,82.01.03.2017,Ibu,Kabupaten,Halmahera Barat,Maluku Utara
1023,97754,Naga,82.01.03.2037,Ibu,Kabupaten,Halmahera Barat,Maluku Utara
1024,97754,Soana Masungi,82.01.03.2040,Ibu,Kabupaten,Halmahera Barat,Maluku Utara
1025,97754,Tahafo,82.01.03.2014,Ibu,Kabupaten,Halmahera Barat,Maluku Utara
1026,97754,Tobaol,82.01.03.2022,Ibu,Kabupaten,Halmahera Barat,Maluku Utara
1027,97754,Togola Sangir (Togola Sanger),82.01.03.2013,Ibu,Kabupaten,Halmahera Barat,Maluku Utara
1028,97754,Togola Wayoli (Togola Wayolo),82.01.03.2012,Ibu,Kabupaten,Halmahera Barat,Maluku Utara
1029,97754,Tongute Goin,82.01.03.2019,Ibu,Kabupaten,Halmahera Barat,Maluku Utara
1030,97754,Tongute Ternate,82.01.03.2015,Ibu,Kabupaten,Halmahera Barat,Maluku Utara
1031,97754,Tongute Ternate Selatan,82.01.03.2041,Ibu,Kabupaten,Halmahera Barat,Maluku Utara
1032,97754,Tungute Sungi (Tongute Sungi),82.01.03.2020,Ibu,Kabupaten,Halmahera Barat,Maluku Utara
1033,97788,Bisui,82.04.27.2001,Gane Timur Tengah,Kabupaten,Halmahera Selatan,Maluku Utara
1034,97788,Lelewi,82.04.27.2002,Gane Timur Tengah,Kabupaten,Halmahera Selatan,Maluku Utara
1035,97788,Luim,82.04.27.2003,Gane Timur Tengah,Kabupaten,Halmahera Selatan,Maluku Utara
1036,97788,Matuting,82.04.27.2004,Gane Timur Tengah,Kabupaten,Halmahera Selatan,Maluku Utara
1037,97788,Matuting Tanjung,82.04.27.2005,Gane Timur Tengah,Kabupaten,Halmahera Selatan,Maluku Utara
1038,97788,Tabahidayah,82.04.27.2006,Gane Timur Tengah,Kabupaten,Halmahera Selatan,Maluku Utara
1039,97788,Tabahijrah,82.04.27.2007,Gane Timur Tengah,Kabupaten,Halmahera Selatan,Maluku Utara
1040,97788,Tagia (Tagea),82.04.27.2008,Gane Timur Tengah,Kabupaten,Halmahera Selatan,Maluku Utara
1041,97787,Gaimu,82.04.26.2001,Gane Timur Selatan,Kabupaten,Halmahera Selatan,Maluku Utara
1042,97787,Gane Luar,82.04.26.2002,Gane Timur Selatan,Kabupaten,Halmahera Selatan,Maluku Utara
1043,97787,Kuwo,82.04.26.2003,Gane Timur Selatan,Kabupaten,Halmahera Selatan,Maluku Utara
1044,97787,Ranga Ranga,82.04.26.2004,Gane Timur Selatan,Kabupaten,Halmahera Selatan,Maluku Utara
1045,97787,Sawat,82.04.26.2005,Gane Timur Selatan,Kabupaten,Halmahera Selatan,Maluku Utara
1046,97783,Akelamo,82.04.03.2006,Gane Timur,Kabupaten,Halmahera Selatan,Maluku Utara
1047,97783,Batonam,82.04.03.2007,Gane Timur,Kabupaten,Halmahera Selatan,Maluku Utara
1048,97783,Foya,82.04.03.2002,Gane Timur,Kabupaten,Halmahera Selatan,Maluku Utara
1049,97783,Foya Tobaru,82.04.03.2004,Gane Timur,Kabupaten,Halmahera Selatan,Maluku Utara
1050,97783,Kebun Raja,82.04.03.2022,Gane Timur,Kabupaten,Halmahera Selatan,Maluku Utara
1051,97783,Kotalow,82.04.03.2020,Gane Timur,Kabupaten,Halmahera Selatan,Maluku Utara
1052,97783,Lalubi,82.04.03.2005,Gane Timur,Kabupaten,Halmahera Selatan,Maluku Utara
1053,97783,Maffa,82.04.03.2001,Gane Timur,Kabupaten,Halmahera Selatan,Maluku Utara
1054,97783,Sumber Makmur,82.04.03.2014,Gane Timur,Kabupaten,Halmahera Selatan,Maluku Utara
1055,97783,Tanjung Jere,82.04.03.2025,Gane Timur,Kabupaten,Halmahera Selatan,Maluku Utara
1056,97783,Tobaru,82.04.03.2003,Gane Timur,Kabupaten,Halmahera Selatan,Maluku Utara
1057,97783,Wosi,82.04.03.2008,Gane Timur,Kabupaten,Halmahera Selatan,Maluku Utara
1058,97789,Batulak,82.04.24.2001,Gane Barat Utara,Kabupaten,Halmahera Selatan,Maluku Utara
1059,97789,Boso,82.04.24.2002,Gane Barat Utara,Kabupaten,Halmahera Selatan,Maluku Utara
1060,97789,Dolik,82.04.24.2003,Gane Barat Utara,Kabupaten,Halmahera Selatan,Maluku Utara
1061,97789,Fulai (Jikolamo/Fulay),82.04.24.2004,Gane Barat Utara,Kabupaten,Halmahera Selatan,Maluku Utara
1062,97789,Gumirah (Gumira),82.04.24.2005,Gane Barat Utara,Kabupaten,Halmahera Selatan,Maluku Utara
1063,97789,Moloku,82.04.24.2006,Gane Barat Utara,Kabupaten,Halmahera Selatan,Maluku Utara
1064,97789,Nurjihat,82.04.24.2007,Gane Barat Utara,Kabupaten,Halmahera Selatan,Maluku Utara
1065,97789,Posi Posi,82.04.24.2008,Gane Barat Utara,Kabupaten,Halmahera Selatan,Maluku Utara
1066,97789,Samat,82.04.24.2009,Gane Barat Utara,Kabupaten,Halmahera Selatan,Maluku Utara
1067,97789,Samo,82.04.24.2010,Gane Barat Utara,Kabupaten,Halmahera Selatan,Maluku Utara
1068,97789,Suka Damai,82.04.24.2011,Gane Barat Utara,Kabupaten,Halmahera Selatan,Maluku Utara
1069,97789,Tokaka,82.04.24.2012,Gane Barat Utara,Kabupaten,Halmahera Selatan,Maluku Utara
1070,97782,Awis,82.04.23.2001,Gane Barat Selatan,Kabupaten,Halmahera Selatan,Maluku Utara
1071,97782,Dowora,82.04.23.2002,Gane Barat Selatan,Kabupaten,Halmahera Selatan,Maluku Utara
1072,97782,Gane Dalam,82.04.23.2003,Gane Barat Selatan,Kabupaten,Halmahera Selatan,Maluku Utara
1073,97782,Jibubu,82.04.23.2004,Gane Barat Selatan,Kabupaten,Halmahera Selatan,Maluku Utara
1074,97782,Pasipalele (Pasi Palele),82.04.23.2005,Gane Barat Selatan,Kabupaten,Halmahera Selatan,Maluku Utara
1075,97782,Sekely,82.04.23.2006,Gane Barat Selatan,Kabupaten,Halmahera Selatan,Maluku Utara
1076,97782,Tawa,82.04.23.2007,Gane Barat Selatan,Kabupaten,Halmahera Selatan,Maluku Utara
1077,97782,Yamli (Yamly),82.04.23.2008,Gane Barat Selatan,Kabupaten,Halmahera Selatan,Maluku Utara
1078,97782,Balitata,82.04.04.2020,Gane Barat,Kabupaten,Halmahera Selatan,Maluku Utara
1079,97782,Bumi Rahmat,82.04.04.2029,Gane Barat,Kabupaten,Halmahera Selatan,Maluku Utara
1080,97782,Cango,82.04.04.2018,Gane Barat,Kabupaten,Halmahera Selatan,Maluku Utara
1081,97782,Doro,82.04.04.2016,Gane Barat,Kabupaten,Halmahera Selatan,Maluku Utara
1082,97782,Koititi,82.04.04.2017,Gane Barat,Kabupaten,Halmahera Selatan,Maluku Utara
1083,97782,Lemo Lemo,82.04.04.2023,Gane Barat,Kabupaten,Halmahera Selatan,Maluku Utara
1084,97782,Oha,82.04.04.2021,Gane Barat,Kabupaten,Halmahera Selatan,Maluku Utara
1085,97782,Papaceda,82.04.04.2022,Gane Barat,Kabupaten,Halmahera Selatan,Maluku Utara
1086,97782,Saketa,82.04.04.2019,Gane Barat,Kabupaten,Halmahera Selatan,Maluku Utara
1087,97782,Tabamasa,82.04.04.2036,Gane Barat,Kabupaten,Halmahera Selatan,Maluku Utara
1088,97769,Beringin Jaya,82.03.15.2010,Galela Utara,Kabupaten,Halmahera Utara,Maluku Utara
1089,97769,Bobisingo (Bobi Singo),82.03.15.2003,Galela Utara,Kabupaten,Halmahera Utara,Maluku Utara
1090,97769,Dodowo,82.03.15.2008,Galela Utara,Kabupaten,Halmahera Utara,Maluku Utara
1091,97769,Jare (Jere),82.03.15.2007,Galela Utara,Kabupaten,Halmahera Utara,Maluku Utara
1092,97769,Jere Tua,82.03.15.2012,Galela Utara,Kabupaten,Halmahera Utara,Maluku Utara
1093,97769,Lalonga,82.03.15.2002,Galela Utara,Kabupaten,Halmahera Utara,Maluku Utara
1094,97769,Limau,82.03.15.2001,Galela Utara,Kabupaten,Halmahera Utara,Maluku Utara
1095,97769,Pelita,82.03.15.2011,Galela Utara,Kabupaten,Halmahera Utara,Maluku Utara
1096,97769,Salimuli,82.03.15.2004,Galela Utara,Kabupaten,Halmahera Utara,Maluku Utara
1097,97769,Saluta,82.03.15.2006,Galela Utara,Kabupaten,Halmahera Utara,Maluku Utara
1098,97769,Togasa,82.03.15.2009,Galela Utara,Kabupaten,Halmahera Utara,Maluku Utara
1099,97769,Tutumaloleo,82.03.15.2005,Galela Utara,Kabupaten,Halmahera Utara,Maluku Utara
1100,97769,Bale,82.03.16.2005,Galela Selatan,Kabupaten,Halmahera Utara,Maluku Utara
1101,97769,Igobula,82.03.16.2004,Galela Selatan,Kabupaten,Halmahera Utara,Maluku Utara
1102,97769,Ori,82.03.16.2007,Galela Selatan,Kabupaten,Halmahera Utara,Maluku Utara
1103,97769,Seki,82.03.16.2001,Galela Selatan,Kabupaten,Halmahera Utara,Maluku Utara
1104,97769,Soakonora,82.03.16.2003,Galela Selatan,Kabupaten,Halmahera Utara,Maluku Utara
1105,97769,Togawa,82.03.16.2002,Galela Selatan,Kabupaten,Halmahera Utara,Maluku Utara
1106,97769,Togawabesi,82.03.16.2006,Galela Selatan,Kabupaten,Halmahera Utara,Maluku Utara
1107,97761,Dokulamo,82.03.14.2002,Galela Barat,Kabupaten,Halmahera Utara,Maluku Utara
1108,97761,Duma,82.03.14.2003,Galela Barat,Kabupaten,Halmahera Utara,Maluku Utara
1109,97761,Gotalamo,82.03.14.2004,Galela Barat,Kabupaten,Halmahera Utara,Maluku Utara
1110,97761,Kira,82.03.14.2009,Galela Barat,Kabupaten,Halmahera Utara,Maluku Utara
1111,97761,Makete,82.03.14.2005,Galela Barat,Kabupaten,Halmahera Utara,Maluku Utara
1112,97761,Ngidiho,82.03.14.2006,Galela Barat,Kabupaten,Halmahera Utara,Maluku Utara
1113,97761,Roko,82.03.14.2007,Galela Barat,Kabupaten,Halmahera Utara,Maluku Utara
1114,97761,Samuda (Samudra),82.03.14.2008,Galela Barat,Kabupaten,Halmahera Utara,Maluku Utara
1115,97761,Soatobaru,82.03.14.2001,Galela Barat,Kabupaten,Halmahera Utara,Maluku Utara
1116,97761,Barataku,82.03.04.2031,Galela,Kabupaten,Halmahera Utara,Maluku Utara
1117,97761,Mamuya,82.03.04.2003,Galela,Kabupaten,Halmahera Utara,Maluku Utara
1118,97761,Pune,82.03.04.2002,Galela,Kabupaten,Halmahera Utara,Maluku Utara
1119,97761,Simau,82.03.04.2024,Galela,Kabupaten,Halmahera Utara,Maluku Utara
1120,97761,Soa Sio,82.03.04.2001,Galela,Kabupaten,Halmahera Utara,Maluku Utara
1121,97761,Towara (Torawa),82.03.04.2032,Galela,Kabupaten,Halmahera Utara,Maluku Utara
1122,97761,Toweka,82.03.04.2016,Galela,Kabupaten,Halmahera Utara,Maluku Utara
1123,97791,Bibinoi,82.04.22.2005,Bacan Timur Tengah,Kabupaten,Halmahera Selatan,Maluku Utara
1124,97791,Songa,82.04.22.2006,Bacan Timur Tengah,Kabupaten,Halmahera Selatan,Maluku Utara
1125,97791,Tabapoma,82.04.22.2004,Bacan Timur Tengah,Kabupaten,Halmahera Selatan,Maluku Utara
1126,97791,Tawa,82.04.22.2007,Bacan Timur Tengah,Kabupaten,Halmahera Selatan,Maluku Utara
1127,97791,Tomara,82.04.22.2002,Bacan Timur Tengah,Kabupaten,Halmahera Selatan,Maluku Utara
1128,97791,Tutupa,82.04.22.2003,Bacan Timur Tengah,Kabupaten,Halmahera Selatan,Maluku Utara
1129,97791,Wayatim,82.04.22.2001,Bacan Timur Tengah,Kabupaten,Halmahera Selatan,Maluku Utara
1130,97791,Liaro,82.04.21.2003,Bacan Timur Selatan,Kabupaten,Halmahera Selatan,Maluku Utara
1131,97791,Pigaraja,82.04.21.2004,Bacan Timur Selatan,Kabupaten,Halmahera Selatan,Maluku Utara
1132,97791,Silang,82.04.21.2002,Bacan Timur Selatan,Kabupaten,Halmahera Selatan,Maluku Utara
1133,97791,Tabajaya,82.04.21.2007,Bacan Timur Selatan,Kabupaten,Halmahera Selatan,Maluku Utara
1134,97791,Tabangame,82.04.21.2006,Bacan Timur Selatan,Kabupaten,Halmahera Selatan,Maluku Utara
1135,97791,Wayakuba,82.04.21.2005,Bacan Timur Selatan,Kabupaten,Halmahera Selatan,Maluku Utara
1136,97791,Wayaua,82.04.21.2001,Bacan Timur Selatan,Kabupaten,Halmahera Selatan,Maluku Utara
1137,97791,Babang,82.04.07.2001,Bacan Timur,Kabupaten,Halmahera Selatan,Maluku Utara
1138,97791,Bori,82.04.07.2013,Bacan Timur,Kabupaten,Halmahera Selatan,Maluku Utara
1139,97791,Goro Goro,82.04.07.2016,Bacan Timur,Kabupaten,Halmahera Selatan,Maluku Utara
1140,97791,Kaireu,82.04.07.2023,Bacan Timur,Kabupaten,Halmahera Selatan,Maluku Utara
1141,97791,Nyonyifi,82.04.07.2014,Bacan Timur,Kabupaten,Halmahera Selatan,Maluku Utara
1142,97791,Sabatang,82.04.07.2015,Bacan Timur,Kabupaten,Halmahera Selatan,Maluku Utara
1143,97791,Sali Kecil,82.04.07.2017,Bacan Timur,Kabupaten,Halmahera Selatan,Maluku Utara
1144,97791,Sayoang,82.04.07.2021,Bacan Timur,Kabupaten,Halmahera Selatan,Maluku Utara
1145,97791,Timlonga,82.04.07.2018,Bacan Timur,Kabupaten,Halmahera Selatan,Maluku Utara
1146,97791,Wayamiga,82.04.07.2022,Bacan Timur,Kabupaten,Halmahera Selatan,Maluku Utara
1147,97791,Dgandasuli (Gandasuli),82.04.17.2004,Bacan Selatan,Kabupaten,Halmahera Selatan,Maluku Utara
1148,97791,Kubung,82.04.17.2009,Bacan Selatan,Kabupaten,Halmahera Selatan,Maluku Utara
1149,97791,Kupal,82.04.17.2003,Bacan Selatan,Kabupaten,Halmahera Selatan,Maluku Utara
1150,97791,Makian (Kampung Makian),82.04.17.2001,Bacan Selatan,Kabupaten,Halmahera Selatan,Maluku Utara
1151,97791,Mandawong (Mandaong),82.04.17.2002,Bacan Selatan,Kabupaten,Halmahera Selatan,Maluku Utara
1152,97791,Panamboang,82.04.17.2010,Bacan Selatan,Kabupaten,Halmahera Selatan,Maluku Utara
1153,97791,Papaloang,82.04.17.2007,Bacan Selatan,Kabupaten,Halmahera Selatan,Maluku Utara
1154,97791,Sawadai,82.04.17.2005,Bacan Selatan,Kabupaten,Halmahera Selatan,Maluku Utara
1155,97791,Tembal,82.04.17.2008,Bacan Selatan,Kabupaten,Halmahera Selatan,Maluku Utara
1156,97791,Tuwokona (Tuakona),82.04.17.2006,Bacan Selatan,Kabupaten,Halmahera Selatan,Maluku Utara
1157,97791,Geti Baru,82.04.14.2007,Bacan Barat Utara,Kabupaten,Halmahera Selatan,Maluku Utara
1158,97791,Geti Lama,82.04.14.2006,Bacan Barat Utara,Kabupaten,Halmahera Selatan,Maluku Utara
1159,97791,Gilalang,82.04.14.2008,Bacan Barat Utara,Kabupaten,Halmahera Selatan,Maluku Utara
1160,97791,Jojame,82.04.14.2004,Bacan Barat Utara,Kabupaten,Halmahera Selatan,Maluku Utara
1161,97791,Lolarogurua (Gorua Lolaro / Lolorogurua),82.04.14.2002,Bacan Barat Utara,Kabupaten,Halmahera Selatan,Maluku Utara
1162,97791,Nusa Babullah (Nusa Babi),82.04.14.2003,Bacan Barat Utara,Kabupaten,Halmahera Selatan,Maluku Utara
1163,97791,Sidopo,82.04.14.2001,Bacan Barat Utara,Kabupaten,Halmahera Selatan,Maluku Utara
1164,97791,Yaba,82.04.14.2005,Bacan Barat Utara,Kabupaten,Halmahera Selatan,Maluku Utara
1165,97791,Indari,82.04.09.2001,Bacan Barat,Kabupaten,Halmahera Selatan,Maluku Utara
1166,97791,Kokotu,82.04.09.2030,Bacan Barat,Kabupaten,Halmahera Selatan,Maluku Utara
1167,97791,Kusubibi,82.04.09.2017,Bacan Barat,Kabupaten,Halmahera Selatan,Maluku Utara
1168,97791,Nang,82.04.09.2018,Bacan Barat,Kabupaten,Halmahera Selatan,Maluku Utara
1169,97791,Nondang,82.04.09.2016,Bacan Barat,Kabupaten,Halmahera Selatan,Maluku Utara
1170,97791,Tawabi,82.04.09.2014,Bacan Barat,Kabupaten,Halmahera Selatan,Maluku Utara
1171,97791,Wiring,82.04.09.2015,Bacan Barat,Kabupaten,Halmahera Selatan,Maluku Utara
1172,97791,Amasing Kali,82.04.08.2003,Bacan,Kabupaten,Halmahera Selatan,Maluku Utara
1173,97791,Amasing Kota,82.04.08.2002,Bacan,Kabupaten,Halmahera Selatan,Maluku Utara
1174,97791,Amasing Kota Barat,82.04.08.2030,Bacan,Kabupaten,Halmahera Selatan,Maluku Utara
1175,97791,Amasing Kota Utara,82.04.08.2031,Bacan,Kabupaten,Halmahera Selatan,Maluku Utara
1176,97791,Awanggoa,82.04.08.2032,Bacan,Kabupaten,Halmahera Selatan,Maluku Utara
1177,97791,Belang Belang,82.04.08.2010,Bacan,Kabupaten,Halmahera Selatan,Maluku Utara
1178,97791,Hidayat,82.04.08.2040,Bacan,Kabupaten,Halmahera Selatan,Maluku Utara
1179,97791,Indomut,82.04.08.2009,Bacan,Kabupaten,Halmahera Selatan,Maluku Utara
1180,97791,Kaputusan,82.04.08.2027,Bacan,Kabupaten,Halmahera Selatan,Maluku Utara
1181,97791,Labuha,82.04.08.2001,Bacan,Kabupaten,Halmahera Selatan,Maluku Utara
1182,97791,Marabose,82.04.08.2041,Bacan,Kabupaten,Halmahera Selatan,Maluku Utara
1183,97791,Suma Tinggi,82.04.08.2036,Bacan,Kabupaten,Halmahera Selatan,Maluku Utara
1184,97791,Sumae,82.04.08.2026,Bacan,Kabupaten,Halmahera Selatan,Maluku Utara
1185,97791,Tomori,82.04.08.2004,Bacan,Kabupaten,Halmahera Selatan,Maluku Utara