no,postal_code,urban,area_code,sub_district,dt2,city,province
1,97465,Abat,81.03.07.2001,Wuar Labobar,Kabupaten,Kepulauan Tanimbar (Maluku Tenggara Barat),Maluku
2,97465,Awear Rumngeur,81.03.07.2009,Wuar Labobar,Kabupaten,Kepulauan Tanimbar (Maluku Tenggara Barat),Maluku
3,97465,Karatat,81.03.07.2010,Wuar Labobar,Kabupaten,Kepulauan Tanimbar (Maluku Tenggara Barat),Maluku
4,97465,Kiloon,81.03.07.2012,Wuar Labobar,Kabupaten,Kepulauan Tanimbar (Maluku Tenggara Barat),Maluku
5,97465,Labobar,81.03.07.2002,Wuar Labobar,Kabupaten,Kepulauan Tanimbar (Maluku Tenggara Barat),Maluku
6,97465,Lingada,81.03.07.2013,Wuar Labobar,Kabupaten,Kepulauan Tanimbar (Maluku Tenggara Barat),Maluku
7,97465,Romnus,81.03.07.2016,Wuar Labobar,Kabupaten,Kepulauan Tanimbar (Maluku Tenggara Barat),Maluku
8,97465,Teineman,81.03.07.2014,Wuar Labobar,Kabupaten,Kepulauan Tanimbar (Maluku Tenggara Barat),Maluku
9,97465,Wabar,81.03.07.2015,Wuar Labobar,Kabupaten,Kepulauan Tanimbar (Maluku Tenggara Barat),Maluku
10,97465,Watmasa,81.03.07.2008,Wuar Labobar,Kabupaten,Kepulauan Tanimbar (Maluku Tenggara Barat),Maluku
11,97465,Wunlah,81.03.07.2011,Wuar Labobar,Kabupaten,Kepulauan Tanimbar (Maluku Tenggara Barat),Maluku
12,97449,Elsulith,81.08.13.2002,Wetar Utara,Kabupaten,Maluku Barat Daya,Maluku
13,97449,Eray,81.08.13.2006,Wetar Utara,Kabupaten,Maluku Barat Daya,Maluku
14,97449,Lurang,81.08.13.2004,Wetar Utara,Kabupaten,Maluku Barat Daya,Maluku
15,97449,Nabar,81.08.13.2001,Wetar Utara,Kabupaten,Maluku Barat Daya,Maluku
16,97449,Naumatang,81.08.13.2003,Wetar Utara,Kabupaten,Maluku Barat Daya,Maluku
17,97449,Uhak,81.08.13.2005,Wetar Utara,Kabupaten,Maluku Barat Daya,Maluku
18,97448,Arwala,81.08.15.2002,Wetar Timur,Kabupaten,Maluku Barat Daya,Maluku
19,97448,Ilpokil,81.08.15.2005,Wetar Timur,Kabupaten,Maluku Barat Daya,Maluku
20,97448,Ilway,81.08.15.2003,Wetar Timur,Kabupaten,Maluku Barat Daya,Maluku
21,97448,Kahilin,81.08.15.2004,Wetar Timur,Kabupaten,Maluku Barat Daya,Maluku
22,97448,Moning,81.08.15.2001,Wetar Timur,Kabupaten,Maluku Barat Daya,Maluku
23,97448,Tomliapat,81.08.15.2006,Wetar Timur,Kabupaten,Maluku Barat Daya,Maluku
24,97446,Amau,81.08.06.2021,Wetar Selatan,Kabupaten,Maluku Barat Daya,Maluku
25,97446,Hiay,81.08.06.2023,Wetar Selatan,Kabupaten,Maluku Barat Daya,Maluku
26,97446,Ilputih,81.08.06.2002,Wetar Selatan,Kabupaten,Maluku Barat Daya,Maluku
27,97446,Ilwaki,81.08.06.2001,Wetar Selatan,Kabupaten,Maluku Barat Daya,Maluku
28,97446,Mahuan,81.08.06.2003,Wetar Selatan,Kabupaten,Maluku Barat Daya,Maluku
29,97446,Masapun,81.08.06.2004,Wetar Selatan,Kabupaten,Maluku Barat Daya,Maluku
30,97447,Ilmamau,81.08.14.2005,Wetar Barat,Kabupaten,Maluku Barat Daya,Maluku
31,97447,Karbubu,81.08.14.2002,Wetar Barat,Kabupaten,Maluku Barat Daya,Maluku
32,97447,Klishatu,81.08.14.2004,Wetar Barat,Kabupaten,Maluku Barat Daya,Maluku
33,97447,Telemar,81.08.14.2001,Wetar Barat,Kabupaten,Maluku Barat Daya,Maluku
34,97447,Ustutun,81.08.14.2003,Wetar Barat,Kabupaten,Maluku Barat Daya,Maluku
35,97473,Amdasa,81.03.03.2004,Wertamrian (Wer Tamrian),Kabupaten,Kepulauan Tanimbar (Maluku Tenggara Barat),Maluku
36,97473,Arui Bab,81.03.03.2006,Wertamrian (Wer Tamrian),Kabupaten,Kepulauan Tanimbar (Maluku Tenggara Barat),Maluku
37,97473,Arui Das,81.03.03.2007,Wertamrian (Wer Tamrian),Kabupaten,Kepulauan Tanimbar (Maluku Tenggara Barat),Maluku
38,97473,Atubul Da,81.03.03.2009,Wertamrian (Wer Tamrian),Kabupaten,Kepulauan Tanimbar (Maluku Tenggara Barat),Maluku
39,97473,Atubul Dol,81.03.03.2003,Wertamrian (Wer Tamrian),Kabupaten,Kepulauan Tanimbar (Maluku Tenggara Barat),Maluku
40,97473,Lorulun,81.03.03.2002,Wertamrian (Wer Tamrian),Kabupaten,Kepulauan Tanimbar (Maluku Tenggara Barat),Maluku
41,97473,Sangliat Dol,81.03.03.2008,Wertamrian (Wer Tamrian),Kabupaten,Kepulauan Tanimbar (Maluku Tenggara Barat),Maluku
42,97473,Sangliat Krawain,81.03.03.2005,Wertamrian (Wer Tamrian),Kabupaten,Kepulauan Tanimbar (Maluku Tenggara Barat),Maluku
43,97473,Tumbur,81.03.03.2001,Wertamrian (Wer Tamrian),Kabupaten,Kepulauan Tanimbar (Maluku Tenggara Barat),Maluku
44,97472,Batu Putih,81.03.04.2007,Wermaktian (Wer Maktian),Kabupaten,Kepulauan Tanimbar (Maluku Tenggara Barat),Maluku
45,97472,Kamatubun,81.03.04.2001,Wermaktian (Wer Maktian),Kabupaten,Kepulauan Tanimbar (Maluku Tenggara Barat),Maluku
46,97472,Makatian (Makatiang),81.03.04.2008,Wermaktian (Wer Maktian),Kabupaten,Kepulauan Tanimbar (Maluku Tenggara Barat),Maluku
47,97472,Marantutul,81.03.04.2009,Wermaktian (Wer Maktian),Kabupaten,Kepulauan Tanimbar (Maluku Tenggara Barat),Maluku
48,97472,Rumahsalut (Rumasalut),81.03.04.2002,Wermaktian (Wer Maktian),Kabupaten,Kepulauan Tanimbar (Maluku Tenggara Barat),Maluku
49,97472,Themin,81.03.04.2004,Wermaktian (Wer Maktian),Kabupaten,Kepulauan Tanimbar (Maluku Tenggara Barat),Maluku
50,97472,Welutu,81.03.04.2003,Wermaktian (Wer Maktian),Kabupaten,Kepulauan Tanimbar (Maluku Tenggara Barat),Maluku
51,97472,Weratan,81.03.04.2005,Wermaktian (Wer Maktian),Kabupaten,Kepulauan Tanimbar (Maluku Tenggara Barat),Maluku
52,97472,Wermatang,81.03.04.2006,Wermaktian (Wer Maktian),Kabupaten,Kepulauan Tanimbar (Maluku Tenggara Barat),Maluku
53,97525,Batuasa,81.05.03.2001,Werinama,Kabupaten,Seram Bagian Timur,Maluku
54,97525,Bemo,81.05.03.2004,Werinama,Kabupaten,Seram Bagian Timur,Maluku
55,97525,Bemo Perak,81.05.03.2021,Werinama,Kabupaten,Seram Bagian Timur,Maluku
56,97525,Funa Naibaya,81.05.03.2022,Werinama,Kabupaten,Seram Bagian Timur,Maluku
57,97525,Gusalaut,81.05.03.2016,Werinama,Kabupaten,Seram Bagian Timur,Maluku
58,97525,Hatuimeten,81.05.03.2002,Werinama,Kabupaten,Seram Bagian Timur,Maluku
59,97525,Osong,81.05.03.2017,Werinama,Kabupaten,Seram Bagian Timur,Maluku
60,97525,Tobo,81.05.03.2018,Werinama,Kabupaten,Seram Bagian Timur,Maluku
61,97525,Tum,81.05.03.2015,Werinama,Kabupaten,Seram Bagian Timur,Maluku
62,97525,Werinama,81.05.03.2003,Werinama,Kabupaten,Seram Bagian Timur,Maluku
63,97573,Hatawano,81.04.06.2006,Waplau,Kabupaten,Buru,Maluku
64,97573,Lamahang,81.04.06.2001,Waplau,Kabupaten,Buru,Maluku
65,97573,Namsina,81.04.06.2005,Waplau,Kabupaten,Buru,Maluku
66,97573,Samalagi,81.04.06.2004,Waplau,Kabupaten,Buru,Maluku
67,97573,Skikilale,81.04.06.2010,Waplau,Kabupaten,Buru,Maluku
68,97573,Waepotih,81.04.06.2009,Waplau,Kabupaten,Buru,Maluku
69,97573,Waeura,81.04.06.2003,Waplau,Kabupaten,Buru,Maluku
70,97573,Wailihang (Waelihang),81.04.06.2007,Waplau,Kabupaten,Buru,Maluku
71,97573,Waplau,81.04.06.2002,Waplau,Kabupaten,Buru,Maluku
72,97573,Waprea,81.04.06.2008,Waplau,Kabupaten,Buru,Maluku
73,97595,Amarlaut,81.05.05.2006,Wakate,Kabupaten,Seram Bagian Timur,Maluku
74,97595,Effa,81.05.05.2002,Wakate,Kabupaten,Seram Bagian Timur,Maluku
75,97595,Guliar,81.05.05.2022,Wakate,Kabupaten,Seram Bagian Timur,Maluku
76,97595,Ilili,81.05.05.2001,Wakate,Kabupaten,Seram Bagian Timur,Maluku
77,97595,Karlomin,81.05.05.2023,Wakate,Kabupaten,Seram Bagian Timur,Maluku
78,97595,Kelangan,81.05.05.2005,Wakate,Kabupaten,Seram Bagian Timur,Maluku
79,97595,Keldor,81.05.05.2011,Wakate,Kabupaten,Seram Bagian Timur,Maluku
80,97595,Kilbutak,81.05.05.2026,Wakate,Kabupaten,Seram Bagian Timur,Maluku
81,97595,Kurwara,81.05.05.2025,Wakate,Kabupaten,Seram Bagian Timur,Maluku
82,97595,Lahema,81.05.05.2003,Wakate,Kabupaten,Seram Bagian Timur,Maluku
83,97595,Otademan,81.05.05.2024,Wakate,Kabupaten,Seram Bagian Timur,Maluku
84,97595,Ruma Durun,81.05.05.2027,Wakate,Kabupaten,Seram Bagian Timur,Maluku
85,97595,Tamher Timur,81.05.05.2008,Wakate,Kabupaten,Seram Bagian Timur,Maluku
86,97595,Tamher Warat,81.05.05.2007,Wakate,Kabupaten,Seram Bagian Timur,Maluku
87,97595,Tana Soa,81.05.05.2028,Wakate,Kabupaten,Seram Bagian Timur,Maluku
88,97595,Tanah Baru,81.05.05.2021,Wakate,Kabupaten,Seram Bagian Timur,Maluku
89,97595,Utta,81.05.05.2004,Wakate,Kabupaten,Seram Bagian Timur,Maluku
90,97595,Wunin Eldedora,81.05.05.2010,Wakate,Kabupaten,Seram Bagian Timur,Maluku
91,97545,Batu Kasa,81.09.02.2011,Waesama,Kabupaten,Buru Selatan,Maluku
92,97545,Hote,81.09.02.2009,Waesama,Kabupaten,Buru Selatan,Maluku
93,97545,Lena,81.09.02.2003,Waesama,Kabupaten,Buru Selatan,Maluku
94,97545,Pohon Batu,81.09.02.2007,Waesama,Kabupaten,Buru Selatan,Maluku
95,97545,Simi,81.09.02.2004,Waesama,Kabupaten,Buru Selatan,Maluku
96,97545,Waelikut,81.09.02.2005,Waesama,Kabupaten,Buru Selatan,Maluku
97,97545,Waemasing,81.09.02.2010,Waesama,Kabupaten,Buru Selatan,Maluku
98,97545,Waesili,81.09.02.2002,Waesama,Kabupaten,Buru Selatan,Maluku
99,97545,Waetawa,81.09.02.2001,Waesama,Kabupaten,Buru Selatan,Maluku
100,97545,Waeteba (Waetaba),81.09.02.2008,Waesama,Kabupaten,Buru Selatan,Maluku
101,97545,Wamsisi,81.09.02.2006,Waesama,Kabupaten,Buru Selatan,Maluku
102,97579,Basalale,81.04.12.2006,Waelata,Kabupaten,Buru,Maluku
103,97579,Dava,81.04.12.2008,Waelata,Kabupaten,Buru,Maluku
104,97579,Deboway / Debowae,81.04.12.2002,Waelata,Kabupaten,Buru,Maluku
105,97579,Parbulu,81.04.12.2003,Waelata,Kabupaten,Buru,Maluku
106,97579,Waehata,81.04.12.2009,Waelata,Kabupaten,Buru,Maluku
107,97579,Waeleman,81.04.12.2005,Waelata,Kabupaten,Buru,Maluku
108,97579,Waelo,81.04.12.2001,Waelata,Kabupaten,Buru,Maluku
109,97579,Waetina,81.04.12.2004,Waelata,Kabupaten,Buru,Maluku
110,97579,Waflan,81.04.12.2007,Waelata,Kabupaten,Buru,Maluku
111,97579,Widit,81.04.12.2010,Waelata,Kabupaten,Buru,Maluku
112,97578,Gogorea,81.04.03.2027,Waeapo,Kabupaten,Buru,Maluku
113,97578,Savana Jaya,81.04.03.2001,Waeapo,Kabupaten,Buru,Maluku
114,97578,Waekasar,81.04.03.2003,Waeapo,Kabupaten,Buru,Maluku
115,97578,Waekerta,81.04.03.2016,Waeapo,Kabupaten,Buru,Maluku
116,97578,Waenetat,81.04.03.2004,Waeapo,Kabupaten,Buru,Maluku
117,97578,Waetele,81.04.03.2002,Waeapo,Kabupaten,Buru,Maluku
118,97578,Wanareja,81.04.03.2019,Waeapo,Kabupaten,Buru,Maluku
119,97594,Airkasar,81.05.06.2005,Tutuk Tolu,Kabupaten,Seram Bagian Timur,Maluku
120,97594,Bati Kilwouw,81.05.06.2009,Tutuk Tolu,Kabupaten,Seram Bagian Timur,Maluku
121,97594,Danama,81.05.06.2001,Tutuk Tolu,Kabupaten,Seram Bagian Timur,Maluku
122,97594,Gah,81.05.06.2007,Tutuk Tolu,Kabupaten,Seram Bagian Timur,Maluku
123,97594,Kilbat,81.05.06.2003,Tutuk Tolu,Kabupaten,Seram Bagian Timur,Maluku
124,97594,Kilmoy,81.05.06.2002,Tutuk Tolu,Kabupaten,Seram Bagian Timur,Maluku
125,97594,Kufar,81.05.06.2011,Tutuk Tolu,Kabupaten,Seram Bagian Timur,Maluku
126,97594,Sesar,81.05.06.2004,Tutuk Tolu,Kabupaten,Seram Bagian Timur,Maluku
127,97594,Taruy,81.05.06.2010,Tutuk Tolu,Kabupaten,Seram Bagian Timur,Maluku
128,97594,Walang Tenga,81.05.06.2008,Tutuk Tolu,Kabupaten,Seram Bagian Timur,Maluku
129,97594,Waras-Waras,81.05.06.2006,Tutuk Tolu,Kabupaten,Seram Bagian Timur,Maluku
130,97597,Duryar Rumoy,81.05.10.2004,Teor,Kabupaten,Seram Bagian Timur,Maluku
131,97597,Kampung Baru,81.05.10.2007,Teor,Kabupaten,Seram Bagian Timur,Maluku
132,97597,Kampung Tengah Wermaf,81.05.10.2006,Teor,Kabupaten,Seram Bagian Timur,Maluku
133,97597,Karlokin,81.05.10.2010,Teor,Kabupaten,Seram Bagian Timur,Maluku
134,97597,Kartutin Kartenga,81.05.10.2002,Teor,Kabupaten,Seram Bagian Timur,Maluku
135,97597,Ker Ker,81.05.10.2003,Teor,Kabupaten,Seram Bagian Timur,Maluku
136,97597,Kiliwouw,81.05.10.2009,Teor,Kabupaten,Seram Bagian Timur,Maluku
137,97597,Lapang Kampung Jawa,81.05.10.2005,Teor,Kabupaten,Seram Bagian Timur,Maluku
138,97597,Mamur,81.05.10.2008,Teor,Kabupaten,Seram Bagian Timur,Maluku
139,97597,Teor,81.05.10.2001,Teor,Kabupaten,Seram Bagian Timur,Maluku
140,97535,Ameth,81.01.02.2005,Teon Nila Serua,Kabupaten,Maluku Tengah,Maluku
141,97535,Bumey,81.01.02.2007,Teon Nila Serua,Kabupaten,Maluku Tengah,Maluku
142,97535,Isu (Issu),81.01.02.2011,Teon Nila Serua,Kabupaten,Maluku Tengah,Maluku
143,97535,Jerili,81.01.02.2015,Teon Nila Serua,Kabupaten,Maluku Tengah,Maluku
144,97535,Kokroman,81.01.02.2003,Teon Nila Serua,Kabupaten,Maluku Tengah,Maluku
145,97535,Kuralele,81.01.02.2002,Teon Nila Serua,Kabupaten,Maluku Tengah,Maluku
146,97535,Layeni,81.01.02.2009,Teon Nila Serua,Kabupaten,Maluku Tengah,Maluku
147,97535,Lesluru,81.01.02.2012,Teon Nila Serua,Kabupaten,Maluku Tengah,Maluku
148,97535,Mesa (Messa),81.01.02.2004,Teon Nila Serua,Kabupaten,Maluku Tengah,Maluku
149,97535,Nakupia,81.01.02.2016,Teon Nila Serua,Kabupaten,Maluku Tengah,Maluku
150,97535,Sefluru (Sifluru),81.01.02.2008,Teon Nila Serua,Kabupaten,Maluku Tengah,Maluku
151,97535,Trana,81.01.02.2014,Teon Nila Serua,Kabupaten,Maluku Tengah,Maluku
152,97535,Usliapan,81.01.02.2001,Teon Nila Serua,Kabupaten,Maluku Tengah,Maluku
153,97535,Waru,81.01.02.2006,Teon Nila Serua,Kabupaten,Maluku Tengah,Maluku
154,97535,Watludan,81.01.02.2013,Teon Nila Serua,Kabupaten,Maluku Tengah,Maluku
155,97535,Wotay,81.01.02.2010,Teon Nila Serua,Kabupaten,Maluku Tengah,Maluku
156,97510,Hunisi,81.01.23.2005,Telutih,Kabupaten,Maluku Tengah,Maluku
157,97510,Lafa,81.01.23.2003,Telutih,Kabupaten,Maluku Tengah,Maluku
158,97510,Laha,81.01.23.2009,Telutih,Kabupaten,Maluku Tengah,Maluku
159,97510,Laha Kaba (Lahakaba),81.01.23.2002,Telutih,Kabupaten,Maluku Tengah,Maluku
160,97510,Laimu,81.01.23.2006,Telutih,Kabupaten,Maluku Tengah,Maluku
161,97510,Maneoratu (Maneo Ratu),81.01.23.2007,Telutih,Kabupaten,Maluku Tengah,Maluku
162,97510,Tehua,81.01.23.2008,Telutih,Kabupaten,Maluku Tengah,Maluku
163,97510,Ulahahan,81.01.23.2001,Telutih,Kabupaten,Maluku Tengah,Maluku
164,97510,Wolu,81.01.23.2010,Telutih,Kabupaten,Maluku Tengah,Maluku
165,97510,Yamalatu,81.01.23.2004,Telutih,Kabupaten,Maluku Tengah,Maluku
166,97524,Bellis,81.05.15.2002,Teluk Waru,Kabupaten,Seram Bagian Timur,Maluku
167,97524,Boinfia,81.05.15.2010,Teluk Waru,Kabupaten,Seram Bagian Timur,Maluku
168,97524,Dawang,81.05.15.2003,Teluk Waru,Kabupaten,Seram Bagian Timur,Maluku
169,97524,Kampung Baru,81.05.15.2009,Teluk Waru,Kabupaten,Seram Bagian Timur,Maluku
170,97524,Karay,81.05.15.2005,Teluk Waru,Kabupaten,Seram Bagian Timur,Maluku
171,97524,Madak,81.05.15.2011,Teluk Waru,Kabupaten,Seram Bagian Timur,Maluku
172,97524,Nama Andan,81.05.15.2007,Teluk Waru,Kabupaten,Seram Bagian Timur,Maluku
173,97524,Nama Lena,81.05.15.2006,Teluk Waru,Kabupaten,Seram Bagian Timur,Maluku
174,97524,Solang,81.05.15.2004,Teluk Waru,Kabupaten,Seram Bagian Timur,Maluku
175,97524,Tubir Wasiwang,81.05.15.2008,Teluk Waru,Kabupaten,Seram Bagian Timur,Maluku
176,97524,Waru,81.05.15.2001,Teluk Waru,Kabupaten,Seram Bagian Timur,Maluku
177,97577,Kaiely (Kayeli),81.04.14.2001,Teluk Kaiely,Kabupaten,Buru,Maluku
178,97577,Kaki Air,81.04.14.2004,Teluk Kaiely,Kabupaten,Buru,Maluku
179,97577,Masarete,81.04.14.2002,Teluk Kaiely,Kabupaten,Buru,Maluku
180,97577,Seith,81.04.14.2005,Teluk Kaiely,Kabupaten,Buru,Maluku
181,97577,Waelapia,81.04.14.2003,Teluk Kaiely,Kabupaten,Buru,Maluku
182,97517,Liang,81.01.21.2003,Teluk Elpaputih,Kabupaten,Maluku Tengah,Maluku
183,97517,Sahulauw (Sahulau),81.01.21.2004,Teluk Elpaputih,Kabupaten,Maluku Tengah,Maluku
184,97517,Tananahu,81.01.21.2002,Teluk Elpaputih,Kabupaten,Maluku Tengah,Maluku
185,97517,Waraka,81.01.21.2001,Teluk Elpaputih,Kabupaten,Maluku Tengah,Maluku
186,97234,Hative Besar,81.71.04.2006,Teluk Ambon,Kota,Ambon,Maluku
187,97233,Hunuth (Durian Patah),81.71.04.2001,Teluk Ambon,Kota,Ambon,Maluku
188,97236,Laha,81.71.04.2007,Teluk Ambon,Kota,Ambon,Maluku
189,97233,Poka,81.71.04.2002,Teluk Ambon,Kota,Ambon,Maluku
190,97234,Rumah Tiga,81.71.04.2003,Teluk Ambon,Kota,Ambon,Maluku
191,97235,Tawiri,81.71.04.2005,Teluk Ambon,Kota,Ambon,Maluku
192,97237,Tihu,81.71.04.1008,Teluk Ambon,Kota,Ambon,Maluku
193,97234,Wayame,81.71.04.2004,Teluk Ambon,Kota,Ambon,Maluku
194,97519,Hatu,81.01.11.2014,Tehoru,Kabupaten,Maluku Tengah,Maluku
195,97519,Hatumete,81.01.11.2013,Tehoru,Kabupaten,Maluku Tengah,Maluku
196,97519,Haya,81.01.11.2019,Tehoru,Kabupaten,Maluku Tengah,Maluku
197,97519,Mosso,81.01.11.2012,Tehoru,Kabupaten,Maluku Tengah,Maluku
198,97519,Piliama (Piliana),81.01.11.2015,Tehoru,Kabupaten,Maluku Tengah,Maluku
199,97519,Salamahu,81.01.11.2020,Tehoru,Kabupaten,Maluku Tengah,Maluku
200,97519,Saunulu,81.01.11.2017,Tehoru,Kabupaten,Maluku Tengah,Maluku
201,97519,Tehoru,81.01.11.2018,Tehoru,Kabupaten,Maluku Tengah,Maluku
202,97519,Telutih Baru (Teluti Baru),81.01.11.2011,Tehoru,Kabupaten,Maluku Tengah,Maluku
203,97519,Yaputih,81.01.11.2016,Tehoru,Kabupaten,Maluku Tengah,Maluku
204,97613,Tam Ngurhir,81.72.03.2001,Tayando Tam,Kota,Tual,Maluku
205,97613,Tayando Langgiar,81.72.03.2002,Tayando Tam,Kota,Tual,Maluku
206,97613,Tayando Ohoiel,81.72.03.2004,Tayando Tam,Kota,Tual,Maluku
207,97613,Tayando Yamru,81.72.03.2005,Tayando Tam,Kota,Tual,Maluku
208,97613,Tayando Yamtel,81.72.03.2003,Tayando Tam,Kota,Tual,Maluku
209,97561,Hatunuru,81.06.10.2014,Taniwel Timur,Kabupaten,Seram Bagian Barat,Maluku
210,97561,Lumahlatal (Lumalatal),81.06.10.2003,Taniwel Timur,Kabupaten,Seram Bagian Barat,Maluku
211,97561,Lumahpelu (Lumapelu),81.06.10.2015,Taniwel Timur,Kabupaten,Seram Bagian Barat,Maluku
212,97561,Makububui,81.06.10.2006,Taniwel Timur,Kabupaten,Seram Bagian Barat,Maluku
213,97561,Maloang,81.06.10.2002,Taniwel Timur,Kabupaten,Seram Bagian Barat,Maluku
214,97561,Masihuwey (Musihbuway),81.06.10.2010,Taniwel Timur,Kabupaten,Seram Bagian Barat,Maluku
215,97561,Matapa,81.06.10.2004,Taniwel Timur,Kabupaten,Seram Bagian Barat,Maluku
216,97561,Seakasale (Soakasale),81.06.10.2005,Taniwel Timur,Kabupaten,Seram Bagian Barat,Maluku
217,97561,Sohuwe,81.06.10.2001,Taniwel Timur,Kabupaten,Seram Bagian Barat,Maluku
218,97561,Solea,81.06.10.2011,Taniwel Timur,Kabupaten,Seram Bagian Barat,Maluku
219,97561,Sukaraja,81.06.10.2007,Taniwel Timur,Kabupaten,Seram Bagian Barat,Maluku
220,97561,Tounusa,81.06.10.2009,Taniwel Timur,Kabupaten,Seram Bagian Barat,Maluku
221,97561,Uwen Pantai,81.06.10.2008,Taniwel Timur,Kabupaten,Seram Bagian Barat,Maluku
222,97561,Walakone,81.06.10.2013,Taniwel Timur,Kabupaten,Seram Bagian Barat,Maluku
223,97561,Waraloin,81.06.10.2012,Taniwel Timur,Kabupaten,Seram Bagian Barat,Maluku
224,97559,Buria,81.06.03.2030,Taniwel,Kabupaten,Seram Bagian Barat,Maluku
225,97559,Hulung,81.06.03.2009,Taniwel,Kabupaten,Seram Bagian Barat,Maluku
226,97559,Kasieh,81.06.03.2010,Taniwel,Kabupaten,Seram Bagian Barat,Maluku
227,97559,Laturake,81.06.03.2029,Taniwel,Kabupaten,Seram Bagian Barat,Maluku
228,97559,Lisabata (Lisabata Barat),81.06.03.2005,Taniwel,Kabupaten,Seram Bagian Barat,Maluku
229,97559,Lohiasapalewa (Lohia Sapalewa),81.06.03.2033,Taniwel,Kabupaten,Seram Bagian Barat,Maluku
230,97559,Murnaten / Mornaten,81.06.03.2001,Taniwel,Kabupaten,Seram Bagian Barat,Maluku
231,97559,Nikulukan,81.06.03.2002,Taniwel,Kabupaten,Seram Bagian Barat,Maluku
232,97559,Niniari,81.06.03.2034,Taniwel,Kabupaten,Seram Bagian Barat,Maluku
233,97559,Niwelehu,81.06.03.2003,Taniwel,Kabupaten,Seram Bagian Barat,Maluku
234,97559,Nukuhai,81.06.03.2011,Taniwel,Kabupaten,Seram Bagian Barat,Maluku
235,97559,Nuniali,81.06.03.2004,Taniwel,Kabupaten,Seram Bagian Barat,Maluku
236,97559,Pasinalo,81.06.03.2012,Taniwel,Kabupaten,Seram Bagian Barat,Maluku
237,97559,Patahuwe,81.06.03.2007,Taniwel,Kabupaten,Seram Bagian Barat,Maluku
238,97559,Riring,81.06.03.2031,Taniwel,Kabupaten,Seram Bagian Barat,Maluku
239,97559,Rumahsoal,81.06.03.2032,Taniwel,Kabupaten,Seram Bagian Barat,Maluku
240,97559,Taniwel,81.06.03.2008,Taniwel,Kabupaten,Seram Bagian Barat,Maluku
241,97559,Uweth / Uweh,81.06.03.2028,Taniwel,Kabupaten,Seram Bagian Barat,Maluku
242,97559,Wakolo,81.06.03.2006,Taniwel,Kabupaten,Seram Bagian Barat,Maluku
243,97464,Kelaan,81.03.05.2006,Tanimbar Utara,Kabupaten,Kepulauan Tanimbar (Maluku Tenggara Barat),Maluku
244,97464,Kilobar (Keliober),81.03.05.2005,Tanimbar Utara,Kabupaten,Kepulauan Tanimbar (Maluku Tenggara Barat),Maluku
245,97464,Lamdesar Barat,81.03.05.2007,Tanimbar Utara,Kabupaten,Kepulauan Tanimbar (Maluku Tenggara Barat),Maluku
246,97464,Lamdesar Timur,81.03.05.2008,Tanimbar Utara,Kabupaten,Kepulauan Tanimbar (Maluku Tenggara Barat),Maluku
247,97464,Lelingluan,81.03.05.2001,Tanimbar Utara,Kabupaten,Kepulauan Tanimbar (Maluku Tenggara Barat),Maluku
248,97464,Ridool,81.03.05.2003,Tanimbar Utara,Kabupaten,Kepulauan Tanimbar (Maluku Tenggara Barat),Maluku
249,97464,Ritabel,81.03.05.2002,Tanimbar Utara,Kabupaten,Kepulauan Tanimbar (Maluku Tenggara Barat),Maluku
250,97464,Watidal,81.03.05.2004,Tanimbar Utara,Kabupaten,Kepulauan Tanimbar (Maluku Tenggara Barat),Maluku
251,97471,Bomaki,81.03.01.2010,Tanimbar Selatan,Kabupaten,Kepulauan Tanimbar (Maluku Tenggara Barat),Maluku
252,97471,Ilngei,81.03.01.2003,Tanimbar Selatan,Kabupaten,Kepulauan Tanimbar (Maluku Tenggara Barat),Maluku
253,97471,Kabiarat (Kabiarat Raya),81.03.01.2004,Tanimbar Selatan,Kabupaten,Kepulauan Tanimbar (Maluku Tenggara Barat),Maluku
254,97471,Latdalam,81.03.01.2009,Tanimbar Selatan,Kabupaten,Kepulauan Tanimbar (Maluku Tenggara Barat),Maluku
255,97471,Lauran,81.03.01.2005,Tanimbar Selatan,Kabupaten,Kepulauan Tanimbar (Maluku Tenggara Barat),Maluku
256,97471,Lermatang,81.03.01.2008,Tanimbar Selatan,Kabupaten,Kepulauan Tanimbar (Maluku Tenggara Barat),Maluku
257,97471,Matakus,81.03.01.2011,Tanimbar Selatan,Kabupaten,Kepulauan Tanimbar (Maluku Tenggara Barat),Maluku
258,97471,Olilit Raya (Olilit),81.03.01.2007,Tanimbar Selatan,Kabupaten,Kepulauan Tanimbar (Maluku Tenggara Barat),Maluku
259,97471,Saumlaki,81.03.01.1001,Tanimbar Selatan,Kabupaten,Kepulauan Tanimbar (Maluku Tenggara Barat),Maluku
260,97471,Saumlaki Utara,81.03.01.1002,Tanimbar Selatan,Kabupaten,Kepulauan Tanimbar (Maluku Tenggara Barat),Maluku
261,97471,Sifnana,81.03.01.2006,Tanimbar Selatan,Kabupaten,Kepulauan Tanimbar (Maluku Tenggara Barat),Maluku
262,97471,Wowonda,81.03.01.2002,Tanimbar Selatan,Kabupaten,Kepulauan Tanimbar (Maluku Tenggara Barat),Maluku
263,97523,Abulate,81.05.07.2011,Siwalalat,Kabupaten,Seram Bagian Timur,Maluku
264,97523,Adabai,81.05.07.2012,Siwalalat,Kabupaten,Seram Bagian Timur,Maluku
265,97523,Atiahu,81.05.07.2009,Siwalalat,Kabupaten,Seram Bagian Timur,Maluku
266,97523,Dihil,81.05.07.2001,Siwalalat,Kabupaten,Seram Bagian Timur,Maluku
267,97523,Elnusa,81.05.07.2008,Siwalalat,Kabupaten,Seram Bagian Timur,Maluku
268,97523,Lapela,81.05.07.2006,Siwalalat,Kabupaten,Seram Bagian Timur,Maluku
269,97523,Liliama,81.05.07.2002,Siwalalat,Kabupaten,Seram Bagian Timur,Maluku
270,97523,Naiwel Ahinulin,81.05.07.2003,Siwalalat,Kabupaten,Seram Bagian Timur,Maluku
271,97523,Nayet,81.05.07.2007,Siwalalat,Kabupaten,Seram Bagian Timur,Maluku
272,97523,Polin,81.05.07.2004,Siwalalat,Kabupaten,Seram Bagian Timur,Maluku
273,97523,Sabuai,81.05.07.2010,Siwalalat,Kabupaten,Seram Bagian Timur,Maluku
274,97523,Tunsai,81.05.07.2005,Siwalalat,Kabupaten,Seram Bagian Timur,Maluku
275,97598,Air Nanang,81.05.14.2009,Siritaun Wida Timur,Kabupaten,Seram Bagian Timur,Maluku
276,97598,Aruan Gaur,81.05.14.2005,Siritaun Wida Timur,Kabupaten,Seram Bagian Timur,Maluku
277,97598,Keta,81.05.14.2008,Siritaun Wida Timur,Kabupaten,Seram Bagian Timur,Maluku
278,97598,Keta Rumadan,81.05.14.2006,Siritaun Wida Timur,Kabupaten,Seram Bagian Timur,Maluku
279,97598,Kian Laut,81.05.14.2001,Siritaun Wida Timur,Kabupaten,Seram Bagian Timur,Maluku
280,97598,Kwaos (Kuwaos),81.05.14.2002,Siritaun Wida Timur,Kabupaten,Seram Bagian Timur,Maluku
281,97598,Lian Tasik,81.05.14.2007,Siritaun Wida Timur,Kabupaten,Seram Bagian Timur,Maluku
282,97598,Salagor Air,81.05.14.2003,Siritaun Wida Timur,Kabupaten,Seram Bagian Timur,Maluku
283,97598,Salagor Kota,81.05.14.2004,Siritaun Wida Timur,Kabupaten,Seram Bagian Timur,Maluku
284,97598,Suru,81.05.14.2010,Siritaun Wida Timur,Kabupaten,Seram Bagian Timur,Maluku
285,97127,Ahusen,81.71.02.1019,Sirimau,Kota,Ambon,Maluku
286,97122,Amantelu,81.71.02.1012,Sirimau,Kota,Ambon,Maluku
287,97127,Batu Gajah (Batu Gaja / Batugajah),81.71.02.1016,Sirimau,Kota,Ambon,Maluku
288,97125,Batu Meja,81.71.02.1015,Sirimau,Kota,Ambon,Maluku
289,97128,Batu Merah,81.71.02.2003,Sirimau,Kota,Ambon,Maluku
290,97128,Galala,81.71.02.2002,Sirimau,Kota,Ambon,Maluku
291,97128,Hative Kecil,81.71.02.2001,Sirimau,Kota,Ambon,Maluku
292,97126,Honipopu,81.71.02.1018,Sirimau,Kota,Ambon,Maluku
293,97121,Karang Panjang,81.71.02.1013,Sirimau,Kota,Ambon,Maluku
294,97128,Pandan Kasturi,81.71.02.1010,Sirimau,Kota,Ambon,Maluku
295,97123,Rijali,81.71.02.1011,Sirimau,Kota,Ambon,Maluku
296,97129,Soya,81.71.02.2009,Sirimau,Kota,Ambon,Maluku
297,97124,Uritetu,81.71.02.1017,Sirimau,Kota,Ambon,Maluku
298,97129,Waihoka,81.71.02.1014,Sirimau,Kota,Ambon,Maluku
299,97664,Bardefan (Berdefan),81.07.06.2007,Sir-Sir,Kabupaten,Kepulauan Aru,Maluku
300,97664,Goda Goda,81.07.06.2010,Sir-Sir,Kabupaten,Kepulauan Aru,Maluku
301,97664,Gomsey,81.07.06.2005,Sir-Sir,Kabupaten,Kepulauan Aru,Maluku
302,97664,Kolaha,81.07.06.2009,Sir-Sir,Kabupaten,Kepulauan Aru,Maluku
303,97664,Langhalau,81.07.06.2004,Sir-Sir,Kabupaten,Kepulauan Aru,Maluku
304,97664,Leiting,81.07.06.2006,Sir-Sir,Kabupaten,Kepulauan Aru,Maluku
305,97664,Mohongsel,81.07.06.2008,Sir-Sir,Kabupaten,Kepulauan Aru,Maluku
306,97664,Wafan,81.07.06.2003,Sir-Sir,Kabupaten,Kepulauan Aru,Maluku
307,97664,Waiful (Waifual),81.07.06.2002,Sir-Sir,Kabupaten,Kepulauan Aru,Maluku
308,97534,Aketernate,81.01.24.2009,Seram Utara Timur Seti,Kabupaten,Maluku Tengah,Maluku
309,97534,Kobisonta,81.01.24.2002,Seram Utara Timur Seti,Kabupaten,Maluku Tengah,Maluku
310,97534,Loping Mulyo,81.01.24.2011,Seram Utara Timur Seti,Kabupaten,Maluku Tengah,Maluku
311,97534,Namto,81.01.24.2010,Seram Utara Timur Seti,Kabupaten,Maluku Tengah,Maluku
312,97534,Seti,81.01.24.2001,Seram Utara Timur Seti,Kabupaten,Maluku Tengah,Maluku
313,97534,Tanah Merah,81.01.24.2008,Seram Utara Timur Seti,Kabupaten,Maluku Tengah,Maluku
314,97534,Tihuana,81.01.24.2004,Seram Utara Timur Seti,Kabupaten,Maluku Tengah,Maluku
315,97534,Wailoping,81.01.24.2003,Seram Utara Timur Seti,Kabupaten,Maluku Tengah,Maluku
316,97534,Waimusal,81.01.24.2007,Seram Utara Timur Seti,Kabupaten,Maluku Tengah,Maluku
317,97534,Waiputih,81.01.24.2006,Seram Utara Timur Seti,Kabupaten,Maluku Tengah,Maluku
318,97534,Waitila,81.01.24.2005,Seram Utara Timur Seti,Kabupaten,Maluku Tengah,Maluku
319,97534,Wonosari,81.01.24.2012,Seram Utara Timur Seti,Kabupaten,Maluku Tengah,Maluku
320,97533,Kabauhari,81.01.25.2012,Seram Utara Timur Kobi,Kabupaten,Maluku Tengah,Maluku
321,97533,Kobi,81.01.25.2001,Seram Utara Timur Kobi,Kabupaten,Maluku Tengah,Maluku
322,97533,Kobimukti,81.01.25.2004,Seram Utara Timur Kobi,Kabupaten,Maluku Tengah,Maluku
323,97533,Leaway,81.01.25.2005,Seram Utara Timur Kobi,Kabupaten,Maluku Tengah,Maluku
324,97533,Maneo Rendah,81.01.25.2003,Seram Utara Timur Kobi,Kabupaten,Maluku Tengah,Maluku
325,97533,Marasahua,81.01.25.2011,Seram Utara Timur Kobi,Kabupaten,Maluku Tengah,Maluku
326,97533,Morokai,81.01.25.2007,Seram Utara Timur Kobi,Kabupaten,Maluku Tengah,Maluku
327,97533,Samal,81.01.25.2006,Seram Utara Timur Kobi,Kabupaten,Maluku Tengah,Maluku
328,97533,Sariputih,81.01.25.2002,Seram Utara Timur Kobi,Kabupaten,Maluku Tengah,Maluku
329,97533,Waimusi,81.01.25.2008,Seram Utara Timur Kobi,Kabupaten,Maluku Tengah,Maluku
330,97533,Waitonipa,81.01.25.2010,Seram Utara Timur Kobi,Kabupaten,Maluku Tengah,Maluku
331,97533,Way Asih,81.01.25.2009,Seram Utara Timur Kobi,Kabupaten,Maluku Tengah,Maluku
332,97532,Gale-gale,81.01.20.2008,Seram Utara Barat,Kabupaten,Maluku Tengah,Maluku
333,97532,Herlau Pauni,81.01.20.2013,Seram Utara Barat,Kabupaten,Maluku Tengah,Maluku
334,97532,Horale,81.01.20.2002,Seram Utara Barat,Kabupaten,Maluku Tengah,Maluku
335,97532,Karlutu Kara,81.01.20.2005,Seram Utara Barat,Kabupaten,Maluku Tengah,Maluku
336,97532,Labuan,81.01.20.2007,Seram Utara Barat,Kabupaten,Maluku Tengah,Maluku
337,97532,Latea,81.01.20.2009,Seram Utara Barat,Kabupaten,Maluku Tengah,Maluku
338,97532,Lisabata Timur,81.01.20.2010,Seram Utara Barat,Kabupaten,Maluku Tengah,Maluku
339,97532,Paa,81.01.20.2004,Seram Utara Barat,Kabupaten,Maluku Tengah,Maluku
340,97532,Pasanea,81.01.20.2006,Seram Utara Barat,Kabupaten,Maluku Tengah,Maluku
341,97532,Rumahwey,81.01.20.2011,Seram Utara Barat,Kabupaten,Maluku Tengah,Maluku
342,97532,Saleman,81.01.20.2001,Seram Utara Barat,Kabupaten,Maluku Tengah,Maluku
343,97532,Wailulu,81.01.20.2003,Seram Utara Barat,Kabupaten,Maluku Tengah,Maluku
344,97532,Warasiwa,81.01.20.2012,Seram Utara Barat,Kabupaten,Maluku Tengah,Maluku
345,97531,Air Besar,81.01.06.2002,Seram Utara,Kabupaten,Maluku Tengah,Maluku
346,97531,Besi,81.01.06.2044,Seram Utara,Kabupaten,Maluku Tengah,Maluku
347,97531,Elemata,81.01.06.2048,Seram Utara,Kabupaten,Maluku Tengah,Maluku
348,97531,Hatuolo,81.01.06.2049,Seram Utara,Kabupaten,Maluku Tengah,Maluku
349,97531,Huaulu,81.01.06.2012,Seram Utara,Kabupaten,Maluku Tengah,Maluku
350,97531,Kaloa,81.01.06.2009,Seram Utara,Kabupaten,Maluku Tengah,Maluku
351,97531,Kanikeh,81.01.06.2010,Seram Utara,Kabupaten,Maluku Tengah,Maluku
352,97531,Malaku,81.01.06.2045,Seram Utara,Kabupaten,Maluku Tengah,Maluku
353,97531,Manusela,81.01.06.2007,Seram Utara,Kabupaten,Maluku Tengah,Maluku
354,97531,Maraina,81.01.06.2046,Seram Utara,Kabupaten,Maluku Tengah,Maluku
355,97531,Masihulan,81.01.06.2051,Seram Utara,Kabupaten,Maluku Tengah,Maluku
356,97531,Olong,81.01.06.2053,Seram Utara,Kabupaten,Maluku Tengah,Maluku
357,97531,Oping,81.01.06.2052,Seram Utara,Kabupaten,Maluku Tengah,Maluku
358,97531,Pasahari,81.01.06.2003,Seram Utara,Kabupaten,Maluku Tengah,Maluku
359,97531,Roho,81.01.06.2011,Seram Utara,Kabupaten,Maluku Tengah,Maluku
360,97531,Rumahsokat,81.01.06.2021,Seram Utara,Kabupaten,Maluku Tengah,Maluku
361,97531,Sawai,81.01.06.2022,Seram Utara,Kabupaten,Maluku Tengah,Maluku
362,97531,Siatele,81.01.06.2050,Seram Utara,Kabupaten,Maluku Tengah,Maluku
363,97531,Solea,81.01.06.2047,Seram Utara,Kabupaten,Maluku Tengah,Maluku
364,97531,Wahai,81.01.06.2001,Seram Utara,Kabupaten,Maluku Tengah,Maluku
365,97592,Ainena,81.05.02.2052,Seram Timur,Kabupaten,Seram Bagian Timur,Maluku
366,97592,Akatfadedo,81.05.02.2054,Seram Timur,Kabupaten,Seram Bagian Timur,Maluku
367,97592,Geser,81.05.02.2001,Seram Timur,Kabupaten,Seram Bagian Timur,Maluku
368,97592,Guli-Guli,81.05.02.2050,Seram Timur,Kabupaten,Seram Bagian Timur,Maluku
369,97592,Keffing,81.05.02.2005,Seram Timur,Kabupaten,Seram Bagian Timur,Maluku
370,97592,Kellu,81.05.02.2004,Seram Timur,Kabupaten,Seram Bagian Timur,Maluku
371,97592,Kilfura,81.05.02.2028,Seram Timur,Kabupaten,Seram Bagian Timur,Maluku
372,97592,Kiltay,81.05.02.2002,Seram Timur,Kabupaten,Seram Bagian Timur,Maluku
373,97592,Kilwaru,81.05.02.2003,Seram Timur,Kabupaten,Seram Bagian Timur,Maluku
374,97592,Kwawor Besar Ena,81.05.02.2048,Seram Timur,Kabupaten,Seram Bagian Timur,Maluku
375,97592,Kwawor Besar Witau,81.05.02.2049,Seram Timur,Kabupaten,Seram Bagian Timur,Maluku
376,97592,Kwawor Kecil Mata Ata,81.05.02.2046,Seram Timur,Kabupaten,Seram Bagian Timur,Maluku
377,97592,Kwawor Kecil Mata Wawa,81.05.02.2047,Seram Timur,Kabupaten,Seram Bagian Timur,Maluku
378,97592,Manggis,81.05.02.2051,Seram Timur,Kabupaten,Seram Bagian Timur,Maluku
379,97592,Mugusinis,81.05.02.2053,Seram Timur,Kabupaten,Seram Bagian Timur,Maluku
380,97592,Urung,81.05.02.2006,Seram Timur,Kabupaten,Seram Bagian Timur,Maluku
381,97562,Eti / Ety,81.06.02.2007,Seram Barat,Kabupaten,Seram Bagian Barat,Maluku
382,97562,Kaibobo (Kaibobu),81.06.02.2008,Seram Barat,Kabupaten,Seram Bagian Barat,Maluku
383,97562,Kawa,81.06.02.2002,Seram Barat,Kabupaten,Seram Bagian Barat,Maluku
384,97562,Lumoly (Lumoli),81.06.02.2006,Seram Barat,Kabupaten,Seram Bagian Barat,Maluku
385,97562,Morekau,81.06.02.2005,Seram Barat,Kabupaten,Seram Bagian Barat,Maluku
386,97562,Neniari / Niniari,81.06.02.2004,Seram Barat,Kabupaten,Seram Bagian Barat,Maluku
387,97562,Piru,81.06.02.2003,Seram Barat,Kabupaten,Seram Bagian Barat,Maluku
388,97481,Adaut,81.03.02.2001,Selaru,Kabupaten,Kepulauan Tanimbar (Maluku Tenggara Barat),Maluku
389,97481,Eliasa,81.03.02.2007,Selaru,Kabupaten,Kepulauan Tanimbar (Maluku Tenggara Barat),Maluku
390,97481,Fursuy (Fursui),81.03.02.2005,Selaru,Kabupaten,Kepulauan Tanimbar (Maluku Tenggara Barat),Maluku
391,97481,Kandar,81.03.02.2003,Selaru,Kabupaten,Kepulauan Tanimbar (Maluku Tenggara Barat),Maluku
392,97481,Lingat,81.03.02.2004,Selaru,Kabupaten,Kepulauan Tanimbar (Maluku Tenggara Barat),Maluku
393,97481,Namtabung,81.03.02.2002,Selaru,Kabupaten,Kepulauan Tanimbar (Maluku Tenggara Barat),Maluku
394,97481,Werain,81.03.02.2006,Selaru,Kabupaten,Kepulauan Tanimbar (Maluku Tenggara Barat),Maluku
395,97585,Iha,81.01.26.2008,Saparua Timur,Kabupaten,Maluku Tengah,Maluku
396,97585,Ihamahu,81.01.26.2007,Saparua Timur,Kabupaten,Maluku Tengah,Maluku
397,97585,Itawaka,81.01.26.2010,Saparua Timur,Kabupaten,Maluku Tengah,Maluku
398,97585,Mahu,81.01.26.2005,Saparua Timur,Kabupaten,Maluku Tengah,Maluku
399,97585,Nolloth (Noloth),81.01.26.2009,Saparua Timur,Kabupaten,Maluku Tengah,Maluku
400,97585,Ouw,81.01.26.2001,Saparua Timur,Kabupaten,Maluku Tengah,Maluku
401,97585,Siri Sori Islam (Siri Sori),81.01.26.2003,Saparua Timur,Kabupaten,Maluku Tengah,Maluku
402,97585,Siri-Sori Amalatu,81.01.26.2004,Saparua Timur,Kabupaten,Maluku Tengah,Maluku
403,97585,Tuhaha,81.01.26.2006,Saparua Timur,Kabupaten,Maluku Tengah,Maluku
404,97585,Ullath,81.01.26.2002,Saparua Timur,Kabupaten,Maluku Tengah,Maluku
405,97584,Booi,81.01.12.2001,Saparua,Kabupaten,Maluku Tengah,Maluku
406,97584,Haria,81.01.12.2004,Saparua,Kabupaten,Maluku Tengah,Maluku
407,97584,Kulur,81.01.12.2006,Saparua,Kabupaten,Maluku Tengah,Maluku
408,97584,Paperu,81.01.12.2002,Saparua,Kabupaten,Maluku Tengah,Maluku
409,97584,Porto (Portho),81.01.12.2005,Saparua,Kabupaten,Maluku Tengah,Maluku
410,97584,Saparua,81.01.12.2012,Saparua,Kabupaten,Maluku Tengah,Maluku
411,97584,Tiouw,81.01.12.2003,Saparua,Kabupaten,Maluku Tengah,Maluku
412,97582,Liang,81.01.14.2001,Salahutu,Kabupaten,Maluku Tengah,Maluku
413,97582,Suli,81.01.14.2006,Salahutu,Kabupaten,Maluku Tengah,Maluku
414,97582,Tengah-Tengah,81.01.14.2005,Salahutu,Kabupaten,Maluku Tengah,Maluku
415,97582,Tial,81.01.14.2004,Salahutu,Kabupaten,Maluku Tengah,Maluku
416,97582,Tulehu,81.01.14.2003,Salahutu,Kabupaten,Maluku Tengah,Maluku
417,97582,Waai,81.01.14.2002,Salahutu,Kabupaten,Maluku Tengah,Maluku
418,97615,Finualen,81.72.04.2005,Pulau-Pulau Kur,Kota,Tual,Maluku
419,97615,Kaimear,81.72.04.2002,Pulau-Pulau Kur,Kota,Tual,Maluku
420,97615,Lokwirin,81.72.04.2004,Pulau-Pulau Kur,Kota,Tual,Maluku
421,97615,Sermaf,81.72.04.2012,Pulau-Pulau Kur,Kota,Tual,Maluku
422,97615,Tubyal,81.72.04.2001,Pulau-Pulau Kur,Kota,Tual,Maluku
423,97654,Ahanari,81.08.05.2007,Pulau-pulau Babar Timur,Kabupaten,Maluku Barat Daya,Maluku
424,97654,Analutur,81.08.05.2009,Pulau-pulau Babar Timur,Kabupaten,Maluku Barat Daya,Maluku
425,97654,Emplawas (Empalwas),81.08.05.2005,Pulau-pulau Babar Timur,Kabupaten,Maluku Barat Daya,Maluku
426,97654,Kokwari,81.08.05.2006,Pulau-pulau Babar Timur,Kabupaten,Maluku Barat Daya,Maluku
427,97654,Kroing,81.08.05.2003,Pulau-pulau Babar Timur,Kabupaten,Maluku Barat Daya,Maluku
428,97654,Letwurung,81.08.05.2001,Pulau-pulau Babar Timur,Kabupaten,Maluku Barat Daya,Maluku
429,97654,Manuweri (Manuari),81.08.05.2010,Pulau-pulau Babar Timur,Kabupaten,Maluku Barat Daya,Maluku
430,97654,Nakarhamto,81.08.05.2004,Pulau-pulau Babar Timur,Kabupaten,Maluku Barat Daya,Maluku
431,97654,Tutuwawang,81.08.05.2011,Pulau-pulau Babar Timur,Kabupaten,Maluku Barat Daya,Maluku
432,97654,Wakpapapi,81.08.05.2008,Pulau-pulau Babar Timur,Kabupaten,Maluku Barat Daya,Maluku
433,97654,Yatoke,81.08.05.2002,Pulau-pulau Babar Timur,Kabupaten,Maluku Barat Daya,Maluku
434,97662,Durjela,81.07.01.2011,Pulau-Pulau Aru,Kabupaten,Kepulauan Aru,Maluku
435,97662,Galai Dubu,81.07.01.1012,Pulau-Pulau Aru,Kabupaten,Kepulauan Aru,Maluku
436,97662,Gorar,81.07.01.2005,Pulau-Pulau Aru,Kabupaten,Kepulauan Aru,Maluku
437,97662,Jabulenga,81.07.01.2008,Pulau-Pulau Aru,Kabupaten,Kepulauan Aru,Maluku
438,97662,Karangguli,81.07.01.2010,Pulau-Pulau Aru,Kabupaten,Kepulauan Aru,Maluku
439,97662,Kobraur,81.07.01.2003,Pulau-Pulau Aru,Kabupaten,Kepulauan Aru,Maluku
440,97662,Lau-Lau,81.07.01.2004,Pulau-Pulau Aru,Kabupaten,Kepulauan Aru,Maluku
441,97662,Nafar (Napar),81.07.01.2002,Pulau-Pulau Aru,Kabupaten,Kepulauan Aru,Maluku
442,97662,Samang,81.07.01.2015,Pulau-Pulau Aru,Kabupaten,Kepulauan Aru,Maluku
443,97662,Siwa Lima (Siwalima),81.07.01.1013,Pulau-Pulau Aru,Kabupaten,Kepulauan Aru,Maluku
444,97662,Tungu,81.07.01.2006,Pulau-Pulau Aru,Kabupaten,Kepulauan Aru,Maluku
445,97662,Tunguwatu,81.07.01.2007,Pulau-Pulau Aru,Kabupaten,Kepulauan Aru,Maluku
446,97662,Ujir,81.07.01.2001,Pulau-Pulau Aru,Kabupaten,Kepulauan Aru,Maluku
447,97662,Wangel,81.07.01.2014,Pulau-Pulau Aru,Kabupaten,Kepulauan Aru,Maluku
448,97662,Wokam,81.07.01.2009,Pulau-Pulau Aru,Kabupaten,Kepulauan Aru,Maluku
449,97452,Herley (Herley Hoka),81.08.11.2001,Pulau Wetang,Kabupaten,Maluku Barat Daya,Maluku
450,97452,Nusiata,81.08.11.2008,Pulau Wetang,Kabupaten,Maluku Barat Daya,Maluku
451,97452,Pota Besar,81.08.11.2003,Pulau Wetang,Kabupaten,Maluku Barat Daya,Maluku
452,97452,Pota Kecil,81.08.11.2004,Pulau Wetang,Kabupaten,Maluku Barat Daya,Maluku
453,97452,Rumalewang Besar (Rumahlewang Besar),81.08.11.2007,Pulau Wetang,Kabupaten,Maluku Barat Daya,Maluku
454,97452,Rumalewang Kecil (Rumahlewang Kecil),81.08.11.2006,Pulau Wetang,Kabupaten,Maluku Barat Daya,Maluku
455,97452,Upuhupun (Upuhupu),81.08.11.2002,Pulau Wetang,Kabupaten,Maluku Barat Daya,Maluku
456,97452,Wasarili,81.08.11.2005,Pulau Wetang,Kabupaten,Maluku Barat Daya,Maluku
457,97599,Argam,81.05.09.2002,Pulau Panjang,Kabupaten,Seram Bagian Timur,Maluku
458,97599,Lalasa,81.05.09.2003,Pulau Panjang,Kabupaten,Seram Bagian Timur,Maluku
459,97599,Magat,81.05.09.2004,Pulau Panjang,Kabupaten,Seram Bagian Timur,Maluku
460,97599,Perik Basaranggi,81.05.09.2006,Pulau Panjang,Kabupaten,Seram Bagian Timur,Maluku
461,97599,Pulau Panjang,81.05.09.2001,Pulau Panjang,Kabupaten,Seram Bagian Timur,Maluku
462,97599,Ruku Ruku,81.05.09.2005,Pulau Panjang,Kabupaten,Seram Bagian Timur,Maluku
463,97653,Babyotang (Babiotang),81.08.09.2006,Pulau Masela,Kabupaten,Maluku Barat Daya,Maluku
464,97653,Bululora,81.08.09.2011,Pulau Masela,Kabupaten,Maluku Barat Daya,Maluku
465,97653,Iblatmuntah,81.08.09.2007,Pulau Masela,Kabupaten,Maluku Barat Daya,Maluku
466,97653,Ilbutung,81.08.09.2008,Pulau Masela,Kabupaten,Maluku Barat Daya,Maluku
467,97653,Latalola Besar,81.08.09.2001,Pulau Masela,Kabupaten,Maluku Barat Daya,Maluku
468,97653,Latalola Kecil,81.08.09.2003,Pulau Masela,Kabupaten,Maluku Barat Daya,Maluku
469,97653,Lawawang,81.08.09.2009,Pulau Masela,Kabupaten,Maluku Barat Daya,Maluku
470,97653,Marsela,81.08.09.2005,Pulau Masela,Kabupaten,Maluku Barat Daya,Maluku
471,97653,Nura,81.08.09.2010,Pulau Masela,Kabupaten,Maluku Barat Daya,Maluku
472,97653,Serili,81.08.09.2002,Pulau Masela,Kabupaten,Maluku Barat Daya,Maluku
473,97653,Telalora - Letoda,81.08.09.2004,Pulau Masela,Kabupaten,Maluku Barat Daya,Maluku
474,97444,Batumiau,81.08.08.2002,Pulau Leti (Letti Moa Lakor),Kabupaten,Maluku Barat Daya,Maluku
475,97444,Laitutun,81.08.08.2001,Pulau Leti (Letti Moa Lakor),Kabupaten,Maluku Barat Daya,Maluku
476,97444,Luhuely (Luhulely / Luhuleli),81.08.08.2007,Pulau Leti (Letti Moa Lakor),Kabupaten,Maluku Barat Daya,Maluku
477,97444,Nuwewang,81.08.08.2005,Pulau Leti (Letti Moa Lakor),Kabupaten,Maluku Barat Daya,Maluku
478,97444,Tomra,81.08.08.2004,Pulau Leti (Letti Moa Lakor),Kabupaten,Maluku Barat Daya,Maluku
479,97444,Tutukey,81.08.08.2003,Pulau Leti (Letti Moa Lakor),Kabupaten,Maluku Barat Daya,Maluku
480,97444,Tutuwaru,81.08.08.2006,Pulau Leti (Letti Moa Lakor),Kabupaten,Maluku Barat Daya,Maluku
481,97443,Kety (Ketty),81.08.12.2001,Pulau Lakor,Kabupaten,Maluku Barat Daya,Maluku
482,97443,Letoda,81.08.12.2002,Pulau Lakor,Kabupaten,Maluku Barat Daya,Maluku
483,97443,Lolotwara (Lolotuara),81.08.12.2005,Pulau Lakor,Kabupaten,Maluku Barat Daya,Maluku
484,97443,Sera,81.08.12.2003,Pulau Lakor,Kabupaten,Maluku Barat Daya,Maluku
485,97443,Yamluli,81.08.12.2004,Pulau Lakor,Kabupaten,Maluku Barat Daya,Maluku
486,97583,Aboru,81.01.13.2001,Pulau Haruku,Kabupaten,Maluku Tengah,Maluku
487,97583,Haruku,81.01.13.2004,Pulau Haruku,Kabupaten,Maluku Tengah,Maluku
488,97583,Hulaliu,81.01.13.2011,Pulau Haruku,Kabupaten,Maluku Tengah,Maluku
489,97583,Kabauw (Kabau),81.01.13.2007,Pulau Haruku,Kabupaten,Maluku Tengah,Maluku
490,97583,Kailolo,81.01.13.2008,Pulau Haruku,Kabupaten,Maluku Tengah,Maluku
491,97583,Kariu (Kariuw),81.01.13.2010,Pulau Haruku,Kabupaten,Maluku Tengah,Maluku
492,97583,Oma,81.01.13.2003,Pulau Haruku,Kabupaten,Maluku Tengah,Maluku
493,97583,Pelauw,81.01.13.2009,Pulau Haruku,Kabupaten,Maluku Tengah,Maluku
494,97583,Rohomoni,81.01.13.2006,Pulau Haruku,Kabupaten,Maluku Tengah,Maluku
495,97583,Sameth,81.01.13.2005,Pulau Haruku,Kabupaten,Maluku Tengah,Maluku
496,97583,Wassu,81.01.13.2002,Pulau Haruku,Kabupaten,Maluku Tengah,Maluku
497,97593,Amarsekaru,81.05.04.2003,Pulau Gorom,Kabupaten,Seram Bagian Timur,Maluku
498,97593,Arewang,81.05.04.2048,Pulau Gorom,Kabupaten,Seram Bagian Timur,Maluku
499,97593,Aroa Kataloka,81.05.04.2053,Pulau Gorom,Kabupaten,Seram Bagian Timur,Maluku
500,97593,Buan Kataloka,81.05.04.2050,Pulau Gorom,Kabupaten,Seram Bagian Timur,Maluku
501,97593,Dada Kataloka,81.05.04.2054,Pulau Gorom,Kabupaten,Seram Bagian Timur,Maluku
502,97593,Day,81.05.04.2005,Pulau Gorom,Kabupaten,Seram Bagian Timur,Maluku
503,97593,Dulak,81.05.04.2043,Pulau Gorom,Kabupaten,Seram Bagian Timur,Maluku
504,97593,Ilili,81.05.04.2032,Pulau Gorom,Kabupaten,Seram Bagian Timur,Maluku
505,97593,Kaforing,81.05.04.2047,Pulau Gorom,Kabupaten,Seram Bagian Timur,Maluku
506,97593,Kataloka,81.05.04.2001,Pulau Gorom,Kabupaten,Seram Bagian Timur,Maluku
507,97593,Kelibingan,81.05.04.2031,Pulau Gorom,Kabupaten,Seram Bagian Timur,Maluku
508,97593,Kilalir Kilwouw,81.05.04.2044,Pulau Gorom,Kabupaten,Seram Bagian Timur,Maluku
509,97593,Kilean,81.05.04.2046,Pulau Gorom,Kabupaten,Seram Bagian Timur,Maluku
510,97593,Kilotak,81.05.04.2045,Pulau Gorom,Kabupaten,Seram Bagian Timur,Maluku
511,97593,Kulugowa,81.05.04.2023,Pulau Gorom,Kabupaten,Seram Bagian Timur,Maluku
512,97593,Loko,81.05.04.2021,Pulau Gorom,Kabupaten,Seram Bagian Timur,Maluku
513,97593,Mida,81.05.04.2006,Pulau Gorom,Kabupaten,Seram Bagian Timur,Maluku
514,97593,Namalean,81.05.04.2042,Pulau Gorom,Kabupaten,Seram Bagian Timur,Maluku
515,97593,Ondor,81.05.04.2004,Pulau Gorom,Kabupaten,Seram Bagian Timur,Maluku
516,97593,Rumanama Kotawouw Kataloka,81.05.04.2051,Pulau Gorom,Kabupaten,Seram Bagian Timur,Maluku
517,97593,Rumeon,81.05.04.2024,Pulau Gorom,Kabupaten,Seram Bagian Timur,Maluku
518,97593,Sera,81.05.04.2022,Pulau Gorom,Kabupaten,Seram Bagian Timur,Maluku
519,97593,Sikaro Kataloka,81.05.04.2052,Pulau Gorom,Kabupaten,Seram Bagian Timur,Maluku
520,97593,Usun Kataloka,81.05.04.2049,Pulau Gorom,Kabupaten,Seram Bagian Timur,Maluku
521,97612,Dullah (Darat),81.72.01.2003,Pulau Dullah Utara,Kota,Tual,Maluku
522,97612,Dullah Laut,81.72.01.2008,Pulau Dullah Utara,Kota,Tual,Maluku
523,97612,Fiditan,81.72.01.2001,Pulau Dullah Utara,Kota,Tual,Maluku
524,97612,Labetawi,81.72.01.2004,Pulau Dullah Utara,Kota,Tual,Maluku
525,97612,Ngadi,81.72.01.2002,Pulau Dullah Utara,Kota,Tual,Maluku
526,97612,Ohoitahit,81.72.01.2006,Pulau Dullah Utara,Kota,Tual,Maluku
527,97612,Ohoitel,81.72.01.2007,Pulau Dullah Utara,Kota,Tual,Maluku
528,97612,Tamedan,81.72.01.2005,Pulau Dullah Utara,Kota,Tual,Maluku
529,97611,Ketsoblak,81.72.02.1003,Pulau Dullah Selatan,Kota,Tual,Maluku
530,97611,Lodar El (Lodar Ell),81.72.02.1005,Pulau Dullah Selatan,Kota,Tual,Maluku
531,97611,Masrum,81.72.02.1004,Pulau Dullah Selatan,Kota,Tual,Maluku
532,97611,Taar,81.72.02.2002,Pulau Dullah Selatan,Kota,Tual,Maluku
533,97611,Tual,81.72.02.2001,Pulau Dullah Selatan,Kota,Tual,Maluku
534,97117,Amahusu,81.71.01.2004,Nusaniwe (Nusanive),Kota,Ambon,Maluku
535,97117,Benteng,81.71.01.1008,Nusaniwe (Nusanive),Kota,Ambon,Maluku
536,97116,Kudamati,81.71.01.1009,Nusaniwe (Nusanive),Kota,Ambon,Maluku
537,97118,Latuhalat,81.71.01.2001,Nusaniwe (Nusanive),Kota,Ambon,Maluku
538,97114,Mangga Dua,81.71.01.1010,Nusaniwe (Nusanive),Kota,Ambon,Maluku
539,97117,Nusaniwe,81.71.01.2003,Nusaniwe (Nusanive),Kota,Ambon,Maluku
540,97117,Nusaniwe (Kelurahan Nusaniwe),81.71.01.1006,Nusaniwe (Nusanive),Kota,Ambon,Maluku
541,97118,Seilale,81.71.01.2002,Nusaniwe (Nusanive),Kota,Ambon,Maluku
542,97111,Silale,81.71.01.1013,Nusaniwe (Nusanive),Kota,Ambon,Maluku
543,97113,Urimessing (Urimesing) Desa,81.71.01.1011,Nusaniwe (Nusanive),Kota,Ambon,Maluku
544,97113,Urimessing (Urimesing) Kelurahan,81.71.01.2005,Nusaniwe (Nusanive),Kota,Ambon,Maluku
545,97112,Waihaong,81.71.01.1012,Nusaniwe (Nusanive),Kota,Ambon,Maluku
546,97115,Wainitu (Wainatu),81.71.01.1007,Nusaniwe (Nusanive),Kota,Ambon,Maluku
547,97518,Abubu,81.01.16.2003,Nusa Laut,Kabupaten,Maluku Tengah,Maluku
548,97518,Akoon,81.01.16.2004,Nusa Laut,Kabupaten,Maluku Tengah,Maluku
549,97518,Ameth,81.01.16.2001,Nusa Laut,Kabupaten,Maluku Tengah,Maluku
550,97518,Leinitu,81.01.16.2007,Nusa Laut,Kabupaten,Maluku Tengah,Maluku
551,97518,Nalahia,81.01.16.2005,Nusa Laut,Kabupaten,Maluku Tengah,Maluku
552,97518,Sila,81.01.16.2006,Nusa Laut,Kabupaten,Maluku Tengah,Maluku
553,97518,Titawaai,81.01.16.2002,Nusa Laut,Kabupaten,Maluku Tengah,Maluku
554,97463,Arma,81.03.09.2001,Nirunmas,Kabupaten,Kepulauan Tanimbar (Maluku Tenggara Barat),Maluku
555,97463,Manglusi,81.03.09.2003,Nirunmas,Kabupaten,Kepulauan Tanimbar (Maluku Tenggara Barat),Maluku
556,97463,Tutukembong,81.03.09.2004,Nirunmas,Kabupaten,Kepulauan Tanimbar (Maluku Tenggara Barat),Maluku
557,97463,Watmuri,81.03.09.2002,Nirunmas,Kabupaten,Kepulauan Tanimbar (Maluku Tenggara Barat),Maluku
558,97463,Waturu,81.03.09.2005,Nirunmas,Kabupaten,Kepulauan Tanimbar (Maluku Tenggara Barat),Maluku
559,97544,Batu Tulis,81.09.01.2017,Namrole,Kabupaten,Buru Selatan,Maluku
560,97544,Elfule,81.09.01.2005,Namrole,Kabupaten,Buru Selatan,Maluku
561,97544,Fatmite,81.09.01.2004,Namrole,Kabupaten,Buru Selatan,Maluku
562,97544,Kamlanglale,81.09.01.2013,Namrole,Kabupaten,Buru Selatan,Maluku
563,97544,Labuang,81.09.01.2009,Namrole,Kabupaten,Buru Selatan,Maluku
564,97544,Lektama,81.09.01.2003,Namrole,Kabupaten,Buru Selatan,Maluku
565,97544,Leku,81.09.01.2006,Namrole,Kabupaten,Buru Selatan,Maluku
566,97544,Masnana,81.09.01.2012,Namrole,Kabupaten,Buru Selatan,Maluku
567,97544,Namrinat,81.09.01.2015,Namrole,Kabupaten,Buru Selatan,Maluku
568,97544,Oki Baru,81.09.01.2007,Namrole,Kabupaten,Buru Selatan,Maluku
569,97544,Oki Lama,81.09.01.2008,Namrole,Kabupaten,Buru Selatan,Maluku
570,97544,Tikbary,81.09.01.2011,Namrole,Kabupaten,Buru Selatan,Maluku
571,97544,Waefusi,81.09.01.2016,Namrole,Kabupaten,Buru Selatan,Maluku
572,97544,Waenalut,81.09.01.2002,Namrole,Kabupaten,Buru Selatan,Maluku
573,97544,Waenono,81.09.01.2014,Namrole,Kabupaten,Buru Selatan,Maluku
574,97544,Wali,81.09.01.2010,Namrole,Kabupaten,Buru Selatan,Maluku
575,97544,Wamkana,81.09.01.2001,Namrole,Kabupaten,Buru Selatan,Maluku
576,97571,Batu Boy,81.04.01.2012,Namlea,Kabupaten,Buru,Maluku
577,97571,Jamilu,81.04.01.2010,Namlea,Kabupaten,Buru,Maluku
578,97571,Karang Jaya,81.04.01.2003,Namlea,Kabupaten,Buru,Maluku
579,97571,Lala,81.04.01.2002,Namlea,Kabupaten,Buru,Maluku
580,97571,Namlea,81.04.01.2001,Namlea,Kabupaten,Buru,Maluku
581,97571,Sanleko,81.04.01.2011,Namlea,Kabupaten,Buru,Maluku
582,97571,Siahoni,81.04.01.2009,Namlea,Kabupaten,Buru,Maluku
583,97462,Adodo Molu (Adodo Molo),81.03.18.2002,Molu Maru,Kabupaten,Kepulauan Tanimbar (Maluku Tenggara Barat),Maluku
584,97462,Nurkat,81.03.18.2005,Molu Maru,Kabupaten,Kepulauan Tanimbar (Maluku Tenggara Barat),Maluku
585,97462,Tutunametal,81.03.18.2004,Molu Maru,Kabupaten,Kepulauan Tanimbar (Maluku Tenggara Barat),Maluku
586,97462,Wadankou (Wadankau),81.03.18.2001,Molu Maru,Kabupaten,Kepulauan Tanimbar (Maluku Tenggara Barat),Maluku
587,97462,Wulmasa,81.03.18.2003,Molu Maru,Kabupaten,Kepulauan Tanimbar (Maluku Tenggara Barat),Maluku
588,97442,Kaiwatu,81.08.01.2004,Moa (Moa Lakor),Kabupaten,Maluku Barat Daya,Maluku
589,97442,Klis,81.08.01.2001,Moa (Moa Lakor),Kabupaten,Maluku Barat Daya,Maluku
590,97442,Moain,81.08.01.2007,Moa (Moa Lakor),Kabupaten,Maluku Barat Daya,Maluku
591,97442,Patti,81.08.01.2002,Moa (Moa Lakor),Kabupaten,Maluku Barat Daya,Maluku
592,97442,Tiakur,81.08.01.1001,Moa (Moa Lakor),Kabupaten,Maluku Barat Daya,Maluku
593,97442,Tounwawan,81.08.01.2006,Moa (Moa Lakor),Kabupaten,Maluku Barat Daya,Maluku
594,97442,Wakarleli,81.08.01.2003,Moa (Moa Lakor),Kabupaten,Maluku Barat Daya,Maluku
595,97442,Werwaru,81.08.01.2005,Moa (Moa Lakor),Kabupaten,Maluku Barat Daya,Maluku
596,97652,Batugajah (Batu Gajah),81.08.03.2009,Mdona Hyera (Mndona Hiera),Kabupaten,Maluku Barat Daya,Maluku
597,97652,Elo,81.08.03.2003,Mdona Hyera (Mndona Hiera),Kabupaten,Maluku Barat Daya,Maluku
598,97652,Lelang,81.08.03.2005,Mdona Hyera (Mndona Hiera),Kabupaten,Maluku Barat Daya,Maluku
599,97652,Luang Barat,81.08.03.2001,Mdona Hyera (Mndona Hiera),Kabupaten,Maluku Barat Daya,Maluku
600,97652,Luang Timur,81.08.03.2002,Mdona Hyera (Mndona Hiera),Kabupaten,Maluku Barat Daya,Maluku
601,97652,Mahaleta,81.08.03.2006,Mdona Hyera (Mndona Hiera),Kabupaten,Maluku Barat Daya,Maluku
602,97652,Pupliora (Pupioliora),81.08.03.2010,Mdona Hyera (Mndona Hiera),Kabupaten,Maluku Barat Daya,Maluku
603,97652,Regoha,81.08.03.2011,Mdona Hyera (Mndona Hiera),Kabupaten,Maluku Barat Daya,Maluku
604,97652,Romdara,81.08.03.2007,Mdona Hyera (Mndona Hiera),Kabupaten,Maluku Barat Daya,Maluku
605,97652,Rotnama,81.08.03.2008,Mdona Hyera (Mndona Hiera),Kabupaten,Maluku Barat Daya,Maluku
606,97652,Rumkisar (Romkisar),81.08.03.2004,Mdona Hyera (Mndona Hiera),Kabupaten,Maluku Barat Daya,Maluku
607,97623,Debut,81.02.15.2002,Manyeuw,Kabupaten,Maluku Tenggara,Maluku
608,97623,Lairngangas,81.02.15.2006,Manyeuw,Kabupaten,Maluku Tenggara,Maluku
609,97623,Namar,81.02.15.2003,Manyeuw,Kabupaten,Maluku Tenggara,Maluku
610,97623,Ngayub,81.02.15.2009,Manyeuw,Kabupaten,Maluku Tenggara,Maluku
611,97623,Ngilngof,81.02.15.2004,Manyeuw,Kabupaten,Maluku Tenggara,Maluku
612,97623,Ohoililir,81.02.15.2008,Manyeuw,Kabupaten,Maluku Tenggara,Maluku
613,97623,Ohoiluk,81.02.15.2007,Manyeuw,Kabupaten,Maluku Tenggara,Maluku
614,97623,Rumadian,81.02.15.2001,Manyeuw,Kabupaten,Maluku Tenggara,Maluku
615,97623,Selayar,81.02.15.2005,Manyeuw,Kabupaten,Maluku Tenggara,Maluku
616,97576,Grandeng,81.04.11.2003,Lolong Guba,Kabupaten,Buru,Maluku
617,97576,Kubalahin,81.04.11.2001,Lolong Guba,Kabupaten,Buru,Maluku
618,97576,Lele,81.04.11.2004,Lolong Guba,Kabupaten,Buru,Maluku
619,97576,Nafrua,81.04.11.2010,Lolong Guba,Kabupaten,Buru,Maluku
620,97576,Ohilahin,81.04.11.2007,Lolong Guba,Kabupaten,Buru,Maluku
621,97576,Tifu,81.04.11.2008,Lolong Guba,Kabupaten,Buru,Maluku
622,97576,Wabloy,81.04.11.2006,Lolong Guba,Kabupaten,Buru,Maluku
623,97576,Waegeren,81.04.11.2002,Lolong Guba,Kabupaten,Buru,Maluku
624,97576,Wanakarta,81.04.11.2005,Lolong Guba,Kabupaten,Buru,Maluku
625,97576,Wapsalit,81.04.11.2009,Lolong Guba,Kabupaten,Buru,Maluku
626,97570,Jikumarasa (Jikumerasa),81.04.15.2002,Lilialy,Kabupaten,Buru,Maluku
627,97570,Sawa,81.04.15.2004,Lilialy,Kabupaten,Buru,Maluku
628,97570,Ubung,81.04.15.2001,Lilialy,Kabupaten,Buru,Maluku
629,97570,Waeperang,81.04.15.2005,Lilialy,Kabupaten,Buru,Maluku
630,97570,Waimiting (Waemiting),81.04.15.2003,Lilialy,Kabupaten,Buru,Maluku
631,97543,Erwiri (Ewiri),81.09.05.2005,Leksula,Kabupaten,Buru Selatan,Maluku
632,97543,Grahwaen,81.09.05.2029,Leksula,Kabupaten,Buru Selatan,Maluku
633,97543,Kase,81.09.05.2010,Leksula,Kabupaten,Buru Selatan,Maluku
634,97543,Leksula,81.09.05.2008,Leksula,Kabupaten,Buru Selatan,Maluku
635,97543,Liang,81.09.05.2016,Leksula,Kabupaten,Buru Selatan,Maluku
636,97543,Mepa,81.09.05.2007,Leksula,Kabupaten,Buru Selatan,Maluku
637,97543,Nalbessy,81.09.05.2009,Leksula,Kabupaten,Buru Selatan,Maluku
638,97543,Neath,81.09.05.2015,Leksula,Kabupaten,Buru Selatan,Maluku
639,97543,Slealale,81.09.05.2018,Leksula,Kabupaten,Buru Selatan,Maluku
640,97543,Terkuri,81.09.05.2030,Leksula,Kabupaten,Buru Selatan,Maluku
641,97543,Tifu,81.09.05.2006,Leksula,Kabupaten,Buru Selatan,Maluku
642,97543,Waehaka,81.09.05.2003,Leksula,Kabupaten,Buru Selatan,Maluku
643,97543,Waemala,81.09.05.2004,Leksula,Kabupaten,Buru Selatan,Maluku
644,97543,Waemulang,81.09.05.2001,Leksula,Kabupaten,Buru Selatan,Maluku
645,97543,Waenamaolon,81.09.05.2026,Leksula,Kabupaten,Buru Selatan,Maluku
646,97543,Waeturen,81.09.05.2002,Leksula,Kabupaten,Buru Selatan,Maluku
647,97543,Waewali (Wewali),81.09.05.2025,Leksula,Kabupaten,Buru Selatan,Maluku
648,97543,Wahaolon,81.09.05.2024,Leksula,Kabupaten,Buru Selatan,Maluku
649,97543,Walunhelat (Walunghelat),81.09.05.2023,Leksula,Kabupaten,Buru Selatan,Maluku
650,97129,Ema,81.71.05.2002,Leitimur Selatan,Kota,Ambon,Maluku
651,97129,Hatalai,81.71.05.2005,Leitimur Selatan,Kota,Ambon,Maluku
652,97129,Hukurila,81.71.05.2001,Leitimur Selatan,Kota,Ambon,Maluku
653,97237,Hutumury (Hutumuri),81.71.05.2006,Leitimur Selatan,Kota,Ambon,Maluku
654,97129,Kilang,81.71.05.2003,Leitimur Selatan,Kota,Ambon,Maluku
655,97237,Leahari,81.71.05.2008,Leitimur Selatan,Kota,Ambon,Maluku
656,97129,Naku,81.71.05.2004,Leitimur Selatan,Kota,Ambon,Maluku
657,97237,Rutong,81.71.05.2007,Leitimur Selatan,Kota,Ambon,Maluku
658,97581,Allang,81.01.22.2003,Leihitu Barat,Kabupaten,Maluku Tengah,Maluku
659,97581,Hatu,81.01.22.2005,Leihitu Barat,Kabupaten,Maluku Tengah,Maluku
660,97581,Larike,81.01.22.2001,Leihitu Barat,Kabupaten,Maluku Tengah,Maluku
661,97581,Liliboy (Liliboi),81.01.22.2004,Leihitu Barat,Kabupaten,Maluku Tengah,Maluku
662,97581,Wakasihu,81.01.22.2002,Leihitu Barat,Kabupaten,Maluku Tengah,Maluku
663,97580,Asilulu,81.01.15.2006,Leihitu,Kabupaten,Maluku Tengah,Maluku
664,97580,Hila,81.01.15.2011,Leihitu,Kabupaten,Maluku Tengah,Maluku
665,97580,Hitulama (Hitu Lama),81.01.15.2013,Leihitu,Kabupaten,Maluku Tengah,Maluku
666,97580,Hitumessing (Hitu Mesing),81.01.15.2014,Leihitu,Kabupaten,Maluku Tengah,Maluku
667,97580,Kaitetu,81.01.15.2010,Leihitu,Kabupaten,Maluku Tengah,Maluku
668,97580,Mamala,81.01.15.2015,Leihitu,Kabupaten,Maluku Tengah,Maluku
669,97580,Morella (Morela),81.01.15.2016,Leihitu,Kabupaten,Maluku Tengah,Maluku
670,97580,Negeri Lima,81.01.15.2008,Leihitu,Kabupaten,Maluku Tengah,Maluku
671,97580,Seith,81.01.15.2009,Leihitu,Kabupaten,Maluku Tengah,Maluku
672,97580,Ureng,81.01.15.2007,Leihitu,Kabupaten,Maluku Tengah,Maluku
673,97580,Wakal,81.01.15.2012,Leihitu,Kabupaten,Maluku Tengah,Maluku
674,97614,Hirit,81.72.05.2005,Kur Selatan,Kota,Tual,Maluku
675,97614,Kanara,81.72.05.2001,Kur Selatan,Kota,Tual,Maluku
676,97614,Niela (Mangur Niela),81.72.05.2007,Kur Selatan,Kota,Tual,Maluku
677,97614,Rumoin (Romoin),81.72.05.2004,Kur Selatan,Kota,Tual,Maluku
678,97614,Tiflen (Tiflean),81.72.05.2006,Kur Selatan,Kota,Tual,Maluku
679,97614,Warkar,81.72.05.2002,Kur Selatan,Kota,Tual,Maluku
680,97614,Yapas,81.72.05.2003,Kur Selatan,Kota,Tual,Maluku
681,97513,Ampera,81.01.17.1003,Kota Masohi,Kabupaten,Maluku Tengah,Maluku
682,97514,Lesane,81.01.17.1004,Kota Masohi,Kabupaten,Maluku Tengah,Maluku
683,97515,Letwaru,81.01.17.1005,Kota Masohi,Kabupaten,Maluku Tengah,Maluku
684,97511,Namaelo,81.01.17.1001,Kota Masohi,Kabupaten,Maluku Tengah,Maluku
685,97512,Namasina,81.01.17.1002,Kota Masohi,Kabupaten,Maluku Tengah,Maluku
686,97461,Alusi Batjasi,81.03.08.2008,Kormomolin,Kabupaten,Kepulauan Tanimbar (Maluku Tenggara Barat),Maluku
687,97461,Alusi Bukjalim,81.03.08.2006,Kormomolin,Kabupaten,Kepulauan Tanimbar (Maluku Tenggara Barat),Maluku
688,97461,Alusi Kelaan,81.03.08.2005,Kormomolin,Kabupaten,Kepulauan Tanimbar (Maluku Tenggara Barat),Maluku
689,97461,Alusi Krawain,81.03.08.2004,Kormomolin,Kabupaten,Kepulauan Tanimbar (Maluku Tenggara Barat),Maluku
690,97461,Alusi Tamrian,81.03.08.2007,Kormomolin,Kabupaten,Kepulauan Tanimbar (Maluku Tenggara Barat),Maluku
691,97461,Kilmasa,81.03.08.2002,Kormomolin,Kabupaten,Kepulauan Tanimbar (Maluku Tenggara Barat),Maluku
692,97461,Lorwembun,81.03.08.2009,Kormomolin,Kabupaten,Kepulauan Tanimbar (Maluku Tenggara Barat),Maluku
693,97461,Lumasebu,81.03.08.2001,Kormomolin,Kabupaten,Kepulauan Tanimbar (Maluku Tenggara Barat),Maluku
694,97461,Meyano Bab,81.03.08.2003,Kormomolin,Kabupaten,Kepulauan Tanimbar (Maluku Tenggara Barat),Maluku
695,97461,Meyano Das,81.03.08.2010,Kormomolin,Kabupaten,Kepulauan Tanimbar (Maluku Tenggara Barat),Maluku
696,97441,Labelau (Lebelau),81.08.17.2003,Kisar Utara,Kabupaten,Maluku Barat Daya,Maluku
697,97441,Nomaha,81.08.17.2002,Kisar Utara,Kabupaten,Maluku Barat Daya,Maluku
698,97441,Purpura (Pur-Pura),81.08.17.2001,Kisar Utara,Kabupaten,Maluku Barat Daya,Maluku
699,97445,Abusur,81.08.07.2004,Kisar Selatan (Pulau Pulau Terselatan),Kabupaten,Maluku Barat Daya,Maluku
700,97445,Kota Lama,81.08.07.2003,Kisar Selatan (Pulau Pulau Terselatan),Kabupaten,Maluku Barat Daya,Maluku
701,97445,Lekloor,81.08.07.2002,Kisar Selatan (Pulau Pulau Terselatan),Kabupaten,Maluku Barat Daya,Maluku
702,97445,Oirata Barat,81.08.07.2006,Kisar Selatan (Pulau Pulau Terselatan),Kabupaten,Maluku Barat Daya,Maluku
703,97445,Oirata Timur,81.08.07.2005,Kisar Selatan (Pulau Pulau Terselatan),Kabupaten,Maluku Barat Daya,Maluku
704,97445,Wonreli,81.08.07.2001,Kisar Selatan (Pulau Pulau Terselatan),Kabupaten,Maluku Barat Daya,Maluku
705,97591,Afang Defol,81.05.08.2004,Kilmury,Kabupaten,Seram Bagian Timur,Maluku
706,97591,Afang Kota,81.05.08.2003,Kilmury,Kabupaten,Seram Bagian Timur,Maluku
707,97591,Bitorik,81.05.08.2013,Kilmury,Kabupaten,Seram Bagian Timur,Maluku
708,97591,Gunak,81.05.08.2008,Kilmury,Kabupaten,Seram Bagian Timur,Maluku
709,97591,Kamar,81.05.08.2007,Kilmury,Kabupaten,Seram Bagian Timur,Maluku
710,97591,Kilbon Kway,81.05.08.2011,Kilmury,Kabupaten,Seram Bagian Timur,Maluku
711,97591,Kilmury,81.05.08.2010,Kilmury,Kabupaten,Seram Bagian Timur,Maluku
712,97591,Kumelang,81.05.08.2005,Kilmury,Kabupaten,Seram Bagian Timur,Maluku
713,97591,Mising,81.05.08.2012,Kilmury,Kabupaten,Seram Bagian Timur,Maluku
714,97591,Nekan,81.05.08.2002,Kilmury,Kabupaten,Seram Bagian Timur,Maluku
715,97591,Selor,81.05.08.2001,Kilmury,Kabupaten,Seram Bagian Timur,Maluku
716,97591,Sumbawa,81.05.08.2009,Kilmury,Kabupaten,Seram Bagian Timur,Maluku
717,97591,Taa,81.05.08.2014,Kilmury,Kabupaten,Seram Bagian Timur,Maluku
718,97591,Undur,81.05.08.2006,Kilmury,Kabupaten,Seram Bagian Timur,Maluku
719,97590,Angar,81.05.13.2003,Kian Darat,Kabupaten,Seram Bagian Timur,Maluku
720,97590,Artafela,81.05.13.2002,Kian Darat,Kabupaten,Seram Bagian Timur,Maluku
721,97590,Kelaba,81.05.13.2005,Kian Darat,Kabupaten,Seram Bagian Timur,Maluku
722,97590,Kian Darat,81.05.13.2001,Kian Darat,Kabupaten,Seram Bagian Timur,Maluku
723,97590,Kileser,81.05.13.2009,Kian Darat,Kabupaten,Seram Bagian Timur,Maluku
724,97590,Kilga Kilwouw,81.05.13.2006,Kian Darat,Kabupaten,Seram Bagian Timur,Maluku
725,97590,Kilga Watubau,81.05.13.2007,Kian Darat,Kabupaten,Seram Bagian Timur,Maluku
726,97590,Rumfakar,81.05.13.2008,Kian Darat,Kabupaten,Seram Bagian Timur,Maluku
727,97590,Rumoga,81.05.13.2010,Kian Darat,Kabupaten,Seram Bagian Timur,Maluku
728,97590,Watu Watu,81.05.13.2004,Kian Darat,Kabupaten,Seram Bagian Timur,Maluku
729,97440,Hila,81.08.16.2001,Kepulauan Roma (Romang),Kabupaten,Maluku Barat Daya,Maluku
730,97440,Jerusu,81.08.16.2002,Kepulauan Roma (Romang),Kabupaten,Maluku Barat Daya,Maluku
731,97440,Solath,81.08.16.2003,Kepulauan Roma (Romang),Kabupaten,Maluku Barat Daya,Maluku
732,97569,Buano Hatuputih,81.06.09.2007,Kepulauan Manipa,Kabupaten,Seram Bagian Barat,Maluku
733,97569,Kelang Asaude,81.06.09.2004,Kepulauan Manipa,Kabupaten,Seram Bagian Barat,Maluku
734,97569,Luhutuban,81.06.09.2001,Kepulauan Manipa,Kabupaten,Seram Bagian Barat,Maluku
735,97569,Masawoy (Masawoi),81.06.09.2002,Kepulauan Manipa,Kabupaten,Seram Bagian Barat,Maluku
736,97569,Tomalehu Barat (Tumalehu Barat),81.06.09.2005,Kepulauan Manipa,Kabupaten,Seram Bagian Barat,Maluku
737,97569,Tomalehu Timur (Tumalehu Timur),81.06.09.2006,Kepulauan Manipa,Kabupaten,Seram Bagian Barat,Maluku
738,97569,Tuniwara,81.06.09.2003,Kepulauan Manipa,Kabupaten,Seram Bagian Barat,Maluku
739,97541,Air Ternate,81.09.04.2009,Kepala Madan,Kabupaten,Buru Selatan,Maluku
740,97541,Bala-bala,81.09.04.2012,Kepala Madan,Kabupaten,Buru Selatan,Maluku
741,97541,Balpetu,81.09.04.2001,Kepala Madan,Kabupaten,Buru Selatan,Maluku
742,97541,Batu Layar,81.09.04.2013,Kepala Madan,Kabupaten,Buru Selatan,Maluku
743,97541,Biloro,81.09.04.2003,Kepala Madan,Kabupaten,Buru Selatan,Maluku
744,97541,Emguhen (Emhugen),81.09.04.2015,Kepala Madan,Kabupaten,Buru Selatan,Maluku
745,97541,Fogi,81.09.04.2006,Kepala Madan,Kabupaten,Buru Selatan,Maluku
746,97541,Nanali,81.09.04.2004,Kepala Madan,Kabupaten,Buru Selatan,Maluku
747,97541,Pasir Putih,81.09.04.2005,Kepala Madan,Kabupaten,Buru Selatan,Maluku
748,97541,Sekat,81.09.04.2010,Kepala Madan,Kabupaten,Buru Selatan,Maluku
749,97541,Siopot,81.09.04.2014,Kepala Madan,Kabupaten,Buru Selatan,Maluku
750,97541,Waeha,81.09.04.2011,Kepala Madan,Kabupaten,Buru Selatan,Maluku
751,97541,Waehotong,81.09.04.2016,Kepala Madan,Kabupaten,Buru Selatan,Maluku
752,97541,Waekeka,81.09.04.2002,Kepala Madan,Kabupaten,Buru Selatan,Maluku
753,97541,Waepandan,81.09.04.2007,Kepala Madan,Kabupaten,Buru Selatan,Maluku
754,97541,Walbele,81.09.04.2008,Kepala Madan,Kabupaten,Buru Selatan,Maluku
755,97626,Danar Lumefar,81.02.19.2003,Kei Kecil Timur Selatan,Kabupaten,Maluku Tenggara,Maluku
756,97626,Danar Ohoiseb,81.02.19.2001,Kei Kecil Timur Selatan,Kabupaten,Maluku Tenggara,Maluku
757,97626,Danar Ternate,81.02.19.2002,Kei Kecil Timur Selatan,Kabupaten,Maluku Tenggara,Maluku
758,97626,Elaar Lamagorang,81.02.19.2005,Kei Kecil Timur Selatan,Kabupaten,Maluku Tenggara,Maluku
759,97626,Elaar Let,81.02.19.2006,Kei Kecil Timur Selatan,Kabupaten,Maluku Tenggara,Maluku
760,97626,Elaar Ngursoin,81.02.19.2004,Kei Kecil Timur Selatan,Kabupaten,Maluku Tenggara,Maluku
761,97626,Garara,81.02.19.2011,Kei Kecil Timur Selatan,Kabupaten,Maluku Tenggara,Maluku
762,97626,Maar,81.02.19.2008,Kei Kecil Timur Selatan,Kabupaten,Maluku Tenggara,Maluku
763,97626,Ngurwul,81.02.19.2010,Kei Kecil Timur Selatan,Kabupaten,Maluku Tenggara,Maluku
764,97626,Sare,81.02.19.2007,Kei Kecil Timur Selatan,Kabupaten,Maluku Tenggara,Maluku
765,97626,Uf,81.02.19.2009,Kei Kecil Timur Selatan,Kabupaten,Maluku Tenggara,Maluku
766,97625,Abean,81.02.13.2005,Kei Kecil Timur,Kabupaten,Maluku Tenggara,Maluku
767,97625,Denwet,81.02.13.2024,Kei Kecil Timur,Kabupaten,Maluku Tenggara,Maluku
768,97625,Disuk,81.02.13.2016,Kei Kecil Timur,Kabupaten,Maluku Tenggara,Maluku
769,97625,Iso,81.02.13.2015,Kei Kecil Timur,Kabupaten,Maluku Tenggara,Maluku
770,97625,Marfun,81.02.13.2018,Kei Kecil Timur,Kabupaten,Maluku Tenggara,Maluku
771,97625,Mastur,81.02.13.2006,Kei Kecil Timur,Kabupaten,Maluku Tenggara,Maluku
772,97625,Mastur Baru,81.02.13.2021,Kei Kecil Timur,Kabupaten,Maluku Tenggara,Maluku
773,97625,Ohoilus,81.02.13.2022,Kei Kecil Timur,Kabupaten,Maluku Tenggara,Maluku
774,97625,Ohoinol,81.02.13.2013,Kei Kecil Timur,Kabupaten,Maluku Tenggara,Maluku
775,97625,Rat,81.02.13.2004,Kei Kecil Timur,Kabupaten,Maluku Tenggara,Maluku
776,97625,Rewav,81.02.13.2002,Kei Kecil Timur,Kabupaten,Maluku Tenggara,Maluku
777,97625,Rumaat,81.02.13.2003,Kei Kecil Timur,Kabupaten,Maluku Tenggara,Maluku
778,97625,Semawi,81.02.13.2014,Kei Kecil Timur,Kabupaten,Maluku Tenggara,Maluku
779,97625,Tenbuk,81.02.13.2023,Kei Kecil Timur,Kabupaten,Maluku Tenggara,Maluku
780,97625,Wain,81.02.13.2001,Kei Kecil Timur,Kabupaten,Maluku Tenggara,Maluku
781,97625,Wain Baru,81.02.13.2017,Kei Kecil Timur,Kabupaten,Maluku Tenggara,Maluku
782,97625,Watngon,81.02.13.2019,Kei Kecil Timur,Kabupaten,Maluku Tenggara,Maluku
783,97625,Yafavun,81.02.13.2020,Kei Kecil Timur,Kabupaten,Maluku Tenggara,Maluku
784,97624,Matwair (Madwaer),81.02.14.2002,Kei Kecil Barat,Kabupaten,Maluku Tenggara,Maluku
785,97624,Ohoidertom,81.02.14.2009,Kei Kecil Barat,Kabupaten,Maluku Tenggara,Maluku
786,97624,Ohoidertutu,81.02.14.2001,Kei Kecil Barat,Kabupaten,Maluku Tenggara,Maluku
787,97624,Ohoira,81.02.14.2005,Kei Kecil Barat,Kabupaten,Maluku Tenggara,Maluku
788,97624,Ohoiren,81.02.14.2004,Kei Kecil Barat,Kabupaten,Maluku Tenggara,Maluku
789,97624,Somlain,81.02.14.2003,Kei Kecil Barat,Kabupaten,Maluku Tenggara,Maluku
790,97624,Tanimbar Kei,81.02.14.2008,Kei Kecil Barat,Kabupaten,Maluku Tenggara,Maluku
791,97624,Ur Pulau,81.02.14.2007,Kei Kecil Barat,Kabupaten,Maluku Tenggara,Maluku
792,97624,Warbal,81.02.14.2006,Kei Kecil Barat,Kabupaten,Maluku Tenggara,Maluku
793,97624,Yatwav,81.02.14.2010,Kei Kecil Barat,Kabupaten,Maluku Tenggara,Maluku
794,97622,Dudunwahan,81.02.01.2068,Kei Kecil,Kabupaten,Maluku Tenggara,Maluku
795,97622,Faan,81.02.01.2015,Kei Kecil,Kabupaten,Maluku Tenggara,Maluku
796,97622,Ibra,81.02.01.2017,Kei Kecil,Kabupaten,Maluku Tenggara,Maluku
797,97622,Kelanit,81.02.01.2049,Kei Kecil,Kabupaten,Maluku Tenggara,Maluku
798,97622,Kolser,81.02.01.2051,Kei Kecil,Kabupaten,Maluku Tenggara,Maluku
799,97622,Langgur,81.02.01.2014,Kei Kecil,Kabupaten,Maluku Tenggara,Maluku
800,97622,Letman,81.02.01.2052,Kei Kecil,Kabupaten,Maluku Tenggara,Maluku
801,97622,Loon,81.02.01.2069,Kei Kecil,Kabupaten,Maluku Tenggara,Maluku
802,97622,Ngabub,81.02.01.2018,Kei Kecil,Kabupaten,Maluku Tenggara,Maluku
803,97622,Ohoider Atas,81.02.01.2067,Kei Kecil,Kabupaten,Maluku Tenggara,Maluku
804,97622,Ohoidertawun (Ohodertawun),81.02.01.2048,Kei Kecil,Kabupaten,Maluku Tenggara,Maluku
805,97622,Ohoijang Watdek (Ohoijang / Ohoiyong Watdek),81.02.01.1013,Kei Kecil,Kabupaten,Maluku Tenggara,Maluku
806,97622,Sathean,81.02.01.2016,Kei Kecil,Kabupaten,Maluku Tenggara,Maluku
807,97622,Sitniohoi,81.02.01.2071,Kei Kecil,Kabupaten,Maluku Tenggara,Maluku
808,97622,Wearlilir,81.02.01.2057,Kei Kecil,Kabupaten,Maluku Tenggara,Maluku
809,97635,Banda Efruan,81.02.05.2021,Kei Besar Utara Timur,Kabupaten,Maluku Tenggara,Maluku
810,97635,Banda Eli/Ely,81.02.05.2005,Kei Besar Utara Timur,Kabupaten,Maluku Tenggara,Maluku
811,97635,Banda Suku Tigapuluh,81.02.05.2022,Kei Besar Utara Timur,Kabupaten,Maluku Tenggara,Maluku
812,97635,Fanwav,81.02.05.2030,Kei Besar Utara Timur,Kabupaten,Maluku Tenggara,Maluku
813,97635,Haar Ohoimel,81.02.05.2003,Kei Besar Utara Timur,Kabupaten,Maluku Tenggara,Maluku
814,97635,Haar Ohoimur GPM,81.02.05.2014,Kei Besar Utara Timur,Kabupaten,Maluku Tenggara,Maluku
815,97635,Haar Ohoimur RK,81.02.05.2015,Kei Besar Utara Timur,Kabupaten,Maluku Tenggara,Maluku
816,97635,Haar Ohoiwait,81.02.05.2016,Kei Besar Utara Timur,Kabupaten,Maluku Tenggara,Maluku
817,97635,Haar Renrahantel,81.02.05.2018,Kei Besar Utara Timur,Kabupaten,Maluku Tenggara,Maluku
818,97635,Haar Wassar,81.02.05.2017,Kei Besar Utara Timur,Kabupaten,Maluku Tenggara,Maluku
819,97635,Hoko,81.02.05.2011,Kei Besar Utara Timur,Kabupaten,Maluku Tenggara,Maluku
820,97635,Hollat,81.02.05.2001,Kei Besar Utara Timur,Kabupaten,Maluku Tenggara,Maluku
821,97635,Hollat Solair,81.02.05.2010,Kei Besar Utara Timur,Kabupaten,Maluku Tenggara,Maluku
822,97635,Hollay,81.02.05.2012,Kei Besar Utara Timur,Kabupaten,Maluku Tenggara,Maluku
823,97635,Kilwair,81.02.05.2008,Kei Besar Utara Timur,Kabupaten,Maluku Tenggara,Maluku
824,97635,Langgiar Haar,81.02.05.2004,Kei Besar Utara Timur,Kabupaten,Maluku Tenggara,Maluku
825,97635,Ohoifaruan,81.02.05.2024,Kei Besar Utara Timur,Kabupaten,Maluku Tenggara,Maluku
826,97635,Ohoifau,81.02.05.2007,Kei Besar Utara Timur,Kabupaten,Maluku Tenggara,Maluku
827,97635,Ohoimajang,81.02.05.2020,Kei Besar Utara Timur,Kabupaten,Maluku Tenggara,Maluku
828,97635,Ohoiraut,81.02.05.2002,Kei Besar Utara Timur,Kabupaten,Maluku Tenggara,Maluku
829,97635,Ohoiwirin,81.02.05.2025,Kei Besar Utara Timur,Kabupaten,Maluku Tenggara,Maluku
830,97635,Renfaan GPM,81.02.05.2029,Kei Besar Utara Timur,Kabupaten,Maluku Tenggara,Maluku
831,97635,Renfaan Islam,81.02.05.2028,Kei Besar Utara Timur,Kabupaten,Maluku Tenggara,Maluku
832,97635,Renfan (Renfaan),81.02.05.2009,Kei Besar Utara Timur,Kabupaten,Maluku Tenggara,Maluku
833,97635,Soin,81.02.05.2013,Kei Besar Utara Timur,Kabupaten,Maluku Tenggara,Maluku
834,97635,Tuburlay,81.02.05.2023,Kei Besar Utara Timur,Kabupaten,Maluku Tenggara,Maluku
835,97635,Tuburngil,81.02.05.2026,Kei Besar Utara Timur,Kabupaten,Maluku Tenggara,Maluku
836,97635,Ur,81.02.05.2019,Kei Besar Utara Timur,Kabupaten,Maluku Tenggara,Maluku
837,97635,Watlaar (Watlar),81.02.05.2006,Kei Besar Utara Timur,Kabupaten,Maluku Tenggara,Maluku
838,97635,Yamtimur,81.02.05.2027,Kei Besar Utara Timur,Kabupaten,Maluku Tenggara,Maluku
839,97634,Ad Ngurwul,81.02.17.2017,Kei Besar Utara Barat,Kabupaten,Maluku Tenggara,Maluku
840,97634,Ad Ohoiwaf,81.02.17.2018,Kei Besar Utara Barat,Kabupaten,Maluku Tenggara,Maluku
841,97634,Ad Wear Aur (Ad Wearaur),81.02.17.2025,Kei Besar Utara Barat,Kabupaten,Maluku Tenggara,Maluku
842,97634,Dangarat,81.02.17.2005,Kei Besar Utara Barat,Kabupaten,Maluku Tenggara,Maluku
843,97634,Faa,81.02.17.2004,Kei Besar Utara Barat,Kabupaten,Maluku Tenggara,Maluku
844,97634,Hangur,81.02.17.2007,Kei Besar Utara Barat,Kabupaten,Maluku Tenggara,Maluku
845,97634,Hoor Islam,81.02.17.2020,Kei Besar Utara Barat,Kabupaten,Maluku Tenggara,Maluku
846,97634,Hoor Kristen,81.02.17.2021,Kei Besar Utara Barat,Kabupaten,Maluku Tenggara,Maluku
847,97634,Laar (Laar Perda),81.02.17.2019,Kei Besar Utara Barat,Kabupaten,Maluku Tenggara,Maluku
848,97634,Mun Essoy,81.02.17.2013,Kei Besar Utara Barat,Kabupaten,Maluku Tenggara,Maluku
849,97634,Mun Kahar,81.02.17.2014,Kei Besar Utara Barat,Kabupaten,Maluku Tenggara,Maluku
850,97634,Mun Ngurditwain,81.02.17.2015,Kei Besar Utara Barat,Kabupaten,Maluku Tenggara,Maluku
851,97634,Mun Ohoiir,81.02.17.2012,Kei Besar Utara Barat,Kabupaten,Maluku Tenggara,Maluku
852,97634,Mun Ohoitadiun (Mun Ohoitadium),81.02.17.2024,Kei Besar Utara Barat,Kabupaten,Maluku Tenggara,Maluku
853,97634,Mun Werfan,81.02.17.2016,Kei Besar Utara Barat,Kabupaten,Maluku Tenggara,Maluku
854,97634,Ngurwalek,81.02.17.2008,Kei Besar Utara Barat,Kabupaten,Maluku Tenggara,Maluku
855,97634,Ohoituf,81.02.17.2006,Kei Besar Utara Barat,Kabupaten,Maluku Tenggara,Maluku
856,97634,Uwat,81.02.17.2009,Kei Besar Utara Barat,Kabupaten,Maluku Tenggara,Maluku
857,97634,Uwat Reyaan,81.02.17.2011,Kei Besar Utara Barat,Kabupaten,Maluku Tenggara,Maluku
858,97634,Uwat Wear,81.02.17.2010,Kei Besar Utara Barat,Kabupaten,Maluku Tenggara,Maluku
859,97634,Waer,81.02.17.2022,Kei Besar Utara Barat,Kabupaten,Maluku Tenggara,Maluku
860,97634,Waerat,81.02.17.2023,Kei Besar Utara Barat,Kabupaten,Maluku Tenggara,Maluku
861,97634,Weer Frawaf,81.02.17.2003,Kei Besar Utara Barat,Kabupaten,Maluku Tenggara,Maluku
862,97634,Weer Ohoiker,81.02.17.2002,Kei Besar Utara Barat,Kabupaten,Maluku Tenggara,Maluku
863,97634,Weer Ohoinam,81.02.17.2001,Kei Besar Utara Barat,Kabupaten,Maluku Tenggara,Maluku
864,97633,Feer,81.02.18.2003,Kei Besar Selatan Barat,Kabupaten,Maluku Tenggara,Maluku
865,97633,Hoat,81.02.18.2001,Kei Besar Selatan Barat,Kabupaten,Maluku Tenggara,Maluku
866,97633,Hoko,81.02.18.2006,Kei Besar Selatan Barat,Kabupaten,Maluku Tenggara,Maluku
867,97633,Ngafan,81.02.18.2002,Kei Besar Selatan Barat,Kabupaten,Maluku Tenggara,Maluku
868,97633,Ngan,81.02.18.2009,Kei Besar Selatan Barat,Kabupaten,Maluku Tenggara,Maluku
869,97633,Ngurko,81.02.18.2005,Kei Besar Selatan Barat,Kabupaten,Maluku Tenggara,Maluku
870,97633,Ohoilean,81.02.18.2011,Kei Besar Selatan Barat,Kabupaten,Maluku Tenggara,Maluku
871,97633,Rahangiar,81.02.18.2013,Kei Besar Selatan Barat,Kabupaten,Maluku Tenggara,Maluku
872,97633,Rerean,81.02.18.2004,Kei Besar Selatan Barat,Kabupaten,Maluku Tenggara,Maluku
873,97633,Uat,81.02.18.2008,Kei Besar Selatan Barat,Kabupaten,Maluku Tenggara,Maluku
874,97633,Wafol,81.02.18.2012,Kei Besar Selatan Barat,Kabupaten,Maluku Tenggara,Maluku
875,97633,Watkidat,81.02.18.2010,Kei Besar Selatan Barat,Kabupaten,Maluku Tenggara,Maluku
876,97633,Weduar Fer (Weduar Feer),81.02.18.2007,Kei Besar Selatan Barat,Kabupaten,Maluku Tenggara,Maluku
877,97632,Kilwat,81.02.04.2012,Kei Besar Selatan,Kabupaten,Maluku Tenggara,Maluku
878,97632,Larat,81.02.04.2004,Kei Besar Selatan,Kabupaten,Maluku Tenggara,Maluku
879,97632,Nerong,81.02.04.2003,Kei Besar Selatan,Kabupaten,Maluku Tenggara,Maluku
880,97632,Ohoirenan,81.02.04.2015,Kei Besar Selatan,Kabupaten,Maluku Tenggara,Maluku
881,97632,Sathen (Sether/Sather),81.02.04.2013,Kei Besar Selatan,Kabupaten,Maluku Tenggara,Maluku
882,97632,Soindat,81.02.04.2016,Kei Besar Selatan,Kabupaten,Maluku Tenggara,Maluku
883,97632,Tamangil Nuhuten,81.02.04.2005,Kei Besar Selatan,Kabupaten,Maluku Tenggara,Maluku
884,97632,Tamangil Nuhuyanat,81.02.04.2006,Kei Besar Selatan,Kabupaten,Maluku Tenggara,Maluku
885,97632,Tutrean,81.02.04.2014,Kei Besar Selatan,Kabupaten,Maluku Tenggara,Maluku
886,97632,Weduar,81.02.04.2001,Kei Besar Selatan,Kabupaten,Maluku Tenggara,Maluku
887,97631,Bombay,81.02.03.2035,Kei Besar,Kabupaten,Maluku Tenggara,Maluku
888,97631,Daftel,81.02.03.2027,Kei Besar,Kabupaten,Maluku Tenggara,Maluku
889,97631,Depur,81.02.03.2007,Kei Besar,Kabupaten,Maluku Tenggara,Maluku
890,97631,El Ralang,81.02.03.2009,Kei Besar,Kabupaten,Maluku Tenggara,Maluku
891,97631,Elat,81.02.03.2006,Kei Besar,Kabupaten,Maluku Tenggara,Maluku
892,97631,Fako,81.02.03.2016,Kei Besar,Kabupaten,Maluku Tenggara,Maluku
893,97631,Fangamas,81.02.03.2023,Kei Besar,Kabupaten,Maluku Tenggara,Maluku
894,97631,Harangur,81.02.03.2025,Kei Besar,Kabupaten,Maluku Tenggara,Maluku
895,97631,Karkarit,81.02.03.2028,Kei Besar,Kabupaten,Maluku Tenggara,Maluku
896,97631,Ler Ohoilim,81.02.03.2004,Kei Besar,Kabupaten,Maluku Tenggara,Maluku
897,97631,Mataholat,81.02.03.2042,Kei Besar,Kabupaten,Maluku Tenggara,Maluku
898,97631,Nabaheng,81.02.03.2039,Kei Besar,Kabupaten,Maluku Tenggara,Maluku
899,97631,Ngat,81.02.03.2038,Kei Besar,Kabupaten,Maluku Tenggara,Maluku
900,97631,Ngefuit,81.02.03.2019,Kei Besar,Kabupaten,Maluku Tenggara,Maluku
901,97631,Ngefuit Atas,81.02.03.2040,Kei Besar,Kabupaten,Maluku Tenggara,Maluku
902,97631,Ngurdu,81.02.03.2032,Kei Besar,Kabupaten,Maluku Tenggara,Maluku
903,97631,Ohoiel,81.02.03.2020,Kei Besar,Kabupaten,Maluku Tenggara,Maluku
904,97631,Ohoilim,81.02.03.2008,Kei Besar,Kabupaten,Maluku Tenggara,Maluku
905,97631,Ohoinangan,81.02.03.2003,Kei Besar,Kabupaten,Maluku Tenggara,Maluku
906,97631,Ohoinangan Atas,81.02.03.2024,Kei Besar,Kabupaten,Maluku Tenggara,Maluku
907,97631,Ohoiwait,81.02.03.2021,Kei Besar,Kabupaten,Maluku Tenggara,Maluku
908,97631,Ohoiwang,81.02.03.2022,Kei Besar,Kabupaten,Maluku Tenggara,Maluku
909,97631,Rahareng,81.02.03.2005,Kei Besar,Kabupaten,Maluku Tenggara,Maluku
910,97631,Rahareng Atas,81.02.03.2029,Kei Besar,Kabupaten,Maluku Tenggara,Maluku
911,97631,Reyamru,81.02.03.2015,Kei Besar,Kabupaten,Maluku Tenggara,Maluku
912,97631,Sirbante,81.02.03.2037,Kei Besar,Kabupaten,Maluku Tenggara,Maluku
913,97631,Soinrat,81.02.03.2033,Kei Besar,Kabupaten,Maluku Tenggara,Maluku
914,97631,Udar,81.02.03.2026,Kei Besar,Kabupaten,Maluku Tenggara,Maluku
915,97631,Wakol,81.02.03.2031,Kei Besar,Kabupaten,Maluku Tenggara,Maluku
916,97631,Watsin,81.02.03.2036,Kei Besar,Kabupaten,Maluku Tenggara,Maluku
917,97631,Watuar,81.02.03.2041,Kei Besar,Kabupaten,Maluku Tenggara,Maluku
918,97631,Waur,81.02.03.2002,Kei Besar,Kabupaten,Maluku Tenggara,Maluku
919,97631,Waur Tahit,81.02.03.2018,Kei Besar,Kabupaten,Maluku Tenggara,Maluku
920,97631,Werka,81.02.03.2001,Kei Besar,Kabupaten,Maluku Tenggara,Maluku
921,97631,Wermaf,81.02.03.2034,Kei Besar,Kabupaten,Maluku Tenggara,Maluku
922,97631,Wulurat,81.02.03.2030,Kei Besar,Kabupaten,Maluku Tenggara,Maluku
923,97631,Yamtel,81.02.03.2017,Kei Besar,Kabupaten,Maluku Tenggara,Maluku
924,97568,Kamal,81.06.07.2005,Kairatu Barat,Kabupaten,Seram Bagian Barat,Maluku
925,97568,Lohiatala,81.06.07.2002,Kairatu Barat,Kabupaten,Seram Bagian Barat,Maluku
926,97568,Nuruwe (Nurue),81.06.07.2004,Kairatu Barat,Kabupaten,Seram Bagian Barat,Maluku
927,97568,Waesamu (Waisamu),81.06.07.2003,Kairatu Barat,Kabupaten,Seram Bagian Barat,Maluku
928,97568,Waihatu,81.06.07.2001,Kairatu Barat,Kabupaten,Seram Bagian Barat,Maluku
929,97568,Waisarisa,81.06.07.2006,Kairatu Barat,Kabupaten,Seram Bagian Barat,Maluku
930,97566,Hatusua,81.06.01.2012,Kairatu,Kabupaten,Seram Bagian Barat,Maluku
931,97566,Kairatu,81.06.01.2010,Kairatu,Kabupaten,Seram Bagian Barat,Maluku
932,97566,Kamarian,81.06.01.2008,Kairatu,Kabupaten,Seram Bagian Barat,Maluku
933,97566,Seruawan,81.06.01.2009,Kairatu,Kabupaten,Seram Bagian Barat,Maluku
934,97566,Uraur,81.06.01.2015,Kairatu,Kabupaten,Seram Bagian Barat,Maluku
935,97566,Waimital,81.06.01.2011,Kairatu,Kabupaten,Seram Bagian Barat,Maluku
936,97566,Waipirit,81.06.01.2014,Kairatu,Kabupaten,Seram Bagian Barat,Maluku
937,97565,Honitetu (Hunitetu),81.06.06.2004,Inamosol,Kabupaten,Seram Bagian Barat,Maluku
938,97565,Hukuanakota (Huku Anakota),81.06.06.2005,Inamosol,Kabupaten,Seram Bagian Barat,Maluku
939,97565,Manusa,81.06.06.2001,Inamosol,Kabupaten,Seram Bagian Barat,Maluku
940,97565,Rambatu,81.06.06.2002,Inamosol,Kabupaten,Seram Bagian Barat,Maluku
941,97565,Rumberu,81.06.06.2003,Inamosol,Kabupaten,Seram Bagian Barat,Maluku
942,97567,Allang Asaude,81.06.04.2002,Huamual Belakang,Kabupaten,Seram Bagian Barat,Maluku
943,97567,Buano Selatan (Boano Selatan),81.06.04.2007,Huamual Belakang,Kabupaten,Seram Bagian Barat,Maluku
944,97567,Buano Utara (Boano Utara),81.06.04.2006,Huamual Belakang,Kabupaten,Seram Bagian Barat,Maluku
945,97567,Sole,81.06.04.2003,Huamual Belakang,Kabupaten,Seram Bagian Barat,Maluku
946,97567,Tahalupu,81.06.04.2005,Huamual Belakang,Kabupaten,Seram Bagian Barat,Maluku
947,97567,Tonu Jaya,81.06.04.2004,Huamual Belakang,Kabupaten,Seram Bagian Barat,Maluku
948,97567,Waesala,81.06.04.2001,Huamual Belakang,Kabupaten,Seram Bagian Barat,Maluku
949,97560,Ariate,81.06.08.2001,Huamual,Kabupaten,Seram Bagian Barat,Maluku
950,97560,Iha,81.06.08.2004,Huamual,Kabupaten,Seram Bagian Barat,Maluku
951,97560,Kulur,81.06.08.2005,Huamual,Kabupaten,Seram Bagian Barat,Maluku
952,97560,Lokki,81.06.08.2002,Huamual,Kabupaten,Seram Bagian Barat,Maluku
953,97560,Luhu,81.06.08.2003,Huamual,Kabupaten,Seram Bagian Barat,Maluku
954,97621,Arso,81.02.16.2013,Hoat Sorbay,Kabupaten,Maluku Tenggara,Maluku
955,97621,Dian Darat,81.02.16.2007,Hoat Sorbay,Kabupaten,Maluku Tenggara,Maluku
956,97621,Dian Pulau,81.02.16.2002,Hoat Sorbay,Kabupaten,Maluku Tenggara,Maluku
957,97621,Evu,81.02.16.2004,Hoat Sorbay,Kabupaten,Maluku Tenggara,Maluku
958,97621,Letwuan (Letvuan),81.02.16.2003,Hoat Sorbay,Kabupaten,Maluku Tenggara,Maluku
959,97621,Madwat,81.02.16.2010,Hoat Sorbay,Kabupaten,Maluku Tenggara,Maluku
960,97621,Ngursit,81.02.16.2009,Hoat Sorbay,Kabupaten,Maluku Tenggara,Maluku
961,97621,Ohoibadar,81.02.16.2011,Hoat Sorbay,Kabupaten,Maluku Tenggara,Maluku
962,97621,Tetoat,81.02.16.2001,Hoat Sorbay,Kabupaten,Maluku Tenggara,Maluku
963,97621,Wab,81.02.16.2006,Hoat Sorbay,Kabupaten,Maluku Tenggara,Maluku
964,97621,Warwut,81.02.16.2005,Hoat Sorbay,Kabupaten,Maluku Tenggara,Maluku
965,97621,Watngil,81.02.16.2012,Hoat Sorbay,Kabupaten,Maluku Tenggara,Maluku
966,97621,Wirin,81.02.16.2008,Hoat Sorbay,Kabupaten,Maluku Tenggara,Maluku
967,97596,Adar,81.05.11.2016,Gorom Timur,Kabupaten,Seram Bagian Timur,Maluku
968,97596,Amarwatu,81.05.11.2004,Gorom Timur,Kabupaten,Seram Bagian Timur,Maluku
969,97596,Aran,81.05.11.2005,Gorom Timur,Kabupaten,Seram Bagian Timur,Maluku
970,97596,Armada,81.05.11.2010,Gorom Timur,Kabupaten,Seram Bagian Timur,Maluku
971,97596,Bas,81.05.11.2007,Gorom Timur,Kabupaten,Seram Bagian Timur,Maluku
972,97596,Basarin,81.05.11.2012,Gorom Timur,Kabupaten,Seram Bagian Timur,Maluku
973,97596,Etaralu,81.05.11.2018,Gorom Timur,Kabupaten,Seram Bagian Timur,Maluku
974,97596,Goha,81.05.11.2013,Gorom Timur,Kabupaten,Seram Bagian Timur,Maluku
975,97596,Kilkoda,81.05.11.2001,Gorom Timur,Kabupaten,Seram Bagian Timur,Maluku
976,97596,Kiltufa,81.05.11.2019,Gorom Timur,Kabupaten,Seram Bagian Timur,Maluku
977,97596,Kota Sirih,81.05.11.2003,Gorom Timur,Kabupaten,Seram Bagian Timur,Maluku
978,97596,Miran,81.05.11.2002,Gorom Timur,Kabupaten,Seram Bagian Timur,Maluku
979,97596,Miran Gota,81.05.11.2015,Gorom Timur,Kabupaten,Seram Bagian Timur,Maluku
980,97596,Miran Keledar,81.05.11.2021,Gorom Timur,Kabupaten,Seram Bagian Timur,Maluku
981,97596,Miran Kilian,81.05.11.2020,Gorom Timur,Kabupaten,Seram Bagian Timur,Maluku
982,97596,Miran Manaban,81.05.11.2022,Gorom Timur,Kabupaten,Seram Bagian Timur,Maluku
983,97596,Miran Rumuar,81.05.11.2023,Gorom Timur,Kabupaten,Seram Bagian Timur,Maluku
984,97596,Rarat,81.05.11.2014,Gorom Timur,Kabupaten,Seram Bagian Timur,Maluku
985,97596,Sagey,81.05.11.2009,Gorom Timur,Kabupaten,Seram Bagian Timur,Maluku
986,97596,Tinarin,81.05.11.2017,Gorom Timur,Kabupaten,Seram Bagian Timur,Maluku
987,97596,Tuha,81.05.11.2006,Gorom Timur,Kabupaten,Seram Bagian Timur,Maluku
988,97596,Tunas Ilur,81.05.11.2008,Gorom Timur,Kabupaten,Seram Bagian Timur,Maluku
989,97596,Waisalan,81.05.11.2011,Gorom Timur,Kabupaten,Seram Bagian Timur,Maluku
990,97466,Adodo Fordata,81.03.06.2006,Fordata (Yaru),Kabupaten,Kepulauan Tanimbar (Maluku Tenggara Barat),Maluku
991,97466,Awear,81.03.06.2003,Fordata (Yaru),Kabupaten,Kepulauan Tanimbar (Maluku Tenggara Barat),Maluku
992,97466,Romean,81.03.06.2001,Fordata (Yaru),Kabupaten,Kepulauan Tanimbar (Maluku Tenggara Barat),Maluku
993,97466,Rumngeur,81.03.06.2002,Fordata (Yaru),Kabupaten,Kepulauan Tanimbar (Maluku Tenggara Barat),Maluku
994,97466,Sofyanin,81.03.06.2004,Fordata (Yaru),Kabupaten,Kepulauan Tanimbar (Maluku Tenggara Barat),Maluku
995,97466,Walerang,81.03.06.2005,Fordata (Yaru),Kabupaten,Kepulauan Tanimbar (Maluku Tenggara Barat),Maluku
996,97575,Balbalu,81.04.13.2002,Fena Leisela,Kabupaten,Buru,Maluku
997,97575,Lemanpoli,81.04.13.2005,Fena Leisela,Kabupaten,Buru,Maluku
998,97575,Raheriat,81.04.13.2012,Fena Leisela,Kabupaten,Buru,Maluku
999,97575,Waedanga,81.04.13.2004,Fena Leisela,Kabupaten,Buru,Maluku
1000,97575,Waekose,81.04.13.2010,Fena Leisela,Kabupaten,Buru,Maluku
1001,97575,Waelana-lana,81.04.13.2006,Fena Leisela,Kabupaten,Buru,Maluku
1002,97575,Waemite,81.04.13.2008,Fena Leisela,Kabupaten,Buru,Maluku
1003,97575,Waereman,81.04.13.2007,Fena Leisela,Kabupaten,Buru,Maluku
1004,97575,Wainibe (Waenibe),81.04.13.2013,Fena Leisela,Kabupaten,Buru,Maluku
1005,97575,Wamana Baru,81.04.13.2011,Fena Leisela,Kabupaten,Buru,Maluku
1006,97575,Wamlana,81.04.13.2001,Fena Leisela,Kabupaten,Buru,Maluku
1007,97575,Wasi,81.04.13.2009,Fena Leisela,Kabupaten,Buru,Maluku
1008,97575,Waspait,81.04.13.2003,Fena Leisela,Kabupaten,Buru,Maluku
1009,97542,Batu Karang,81.09.06.2011,Fena Fafan,Kabupaten,Buru Selatan,Maluku
1010,97542,Fakal,81.09.06.2004,Fena Fafan,Kabupaten,Buru Selatan,Maluku
1011,97542,Mangeswaen,81.09.06.2002,Fena Fafan,Kabupaten,Buru Selatan,Maluku
1012,97542,Nusarua,81.09.06.2001,Fena Fafan,Kabupaten,Buru Selatan,Maluku
1013,97542,Siwatlahin,81.09.06.2008,Fena Fafan,Kabupaten,Buru Selatan,Maluku
1014,97542,Trukat,81.09.06.2009,Fena Fafan,Kabupaten,Buru Selatan,Maluku
1015,97542,Uneth,81.09.06.2005,Fena Fafan,Kabupaten,Buru Selatan,Maluku
1016,97542,Waekatin,81.09.06.2003,Fena Fafan,Kabupaten,Buru Selatan,Maluku
1017,97542,Waeken,81.09.06.2010,Fena Fafan,Kabupaten,Buru Selatan,Maluku
1018,97542,Waelo,81.09.06.2007,Fena Fafan,Kabupaten,Buru Selatan,Maluku
1019,97542,Waeraman (Waereman),81.09.06.2006,Fena Fafan,Kabupaten,Buru Selatan,Maluku
1020,97564,Abio Ahiolo,81.06.11.2006,Elpaputih,Kabupaten,Seram Bagian Barat,Maluku
1021,97564,Elpaputih,81.06.11.2008,Elpaputih,Kabupaten,Seram Bagian Barat,Maluku
1022,97564,Huku Kecil,81.06.11.2007,Elpaputih,Kabupaten,Seram Bagian Barat,Maluku
1023,97564,Sanahu,81.06.11.2002,Elpaputih,Kabupaten,Seram Bagian Barat,Maluku
1024,97564,Sumeith/Sameith Pasinaro,81.06.11.2004,Elpaputih,Kabupaten,Seram Bagian Barat,Maluku
1025,97564,Wasia (Waisa),81.06.11.2003,Elpaputih,Kabupaten,Seram Bagian Barat,Maluku
1026,97564,Watuy (Watui),81.06.11.2005,Elpaputih,Kabupaten,Seram Bagian Barat,Maluku
1027,97651,Ilmarang,81.08.10.2002,Dawelor Dawera,Kabupaten,Maluku Barat Daya,Maluku
1028,97651,Letmasa,81.08.10.2003,Dawelor Dawera,Kabupaten,Maluku Barat Daya,Maluku
1029,97651,Nurnyaman,81.08.10.2006,Dawelor Dawera,Kabupaten,Maluku Barat Daya,Maluku
1030,97651,Wairatan (Wiratan/Wiratang),81.08.10.2005,Dawelor Dawera,Kabupaten,Maluku Barat Daya,Maluku
1031,97651,Watuwey (Watuwei),81.08.10.2001,Dawelor Dawera,Kabupaten,Maluku Barat Daya,Maluku
1032,97651,Welora,81.08.10.2004,Dawelor Dawera,Kabupaten,Maluku Barat Daya,Maluku
1033,97128,Batu Merah (Batumerah),81.08.02.2002,Damer,Kabupaten,Maluku Barat Daya,Maluku
1034,97652,Bebar Timur,81.08.02.2005,Damer,Kabupaten,Maluku Barat Daya,Maluku
1035,97652,Ilih,81.08.02.2006,Damer,Kabupaten,Maluku Barat Daya,Maluku
1036,97652,Kehli,81.08.02.2007,Damer,Kabupaten,Maluku Barat Daya,Maluku
1037,97652,Kuaimelu (Kuay Melu),81.08.02.2003,Damer,Kabupaten,Maluku Barat Daya,Maluku
1038,97652,Kumur,81.08.02.2004,Damer,Kabupaten,Maluku Barat Daya,Maluku
1039,97652,Wulur,81.08.02.2001,Damer,Kabupaten,Maluku Barat Daya,Maluku
1040,97522,Aki Jaya,81.05.12.2006,Bula Barat,Kabupaten,Seram Bagian Timur,Maluku
1041,97522,Banggoi,81.05.12.2002,Bula Barat,Kabupaten,Seram Bagian Timur,Maluku
1042,97522,Banggoi Pancorang,81.05.12.2013,Bula Barat,Kabupaten,Seram Bagian Timur,Maluku
1043,97522,Dreamland Hills,81.05.12.2012,Bula Barat,Kabupaten,Seram Bagian Timur,Maluku
1044,97522,Hote,81.05.12.2001,Bula Barat,Kabupaten,Seram Bagian Timur,Maluku
1045,97522,Jakarta Baru,81.05.12.2007,Bula Barat,Kabupaten,Seram Bagian Timur,Maluku
1046,97522,Jembatan Basah,81.05.12.2011,Bula Barat,Kabupaten,Seram Bagian Timur,Maluku
1047,97522,Rukun Jaya,81.05.12.2010,Bula Barat,Kabupaten,Seram Bagian Timur,Maluku
1048,97522,Silohan,81.05.12.2008,Bula Barat,Kabupaten,Seram Bagian Timur,Maluku
1049,97522,Sumber Agung,81.05.12.2009,Bula Barat,Kabupaten,Seram Bagian Timur,Maluku
1050,97522,Waematakabo,81.05.12.2003,Bula Barat,Kabupaten,Seram Bagian Timur,Maluku
1051,97522,Waiketam Baru,81.05.12.2004,Bula Barat,Kabupaten,Seram Bagian Timur,Maluku
1052,97522,Waisamet,81.05.12.2005,Bula Barat,Kabupaten,Seram Bagian Timur,Maluku
1053,97521,Bula,81.05.01.2003,Bula,Kabupaten,Seram Bagian Timur,Maluku
1054,97521,Bula Air Fatolo,81.05.01.2011,Bula,Kabupaten,Seram Bagian Timur,Maluku
1055,97521,Englas,81.05.01.2010,Bula,Kabupaten,Seram Bagian Timur,Maluku
1056,97521,Fattolo,81.05.01.2026,Bula,Kabupaten,Seram Bagian Timur,Maluku
1057,97521,Kampung Gorom,81.05.01.2024,Bula,Kabupaten,Seram Bagian Timur,Maluku
1058,97521,Kampung Wailola,81.05.01.2023,Bula,Kabupaten,Seram Bagian Timur,Maluku
1059,97521,Limumir,81.05.01.2025,Bula,Kabupaten,Seram Bagian Timur,Maluku
1060,97521,Salas,81.05.01.2004,Bula,Kabupaten,Seram Bagian Timur,Maluku
1061,97521,Sesar,81.05.01.2012,Bula,Kabupaten,Seram Bagian Timur,Maluku
1062,97521,Tansi Ambon,81.05.01.2022,Bula,Kabupaten,Seram Bagian Timur,Maluku
1063,97574,Batu Jungku,81.04.10.2002,Batabual,Kabupaten,Buru,Maluku
1064,97574,Ilath,81.04.10.2001,Batabual,Kabupaten,Buru,Maluku
1065,97574,Namlea Ilath,81.04.10.2006,Batabual,Kabupaten,Buru,Maluku
1066,97574,Pela,81.04.10.2003,Batabual,Kabupaten,Buru,Maluku
1067,97574,Waemorat,81.04.10.2004,Batabual,Kabupaten,Buru,Maluku
1068,97586,Boiyauw,81.01.09.2013,Banda,Kabupaten,Maluku Tengah,Maluku
1069,97586,Combir Kasestoren,81.01.09.2018,Banda,Kabupaten,Maluku Tengah,Maluku
1070,97586,Dender,81.01.09.2014,Banda,Kabupaten,Maluku Tengah,Maluku
1071,97586,Dwiwarna,81.01.09.2002,Banda,Kabupaten,Maluku Tengah,Maluku
1072,97586,Kampung Baru,81.01.09.2005,Banda,Kabupaten,Maluku Tengah,Maluku
1073,97586,Lautang,81.01.09.2015,Banda,Kabupaten,Maluku Tengah,Maluku
1074,97586,Lonthoir,81.01.09.2008,Banda,Kabupaten,Maluku Tengah,Maluku
1075,97586,Merdeka,81.01.09.2003,Banda,Kabupaten,Maluku Tengah,Maluku
1076,97586,Nusantara,81.01.09.2001,Banda,Kabupaten,Maluku Tengah,Maluku
1077,97586,Pulau Ay,81.01.09.2009,Banda,Kabupaten,Maluku Tengah,Maluku
1078,97586,Pulau Hatta,81.01.09.2006,Banda,Kabupaten,Maluku Tengah,Maluku
1079,97586,Pulau Rhun,81.01.09.2010,Banda,Kabupaten,Maluku Tengah,Maluku
1080,97586,Rajawali,81.01.09.2004,Banda,Kabupaten,Maluku Tengah,Maluku
1081,97586,Selamon,81.01.09.2007,Banda,Kabupaten,Maluku Tengah,Maluku
1082,97586,Tanah Rata,81.01.09.2011,Banda,Kabupaten,Maluku Tengah,Maluku
1083,97586,Uring Tutra,81.01.09.2016,Banda,Kabupaten,Maluku Tengah,Maluku
1084,97586,Waer,81.01.09.2012,Banda,Kabupaten,Maluku Tengah,Maluku
1085,97586,Walling Spanciby (Wailing Spanciby),81.01.09.2017,Banda,Kabupaten,Maluku Tengah,Maluku
1086,97231,Halong,81.71.03.2002,Baguala,Kota,Ambon,Maluku
1087,97231,Lateri,81.71.03.1018,Baguala,Kota,Ambon,Maluku
1088,97231,Latta,81.71.03.2003,Baguala,Kota,Ambon,Maluku
1089,97232,Nania,81.71.03.2005,Baguala,Kota,Ambon,Maluku
1090,97232,Negeri Lama,81.71.03.2004,Baguala,Kota,Ambon,Maluku
1091,97232,Passo,81.71.03.2001,Baguala,Kota,Ambon,Maluku
1092,97233,Waiheru,81.71.03.2006,Baguala,Kota,Ambon,Maluku
1093,97451,Hertuti,81.08.04.2016,Babar Barat (Pulau Pulau Babar),Kabupaten,Maluku Barat Daya,Maluku
1094,97451,Imroing,81.08.04.2002,Babar Barat (Pulau Pulau Babar),Kabupaten,Maluku Barat Daya,Maluku
1095,97451,Letsiara,81.08.04.2006,Babar Barat (Pulau Pulau Babar),Kabupaten,Maluku Barat Daya,Maluku
1096,97451,Lewah,81.08.04.2015,Babar Barat (Pulau Pulau Babar),Kabupaten,Maluku Barat Daya,Maluku
1097,97451,Sinairusi,81.08.04.2017,Babar Barat (Pulau Pulau Babar),Kabupaten,Maluku Barat Daya,Maluku
1098,97451,Tela,81.08.04.2003,Babar Barat (Pulau Pulau Babar),Kabupaten,Maluku Barat Daya,Maluku
1099,97451,Tepa,81.08.04.2001,Babar Barat (Pulau Pulau Babar),Kabupaten,Maluku Barat Daya,Maluku
1100,97451,Wanuwui (Manuwui),81.08.04.2005,Babar Barat (Pulau Pulau Babar),Kabupaten,Maluku Barat Daya,Maluku
1101,97451,Yaltubung,81.08.04.2004,Babar Barat (Pulau Pulau Babar),Kabupaten,Maluku Barat Daya,Maluku
1102,97663,Batulei (Batuley),81.07.05.2003,Aru Utara Timur Batuley,Kabupaten,Kepulauan Aru,Maluku
1103,97663,Benjuring,81.07.05.2002,Aru Utara Timur Batuley,Kabupaten,Kepulauan Aru,Maluku
1104,97663,Jursiang,81.07.05.2007,Aru Utara Timur Batuley,Kabupaten,Kepulauan Aru,Maluku
1105,97663,Kabalsiang,81.07.05.2001,Aru Utara Timur Batuley,Kabupaten,Kepulauan Aru,Maluku
1106,97663,Kobamar,81.07.05.2009,Aru Utara Timur Batuley,Kabupaten,Kepulauan Aru,Maluku
1107,97663,Kompane,81.07.05.2008,Aru Utara Timur Batuley,Kabupaten,Kepulauan Aru,Maluku
1108,97663,Kumul,81.07.05.2004,Aru Utara Timur Batuley,Kabupaten,Kepulauan Aru,Maluku
1109,97663,Sewer,81.07.05.2006,Aru Utara Timur Batuley,Kabupaten,Kepulauan Aru,Maluku
1110,97663,Waria,81.07.05.2005,Aru Utara Timur Batuley,Kabupaten,Kepulauan Aru,Maluku
1111,97660,Foket,81.07.04.2005,Aru Utara,Kabupaten,Kepulauan Aru,Maluku
1112,97660,Jerwatu,81.07.04.2010,Aru Utara,Kabupaten,Kepulauan Aru,Maluku
1113,97660,Kabufin,81.07.04.2003,Aru Utara,Kabupaten,Kepulauan Aru,Maluku
1114,97660,Kaibolafin,81.07.04.2006,Aru Utara,Kabupaten,Kepulauan Aru,Maluku
1115,97660,Kolamar,81.07.04.2002,Aru Utara,Kabupaten,Kepulauan Aru,Maluku
1116,97660,Marlasi,81.07.04.2001,Aru Utara,Kabupaten,Kepulauan Aru,Maluku
1117,97660,Mesidang,81.07.04.2014,Aru Utara,Kabupaten,Kepulauan Aru,Maluku
1118,97660,Selmona,81.07.04.2013,Aru Utara,Kabupaten,Kepulauan Aru,Maluku
1119,97660,Tasinwaha (Tasin Waha),81.07.04.2004,Aru Utara,Kabupaten,Kepulauan Aru,Maluku
1120,97660,Wahangula-Ngula (Wahangulangula),81.07.04.2007,Aru Utara,Kabupaten,Kepulauan Aru,Maluku
1121,97660,Wahayum / Wahayun,81.07.04.2008,Aru Utara,Kabupaten,Kepulauan Aru,Maluku
1122,97660,Warialau,81.07.04.2009,Aru Utara,Kabupaten,Kepulauan Aru,Maluku
1123,97665,Balatan,81.07.07.2002,Aru Tengah Timur,Kabupaten,Kepulauan Aru,Maluku
1124,97665,Basada,81.07.07.2006,Aru Tengah Timur,Kabupaten,Kepulauan Aru,Maluku
1125,97665,Dosinamalau,81.07.07.2012,Aru Tengah Timur,Kabupaten,Kepulauan Aru,Maluku
1126,97665,Kaiwabar,81.07.07.2008,Aru Tengah Timur,Kabupaten,Kepulauan Aru,Maluku
1127,97665,Karawai (Karawain),81.07.07.2013,Aru Tengah Timur,Kabupaten,Kepulauan Aru,Maluku
1128,97665,Kobror,81.07.07.2005,Aru Tengah Timur,Kabupaten,Kepulauan Aru,Maluku
1129,97665,Koijabi,81.07.07.2001,Aru Tengah Timur,Kabupaten,Kepulauan Aru,Maluku
1130,97665,Lola,81.07.07.2010,Aru Tengah Timur,Kabupaten,Kepulauan Aru,Maluku
1131,97665,Mariri,81.07.07.2011,Aru Tengah Timur,Kabupaten,Kepulauan Aru,Maluku
1132,97665,Ponom,81.07.07.2009,Aru Tengah Timur,Kabupaten,Kepulauan Aru,Maluku
1133,97665,Wailay,81.07.07.2007,Aru Tengah Timur,Kabupaten,Kepulauan Aru,Maluku
1134,97665,Warjukur,81.07.07.2004,Aru Tengah Timur,Kabupaten,Kepulauan Aru,Maluku
1135,97665,Warloy,81.07.07.2003,Aru Tengah Timur,Kabupaten,Kepulauan Aru,Maluku
1136,97669,Apara,81.07.08.2002,Aru Tengah Selatan,Kabupaten,Kepulauan Aru,Maluku
1137,97669,Bemun,81.07.08.2003,Aru Tengah Selatan,Kabupaten,Kepulauan Aru,Maluku
1138,97669,Gomo Gomo,81.07.08.2005,Aru Tengah Selatan,Kabupaten,Kepulauan Aru,Maluku
1139,97669,Jambu Air,81.07.08.2006,Aru Tengah Selatan,Kabupaten,Kepulauan Aru,Maluku
1140,97669,Longgar,81.07.08.2001,Aru Tengah Selatan,Kabupaten,Kepulauan Aru,Maluku
1141,97669,Mesiang,81.07.08.2004,Aru Tengah Selatan,Kabupaten,Kepulauan Aru,Maluku
1142,97669,Warabal,81.07.08.2007,Aru Tengah Selatan,Kabupaten,Kepulauan Aru,Maluku
1143,97661,Algadang,81.07.03.2005,Aru Tengah,Kabupaten,Kepulauan Aru,Maluku
1144,97661,Benjina,81.07.03.2001,Aru Tengah,Kabupaten,Kepulauan Aru,Maluku
1145,97661,Fatlabata,81.07.03.2031,Aru Tengah,Kabupaten,Kepulauan Aru,Maluku
1146,97661,Gardakau,81.07.03.2003,Aru Tengah,Kabupaten,Kepulauan Aru,Maluku
1147,97661,Gulili,81.07.03.2038,Aru Tengah,Kabupaten,Kepulauan Aru,Maluku
1148,97661,Irloy,81.07.03.2004,Aru Tengah,Kabupaten,Kepulauan Aru,Maluku
1149,97661,Jirlay,81.07.03.2034,Aru Tengah,Kabupaten,Kepulauan Aru,Maluku
1150,97661,Kobadangar,81.07.03.2028,Aru Tengah,Kabupaten,Kepulauan Aru,Maluku
1151,97661,Kobasel Fara,81.07.03.2029,Aru Tengah,Kabupaten,Kepulauan Aru,Maluku
1152,97661,Kobasel Timur,81.07.03.2030,Aru Tengah,Kabupaten,Kepulauan Aru,Maluku
1153,97661,Kwarbola,81.07.03.2009,Aru Tengah,Kabupaten,Kepulauan Aru,Maluku
1154,97661,Lorang,81.07.03.2006,Aru Tengah,Kabupaten,Kepulauan Aru,Maluku
1155,97661,Maijuring,81.07.03.2043,Aru Tengah,Kabupaten,Kepulauan Aru,Maluku
1156,97661,Manjau,81.07.03.2008,Aru Tengah,Kabupaten,Kepulauan Aru,Maluku
1157,97661,Maririmar,81.07.03.2035,Aru Tengah,Kabupaten,Kepulauan Aru,Maluku
1158,97661,Murai,81.07.03.2007,Aru Tengah,Kabupaten,Kepulauan Aru,Maluku
1159,97661,Namara,81.07.03.2039,Aru Tengah,Kabupaten,Kepulauan Aru,Maluku
1160,97661,Papakula,81.07.03.2036,Aru Tengah,Kabupaten,Kepulauan Aru,Maluku
1161,97661,Selibata-Bata,81.07.03.2045,Aru Tengah,Kabupaten,Kepulauan Aru,Maluku
1162,97661,Selilau,81.07.03.2040,Aru Tengah,Kabupaten,Kepulauan Aru,Maluku
1163,97661,Tanah Miring,81.07.03.2037,Aru Tengah,Kabupaten,Kepulauan Aru,Maluku
1164,97661,Wakua,81.07.03.2033,Aru Tengah,Kabupaten,Kepulauan Aru,Maluku
1165,97668,Erersin,81.07.10.2006,Aru Selatan Utara,Kabupaten,Kepulauan Aru,Maluku
1166,97668,Hokmar,81.07.10.2004,Aru Selatan Utara,Kabupaten,Kepulauan Aru,Maluku
1167,97668,Juring,81.07.10.2005,Aru Selatan Utara,Kabupaten,Kepulauan Aru,Maluku
1168,97668,Lutur,81.07.10.2003,Aru Selatan Utara,Kabupaten,Kepulauan Aru,Maluku
1169,97668,Maekor,81.07.10.2007,Aru Selatan Utara,Kabupaten,Kepulauan Aru,Maluku
1170,97668,Rebi,81.07.10.2002,Aru Selatan Utara,Kabupaten,Kepulauan Aru,Maluku
1171,97668,Tabarfane,81.07.10.2001,Aru Selatan Utara,Kabupaten,Kepulauan Aru,Maluku
1172,97666,Batugoyang,81.07.09.2003,Aru Selatan Timur,Kabupaten,Kepulauan Aru,Maluku
1173,97666,Beltubur,81.07.09.2006,Aru Selatan Timur,Kabupaten,Kepulauan Aru,Maluku
1174,97666,Dosimar,81.07.09.2002,Aru Selatan Timur,Kabupaten,Kepulauan Aru,Maluku
1175,97666,Gomar Meti (Gomarmeti),81.07.09.2010,Aru Selatan Timur,Kabupaten,Kepulauan Aru,Maluku
1176,97666,Gomar Sungai (Gomarsungai),81.07.09.2009,Aru Selatan Timur,Kabupaten,Kepulauan Aru,Maluku
1177,97666,Jorang,81.07.09.2008,Aru Selatan Timur,Kabupaten,Kepulauan Aru,Maluku
1178,97666,Karey,81.07.09.2007,Aru Selatan Timur,Kabupaten,Kepulauan Aru,Maluku
1179,97666,Meror,81.07.09.2001,Aru Selatan Timur,Kabupaten,Kepulauan Aru,Maluku
1180,97666,Salarem,81.07.09.2004,Aru Selatan Timur,Kabupaten,Kepulauan Aru,Maluku
1181,97666,Siya,81.07.09.2005,Aru Selatan Timur,Kabupaten,Kepulauan Aru,Maluku
1182,97667,Doka Barat,81.07.02.2029,Aru Selatan,Kabupaten,Kepulauan Aru,Maluku
1183,97667,Doka Timur,81.07.02.2030,Aru Selatan,Kabupaten,Kepulauan Aru,Maluku
1184,97667,Fatural,81.07.02.2007,Aru Selatan,Kabupaten,Kepulauan Aru,Maluku
1185,97667,Feruni,81.07.02.2005,Aru Selatan,Kabupaten,Kepulauan Aru,Maluku
1186,97667,Gaimar,81.07.02.2027,Aru Selatan,Kabupaten,Kepulauan Aru,Maluku
1187,97667,Jelia,81.07.02.2031,Aru Selatan,Kabupaten,Kepulauan Aru,Maluku
1188,97667,Jerol,81.07.02.2001,Aru Selatan,Kabupaten,Kepulauan Aru,Maluku
1189,97667,Kabalukin,81.07.02.2003,Aru Selatan,Kabupaten,Kepulauan Aru,Maluku
1190,97667,Kalar-Kalar,81.07.02.2004,Aru Selatan,Kabupaten,Kepulauan Aru,Maluku
1191,97667,Laininir,81.07.02.2028,Aru Selatan,Kabupaten,Kepulauan Aru,Maluku
1192,97667,Lor-lor,81.07.02.2026,Aru Selatan,Kabupaten,Kepulauan Aru,Maluku
1193,97667,Marfenfen (Marafenfen),81.07.02.2002,Aru Selatan,Kabupaten,Kepulauan Aru,Maluku
1194,97667,Ngaibor,81.07.02.2008,Aru Selatan,Kabupaten,Kepulauan Aru,Maluku
1195,97667,Ngaiguli,81.07.02.2006,Aru Selatan,Kabupaten,Kepulauan Aru,Maluku
1196,97667,Popjetur,81.07.02.2010,Aru Selatan,Kabupaten,Kepulauan Aru,Maluku
1197,97546,Elara,81.09.03.2007,Ambalau,Kabupaten,Buru Selatan,Maluku
1198,97546,Kampung Baru,81.09.03.2004,Ambalau,Kabupaten,Buru Selatan,Maluku
1199,97546,Lumoy,81.09.03.2001,Ambalau,Kabupaten,Buru Selatan,Maluku
1200,97546,Masawoy,81.09.03.2002,Ambalau,Kabupaten,Buru Selatan,Maluku
1201,97546,Selasi,81.09.03.2006,Ambalau,Kabupaten,Buru Selatan,Maluku
1202,97546,Siwar,81.09.03.2005,Ambalau,Kabupaten,Buru Selatan,Maluku
1203,97546,Ulima,81.09.03.2003,Ambalau,Kabupaten,Buru Selatan,Maluku
1204,97563,Hualoy,81.06.05.2005,Amalatu,Kabupaten,Seram Bagian Barat,Maluku
1205,97563,Latu,81.06.05.2003,Amalatu,Kabupaten,Seram Bagian Barat,Maluku
1206,97563,Rumahkay,81.06.05.2002,Amalatu,Kabupaten,Seram Bagian Barat,Maluku
1207,97563,Seriholo,81.06.05.2006,Amalatu,Kabupaten,Seram Bagian Barat,Maluku
1208,97563,Tala,81.06.05.2007,Amalatu,Kabupaten,Seram Bagian Barat,Maluku
1209,97563,Tihulale,81.06.05.2001,Amalatu,Kabupaten,Seram Bagian Barat,Maluku
1210,97563,Tomalehu,81.06.05.2004,Amalatu,Kabupaten,Seram Bagian Barat,Maluku
1211,97516,Amahai,81.01.01.2005,Amahai,Kabupaten,Maluku Tengah,Maluku
1212,97516,Banda Baru,81.01.01.2011,Amahai,Kabupaten,Maluku Tengah,Maluku
1213,97516,Haruru,81.01.01.2006,Amahai,Kabupaten,Maluku Tengah,Maluku
1214,97516,Hatuhenu,81.01.01.2022,Amahai,Kabupaten,Maluku Tengah,Maluku
1215,97516,Hollo,81.01.01.1009,Amahai,Kabupaten,Maluku Tengah,Maluku
1216,97516,Makariki,81.01.01.2008,Amahai,Kabupaten,Maluku Tengah,Maluku
1217,97516,Nua Nea,81.01.01.2021,Amahai,Kabupaten,Maluku Tengah,Maluku
1218,97516,Nuweletetu,81.01.01.2023,Amahai,Kabupaten,Maluku Tengah,Maluku
1219,97516,Rutah,81.01.01.2003,Amahai,Kabupaten,Maluku Tengah,Maluku
1220,97516,Sehati,81.01.01.2007,Amahai,Kabupaten,Maluku Tengah,Maluku
1221,97516,Sepa,81.01.01.2002,Amahai,Kabupaten,Maluku Tengah,Maluku
1222,97516,Soahuku,81.01.01.2004,Amahai,Kabupaten,Maluku Tengah,Maluku
1223,97516,Tamilouw,81.01.01.2001,Amahai,Kabupaten,Maluku Tengah,Maluku
1224,97516,Yafila,81.01.01.2010,Amahai,Kabupaten,Maluku Tengah,Maluku
1225,97516,Yainuelo,81.01.01.2020,Amahai,Kabupaten,Maluku Tengah,Maluku
1226,97572,Air Buaya,81.04.02.2006,Air Buaya (Airbuaya),Kabupaten,Buru,Maluku
1227,97572,Awilinan,81.04.02.2023,Air Buaya (Airbuaya),Kabupaten,Buru,Maluku
1228,97572,Bara,81.04.02.2008,Air Buaya (Airbuaya),Kabupaten,Buru,Maluku
1229,97572,Batlale,81.04.02.2020,Air Buaya (Airbuaya),Kabupaten,Buru,Maluku
1230,97572,Kampung Baru,81.04.02.2019,Air Buaya (Airbuaya),Kabupaten,Buru,Maluku
1231,97572,Selwadu,81.04.02.2014,Air Buaya (Airbuaya),Kabupaten,Buru,Maluku
1232,97572,Tanjung Karang,81.04.02.2007,Air Buaya (Airbuaya),Kabupaten,Buru,Maluku
1233,97572,Waimangit (Waemangit),81.04.02.2005,Air Buaya (Airbuaya),Kabupaten,Buru,Maluku
1234,97572,Waipure (Waepure),81.04.02.2004,Air Buaya (Airbuaya),Kabupaten,Buru,Maluku
1235,97572,Wasbaka,81.04.02.2018,Air Buaya (Airbuaya),Kabupaten,Buru,Maluku