no,postal_code,urban,area_code,sub_district,dt2,city,province
1,84251,Baka Jaya,52.05.05.2014,Woja,Kabupaten,Dompu,Nusa Tenggara Barat (NTB)
2,84251,Bara,52.05.05.2008,Woja,Kabupaten,Dompu,Nusa Tenggara Barat (NTB)
3,84218,Kandai II,52.05.05.1002,Woja,Kabupaten,Dompu,Nusa Tenggara Barat (NTB)
4,84251,Mada Prama,52.05.05.2009,Woja,Kabupaten,Dompu,Nusa Tenggara Barat (NTB)
5,84251,Matua,52.05.05.2006,Woja,Kabupaten,Dompu,Nusa Tenggara Barat (NTB)
6,84219,Monta Baru,52.05.05.1001,Woja,Kabupaten,Dompu,Nusa Tenggara Barat (NTB)
7,84251,Mumbu,52.05.05.2011,Woja,Kabupaten,Dompu,Nusa Tenggara Barat (NTB)
8,84251,Nowa,52.05.05.2007,Woja,Kabupaten,Dompu,Nusa Tenggara Barat (NTB)
9,84251,Raba Baka,52.05.05.2013,Woja,Kabupaten,Dompu,Nusa Tenggara Barat (NTB)
10,84251,Riwo,52.05.05.2010,Woja,Kabupaten,Dompu,Nusa Tenggara Barat (NTB)
11,84251,Saneo,52.05.05.2004,Woja,Kabupaten,Dompu,Nusa Tenggara Barat (NTB)
12,84251,Sera Kapi,52.05.05.2012,Woja,Kabupaten,Dompu,Nusa Tenggara Barat (NTB)
13,84216,Simpasai,52.05.05.1003,Woja,Kabupaten,Dompu,Nusa Tenggara Barat (NTB)
14,84251,Wawonduru,52.05.05.2005,Woja,Kabupaten,Dompu,Nusa Tenggara Barat (NTB)
15,84171,Dadibou,52.06.03.2010,Woha,Kabupaten,Bima,Nusa Tenggara Barat (NTB)
16,84171,Donggobolo,52.06.03.2009,Woha,Kabupaten,Bima,Nusa Tenggara Barat (NTB)
17,84171,Kalampa,52.06.03.2006,Woha,Kabupaten,Bima,Nusa Tenggara Barat (NTB)
18,84171,Keli,52.06.03.2001,Woha,Kabupaten,Bima,Nusa Tenggara Barat (NTB)
19,84171,Naru,52.06.03.2012,Woha,Kabupaten,Bima,Nusa Tenggara Barat (NTB)
20,84171,Nisa,52.06.03.2013,Woha,Kabupaten,Bima,Nusa Tenggara Barat (NTB)
21,84171,Pandai,52.06.03.2008,Woha,Kabupaten,Bima,Nusa Tenggara Barat (NTB)
22,84171,Penapali,52.06.03.2015,Woha,Kabupaten,Bima,Nusa Tenggara Barat (NTB)
23,84171,Rabakodo,52.06.03.2004,Woha,Kabupaten,Bima,Nusa Tenggara Barat (NTB)
24,84171,Risa,52.06.03.2007,Woha,Kabupaten,Bima,Nusa Tenggara Barat (NTB)
25,84171,Samili,52.06.03.2005,Woha,Kabupaten,Bima,Nusa Tenggara Barat (NTB)
26,84171,Talabiu,52.06.03.2011,Woha,Kabupaten,Bima,Nusa Tenggara Barat (NTB)
27,84171,Tenga,52.06.03.2002,Woha,Kabupaten,Bima,Nusa Tenggara Barat (NTB)
28,84171,Tente,52.06.03.2003,Woha,Kabupaten,Bima,Nusa Tenggara Barat (NTB)
29,84171,Waduwani,52.06.03.2014,Woha,Kabupaten,Bima,Nusa Tenggara Barat (NTB)
30,84152,Bala,52.06.07.2008,Wera,Kabupaten,Bima,Nusa Tenggara Barat (NTB)
31,84152,Hadirasa,52.06.07.2005,Wera,Kabupaten,Bima,Nusa Tenggara Barat (NTB)
32,84152,Kalajena,52.06.07.2013,Wera,Kabupaten,Bima,Nusa Tenggara Barat (NTB)
33,84152,Mandala,52.06.07.2014,Wera,Kabupaten,Bima,Nusa Tenggara Barat (NTB)
34,84152,Nanga Wera,52.06.07.2011,Wera,Kabupaten,Bima,Nusa Tenggara Barat (NTB)
35,84152,Ntoke,52.06.07.2001,Wera,Kabupaten,Bima,Nusa Tenggara Barat (NTB)
36,84152,Nunggi,52.06.07.2003,Wera,Kabupaten,Bima,Nusa Tenggara Barat (NTB)
37,84152,Oi Tui,52.06.07.2009,Wera,Kabupaten,Bima,Nusa Tenggara Barat (NTB)
38,84152,Pai,52.06.07.2002,Wera,Kabupaten,Bima,Nusa Tenggara Barat (NTB)
39,84152,Ranggasolo,52.06.07.2012,Wera,Kabupaten,Bima,Nusa Tenggara Barat (NTB)
40,84152,Sangiang,52.06.07.2007,Wera,Kabupaten,Bima,Nusa Tenggara Barat (NTB)
41,84152,Tadewa,52.06.07.2010,Wera,Kabupaten,Bima,Nusa Tenggara Barat (NTB)
42,84152,Tawali,52.06.07.2004,Wera,Kabupaten,Bima,Nusa Tenggara Barat (NTB)
43,84152,Wora,52.06.07.2006,Wera,Kabupaten,Bima,Nusa Tenggara Barat (NTB)
44,84184,Kambilo,52.06.05.2011,Wawo,Kabupaten,Bima,Nusa Tenggara Barat (NTB)
45,84184,Kombo,52.06.05.2013,Wawo,Kabupaten,Bima,Nusa Tenggara Barat (NTB)
46,84184,Maria,52.06.05.2006,Wawo,Kabupaten,Bima,Nusa Tenggara Barat (NTB)
47,84184,Maria Utara,52.06.05.2012,Wawo,Kabupaten,Bima,Nusa Tenggara Barat (NTB)
48,84184,Ntori,52.06.05.2005,Wawo,Kabupaten,Bima,Nusa Tenggara Barat (NTB)
49,84184,Pesa,52.06.05.2007,Wawo,Kabupaten,Bima,Nusa Tenggara Barat (NTB)
50,84184,Raba,52.06.05.2008,Wawo,Kabupaten,Bima,Nusa Tenggara Barat (NTB)
51,84184,Rianmau,52.06.05.2014,Wawo,Kabupaten,Bima,Nusa Tenggara Barat (NTB)
52,84184,Tarlawi,52.06.05.2001,Wawo,Kabupaten,Bima,Nusa Tenggara Barat (NTB)
53,83650,Bandok,52.03.14.2009,Wanasaba,Kabupaten,Lombok Timur,Nusa Tenggara Barat (NTB)
54,83650,Bebidas,52.03.14.2005,Wanasaba,Kabupaten,Lombok Timur,Nusa Tenggara Barat (NTB)
55,83650,Beriri Jarak,52.03.14.2008,Wanasaba,Kabupaten,Lombok Timur,Nusa Tenggara Barat (NTB)
56,83650,Jineng,52.03.14.2012,Wanasaba,Kabupaten,Lombok Timur,Nusa Tenggara Barat (NTB)
57,83650,Karang Baru,52.03.14.2004,Wanasaba,Kabupaten,Lombok Timur,Nusa Tenggara Barat (NTB)
58,83650,Karang Baru Timur,52.03.14.2014,Wanasaba,Kabupaten,Lombok Timur,Nusa Tenggara Barat (NTB)
59,83650,Mamben Baru,52.03.14.2010,Wanasaba,Kabupaten,Lombok Timur,Nusa Tenggara Barat (NTB)
60,83650,Mamben Daya,52.03.14.2001,Wanasaba,Kabupaten,Lombok Timur,Nusa Tenggara Barat (NTB)
61,83650,Mamben Lauk/Lauq,52.03.14.2002,Wanasaba,Kabupaten,Lombok Timur,Nusa Tenggara Barat (NTB)
62,83650,Otak Rarangan,52.03.14.2011,Wanasaba,Kabupaten,Lombok Timur,Nusa Tenggara Barat (NTB)
63,83650,Tembeng Putik,52.03.14.2006,Wanasaba,Kabupaten,Lombok Timur,Nusa Tenggara Barat (NTB)
64,83650,Wanasaba,52.03.14.2003,Wanasaba,Kabupaten,Lombok Timur,Nusa Tenggara Barat (NTB)
65,83650,Wanasaba Daya,52.03.14.2013,Wanasaba,Kabupaten,Lombok Timur,Nusa Tenggara Barat (NTB)
66,83650,Wanasaba Lauk,52.03.14.2007,Wanasaba,Kabupaten,Lombok Timur,Nusa Tenggara Barat (NTB)
67,84351,Bale Brang,52.04.06.2012,Utan,Kabupaten,Sumbawa,Nusa Tenggara Barat (NTB)
68,84351,Jorok,52.04.06.2005,Utan,Kabupaten,Sumbawa,Nusa Tenggara Barat (NTB)
69,84351,Labuhan Bajo (Labuan Bajo),52.04.06.2002,Utan,Kabupaten,Sumbawa,Nusa Tenggara Barat (NTB)
70,84351,Motong,52.04.06.2006,Utan,Kabupaten,Sumbawa,Nusa Tenggara Barat (NTB)
71,84351,Orong Bawa,52.04.06.2004,Utan,Kabupaten,Sumbawa,Nusa Tenggara Barat (NTB)
72,84351,Pukat,52.04.06.2003,Utan,Kabupaten,Sumbawa,Nusa Tenggara Barat (NTB)
73,84351,Sebedo (Sabedo),52.04.06.2008,Utan,Kabupaten,Sumbawa,Nusa Tenggara Barat (NTB)
74,84351,Stowe Brang,52.04.06.2001,Utan,Kabupaten,Sumbawa,Nusa Tenggara Barat (NTB)
75,84351,Tengah,52.04.06.2007,Utan,Kabupaten,Sumbawa,Nusa Tenggara Barat (NTB)
76,84310,Boak,52.04.22.2003,Unter Iwes (Unterwiris),Kabupaten,Sumbawa,Nusa Tenggara Barat (NTB)
77,84310,Jorok,52.04.22.2004,Unter Iwes (Unterwiris),Kabupaten,Sumbawa,Nusa Tenggara Barat (NTB)
78,84310,Kerato,52.04.22.2005,Unter Iwes (Unterwiris),Kabupaten,Sumbawa,Nusa Tenggara Barat (NTB)
79,84310,Kerekeh,52.04.22.2002,Unter Iwes (Unterwiris),Kabupaten,Sumbawa,Nusa Tenggara Barat (NTB)
80,84310,Nijang,52.04.22.2008,Unter Iwes (Unterwiris),Kabupaten,Sumbawa,Nusa Tenggara Barat (NTB)
81,84310,Pelat,52.04.22.2001,Unter Iwes (Unterwiris),Kabupaten,Sumbawa,Nusa Tenggara Barat (NTB)
82,84310,Pungka,52.04.22.2006,Unter Iwes (Unterwiris),Kabupaten,Sumbawa,Nusa Tenggara Barat (NTB)
83,84310,Uma Beringin,52.04.22.2007,Unter Iwes (Unterwiris),Kabupaten,Sumbawa,Nusa Tenggara Barat (NTB)
84,83664,Embung Kandong,52.03.03.2013,Terara,Kabupaten,Lombok Timur,Nusa Tenggara Barat (NTB)
85,83664,Embung Raja,52.03.03.2011,Terara,Kabupaten,Lombok Timur,Nusa Tenggara Barat (NTB)
86,83664,Jenggik,52.03.03.2001,Terara,Kabupaten,Lombok Timur,Nusa Tenggara Barat (NTB)
87,83664,Kalianyar,52.03.03.2014,Terara,Kabupaten,Lombok Timur,Nusa Tenggara Barat (NTB)
88,83664,Lando,52.03.03.2009,Terara,Kabupaten,Lombok Timur,Nusa Tenggara Barat (NTB)
89,83664,Leming,52.03.03.2008,Terara,Kabupaten,Lombok Timur,Nusa Tenggara Barat (NTB)
90,83664,Pandan Duri,52.03.03.2016,Terara,Kabupaten,Lombok Timur,Nusa Tenggara Barat (NTB)
91,83664,Rarang,52.03.03.2002,Terara,Kabupaten,Lombok Timur,Nusa Tenggara Barat (NTB)
92,83664,Rarang Batas,52.03.03.2015,Terara,Kabupaten,Lombok Timur,Nusa Tenggara Barat (NTB)
93,83664,Rarang Selatan,52.03.03.2007,Terara,Kabupaten,Lombok Timur,Nusa Tenggara Barat (NTB)
94,83664,Rarang Tengah,52.03.03.2010,Terara,Kabupaten,Lombok Timur,Nusa Tenggara Barat (NTB)
95,83664,Santong,52.03.03.2004,Terara,Kabupaten,Lombok Timur,Nusa Tenggara Barat (NTB)
96,83664,Selagik,52.03.03.2012,Terara,Kabupaten,Lombok Timur,Nusa Tenggara Barat (NTB)
97,83664,Sukadana,52.03.03.2006,Terara,Kabupaten,Lombok Timur,Nusa Tenggara Barat (NTB)
98,83664,Suradadi,52.03.03.2003,Terara,Kabupaten,Lombok Timur,Nusa Tenggara Barat (NTB)
99,83664,Terara,52.03.03.2005,Terara,Kabupaten,Lombok Timur,Nusa Tenggara Barat (NTB)
100,84385,Banda,52.04.25.2007,Tarano,Kabupaten,Sumbawa,Nusa Tenggara Barat (NTB)
101,84385,Bantulante,52.04.25.2001,Tarano,Kabupaten,Sumbawa,Nusa Tenggara Barat (NTB)
102,84385,Labuhan Aji,52.04.25.2003,Tarano,Kabupaten,Sumbawa,Nusa Tenggara Barat (NTB)
103,84385,Labuhan Bontong,52.04.25.2002,Tarano,Kabupaten,Sumbawa,Nusa Tenggara Barat (NTB)
104,84385,Labuhan Jambu,52.04.25.2004,Tarano,Kabupaten,Sumbawa,Nusa Tenggara Barat (NTB)
105,84385,Labuhan Pidang,52.04.25.2008,Tarano,Kabupaten,Sumbawa,Nusa Tenggara Barat (NTB)
106,84385,Mata,52.04.25.2005,Tarano,Kabupaten,Sumbawa,Nusa Tenggara Barat (NTB)
107,84385,Tolo Oi,52.04.25.2006,Tarano,Kabupaten,Sumbawa,Nusa Tenggara Barat (NTB)
108,83350,Jenggala,52.08.01.2003,Tanjung,Kabupaten,Lombok Utara,Nusa Tenggara Barat (NTB)
109,83350,Medana,52.08.01.2006,Tanjung,Kabupaten,Lombok Utara,Nusa Tenggara Barat (NTB)
110,83350,Sama Guna,52.08.01.2008,Tanjung,Kabupaten,Lombok Utara,Nusa Tenggara Barat (NTB)
111,83350,Sigar Penjalin (Pinjalin),52.08.01.2005,Tanjung,Kabupaten,Lombok Utara,Nusa Tenggara Barat (NTB)
112,83350,Sokong,52.08.01.2002,Tanjung,Kabupaten,Lombok Utara,Nusa Tenggara Barat (NTB)
113,83350,Tanjung,52.08.01.2001,Tanjung,Kabupaten,Lombok Utara,Nusa Tenggara Barat (NTB)
114,83350,Tegal Maja,52.08.01.2004,Tanjung,Kabupaten,Lombok Utara,Nusa Tenggara Barat (NTB)
115,83350,Teniga,52.08.01.2007,Tanjung,Kabupaten,Lombok Utara,Nusa Tenggara Barat (NTB)
116,84190,Kawinda Nae,52.06.14.2002,Tambora,Kabupaten,Bima,Nusa Tenggara Barat (NTB)
117,84190,Kawinda Toi,52.06.14.2003,Tambora,Kabupaten,Bima,Nusa Tenggara Barat (NTB)
118,84190,Labuhan Kenanga,52.06.14.2001,Tambora,Kabupaten,Bima,Nusa Tenggara Barat (NTB)
119,84190,Oi Bura,52.06.14.2005,Tambora,Kabupaten,Bima,Nusa Tenggara Barat (NTB)
120,84190,Oi Katupa,52.06.14.2006,Tambora,Kabupaten,Bima,Nusa Tenggara Barat (NTB)
121,84190,Oi Panihi,52.06.14.2004,Tambora,Kabupaten,Bima,Nusa Tenggara Barat (NTB)
122,84190,Rasabou,52.06.14.2007,Tambora,Kabupaten,Bima,Nusa Tenggara Barat (NTB)
123,84452,Arab Kenangan,52.07.02.1019,Taliwang,Kabupaten,Sumbawa Barat,Nusa Tenggara Barat (NTB)
124,84452,Banjar,52.07.02.2014,Taliwang,Kabupaten,Sumbawa Barat,Nusa Tenggara Barat (NTB)
125,84452,Batu Putih,52.07.02.2015,Taliwang,Kabupaten,Sumbawa Barat,Nusa Tenggara Barat (NTB)
126,84452,Bugis,52.07.02.1006,Taliwang,Kabupaten,Sumbawa Barat,Nusa Tenggara Barat (NTB)
127,84452,Dalam,52.07.02.1007,Taliwang,Kabupaten,Sumbawa Barat,Nusa Tenggara Barat (NTB)
128,84452,Kuang,52.07.02.1005,Taliwang,Kabupaten,Sumbawa Barat,Nusa Tenggara Barat (NTB)
129,84452,Labuhan Kertasari (Labuan Kertasari),52.07.02.2010,Taliwang,Kabupaten,Sumbawa Barat,Nusa Tenggara Barat (NTB)
130,84452,Labuhan Lalar (Labuan Lalar),52.07.02.2001,Taliwang,Kabupaten,Sumbawa Barat,Nusa Tenggara Barat (NTB)
131,84452,Lalar Liang (Lalang Liang),52.07.02.2009,Taliwang,Kabupaten,Sumbawa Barat,Nusa Tenggara Barat (NTB)
132,84452,Lamunga,52.07.02.2021,Taliwang,Kabupaten,Sumbawa Barat,Nusa Tenggara Barat (NTB)
133,84452,Menala,52.07.02.1004,Taliwang,Kabupaten,Sumbawa Barat,Nusa Tenggara Barat (NTB)
134,84452,Sampir,52.07.02.1008,Taliwang,Kabupaten,Sumbawa Barat,Nusa Tenggara Barat (NTB)
135,84452,Seloto,52.07.02.2011,Taliwang,Kabupaten,Sumbawa Barat,Nusa Tenggara Barat (NTB)
136,84452,Sermong,52.07.02.2020,Taliwang,Kabupaten,Sumbawa Barat,Nusa Tenggara Barat (NTB)
137,84452,Tamekan,52.07.02.2013,Taliwang,Kabupaten,Sumbawa Barat,Nusa Tenggara Barat (NTB)
138,84452,Telaga Bertong,52.07.02.1012,Taliwang,Kabupaten,Sumbawa Barat,Nusa Tenggara Barat (NTB)
139,83655,Ketangga,52.03.16.2002,Suwela (Suela),Kabupaten,Lombok Timur,Nusa Tenggara Barat (NTB)
140,83655,Mekar Sari,52.03.16.2007,Suwela (Suela),Kabupaten,Lombok Timur,Nusa Tenggara Barat (NTB)
141,83655,Perigi,52.03.16.2006,Suwela (Suela),Kabupaten,Lombok Timur,Nusa Tenggara Barat (NTB)
142,83655,Puncak Jeringo,52.03.16.2008,Suwela (Suela),Kabupaten,Lombok Timur,Nusa Tenggara Barat (NTB)
143,83655,Sapit,52.03.16.2005,Suwela (Suela),Kabupaten,Lombok Timur,Nusa Tenggara Barat (NTB)
144,83655,Selaparang,52.03.16.2001,Suwela (Suela),Kabupaten,Lombok Timur,Nusa Tenggara Barat (NTB)
145,83655,Suela (Suwela),52.03.16.2004,Suwela (Suela),Kabupaten,Lombok Timur,Nusa Tenggara Barat (NTB)
146,83655,Suntalangu,52.03.16.2003,Suwela (Suela),Kabupaten,Lombok Timur,Nusa Tenggara Barat (NTB)
147,83651,Anjani,52.03.13.2001,Suralaga,Kabupaten,Lombok Timur,Nusa Tenggara Barat (NTB)
148,83651,Bagik Payung,52.03.13.2004,Suralaga,Kabupaten,Lombok Timur,Nusa Tenggara Barat (NTB)
149,83651,Bagik Payung Selatan,52.03.13.2006,Suralaga,Kabupaten,Lombok Timur,Nusa Tenggara Barat (NTB)
150,83651,Bagik Payung Timur,52.03.13.2011,Suralaga,Kabupaten,Lombok Timur,Nusa Tenggara Barat (NTB)
151,83651,Bintang Rinjani,52.03.13.2014,Suralaga,Kabupaten,Lombok Timur,Nusa Tenggara Barat (NTB)
152,83651,Dames Damai,52.03.13.2010,Suralaga,Kabupaten,Lombok Timur,Nusa Tenggara Barat (NTB)
153,83651,Dasan Borok,52.03.13.2008,Suralaga,Kabupaten,Lombok Timur,Nusa Tenggara Barat (NTB)
154,83651,Gapuk,52.03.13.2013,Suralaga,Kabupaten,Lombok Timur,Nusa Tenggara Barat (NTB)
155,83651,Gerung Permai,52.03.13.2009,Suralaga,Kabupaten,Lombok Timur,Nusa Tenggara Barat (NTB)
156,83651,Kerongkong,52.03.13.2003,Suralaga,Kabupaten,Lombok Timur,Nusa Tenggara Barat (NTB)
157,83651,Paok Lombok,52.03.13.2015,Suralaga,Kabupaten,Lombok Timur,Nusa Tenggara Barat (NTB)
158,83651,Suralaga,52.03.13.2005,Suralaga,Kabupaten,Lombok Timur,Nusa Tenggara Barat (NTB)
159,83651,Tebaban,52.03.13.2002,Suralaga,Kabupaten,Lombok Timur,Nusa Tenggara Barat (NTB)
160,83651,Tumbuh Mulia,52.03.13.2007,Suralaga,Kabupaten,Lombok Timur,Nusa Tenggara Barat (NTB)
161,83651,Waringin,52.03.13.2012,Suralaga,Kabupaten,Lombok Timur,Nusa Tenggara Barat (NTB)
162,84314,Brang Bara,52.04.08.1002,Sumbawa,Kabupaten,Sumbawa,Nusa Tenggara Barat (NTB)
163,84318,Brang Biji,52.04.08.1007,Sumbawa,Kabupaten,Sumbawa,Nusa Tenggara Barat (NTB)
164,84313,Bugis,52.04.08.1005,Sumbawa,Kabupaten,Sumbawa,Nusa Tenggara Barat (NTB)
165,84312,Lempeh,52.04.08.1006,Sumbawa,Kabupaten,Sumbawa,Nusa Tenggara Barat (NTB)
166,84315,Pekat,52.04.08.1003,Sumbawa,Kabupaten,Sumbawa,Nusa Tenggara Barat (NTB)
167,84316,Samapuin,52.04.08.1001,Sumbawa,Kabupaten,Sumbawa,Nusa Tenggara Barat (NTB)
168,84311,Seketeng,52.04.08.1004,Sumbawa,Kabupaten,Sumbawa,Nusa Tenggara Barat (NTB)
169,84317,Uma Sima,52.04.08.1008,Sumbawa,Kabupaten,Sumbawa,Nusa Tenggara Barat (NTB)
170,83652,Dasan Lekong,52.03.06.2004,Sukamulia,Kabupaten,Lombok Timur,Nusa Tenggara Barat (NTB)
171,83652,Jantuk,52.03.06.2002,Sukamulia,Kabupaten,Lombok Timur,Nusa Tenggara Barat (NTB)
172,83652,Nyiur Tebel,52.03.06.2008,Sukamulia,Kabupaten,Lombok Timur,Nusa Tenggara Barat (NTB)
173,83652,Padamara,52.03.06.2003,Sukamulia,Kabupaten,Lombok Timur,Nusa Tenggara Barat (NTB)
174,83652,Paok Pampang,52.03.06.2006,Sukamulia,Kabupaten,Lombok Timur,Nusa Tenggara Barat (NTB)
175,83652,Setanggor,52.03.06.2001,Sukamulia,Kabupaten,Lombok Timur,Nusa Tenggara Barat (NTB)
176,83652,Setanggor Selatan,52.03.06.2009,Sukamulia,Kabupaten,Lombok Timur,Nusa Tenggara Barat (NTB)
177,83652,Sukamulia,52.03.06.2005,Sukamulia,Kabupaten,Lombok Timur,Nusa Tenggara Barat (NTB)
178,83652,Sukamulia Timur,52.03.06.2007,Sukamulia,Kabupaten,Lombok Timur,Nusa Tenggara Barat (NTB)
179,84163,Bajo,52.06.15.2001,Soromandi,Kabupaten,Bima,Nusa Tenggara Barat (NTB)
180,84163,Kanata,52.06.15.2004,Soromandi,Kabupaten,Bima,Nusa Tenggara Barat (NTB)
181,84163,Lewintana,52.06.15.2007,Soromandi,Kabupaten,Bima,Nusa Tenggara Barat (NTB)
182,84163,Punti,52.06.15.2002,Soromandi,Kabupaten,Bima,Nusa Tenggara Barat (NTB)
183,84163,Sai,52.06.15.2005,Soromandi,Kabupaten,Bima,Nusa Tenggara Barat (NTB)
184,84163,Sampungu,52.06.15.2006,Soromandi,Kabupaten,Bima,Nusa Tenggara Barat (NTB)
185,84163,Wadukopa,52.06.15.2003,Soromandi,Kabupaten,Bima,Nusa Tenggara Barat (NTB)
186,83662,Darmasari,52.03.04.2010,Sikur,Kabupaten,Lombok Timur,Nusa Tenggara Barat (NTB)
187,83662,Gelora,52.03.04.2009,Sikur,Kabupaten,Lombok Timur,Nusa Tenggara Barat (NTB)
188,83662,Jeruk Manis,52.03.04.2012,Sikur,Kabupaten,Lombok Timur,Nusa Tenggara Barat (NTB)
189,83662,Kembang Kuning,52.03.04.2007,Sikur,Kabupaten,Lombok Timur,Nusa Tenggara Barat (NTB)
190,83662,Kota Raja (Kotaraja),52.03.04.2005,Sikur,Kabupaten,Lombok Timur,Nusa Tenggara Barat (NTB)
191,83662,Loyok,52.03.04.2004,Sikur,Kabupaten,Lombok Timur,Nusa Tenggara Barat (NTB)
192,83662,Montong Baan (Montongbaan),52.03.04.2003,Sikur,Kabupaten,Lombok Timur,Nusa Tenggara Barat (NTB)
193,83662,Montong Baan Selatan,52.03.04.2008,Sikur,Kabupaten,Lombok Timur,Nusa Tenggara Barat (NTB)
194,83662,Semaya,52.03.04.2001,Sikur,Kabupaten,Lombok Timur,Nusa Tenggara Barat (NTB)
195,83662,Sikur,52.03.04.2002,Sikur,Kabupaten,Lombok Timur,Nusa Tenggara Barat (NTB)
196,83662,Sikur Barat,52.03.04.2014,Sikur,Kabupaten,Lombok Timur,Nusa Tenggara Barat (NTB)
197,83662,Sikur Selatan,52.03.04.2013,Sikur,Kabupaten,Lombok Timur,Nusa Tenggara Barat (NTB)
198,83662,Tete Batu (Tetebatu),52.03.04.2006,Sikur,Kabupaten,Lombok Timur,Nusa Tenggara Barat (NTB)
199,83662,Tetebatu Selatan,52.03.04.2011,Sikur,Kabupaten,Lombok Timur,Nusa Tenggara Barat (NTB)
200,84453,Air Suning,52.07.03.2002,Seteluk (Sateluk),Kabupaten,Sumbawa Barat,Nusa Tenggara Barat (NTB)
201,84453,Desaloka,52.07.03.2015,Seteluk (Sateluk),Kabupaten,Sumbawa Barat,Nusa Tenggara Barat (NTB)
202,84453,Kelanir,52.07.03.2008,Seteluk (Sateluk),Kabupaten,Sumbawa Barat,Nusa Tenggara Barat (NTB)
203,84453,Lamusung,52.07.03.2013,Seteluk (Sateluk),Kabupaten,Sumbawa Barat,Nusa Tenggara Barat (NTB)
204,84453,Meraran,52.07.03.2001,Seteluk (Sateluk),Kabupaten,Sumbawa Barat,Nusa Tenggara Barat (NTB)
205,84453,Rempe,52.07.03.2003,Seteluk (Sateluk),Kabupaten,Sumbawa Barat,Nusa Tenggara Barat (NTB)
206,84453,Seran,52.07.03.2014,Seteluk (Sateluk),Kabupaten,Sumbawa Barat,Nusa Tenggara Barat (NTB)
207,84453,Seteluk Atas,52.07.03.2004,Seteluk (Sateluk),Kabupaten,Sumbawa Barat,Nusa Tenggara Barat (NTB)
208,84453,Seteluk Tengah,52.07.03.2005,Seteluk (Sateluk),Kabupaten,Sumbawa Barat,Nusa Tenggara Barat (NTB)
209,84453,Tapir,52.07.03.2011,Seteluk (Sateluk),Kabupaten,Sumbawa Barat,Nusa Tenggara Barat (NTB)
210,83657,Bilok Petung,52.03.15.2004,Sembalun,Kabupaten,Lombok Timur,Nusa Tenggara Barat (NTB)
211,83657,Sajang,52.03.15.2003,Sembalun,Kabupaten,Lombok Timur,Nusa Tenggara Barat (NTB)
212,83657,Sembalun,52.03.15.2005,Sembalun,Kabupaten,Lombok Timur,Nusa Tenggara Barat (NTB)
213,83657,Sembalun Bumbung,52.03.15.2001,Sembalun,Kabupaten,Lombok Timur,Nusa Tenggara Barat (NTB)
214,83657,Sembalun Lawang,52.03.15.2002,Sembalun,Kabupaten,Lombok Timur,Nusa Tenggara Barat (NTB)
215,83657,Sembalun Timba Gading,52.03.15.2006,Sembalun,Kabupaten,Lombok Timur,Nusa Tenggara Barat (NTB)
216,83618,Danggen Timur,52.03.07.2012,Selong,Kabupaten,Lombok Timur,Nusa Tenggara Barat (NTB)
217,83618,Denggen,52.03.07.1004,Selong,Kabupaten,Lombok Timur,Nusa Tenggara Barat (NTB)
218,83617,Kelaju Jorong (Jorong),52.03.07.1011,Selong,Kabupaten,Lombok Timur,Nusa Tenggara Barat (NTB)
219,83613,Kelayu Selatan,52.03.07.1003,Selong,Kabupaten,Lombok Timur,Nusa Tenggara Barat (NTB)
220,83619,Kelayu Utara,52.03.07.1010,Selong,Kabupaten,Lombok Timur,Nusa Tenggara Barat (NTB)
221,83618,Kembang Sari,52.03.07.1009,Selong,Kabupaten,Lombok Timur,Nusa Tenggara Barat (NTB)
222,83619,Majidi,52.03.07.1006,Selong,Kabupaten,Lombok Timur,Nusa Tenggara Barat (NTB)
223,83611,Pancor,52.03.07.1001,Selong,Kabupaten,Lombok Timur,Nusa Tenggara Barat (NTB)
224,83619,Rakam,52.03.07.1007,Selong,Kabupaten,Lombok Timur,Nusa Tenggara Barat (NTB)
225,83612,Sandu Baya (Sandubaya),52.03.07.1008,Selong,Kabupaten,Lombok Timur,Nusa Tenggara Barat (NTB)
226,83611,Sekarteja,52.03.07.1005,Selong,Kabupaten,Lombok Timur,Nusa Tenggara Barat (NTB)
227,83619,Selong (Selong Kota),52.03.07.1002,Selong,Kabupaten,Lombok Timur,Nusa Tenggara Barat (NTB)
228,83125,Dasan Agung,52.71.05.1002,Selaprang (Selaparang),Kota,Mataram,Nusa Tenggara Barat (NTB)
229,83125,Dasan Agung Baru,52.71.05.1007,Selaprang (Selaparang),Kota,Mataram,Nusa Tenggara Barat (NTB)
230,83126,Gomong,52.71.05.1006,Selaprang (Selaparang),Kota,Mataram,Nusa Tenggara Barat (NTB)
231,83123,Karang Baru,52.71.05.1004,Selaprang (Selaparang),Kota,Mataram,Nusa Tenggara Barat (NTB)
232,83126,Mataram Barat,52.71.05.1001,Selaprang (Selaparang),Kota,Mataram,Nusa Tenggara Barat (NTB)
233,83122,Monjok,52.71.05.1003,Selaprang (Selaparang),Kota,Mataram,Nusa Tenggara Barat (NTB)
234,83122,Monjok Barat,52.71.05.1009,Selaprang (Selaparang),Kota,Mataram,Nusa Tenggara Barat (NTB)
235,83122,Monjok Timur,52.71.05.1008,Selaprang (Selaparang),Kota,Mataram,Nusa Tenggara Barat (NTB)
236,83124,Rembiga,52.71.05.1005,Selaprang (Selaparang),Kota,Mataram,Nusa Tenggara Barat (NTB)
237,83365,Batu Putih,52.01.07.2006,Sekotong,Kabupaten,Lombok Barat,Nusa Tenggara Barat (NTB)
238,83365,Buwun Mas,52.01.07.2004,Sekotong,Kabupaten,Lombok Barat,Nusa Tenggara Barat (NTB)
239,83365,Cendi Manik,52.01.07.2008,Sekotong,Kabupaten,Lombok Barat,Nusa Tenggara Barat (NTB)
240,83365,Gili Gede Indah,52.01.07.2007,Sekotong,Kabupaten,Lombok Barat,Nusa Tenggara Barat (NTB)
241,83365,Kedaro,52.01.07.2005,Sekotong,Kabupaten,Lombok Barat,Nusa Tenggara Barat (NTB)
242,83365,Pelangan,52.01.07.2003,Sekotong,Kabupaten,Lombok Barat,Nusa Tenggara Barat (NTB)
243,83365,Sekotong Barat,52.01.07.2002,Sekotong,Kabupaten,Lombok Barat,Nusa Tenggara Barat (NTB)
244,83365,Sekotong Tengah,52.01.07.2001,Sekotong,Kabupaten,Lombok Barat,Nusa Tenggara Barat (NTB)
245,83365,Taman Baru,52.01.07.2009,Sekotong,Kabupaten,Lombok Barat,Nusa Tenggara Barat (NTB)
246,84457,Ai Kangkung,52.07.04.2004,Sekongkang,Kabupaten,Sumbawa Barat,Nusa Tenggara Barat (NTB)
247,84457,Kemuning,52.07.04.2007,Sekongkang,Kabupaten,Sumbawa Barat,Nusa Tenggara Barat (NTB)
248,84457,Sekongkang Atas,52.07.04.2001,Sekongkang,Kabupaten,Sumbawa Barat,Nusa Tenggara Barat (NTB)
249,84457,Sekongkang Bawah,52.07.04.2002,Sekongkang,Kabupaten,Sumbawa Barat,Nusa Tenggara Barat (NTB)
250,84457,Talonang Baru (Talonang),52.07.04.2006,Sekongkang,Kabupaten,Sumbawa Barat,Nusa Tenggara Barat (NTB)
251,84457,Tatar,52.07.04.2005,Sekongkang,Kabupaten,Sumbawa Barat,Nusa Tenggara Barat (NTB)
252,84457,Tongo,52.07.04.2003,Sekongkang,Kabupaten,Sumbawa Barat,Nusa Tenggara Barat (NTB)
253,83116,Jempong Baru (Jempang Baru),52.71.04.1003,Sekarbela,Kota,Mataram,Nusa Tenggara Barat (NTB)
254,83116,Karang Pule,52.71.04.1001,Sekarbela,Kota,Mataram,Nusa Tenggara Barat (NTB)
255,83116,Kekalik Jaya,52.71.04.1005,Sekarbela,Kota,Mataram,Nusa Tenggara Barat (NTB)
256,83115,Tanjung Karang,52.71.04.1002,Sekarbela,Kota,Mataram,Nusa Tenggara Barat (NTB)
257,83116,Tanjung Karang Permai,52.71.04.1004,Sekarbela,Kota,Mataram,Nusa Tenggara Barat (NTB)
258,84183,Bajo Pulo,52.06.06.2014,Sape,Kabupaten,Bima,Nusa Tenggara Barat (NTB)
259,84183,Boke,52.06.06.2002,Sape,Kabupaten,Bima,Nusa Tenggara Barat (NTB)
260,84183,Bugis,52.06.06.2004,Sape,Kabupaten,Bima,Nusa Tenggara Barat (NTB)
261,84183,Buncu,52.06.06.2012,Sape,Kabupaten,Bima,Nusa Tenggara Barat (NTB)
262,84183,Jia,52.06.06.2003,Sape,Kabupaten,Bima,Nusa Tenggara Barat (NTB)
263,84183,Kowo,52.06.06.2011,Sape,Kabupaten,Bima,Nusa Tenggara Barat (NTB)
264,84183,Lamera,52.06.06.2017,Sape,Kabupaten,Bima,Nusa Tenggara Barat (NTB)
265,84183,Na'e,52.06.06.2008,Sape,Kabupaten,Bima,Nusa Tenggara Barat (NTB)
266,84183,Naru,52.06.06.2005,Sape,Kabupaten,Bima,Nusa Tenggara Barat (NTB)
267,84183,Naru Barat,52.06.06.2015,Sape,Kabupaten,Bima,Nusa Tenggara Barat (NTB)
268,84183,Oi Maci,52.06.06.2018,Sape,Kabupaten,Bima,Nusa Tenggara Barat (NTB)
269,84183,Parangina,52.06.06.2010,Sape,Kabupaten,Bima,Nusa Tenggara Barat (NTB)
270,84183,Poja,52.06.06.2013,Sape,Kabupaten,Bima,Nusa Tenggara Barat (NTB)
271,84183,Rai O'i,52.06.06.2009,Sape,Kabupaten,Bima,Nusa Tenggara Barat (NTB)
272,84183,Rasabou,52.06.06.2006,Sape,Kabupaten,Bima,Nusa Tenggara Barat (NTB)
273,84183,Sangia,52.06.06.2007,Sape,Kabupaten,Bima,Nusa Tenggara Barat (NTB)
274,84183,Sari,52.06.06.2001,Sape,Kabupaten,Bima,Nusa Tenggara Barat (NTB)
275,84183,Tanah Putih,52.06.06.2016,Sape,Kabupaten,Bima,Nusa Tenggara Barat (NTB)
276,84191,Boro,52.06.09.2002,Sanggar,Kabupaten,Bima,Nusa Tenggara Barat (NTB)
277,84191,Kore,52.06.09.2003,Sanggar,Kabupaten,Bima,Nusa Tenggara Barat (NTB)
278,84191,Oi Saro,52.06.09.2005,Sanggar,Kabupaten,Bima,Nusa Tenggara Barat (NTB)
279,84191,Piong,52.06.09.2001,Sanggar,Kabupaten,Bima,Nusa Tenggara Barat (NTB)
280,84191,Sandue,52.06.09.2006,Sanggar,Kabupaten,Bima,Nusa Tenggara Barat (NTB)
281,84191,Taloko,52.06.09.2004,Sanggar,Kabupaten,Bima,Nusa Tenggara Barat (NTB)
282,83237,Abian Tubuh Baru,52.71.06.1005,Sandubaya (Sandujaya),Kota,Mataram,Nusa Tenggara Barat (NTB)
283,83233,Babakan,52.71.06.1002,Sandubaya (Sandujaya),Kota,Mataram,Nusa Tenggara Barat (NTB)
284,83236,Bertais,52.71.06.1003,Sandubaya (Sandujaya),Kota,Mataram,Nusa Tenggara Barat (NTB)
285,83232,Dasan Cermen,52.71.06.1001,Sandubaya (Sandujaya),Kota,Mataram,Nusa Tenggara Barat (NTB)
286,83237,Mandalika,52.71.06.1007,Sandubaya (Sandujaya),Kota,Mataram,Nusa Tenggara Barat (NTB)
287,83237,Selagalas,52.71.06.1004,Sandubaya (Sandujaya),Kota,Mataram,Nusa Tenggara Barat (NTB)
288,83237,Turida,52.71.06.1006,Sandubaya (Sandujaya),Kota,Mataram,Nusa Tenggara Barat (NTB)
289,83656,Bagik Manis,52.03.10.2007,Sambelia (Sambalia),Kabupaten,Lombok Timur,Nusa Tenggara Barat (NTB)
290,83656,Belanting,52.03.10.2002,Sambelia (Sambalia),Kabupaten,Lombok Timur,Nusa Tenggara Barat (NTB)
291,83656,Dadap,52.03.10.2008,Sambelia (Sambalia),Kabupaten,Lombok Timur,Nusa Tenggara Barat (NTB)
292,83656,Darakunci,52.03.10.2006,Sambelia (Sambalia),Kabupaten,Lombok Timur,Nusa Tenggara Barat (NTB)
293,83656,Labuhan Pandan,52.03.10.2004,Sambelia (Sambalia),Kabupaten,Lombok Timur,Nusa Tenggara Barat (NTB)
294,83656,Madayin,52.03.10.2009,Sambelia (Sambalia),Kabupaten,Lombok Timur,Nusa Tenggara Barat (NTB)
295,83656,Obel Obel,52.03.10.2001,Sambelia (Sambalia),Kabupaten,Lombok Timur,Nusa Tenggara Barat (NTB)
296,83656,Padak Guar,52.03.10.2011,Sambelia (Sambalia),Kabupaten,Lombok Timur,Nusa Tenggara Barat (NTB)
297,83656,Sambalia (Sambelia),52.03.10.2003,Sambelia (Sambalia),Kabupaten,Lombok Timur,Nusa Tenggara Barat (NTB)
298,83656,Senanggalih,52.03.10.2010,Sambelia (Sambalia),Kabupaten,Lombok Timur,Nusa Tenggara Barat (NTB)
299,83656,Sugian,52.03.10.2005,Sambelia (Sambalia),Kabupaten,Lombok Timur,Nusa Tenggara Barat (NTB)
300,83674,Gelanggang,52.03.18.2001,Sakra Timur,Kabupaten,Lombok Timur,Nusa Tenggara Barat (NTB)
301,83674,Gereneng,52.03.18.2004,Sakra Timur,Kabupaten,Lombok Timur,Nusa Tenggara Barat (NTB)
302,83674,Gereneng Timur,52.03.18.2009,Sakra Timur,Kabupaten,Lombok Timur,Nusa Tenggara Barat (NTB)
303,83674,Lenting,52.03.18.2010,Sakra Timur,Kabupaten,Lombok Timur,Nusa Tenggara Barat (NTB)
304,83674,Lepak,52.03.18.2003,Sakra Timur,Kabupaten,Lombok Timur,Nusa Tenggara Barat (NTB)
305,83674,Lepak Timur,52.03.18.2007,Sakra Timur,Kabupaten,Lombok Timur,Nusa Tenggara Barat (NTB)
306,83674,Menceh,52.03.18.2006,Sakra Timur,Kabupaten,Lombok Timur,Nusa Tenggara Barat (NTB)
307,83674,Montong Tangi (Montongtangi),52.03.18.2005,Sakra Timur,Kabupaten,Lombok Timur,Nusa Tenggara Barat (NTB)
308,83674,Surabaya,52.03.18.2002,Sakra Timur,Kabupaten,Lombok Timur,Nusa Tenggara Barat (NTB)
309,83674,Surabaya Utara,52.03.18.2008,Sakra Timur,Kabupaten,Lombok Timur,Nusa Tenggara Barat (NTB)
310,83670,Borok Toyang,52.03.19.2006,Sakra Barat,Kabupaten,Lombok Timur,Nusa Tenggara Barat (NTB)
311,83670,Boyemare,52.03.19.2011,Sakra Barat,Kabupaten,Lombok Timur,Nusa Tenggara Barat (NTB)
312,83670,Bungtiang,52.03.19.2004,Sakra Barat,Kabupaten,Lombok Timur,Nusa Tenggara Barat (NTB)
313,83670,Gadungmas,52.03.19.2014,Sakra Barat,Kabupaten,Lombok Timur,Nusa Tenggara Barat (NTB)
314,83670,Gerisak Semanggeleng (Gerisak Semanggelen),52.03.19.2018,Sakra Barat,Kabupaten,Lombok Timur,Nusa Tenggara Barat (NTB)
315,83670,Gunung Rajak,52.03.19.2002,Sakra Barat,Kabupaten,Lombok Timur,Nusa Tenggara Barat (NTB)
316,83670,Jerogunung,52.03.19.2009,Sakra Barat,Kabupaten,Lombok Timur,Nusa Tenggara Barat (NTB)
317,83670,Kembang Are Sampai,52.03.19.2015,Sakra Barat,Kabupaten,Lombok Timur,Nusa Tenggara Barat (NTB)
318,83670,Mengkuru,52.03.19.2013,Sakra Barat,Kabupaten,Lombok Timur,Nusa Tenggara Barat (NTB)
319,83670,Montong Beter,52.03.19.2012,Sakra Barat,Kabupaten,Lombok Timur,Nusa Tenggara Barat (NTB)
320,83670,Pejaring,52.03.19.2010,Sakra Barat,Kabupaten,Lombok Timur,Nusa Tenggara Barat (NTB)
321,83670,Pematung,52.03.19.2008,Sakra Barat,Kabupaten,Lombok Timur,Nusa Tenggara Barat (NTB)
322,83670,Pengkelak Mas (Pengkelakmas),52.03.19.2005,Sakra Barat,Kabupaten,Lombok Timur,Nusa Tenggara Barat (NTB)
323,83670,Rensing,52.03.19.2003,Sakra Barat,Kabupaten,Lombok Timur,Nusa Tenggara Barat (NTB)
324,83670,Rensing Bat,52.03.19.2016,Sakra Barat,Kabupaten,Lombok Timur,Nusa Tenggara Barat (NTB)
325,83670,Rensing Raya,52.03.19.2007,Sakra Barat,Kabupaten,Lombok Timur,Nusa Tenggara Barat (NTB)
326,83670,Sukarara,52.03.19.2001,Sakra Barat,Kabupaten,Lombok Timur,Nusa Tenggara Barat (NTB)
327,83670,Tanak Kaken,52.03.19.2017,Sakra Barat,Kabupaten,Lombok Timur,Nusa Tenggara Barat (NTB)
328,83671,Kabar,52.03.02.2003,Sakra,Kabupaten,Lombok Timur,Nusa Tenggara Barat (NTB)
329,83671,Keselet,52.03.02.2005,Sakra,Kabupaten,Lombok Timur,Nusa Tenggara Barat (NTB)
330,83671,Kuang Baru,52.03.02.2012,Sakra,Kabupaten,Lombok Timur,Nusa Tenggara Barat (NTB)
331,83671,Moyot,52.03.02.2009,Sakra,Kabupaten,Lombok Timur,Nusa Tenggara Barat (NTB)
332,83671,Peresak,52.03.02.2011,Sakra,Kabupaten,Lombok Timur,Nusa Tenggara Barat (NTB)
333,83671,Rumbuk,52.03.02.2004,Sakra,Kabupaten,Lombok Timur,Nusa Tenggara Barat (NTB)
334,83671,Rumbuk Timur,52.03.02.2007,Sakra,Kabupaten,Lombok Timur,Nusa Tenggara Barat (NTB)
335,83671,Sakra,52.03.02.2002,Sakra,Kabupaten,Lombok Timur,Nusa Tenggara Barat (NTB)
336,83671,Sakra Selatan,52.03.02.2006,Sakra,Kabupaten,Lombok Timur,Nusa Tenggara Barat (NTB)
337,83671,Songak,52.03.02.2010,Sakra,Kabupaten,Lombok Timur,Nusa Tenggara Barat (NTB)
338,83671,Suwangi (Suangi),52.03.02.2001,Sakra,Kabupaten,Lombok Timur,Nusa Tenggara Barat (NTB)
339,83671,Suwangi Timur,52.03.02.2008,Sakra,Kabupaten,Lombok Timur,Nusa Tenggara Barat (NTB)
340,84375,Lawin,52.04.11.2009,Ropang,Kabupaten,Sumbawa,Nusa Tenggara Barat (NTB)
341,84375,Lebangkar,52.04.11.2003,Ropang,Kabupaten,Sumbawa,Nusa Tenggara Barat (NTB)
342,84375,Lebin,52.04.11.2002,Ropang,Kabupaten,Sumbawa,Nusa Tenggara Barat (NTB)
343,84375,Ranan,52.04.11.2010,Ropang,Kabupaten,Sumbawa,Nusa Tenggara Barat (NTB)
344,84375,Ropang,52.04.11.2008,Ropang,Kabupaten,Sumbawa,Nusa Tenggara Barat (NTB)
345,84352,Luk,52.04.21.2003,Rhee,Kabupaten,Sumbawa,Nusa Tenggara Barat (NTB)
346,84352,Rhee,52.04.21.2001,Rhee,Kabupaten,Sumbawa,Nusa Tenggara Barat (NTB)
347,84352,Rhee Loka,52.04.21.2004,Rhee,Kabupaten,Sumbawa,Nusa Tenggara Barat (NTB)
348,84352,Sampe,52.04.21.2002,Rhee,Kabupaten,Sumbawa,Nusa Tenggara Barat (NTB)
349,84119,Dodu,52.72.02.1009,Rasanae Timur,Kota,Bima,Nusa Tenggara Barat (NTB)
350,84119,Kodo,52.72.02.1018,Rasanae Timur,Kota,Bima,Nusa Tenggara Barat (NTB)
351,84114,Kumbe,52.72.02.1004,Rasanae Timur,Kota,Bima,Nusa Tenggara Barat (NTB)
352,84119,Lampe,52.72.02.1008,Rasanae Timur,Kota,Bima,Nusa Tenggara Barat (NTB)
353,84119,Lelamase,52.72.02.1020,Rasanae Timur,Kota,Bima,Nusa Tenggara Barat (NTB)
354,84119,Nungga,52.72.02.1011,Rasanae Timur,Kota,Bima,Nusa Tenggara Barat (NTB)
355,84119,Oi Fo'o,52.72.02.1019,Rasanae Timur,Kota,Bima,Nusa Tenggara Barat (NTB)
356,84114,Oimbo,52.72.02.1021,Rasanae Timur,Kota,Bima,Nusa Tenggara Barat (NTB)
357,84119,Dara (Dora),52.72.01.1014,Rasanae Barat,Kota,Bima,Nusa Tenggara Barat (NTB)
358,84116,Nae,52.72.01.1002,Rasanae Barat,Kota,Bima,Nusa Tenggara Barat (NTB)
359,84119,Pane,52.72.01.1013,Rasanae Barat,Kota,Bima,Nusa Tenggara Barat (NTB)
360,84111,Paruga,52.72.01.1001,Rasanae Barat,Kota,Bima,Nusa Tenggara Barat (NTB)
361,84117,Sarae,52.72.01.1003,Rasanae Barat,Kota,Bima,Nusa Tenggara Barat (NTB)
362,84118,Tanjung,52.72.01.1004,Rasanae Barat,Kota,Bima,Nusa Tenggara Barat (NTB)
363,84119,Kendo,52.72.04.1004,Raba,Kota,Bima,Nusa Tenggara Barat (NTB)
364,84119,Nitu,52.72.04.1006,Raba,Kota,Bima,Nusa Tenggara Barat (NTB)
365,84119,Ntobo,52.72.04.1005,Raba,Kota,Bima,Nusa Tenggara Barat (NTB)
366,84119,Penanae,52.72.04.1003,Raba,Kota,Bima,Nusa Tenggara Barat (NTB)
367,84115,Penaraga,52.72.04.1001,Raba,Kota,Bima,Nusa Tenggara Barat (NTB)
368,84113,Rabadompu Barat,52.72.04.1010,Raba,Kota,Bima,Nusa Tenggara Barat (NTB)
369,84113,Rabadompu Timur,52.72.04.1008,Raba,Kota,Bima,Nusa Tenggara Barat (NTB)
370,84113,Rabangodu Selatan,52.72.04.1007,Raba,Kota,Bima,Nusa Tenggara Barat (NTB)
371,84113,Rabangodu Utara,52.72.04.1011,Raba,Kota,Bima,Nusa Tenggara Barat (NTB)
372,84119,Rite,52.72.04.1009,Raba,Kota,Bima,Nusa Tenggara Barat (NTB)
373,84119,Rontu,52.72.04.1002,Raba,Kota,Bima,Nusa Tenggara Barat (NTB)
374,83573,Bangket Parak,52.02.04.2016,Pujut,Kabupaten,Lombok Tengah,Nusa Tenggara Barat (NTB)
375,83573,Dadap,52.02.04.2017,Pujut,Kabupaten,Lombok Tengah,Nusa Tenggara Barat (NTB)
376,83573,Gapura,52.02.04.2007,Pujut,Kabupaten,Lombok Tengah,Nusa Tenggara Barat (NTB)
377,83573,Kawo,52.02.04.2006,Pujut,Kabupaten,Lombok Tengah,Nusa Tenggara Barat (NTB)
378,83573,Kerame Jati,52.02.04.2018,Pujut,Kabupaten,Lombok Tengah,Nusa Tenggara Barat (NTB)
379,83573,Ketara,52.02.04.2015,Pujut,Kabupaten,Lombok Tengah,Nusa Tenggara Barat (NTB)
380,83573,Kuta,52.02.04.2009,Pujut,Kabupaten,Lombok Tengah,Nusa Tenggara Barat (NTB)
381,83573,Mertak,52.02.04.2012,Pujut,Kabupaten,Lombok Tengah,Nusa Tenggara Barat (NTB)
382,83573,Pengembur,52.02.04.2010,Pujut,Kabupaten,Lombok Tengah,Nusa Tenggara Barat (NTB)
383,83573,Pengengat,52.02.04.2005,Pujut,Kabupaten,Lombok Tengah,Nusa Tenggara Barat (NTB)
384,83573,Prabu,52.02.04.2013,Pujut,Kabupaten,Lombok Tengah,Nusa Tenggara Barat (NTB)
385,83573,Rembitan,52.02.04.2008,Pujut,Kabupaten,Lombok Tengah,Nusa Tenggara Barat (NTB)
386,83573,Segala Anyar,52.02.04.2002,Pujut,Kabupaten,Lombok Tengah,Nusa Tenggara Barat (NTB)
387,83573,Sengkol,52.02.04.2001,Pujut,Kabupaten,Lombok Tengah,Nusa Tenggara Barat (NTB)
388,83573,Sukadana,52.02.04.2003,Pujut,Kabupaten,Lombok Tengah,Nusa Tenggara Barat (NTB)
389,83573,Tanak Awu,52.02.04.2014,Pujut,Kabupaten,Lombok Tengah,Nusa Tenggara Barat (NTB)
390,83573,Teruwai,52.02.04.2004,Pujut,Kabupaten,Lombok Tengah,Nusa Tenggara Barat (NTB)
391,83573,Tumpak,52.02.04.2011,Pujut,Kabupaten,Lombok Tengah,Nusa Tenggara Barat (NTB)
392,83660,Aik Dewa,52.03.12.2005,Pringgasela,Kabupaten,Lombok Timur,Nusa Tenggara Barat (NTB)
393,83660,Jurit,52.03.12.2003,Pringgasela,Kabupaten,Lombok Timur,Nusa Tenggara Barat (NTB)
394,83660,Jurit Baru,52.03.12.2006,Pringgasela,Kabupaten,Lombok Timur,Nusa Tenggara Barat (NTB)
395,83660,Pengadangan,52.03.12.2004,Pringgasela,Kabupaten,Lombok Timur,Nusa Tenggara Barat (NTB)
396,83660,Pengadangan Barat,52.03.12.2008,Pringgasela,Kabupaten,Lombok Timur,Nusa Tenggara Barat (NTB)
397,83660,Pringgasela,52.03.12.2002,Pringgasela,Kabupaten,Lombok Timur,Nusa Tenggara Barat (NTB)
398,83660,Pringgasela Selatan,52.03.12.2007,Pringgasela,Kabupaten,Lombok Timur,Nusa Tenggara Barat (NTB)
399,83660,Pringgasela Timur,52.03.12.2010,Pringgasela,Kabupaten,Lombok Timur,Nusa Tenggara Barat (NTB)
400,83660,Rempung,52.03.12.2001,Pringgasela,Kabupaten,Lombok Timur,Nusa Tenggara Barat (NTB)
401,83660,Timbanuh,52.03.12.2009,Pringgasela,Kabupaten,Lombok Timur,Nusa Tenggara Barat (NTB)
402,83562,Arjangka,52.02.08.2009,Pringgarata,Kabupaten,Lombok Tengah,Nusa Tenggara Barat (NTB)
403,83562,Bagu,52.02.08.2004,Pringgarata,Kabupaten,Lombok Tengah,Nusa Tenggara Barat (NTB)
404,83562,Bilebante,52.02.08.2006,Pringgarata,Kabupaten,Lombok Tengah,Nusa Tenggara Barat (NTB)
405,83562,Menemeng,52.02.08.2008,Pringgarata,Kabupaten,Lombok Tengah,Nusa Tenggara Barat (NTB)
406,83562,Murbaya,52.02.08.2003,Pringgarata,Kabupaten,Lombok Tengah,Nusa Tenggara Barat (NTB)
407,83562,Pemepek,52.02.08.2007,Pringgarata,Kabupaten,Lombok Tengah,Nusa Tenggara Barat (NTB)
408,83562,Pringgarata (Pringarata),52.02.08.2001,Pringgarata,Kabupaten,Lombok Tengah,Nusa Tenggara Barat (NTB)
409,83562,Sepakek,52.02.08.2002,Pringgarata,Kabupaten,Lombok Tengah,Nusa Tenggara Barat (NTB)
410,83562,Sintung,52.02.08.2005,Pringgarata,Kabupaten,Lombok Tengah,Nusa Tenggara Barat (NTB)
411,83562,Sisik,52.02.08.2011,Pringgarata,Kabupaten,Lombok Tengah,Nusa Tenggara Barat (NTB)
412,83562,Taman Indah,52.02.08.2010,Pringgarata,Kabupaten,Lombok Tengah,Nusa Tenggara Barat (NTB)
413,83654,Anggaraksa,52.03.08.2011,Pringgabaya,Kabupaten,Lombok Timur,Nusa Tenggara Barat (NTB)
414,83654,Apit Aik (Apitaik),52.03.08.2002,Pringgabaya,Kabupaten,Lombok Timur,Nusa Tenggara Barat (NTB)
415,83654,Bagik Papan,52.03.08.2001,Pringgabaya,Kabupaten,Lombok Timur,Nusa Tenggara Barat (NTB)
416,83654,Batuyang,52.03.08.2005,Pringgabaya,Kabupaten,Lombok Timur,Nusa Tenggara Barat (NTB)
417,83654,Gunung Malang,52.03.08.2013,Pringgabaya,Kabupaten,Lombok Timur,Nusa Tenggara Barat (NTB)
418,83654,Kerumut,52.03.08.2003,Pringgabaya,Kabupaten,Lombok Timur,Nusa Tenggara Barat (NTB)
419,83654,Labuhan Lombok,52.03.08.2007,Pringgabaya,Kabupaten,Lombok Timur,Nusa Tenggara Barat (NTB)
420,83654,Pohgading,52.03.08.2004,Pringgabaya,Kabupaten,Lombok Timur,Nusa Tenggara Barat (NTB)
421,83654,Pohgading Timur,52.03.08.2009,Pringgabaya,Kabupaten,Lombok Timur,Nusa Tenggara Barat (NTB)
422,83654,Pringgabaya,52.03.08.2006,Pringgabaya,Kabupaten,Lombok Timur,Nusa Tenggara Barat (NTB)
423,83654,Pringgabaya Utara,52.03.08.2008,Pringgabaya,Kabupaten,Lombok Timur,Nusa Tenggara Barat (NTB)
424,83654,Seruni Mumbul,52.03.08.2014,Pringgabaya,Kabupaten,Lombok Timur,Nusa Tenggara Barat (NTB)
425,83654,Tanak Gadang,52.03.08.2012,Pringgabaya,Kabupaten,Lombok Timur,Nusa Tenggara Barat (NTB)
426,83654,Teko,52.03.08.2010,Pringgabaya,Kabupaten,Lombok Timur,Nusa Tenggara Barat (NTB)
427,83654,Telaga Waru,52.03.08.2015,Pringgabaya,Kabupaten,Lombok Timur,Nusa Tenggara Barat (NTB)
428,83581,Beleka,52.02.06.2002,Praya Timur,Kabupaten,Lombok Tengah,Nusa Tenggara Barat (NTB)
429,83581,Beleke Daye,52.02.06.2011,Praya Timur,Kabupaten,Lombok Tengah,Nusa Tenggara Barat (NTB)
430,83581,Beleke Lebe Sane,52.02.06.2012,Praya Timur,Kabupaten,Lombok Tengah,Nusa Tenggara Barat (NTB)
431,83581,Bilelando,52.02.06.2007,Praya Timur,Kabupaten,Lombok Tengah,Nusa Tenggara Barat (NTB)
432,83581,Ganti,52.02.06.2008,Praya Timur,Kabupaten,Lombok Tengah,Nusa Tenggara Barat (NTB)
433,83581,Jero Puri,52.02.06.2014,Praya Timur,Kabupaten,Lombok Tengah,Nusa Tenggara Barat (NTB)
434,83581,Kidang,52.02.06.2010,Praya Timur,Kabupaten,Lombok Tengah,Nusa Tenggara Barat (NTB)
435,83581,Landah,52.02.06.2005,Praya Timur,Kabupaten,Lombok Tengah,Nusa Tenggara Barat (NTB)
436,83581,Marong,52.02.06.2009,Praya Timur,Kabupaten,Lombok Tengah,Nusa Tenggara Barat (NTB)
437,83581,Mujur,52.02.06.2004,Praya Timur,Kabupaten,Lombok Tengah,Nusa Tenggara Barat (NTB)
438,83581,Pegonak,52.02.06.2013,Praya Timur,Kabupaten,Lombok Tengah,Nusa Tenggara Barat (NTB)
439,83581,Semoyang,52.02.06.2003,Praya Timur,Kabupaten,Lombok Tengah,Nusa Tenggara Barat (NTB)
440,83581,Sengkerang,52.02.06.2006,Praya Timur,Kabupaten,Lombok Tengah,Nusa Tenggara Barat (NTB)
441,83581,Sukaraja,52.02.06.2001,Praya Timur,Kabupaten,Lombok Tengah,Nusa Tenggara Barat (NTB)
442,83582,Batunyala,52.02.10.2006,Praya Tengah,Kabupaten,Lombok Tengah,Nusa Tenggara Barat (NTB)
443,83582,Beraim,52.02.10.2005,Praya Tengah,Kabupaten,Lombok Tengah,Nusa Tenggara Barat (NTB)
444,83582,Dakung,52.02.10.2011,Praya Tengah,Kabupaten,Lombok Tengah,Nusa Tenggara Barat (NTB)
445,83523,Gerantung,52.02.10.1001,Praya Tengah,Kabupaten,Lombok Tengah,Nusa Tenggara Barat (NTB)
446,83513,Jontlak,52.02.10.1002,Praya Tengah,Kabupaten,Lombok Tengah,Nusa Tenggara Barat (NTB)
447,83582,Jurang Jaler,52.02.10.2004,Praya Tengah,Kabupaten,Lombok Tengah,Nusa Tenggara Barat (NTB)
448,83582,Kelebuh,52.02.10.2009,Praya Tengah,Kabupaten,Lombok Tengah,Nusa Tenggara Barat (NTB)
449,83582,Lajut,52.02.10.2007,Praya Tengah,Kabupaten,Lombok Tengah,Nusa Tenggara Barat (NTB)
450,83582,Lelong,52.02.10.2013,Praya Tengah,Kabupaten,Lombok Tengah,Nusa Tenggara Barat (NTB)
451,83582,Pejanggik,52.02.10.2010,Praya Tengah,Kabupaten,Lombok Tengah,Nusa Tenggara Barat (NTB)
452,83582,Pengadang,52.02.10.2008,Praya Tengah,Kabupaten,Lombok Tengah,Nusa Tenggara Barat (NTB)
453,83582,Prai Meke,52.02.10.2012,Praya Tengah,Kabupaten,Lombok Tengah,Nusa Tenggara Barat (NTB)
454,83582,Sasake,52.02.10.1003,Praya Tengah,Kabupaten,Lombok Tengah,Nusa Tenggara Barat (NTB)
455,83571,Batu Jangkih,52.02.11.2010,Praya Barat Daya,Kabupaten,Lombok Tengah,Nusa Tenggara Barat (NTB)
456,83571,Darek,52.02.11.2005,Praya Barat Daya,Kabupaten,Lombok Tengah,Nusa Tenggara Barat (NTB)
457,83571,Kabul,52.02.11.2003,Praya Barat Daya,Kabupaten,Lombok Tengah,Nusa Tenggara Barat (NTB)
458,83571,Montong Ajan,52.02.11.2009,Praya Barat Daya,Kabupaten,Lombok Tengah,Nusa Tenggara Barat (NTB)
459,83571,Montong Sapah,52.02.11.2001,Praya Barat Daya,Kabupaten,Lombok Tengah,Nusa Tenggara Barat (NTB)
460,83571,Pandan Indah,52.02.11.2007,Praya Barat Daya,Kabupaten,Lombok Tengah,Nusa Tenggara Barat (NTB)
461,83571,Pandan Tinggang,52.02.11.2012,Praya Barat Daya,Kabupaten,Lombok Tengah,Nusa Tenggara Barat (NTB)
462,83571,Pelambik,52.02.11.2004,Praya Barat Daya,Kabupaten,Lombok Tengah,Nusa Tenggara Barat (NTB)
463,83571,Ranggagata,52.02.11.2006,Praya Barat Daya,Kabupaten,Lombok Tengah,Nusa Tenggara Barat (NTB)
464,83571,Serage,52.02.11.2008,Praya Barat Daya,Kabupaten,Lombok Tengah,Nusa Tenggara Barat (NTB)
465,83571,Teduh,52.02.11.2011,Praya Barat Daya,Kabupaten,Lombok Tengah,Nusa Tenggara Barat (NTB)
466,83571,Ungga,52.02.11.2002,Praya Barat Daya,Kabupaten,Lombok Tengah,Nusa Tenggara Barat (NTB)
467,83572,Banyu Urip,52.02.05.2002,Praya Barat,Kabupaten,Lombok Tengah,Nusa Tenggara Barat (NTB)
468,83572,Batujai,52.02.05.2009,Praya Barat,Kabupaten,Lombok Tengah,Nusa Tenggara Barat (NTB)
469,83572,Bonder,52.02.05.2001,Praya Barat,Kabupaten,Lombok Tengah,Nusa Tenggara Barat (NTB)
470,83572,Kateng,52.02.05.2004,Praya Barat,Kabupaten,Lombok Tengah,Nusa Tenggara Barat (NTB)
471,83572,Mangkung,52.02.05.2003,Praya Barat,Kabupaten,Lombok Tengah,Nusa Tenggara Barat (NTB)
472,83572,Mekar Sari,52.02.05.2008,Praya Barat,Kabupaten,Lombok Tengah,Nusa Tenggara Barat (NTB)
473,83572,Penujak,52.02.05.2006,Praya Barat,Kabupaten,Lombok Tengah,Nusa Tenggara Barat (NTB)
474,83572,Selong Belanak (Selong Blanak),52.02.05.2007,Praya Barat,Kabupaten,Lombok Tengah,Nusa Tenggara Barat (NTB)
475,83572,Setanggor,52.02.05.2005,Praya Barat,Kabupaten,Lombok Tengah,Nusa Tenggara Barat (NTB)
476,83572,Tanak Rarang,52.02.05.2010,Praya Barat,Kabupaten,Lombok Tengah,Nusa Tenggara Barat (NTB)
477,83511,Aik Mual,52.02.01.2011,Praya,Kabupaten,Lombok Tengah,Nusa Tenggara Barat (NTB)
478,83511,Bunut Baok,52.02.01.2014,Praya,Kabupaten,Lombok Tengah,Nusa Tenggara Barat (NTB)
479,83514,Gerunung,52.02.01.1003,Praya,Kabupaten,Lombok Tengah,Nusa Tenggara Barat (NTB)
480,83522,Gonjak,52.02.01.1007,Praya,Kabupaten,Lombok Tengah,Nusa Tenggara Barat (NTB)
481,83511,Jago,52.02.01.2013,Praya,Kabupaten,Lombok Tengah,Nusa Tenggara Barat (NTB)
482,83515,Leneng,52.02.01.1002,Praya,Kabupaten,Lombok Tengah,Nusa Tenggara Barat (NTB)
483,83511,Mekar Damai,52.02.01.2015,Praya,Kabupaten,Lombok Tengah,Nusa Tenggara Barat (NTB)
484,83511,Mertak Tombok,52.02.01.2010,Praya,Kabupaten,Lombok Tengah,Nusa Tenggara Barat (NTB)
485,83511,Montong Terep,52.02.01.2012,Praya,Kabupaten,Lombok Tengah,Nusa Tenggara Barat (NTB)
486,83516,Panji Sari,52.02.01.1008,Praya,Kabupaten,Lombok Tengah,Nusa Tenggara Barat (NTB)
487,83519,Perapen,52.02.01.1005,Praya,Kabupaten,Lombok Tengah,Nusa Tenggara Barat (NTB)
488,83511,Praya,52.02.01.1001,Praya,Kabupaten,Lombok Tengah,Nusa Tenggara Barat (NTB)
489,83521,Renteng,52.02.01.1009,Praya,Kabupaten,Lombok Tengah,Nusa Tenggara Barat (NTB)
490,83512,Semayan,52.02.01.1004,Praya,Kabupaten,Lombok Tengah,Nusa Tenggara Barat (NTB)
491,83518,Tiwugalih,52.02.01.1006,Praya,Kabupaten,Lombok Tengah,Nusa Tenggara Barat (NTB)
492,84454,Kiantar,52.07.06.2003,Poto Tano,Kabupaten,Sumbawa Barat,Nusa Tenggara Barat (NTB)
493,84454,Kokarlian,52.07.06.2006,Poto Tano,Kabupaten,Sumbawa Barat,Nusa Tenggara Barat (NTB)
494,84454,Mantar,52.07.06.2002,Poto Tano,Kabupaten,Sumbawa Barat,Nusa Tenggara Barat (NTB)
495,84454,Poto Tano,52.07.06.2004,Poto Tano,Kabupaten,Sumbawa Barat,Nusa Tenggara Barat (NTB)
496,84454,Senayan,52.07.06.2001,Poto Tano,Kabupaten,Sumbawa Barat,Nusa Tenggara Barat (NTB)
497,84454,Tebo,52.07.06.2007,Poto Tano,Kabupaten,Sumbawa Barat,Nusa Tenggara Barat (NTB)
498,84454,Tuananga,52.07.06.2008,Poto Tano,Kabupaten,Sumbawa Barat,Nusa Tenggara Barat (NTB)
499,84454,UPT Tambak Sari (Tambak Sari),52.07.06.2005,Poto Tano,Kabupaten,Sumbawa Barat,Nusa Tenggara Barat (NTB)
500,84386,Brang Kolong,52.04.13.2013,Plampang,Kabupaten,Sumbawa,Nusa Tenggara Barat (NTB)
501,84386,Muer,52.04.13.2003,Plampang,Kabupaten,Sumbawa,Nusa Tenggara Barat (NTB)
502,84386,Plampang,52.04.13.2004,Plampang,Kabupaten,Sumbawa,Nusa Tenggara Barat (NTB)
503,84386,Selanteh (Selante),52.04.13.2012,Plampang,Kabupaten,Sumbawa,Nusa Tenggara Barat (NTB)
504,84386,Sepakat,52.04.13.2007,Plampang,Kabupaten,Sumbawa,Nusa Tenggara Barat (NTB)
505,84386,Sepayung,52.04.13.2006,Plampang,Kabupaten,Sumbawa,Nusa Tenggara Barat (NTB)
506,84386,Teluk Santong,52.04.13.2005,Plampang,Kabupaten,Sumbawa,Nusa Tenggara Barat (NTB)
507,84386,UPT Perode SP III (Sp III Prode / Perode),52.04.13.2010,Plampang,Kabupaten,Sumbawa,Nusa Tenggara Barat (NTB)
508,84386,UPT. Perode SP I (Sp I Prode / Perode),52.04.13.2008,Plampang,Kabupaten,Sumbawa,Nusa Tenggara Barat (NTB)
509,84386,UPT. Perode SP II (Sp II Prode / Perode),52.04.13.2009,Plampang,Kabupaten,Sumbawa,Nusa Tenggara Barat (NTB)
510,84386,Usar,52.04.13.2014,Plampang,Kabupaten,Sumbawa,Nusa Tenggara Barat (NTB)
511,83352,Gili Indah,52.08.05.2003,Pemenang,Kabupaten,Lombok Utara,Nusa Tenggara Barat (NTB)
512,83352,Malaka,52.08.05.2004,Pemenang,Kabupaten,Lombok Utara,Nusa Tenggara Barat (NTB)
513,83352,Menggala,52.08.05.2005,Pemenang,Kabupaten,Lombok Utara,Nusa Tenggara Barat (NTB)
514,83352,Pemenang Barat,52.08.05.2002,Pemenang,Kabupaten,Lombok Utara,Nusa Tenggara Barat (NTB)
515,83352,Pemenang Timur,52.08.05.2001,Pemenang,Kabupaten,Lombok Utara,Nusa Tenggara Barat (NTB)
516,84260,Beringin Jaya,52.05.06.2004,Pekat,Kabupaten,Dompu,Nusa Tenggara Barat (NTB)
517,84260,Calabai,52.05.06.2012,Pekat,Kabupaten,Dompu,Nusa Tenggara Barat (NTB)
518,84260,Doro Peti,52.05.06.2007,Pekat,Kabupaten,Dompu,Nusa Tenggara Barat (NTB)
519,84260,Kadindi,52.05.06.2003,Pekat,Kabupaten,Dompu,Nusa Tenggara Barat (NTB)
520,84260,Kadindi Barat,52.05.06.2009,Pekat,Kabupaten,Dompu,Nusa Tenggara Barat (NTB)
521,84260,Karombo,52.05.06.2008,Pekat,Kabupaten,Dompu,Nusa Tenggara Barat (NTB)
522,84260,Nangakara,52.05.06.2010,Pekat,Kabupaten,Dompu,Nusa Tenggara Barat (NTB)
523,84260,Nangamiro,52.05.06.2002,Pekat,Kabupaten,Dompu,Nusa Tenggara Barat (NTB)
524,84260,Pekat,52.05.06.2001,Pekat,Kabupaten,Dompu,Nusa Tenggara Barat (NTB)
525,84260,Sori Nomo,52.05.06.2005,Pekat,Kabupaten,Dompu,Nusa Tenggara Barat (NTB)
526,84260,Sori Tatanga,52.05.06.2011,Pekat,Kabupaten,Dompu,Nusa Tenggara Barat (NTB)
527,84260,Tambora,52.05.06.2006,Pekat,Kabupaten,Dompu,Nusa Tenggara Barat (NTB)
528,84170,Kanca,52.06.16.2004,Parado,Kabupaten,Bima,Nusa Tenggara Barat (NTB)
529,84170,Kuta,52.06.16.2003,Parado,Kabupaten,Bima,Nusa Tenggara Barat (NTB)
530,84170,Lere,52.06.16.2005,Parado,Kabupaten,Bima,Nusa Tenggara Barat (NTB)
531,84170,Parado Rato (Paradorato),52.06.16.2002,Parado,Kabupaten,Bima,Nusa Tenggara Barat (NTB)
532,84170,Parado Wane (Paradowane),52.06.16.2001,Parado,Kabupaten,Bima,Nusa Tenggara Barat (NTB)
533,84174,Belo,52.06.18.2002,Palibelo,Kabupaten,Bima,Nusa Tenggara Barat (NTB)
534,84174,Bre,52.06.18.2013,Palibelo,Kabupaten,Bima,Nusa Tenggara Barat (NTB)
535,84174,Dore,52.06.18.2008,Palibelo,Kabupaten,Bima,Nusa Tenggara Barat (NTB)
536,84174,Nata,52.06.18.2007,Palibelo,Kabupaten,Bima,Nusa Tenggara Barat (NTB)
537,84174,Ntonggu,52.06.18.2006,Palibelo,Kabupaten,Bima,Nusa Tenggara Barat (NTB)
538,84174,Padolo,52.06.18.2012,Palibelo,Kabupaten,Bima,Nusa Tenggara Barat (NTB)
539,84174,Panda,52.06.18.2001,Palibelo,Kabupaten,Bima,Nusa Tenggara Barat (NTB)
540,84174,Ragi,52.06.18.2011,Palibelo,Kabupaten,Bima,Nusa Tenggara Barat (NTB)
541,84174,Roi,52.06.18.2009,Palibelo,Kabupaten,Bima,Nusa Tenggara Barat (NTB)
542,84174,Teke,52.06.18.2005,Palibelo,Kabupaten,Bima,Nusa Tenggara Barat (NTB)
543,84174,Tolongondoa,52.06.18.2003,Palibelo,Kabupaten,Bima,Nusa Tenggara Barat (NTB)
544,84174,Tonggorisa,52.06.18.2004,Palibelo,Kabupaten,Bima,Nusa Tenggara Barat (NTB)
545,84272,Jambu,52.05.08.2002,Pajo,Kabupaten,Dompu,Nusa Tenggara Barat (NTB)
546,84272,Lepadi,52.05.08.2003,Pajo,Kabupaten,Dompu,Nusa Tenggara Barat (NTB)
547,84272,Lune,52.05.08.2004,Pajo,Kabupaten,Dompu,Nusa Tenggara Barat (NTB)
548,84272,Ranggo,52.05.08.2001,Pajo,Kabupaten,Dompu,Nusa Tenggara Barat (NTB)
549,84272,Tembal Lae,52.05.08.2006,Pajo,Kabupaten,Dompu,Nusa Tenggara Barat (NTB)
550,84272,Woko,52.05.08.2005,Pajo,Kabupaten,Dompu,Nusa Tenggara Barat (NTB)
551,84374,Kelawis,52.04.28.2002,Orong Telu,Kabupaten,Sumbawa,Nusa Tenggara Barat (NTB)
552,84374,Mungkin,52.04.28.2003,Orong Telu,Kabupaten,Sumbawa,Nusa Tenggara Barat (NTB)
553,84374,Sebeok,52.04.28.2004,Orong Telu,Kabupaten,Sumbawa,Nusa Tenggara Barat (NTB)
554,84374,Senawang,52.04.28.2001,Orong Telu,Kabupaten,Sumbawa,Nusa Tenggara Barat (NTB)
555,83370,Badrain,52.01.03.2013,Narmada,Kabupaten,Lombok Barat,Nusa Tenggara Barat (NTB)
556,83370,Batu Kuta,52.01.03.2005,Narmada,Kabupaten,Lombok Barat,Nusa Tenggara Barat (NTB)
557,83370,Buwun Sejati,52.01.03.2020,Narmada,Kabupaten,Lombok Barat,Nusa Tenggara Barat (NTB)
558,83370,Dasan Tereng,52.01.03.2012,Narmada,Kabupaten,Lombok Barat,Nusa Tenggara Barat (NTB)
559,83370,Golong,52.01.03.2018,Narmada,Kabupaten,Lombok Barat,Nusa Tenggara Barat (NTB)
560,83370,Grimax Indah (Gerimak Indah),52.01.03.2016,Narmada,Kabupaten,Lombok Barat,Nusa Tenggara Barat (NTB)
561,83370,Kramat Jaya (Krama Jaya),52.01.03.2015,Narmada,Kabupaten,Lombok Barat,Nusa Tenggara Barat (NTB)
562,83370,Lebah Sempage (Lebah Sempaga),52.01.03.2010,Narmada,Kabupaten,Lombok Barat,Nusa Tenggara Barat (NTB)
563,83370,Lembuak,52.01.03.2001,Narmada,Kabupaten,Lombok Barat,Nusa Tenggara Barat (NTB)
564,83370,Mekarsari,52.01.03.2019,Narmada,Kabupaten,Lombok Barat,Nusa Tenggara Barat (NTB)
565,83370,Narmada,52.01.03.2021,Narmada,Kabupaten,Lombok Barat,Nusa Tenggara Barat (NTB)
566,83370,Nyur Lembang,52.01.03.2002,Narmada,Kabupaten,Lombok Barat,Nusa Tenggara Barat (NTB)
567,83370,Pakuan,52.01.03.2017,Narmada,Kabupaten,Lombok Barat,Nusa Tenggara Barat (NTB)
568,83370,Peresak,52.01.03.2003,Narmada,Kabupaten,Lombok Barat,Nusa Tenggara Barat (NTB)
569,83370,Peru (Keru),52.01.03.2004,Narmada,Kabupaten,Lombok Barat,Nusa Tenggara Barat (NTB)
570,83370,Sedau,52.01.03.2007,Narmada,Kabupaten,Lombok Barat,Nusa Tenggara Barat (NTB)
571,83370,Selat,52.01.03.2009,Narmada,Kabupaten,Lombok Barat,Nusa Tenggara Barat (NTB)
572,83370,Sembung,52.01.03.2014,Narmada,Kabupaten,Lombok Barat,Nusa Tenggara Barat (NTB)
573,83370,Sesaot,52.01.03.2011,Narmada,Kabupaten,Lombok Barat,Nusa Tenggara Barat (NTB)
574,83370,Suranadi,52.01.03.2008,Narmada,Kabupaten,Lombok Barat,Nusa Tenggara Barat (NTB)
575,83370,Tanah/Tanak Beak,52.01.03.2006,Narmada,Kabupaten,Lombok Barat,Nusa Tenggara Barat (NTB)
576,84119,Lewirato,52.72.05.1006,Mpunda,Kota,Bima,Nusa Tenggara Barat (NTB)
577,84119,Mande,52.72.05.1007,Mpunda,Kota,Bima,Nusa Tenggara Barat (NTB)
578,84119,Manggemaci,52.72.05.1009,Mpunda,Kota,Bima,Nusa Tenggara Barat (NTB)
579,84119,Matakando,52.72.05.1010,Mpunda,Kota,Bima,Nusa Tenggara Barat (NTB)
580,84111,Monggonao,52.72.05.1001,Mpunda,Kota,Bima,Nusa Tenggara Barat (NTB)
581,84119,Panggi,52.72.05.1008,Mpunda,Kota,Bima,Nusa Tenggara Barat (NTB)
582,84115,Penatoi,52.72.05.1005,Mpunda,Kota,Bima,Nusa Tenggara Barat (NTB)
583,84112,Sadia,52.72.05.1002,Mpunda,Kota,Bima,Nusa Tenggara Barat (NTB)
584,84119,Sambinae,52.72.05.1004,Mpunda,Kota,Bima,Nusa Tenggara Barat (NTB)
585,84119,Santi,52.72.05.1003,Mpunda,Kota,Bima,Nusa Tenggara Barat (NTB)
586,84380,Baru Tahan,52.04.23.2005,Moyo Utara,Kabupaten,Sumbawa,Nusa Tenggara Barat (NTB)
587,84380,Kukin,52.04.23.2004,Moyo Utara,Kabupaten,Sumbawa,Nusa Tenggara Barat (NTB)
588,84380,Penyaring,52.04.23.2003,Moyo Utara,Kabupaten,Sumbawa,Nusa Tenggara Barat (NTB)
589,84380,Pungkit,52.04.23.2001,Moyo Utara,Kabupaten,Sumbawa,Nusa Tenggara Barat (NTB)
590,84380,Sebewe,52.04.23.2002,Moyo Utara,Kabupaten,Sumbawa,Nusa Tenggara Barat (NTB)
591,84380,Songkar,52.04.23.2006,Moyo Utara,Kabupaten,Sumbawa,Nusa Tenggara Barat (NTB)
592,84371,Batu Bulan (Batubulan),52.04.10.2005,Moyo Hulu,Kabupaten,Sumbawa,Nusa Tenggara Barat (NTB)
593,84371,Batu Tering (Batutering),52.04.10.2004,Moyo Hulu,Kabupaten,Sumbawa,Nusa Tenggara Barat (NTB)
594,84371,Brang Rea (Berang Rea),52.04.10.2012,Moyo Hulu,Kabupaten,Sumbawa,Nusa Tenggara Barat (NTB)
595,84371,Leseng,52.04.10.2008,Moyo Hulu,Kabupaten,Sumbawa,Nusa Tenggara Barat (NTB)
596,84371,Lito,52.04.10.2009,Moyo Hulu,Kabupaten,Sumbawa,Nusa Tenggara Barat (NTB)
597,84371,Maman,52.04.10.2011,Moyo Hulu,Kabupaten,Sumbawa,Nusa Tenggara Barat (NTB)
598,84371,Marga Karya,52.04.10.2010,Moyo Hulu,Kabupaten,Sumbawa,Nusa Tenggara Barat (NTB)
599,84371,Mokong,52.04.10.2006,Moyo Hulu,Kabupaten,Sumbawa,Nusa Tenggara Barat (NTB)
600,84371,Pernek,52.04.10.2007,Moyo Hulu,Kabupaten,Sumbawa,Nusa Tenggara Barat (NTB)
601,84371,Sebasang,52.04.10.2003,Moyo Hulu,Kabupaten,Sumbawa,Nusa Tenggara Barat (NTB)
602,84371,Semamung,52.04.10.2002,Moyo Hulu,Kabupaten,Sumbawa,Nusa Tenggara Barat (NTB)
603,84371,Sempe,52.04.10.2001,Moyo Hulu,Kabupaten,Sumbawa,Nusa Tenggara Barat (NTB)
604,84381,Batu Bangka,52.04.09.2011,Moyo Hilir,Kabupaten,Sumbawa,Nusa Tenggara Barat (NTB)
605,84381,Berare,52.04.09.2004,Moyo Hilir,Kabupaten,Sumbawa,Nusa Tenggara Barat (NTB)
606,84381,Kakiang,52.04.09.2002,Moyo Hilir,Kabupaten,Sumbawa,Nusa Tenggara Barat (NTB)
607,84381,Labuhan Ijuk,52.04.09.2014,Moyo Hilir,Kabupaten,Sumbawa,Nusa Tenggara Barat (NTB)
608,84381,Moyo,52.04.09.2001,Moyo Hilir,Kabupaten,Sumbawa,Nusa Tenggara Barat (NTB)
609,84381,Moyo Mekar,52.04.09.2013,Moyo Hilir,Kabupaten,Sumbawa,Nusa Tenggara Barat (NTB)
610,84381,Ngeru,52.04.09.2003,Moyo Hilir,Kabupaten,Sumbawa,Nusa Tenggara Barat (NTB)
611,84381,Olat Rawa,52.04.09.2010,Moyo Hilir,Kabupaten,Sumbawa,Nusa Tenggara Barat (NTB)
612,84381,Poto,52.04.09.2005,Moyo Hilir,Kabupaten,Sumbawa,Nusa Tenggara Barat (NTB)
613,84381,Serading,52.04.09.2009,Moyo Hilir,Kabupaten,Sumbawa,Nusa Tenggara Barat (NTB)
614,83663,Jenggik Utara,52.03.11.2005,Montong Gading,Kabupaten,Lombok Timur,Nusa Tenggara Barat (NTB)
615,83663,Kilang,52.03.11.2003,Montong Gading,Kabupaten,Lombok Timur,Nusa Tenggara Barat (NTB)
616,83663,Lendang Belo,52.03.11.2008,Montong Gading,Kabupaten,Lombok Timur,Nusa Tenggara Barat (NTB)
617,83663,Montong Betok,52.03.11.2002,Montong Gading,Kabupaten,Lombok Timur,Nusa Tenggara Barat (NTB)
618,83663,Perian,52.03.11.2004,Montong Gading,Kabupaten,Lombok Timur,Nusa Tenggara Barat (NTB)
619,83663,Pesanggrahan,52.03.11.2007,Montong Gading,Kabupaten,Lombok Timur,Nusa Tenggara Barat (NTB)
620,83663,Pringga Jurang,52.03.11.2001,Montong Gading,Kabupaten,Lombok Timur,Nusa Tenggara Barat (NTB)
621,83663,Pringgajurang Utara,52.03.11.2006,Montong Gading,Kabupaten,Lombok Timur,Nusa Tenggara Barat (NTB)
622,84172,Baralau,52.06.01.2012,Monta,Kabupaten,Bima,Nusa Tenggara Barat (NTB)
623,84172,Monta,52.06.01.2010,Monta,Kabupaten,Bima,Nusa Tenggara Barat (NTB)
624,84172,Nontotera,52.06.01.2018,Monta,Kabupaten,Bima,Nusa Tenggara Barat (NTB)
625,84172,Pela,52.06.01.2016,Monta,Kabupaten,Bima,Nusa Tenggara Barat (NTB)
626,84172,Sakuru (Sekuru),52.06.01.2011,Monta,Kabupaten,Bima,Nusa Tenggara Barat (NTB)
627,84172,Sie,52.06.01.2008,Monta,Kabupaten,Bima,Nusa Tenggara Barat (NTB)
628,84172,Simpasai,52.06.01.2007,Monta,Kabupaten,Bima,Nusa Tenggara Barat (NTB)
629,84172,Sondo,52.06.01.2006,Monta,Kabupaten,Bima,Nusa Tenggara Barat (NTB)
630,84172,Tangga,52.06.01.2009,Monta,Kabupaten,Bima,Nusa Tenggara Barat (NTB)
631,84172,Tangga Baru,52.06.01.2017,Monta,Kabupaten,Bima,Nusa Tenggara Barat (NTB)
632,84172,Tolotangga,52.06.01.2005,Monta,Kabupaten,Bima,Nusa Tenggara Barat (NTB)
633,84172,Tolouwi,52.06.01.2014,Monta,Kabupaten,Bima,Nusa Tenggara Barat (NTB)
634,84172,Waro,52.06.01.2019,Monta,Kabupaten,Bima,Nusa Tenggara Barat (NTB)
635,84172,Wilamaci,52.06.01.2015,Monta,Kabupaten,Bima,Nusa Tenggara Barat (NTB)
636,83121,Mataram Timur,52.71.02.1002,Mataram,Kota,Mataram,Nusa Tenggara Barat (NTB)
637,83127,Pagesangan,52.71.02.1001,Mataram,Kota,Mataram,Nusa Tenggara Barat (NTB)
638,83127,Pagesangan Barat,52.71.02.1009,Mataram,Kota,Mataram,Nusa Tenggara Barat (NTB)
639,83127,Pagesangan Timur,52.71.02.1010,Mataram,Kota,Mataram,Nusa Tenggara Barat (NTB)
640,83117,Pagutan,52.71.02.1008,Mataram,Kota,Mataram,Nusa Tenggara Barat (NTB)
641,83127,Pagutan Barat,52.71.02.1014,Mataram,Kota,Mataram,Nusa Tenggara Barat (NTB)
642,83127,Pagutan Timur,52.71.02.1013,Mataram,Kota,Mataram,Nusa Tenggara Barat (NTB)
643,83127,Pejanggik,52.71.02.1011,Mataram,Kota,Mataram,Nusa Tenggara Barat (NTB)
644,83127,Punia,52.71.02.1012,Mataram,Kota,Mataram,Nusa Tenggara Barat (NTB)
645,83661,Danger,52.03.05.2006,Masbagik,Kabupaten,Lombok Timur,Nusa Tenggara Barat (NTB)
646,83661,Kesik,52.03.05.2001,Masbagik,Kabupaten,Lombok Timur,Nusa Tenggara Barat (NTB)
647,83661,Kumbang,52.03.05.2010,Masbagik,Kabupaten,Lombok Timur,Nusa Tenggara Barat (NTB)
648,83661,Lendang Nangka,52.03.05.2007,Masbagik,Kabupaten,Lombok Timur,Nusa Tenggara Barat (NTB)
649,83661,Lendang Nangka Utara,52.03.05.2009,Masbagik,Kabupaten,Lombok Timur,Nusa Tenggara Barat (NTB)
650,83661,Masbagik Selatan,52.03.05.2003,Masbagik,Kabupaten,Lombok Timur,Nusa Tenggara Barat (NTB)
651,83661,Masbagik Timur,52.03.05.2004,Masbagik,Kabupaten,Lombok Timur,Nusa Tenggara Barat (NTB)
652,83661,Masbagik Utara,52.03.05.2005,Masbagik,Kabupaten,Lombok Timur,Nusa Tenggara Barat (NTB)
653,83661,Masbagik Utara Baru,52.03.05.2008,Masbagik,Kabupaten,Lombok Timur,Nusa Tenggara Barat (NTB)
654,83661,Paokmotong (Paok Motong),52.03.05.2002,Masbagik,Kabupaten,Lombok Timur,Nusa Tenggara Barat (NTB)
655,84387,Labuhan Sangoro,52.04.24.2004,Maronge,Kabupaten,Sumbawa,Nusa Tenggara Barat (NTB)
656,84387,Maronge,52.04.24.2002,Maronge,Kabupaten,Sumbawa,Nusa Tenggara Barat (NTB)
657,84387,Pamasar (Pemasar),52.04.24.2003,Maronge,Kabupaten,Sumbawa,Nusa Tenggara Barat (NTB)
658,84387,Simu,52.04.24.2001,Maronge,Kabupaten,Sumbawa,Nusa Tenggara Barat (NTB)
659,84253,Anamina,52.05.07.2011,Manggalewa,Kabupaten,Dompu,Nusa Tenggara Barat (NTB)
660,84253,Banggo,52.05.07.2002,Manggalewa,Kabupaten,Dompu,Nusa Tenggara Barat (NTB)
661,84253,Doromelo,52.05.07.2007,Manggalewa,Kabupaten,Dompu,Nusa Tenggara Barat (NTB)
662,84253,Kampasi Meci,52.05.07.2009,Manggalewa,Kabupaten,Dompu,Nusa Tenggara Barat (NTB)
663,84253,Kwangko,52.05.07.2003,Manggalewa,Kabupaten,Dompu,Nusa Tenggara Barat (NTB)
664,84253,Lanci Jaya,52.05.07.2004,Manggalewa,Kabupaten,Dompu,Nusa Tenggara Barat (NTB)
665,84253,Nangatumpu,52.05.07.2008,Manggalewa,Kabupaten,Dompu,Nusa Tenggara Barat (NTB)
666,84253,Nusa Jaya,52.05.07.2006,Manggalewa,Kabupaten,Dompu,Nusa Tenggara Barat (NTB)
667,84253,Soriutu,52.05.07.2001,Manggalewa,Kabupaten,Dompu,Nusa Tenggara Barat (NTB)
668,84253,Suka Damai,52.05.07.2005,Manggalewa,Kabupaten,Dompu,Nusa Tenggara Barat (NTB)
669,84253,Tanju,52.05.07.2012,Manggalewa,Kabupaten,Dompu,Nusa Tenggara Barat (NTB)
670,84253,Teka Sire,52.05.07.2010,Manggalewa,Kabupaten,Dompu,Nusa Tenggara Barat (NTB)
671,84459,Benete,52.07.08.2002,Maluk,Kabupaten,Sumbawa Barat,Nusa Tenggara Barat (NTB)
672,84459,Bukit Damai,52.07.08.2003,Maluk,Kabupaten,Sumbawa Barat,Nusa Tenggara Barat (NTB)
673,84459,Maluk,52.07.08.2001,Maluk,Kabupaten,Sumbawa Barat,Nusa Tenggara Barat (NTB)
674,84459,Mantun,52.07.08.2004,Maluk,Kabupaten,Sumbawa Barat,Nusa Tenggara Barat (NTB)
675,84459,Pasir Putih,52.07.08.2005,Maluk,Kabupaten,Sumbawa Barat,Nusa Tenggara Barat (NTB)
676,84111,Bolo,52.06.13.2009,Madapangga,Kabupaten,Bima,Nusa Tenggara Barat (NTB)
677,84111,Campa,52.06.13.2002,Madapangga,Kabupaten,Bima,Nusa Tenggara Barat (NTB)
678,84111,Dena,52.06.13.2006,Madapangga,Kabupaten,Bima,Nusa Tenggara Barat (NTB)
679,84111,Madawau (Mandawau),52.06.13.2010,Madapangga,Kabupaten,Bima,Nusa Tenggara Barat (NTB)
680,84111,Monggo,52.06.13.2005,Madapangga,Kabupaten,Bima,Nusa Tenggara Barat (NTB)
681,84111,Mpuri,52.06.13.2003,Madapangga,Kabupaten,Bima,Nusa Tenggara Barat (NTB)
682,84111,Ncandi,52.06.13.2011,Madapangga,Kabupaten,Bima,Nusa Tenggara Barat (NTB)
683,84111,Ndano,52.06.13.2004,Madapangga,Kabupaten,Bima,Nusa Tenggara Barat (NTB)
684,84111,Rade,52.06.13.2007,Madapangga,Kabupaten,Bima,Nusa Tenggara Barat (NTB)
685,84111,Tonda,52.06.13.2008,Madapangga,Kabupaten,Bima,Nusa Tenggara Barat (NTB)
686,84111,Woro,52.06.13.2001,Madapangga,Kabupaten,Bima,Nusa Tenggara Barat (NTB)
687,84373,Emang Lestari,52.04.02.2010,Lunyuk,Kabupaten,Sumbawa,Nusa Tenggara Barat (NTB)
688,84373,Jamu,52.04.02.2003,Lunyuk,Kabupaten,Sumbawa,Nusa Tenggara Barat (NTB)
689,84373,Lunyuk Ode,52.04.02.2002,Lunyuk,Kabupaten,Sumbawa,Nusa Tenggara Barat (NTB)
690,84373,Lunyuk Rea,52.04.02.2001,Lunyuk,Kabupaten,Sumbawa,Nusa Tenggara Barat (NTB)
691,84373,Pada Suka,52.04.02.2007,Lunyuk,Kabupaten,Sumbawa,Nusa Tenggara Barat (NTB)
692,84373,Perung,52.04.02.2009,Lunyuk,Kabupaten,Sumbawa,Nusa Tenggara Barat (NTB)
693,84373,Suka Maju,52.04.02.2008,Lunyuk,Kabupaten,Sumbawa,Nusa Tenggara Barat (NTB)
694,84388,Berora,52.04.26.2002,Lopok,Kabupaten,Sumbawa,Nusa Tenggara Barat (NTB)
695,84388,Langam,52.04.26.2004,Lopok,Kabupaten,Sumbawa,Nusa Tenggara Barat (NTB)
696,84388,Lopok,52.04.26.2003,Lopok,Kabupaten,Sumbawa,Nusa Tenggara Barat (NTB)
697,84388,Lopok Beru,52.04.26.2006,Lopok,Kabupaten,Sumbawa,Nusa Tenggara Barat (NTB)
698,84388,Mamak (Mama),52.04.26.2005,Lopok,Kabupaten,Sumbawa,Nusa Tenggara Barat (NTB)
699,84388,Pungkit,52.04.26.2001,Lopok,Kabupaten,Sumbawa,Nusa Tenggara Barat (NTB)
700,84388,Tatede,52.04.26.2007,Lopok,Kabupaten,Sumbawa,Nusa Tenggara Barat (NTB)
701,83371,Batu Kumbang (Batu Kumbung),52.01.12.2002,Lingsar,Kabupaten,Lombok Barat,Nusa Tenggara Barat (NTB)
702,83371,Batu Mekar,52.01.12.2010,Lingsar,Kabupaten,Lombok Barat,Nusa Tenggara Barat (NTB)
703,83371,Bug-Bug,52.01.12.2012,Lingsar,Kabupaten,Lombok Barat,Nusa Tenggara Barat (NTB)
704,83371,Dasan Geria,52.01.12.2007,Lingsar,Kabupaten,Lombok Barat,Nusa Tenggara Barat (NTB)
705,83371,Duman,52.01.12.2004,Lingsar,Kabupaten,Lombok Barat,Nusa Tenggara Barat (NTB)
706,83371,Gegelang,52.01.12.2013,Lingsar,Kabupaten,Lombok Barat,Nusa Tenggara Barat (NTB)
707,83371,Gegerung,52.01.12.2009,Lingsar,Kabupaten,Lombok Barat,Nusa Tenggara Barat (NTB)
708,83371,Giri Madia,52.01.12.2011,Lingsar,Kabupaten,Lombok Barat,Nusa Tenggara Barat (NTB)
709,83371,Gontoran,52.01.12.2015,Lingsar,Kabupaten,Lombok Barat,Nusa Tenggara Barat (NTB)
710,83371,Karang Bayan,52.01.12.2005,Lingsar,Kabupaten,Lombok Barat,Nusa Tenggara Barat (NTB)
711,83371,Langko,52.01.12.2006,Lingsar,Kabupaten,Lombok Barat,Nusa Tenggara Barat (NTB)
712,83371,Lingsar,52.01.12.2001,Lingsar,Kabupaten,Lombok Barat,Nusa Tenggara Barat (NTB)
713,83371,Peteluan Indah,52.01.12.2008,Lingsar,Kabupaten,Lombok Barat,Nusa Tenggara Barat (NTB)
714,83371,Saribaye,52.01.12.2014,Lingsar,Kabupaten,Lombok Barat,Nusa Tenggara Barat (NTB)
715,83371,Sigerongan,52.01.12.2003,Lingsar,Kabupaten,Lombok Barat,Nusa Tenggara Barat (NTB)
716,83653,Kalijaga Baru,52.03.21.2010,Lenek,Kabupaten,Lombok Timur,Nusa Tenggara Barat (NTB)
717,83653,Lenek,52.03.21.2001,Lenek,Kabupaten,Lombok Timur,Nusa Tenggara Barat (NTB)
718,83653,Lenek Baru,52.03.21.2004,Lenek,Kabupaten,Lombok Timur,Nusa Tenggara Barat (NTB)
719,83653,Lenek Daya,52.03.21.2003,Lenek,Kabupaten,Lombok Timur,Nusa Tenggara Barat (NTB)
720,83653,Lenek Duren,52.03.21.2008,Lenek,Kabupaten,Lombok Timur,Nusa Tenggara Barat (NTB)
721,83653,Lenek Kali Bambang,52.03.21.2005,Lenek,Kabupaten,Lombok Timur,Nusa Tenggara Barat (NTB)
722,83653,Lenek Lauk,52.03.21.2002,Lenek,Kabupaten,Lombok Timur,Nusa Tenggara Barat (NTB)
723,83653,Lenek Pasiraman,52.03.21.2006,Lenek,Kabupaten,Lombok Timur,Nusa Tenggara Barat (NTB)
724,83653,Lenek Ramban Biak,52.03.21.2007,Lenek,Kabupaten,Lombok Timur,Nusa Tenggara Barat (NTB)
725,83653,Sukarema,52.03.21.2009,Lenek,Kabupaten,Lombok Timur,Nusa Tenggara Barat (NTB)
726,84370,Ledang,52.04.27.2003,Lenangguar,Kabupaten,Sumbawa,Nusa Tenggara Barat (NTB)
727,84370,Lenangguar,52.04.27.2002,Lenangguar,Kabupaten,Sumbawa,Nusa Tenggara Barat (NTB)
728,84370,Tatebal,52.04.27.2001,Lenangguar,Kabupaten,Sumbawa,Nusa Tenggara Barat (NTB)
729,84370,Telaga,52.04.27.2004,Lenangguar,Kabupaten,Sumbawa,Nusa Tenggara Barat (NTB)
730,83364,Eyat Mayang,52.01.13.2010,Lembar,Kabupaten,Lombok Barat,Nusa Tenggara Barat (NTB)
731,83364,Jembatan Gantung,52.01.13.2006,Lembar,Kabupaten,Lombok Barat,Nusa Tenggara Barat (NTB)
732,83364,Jembatan Kembar,52.01.13.2002,Lembar,Kabupaten,Lombok Barat,Nusa Tenggara Barat (NTB)
733,83364,Jembatan Kembar Timur,52.01.13.2009,Lembar,Kabupaten,Lombok Barat,Nusa Tenggara Barat (NTB)
734,83364,Labuan Tereng,52.01.13.2005,Lembar,Kabupaten,Lombok Barat,Nusa Tenggara Barat (NTB)
735,83364,Lembar,52.01.13.2001,Lembar,Kabupaten,Lombok Barat,Nusa Tenggara Barat (NTB)
736,83364,Lembar Selatan,52.01.13.2007,Lembar,Kabupaten,Lombok Barat,Nusa Tenggara Barat (NTB)
737,83364,Mareje,52.01.13.2003,Lembar,Kabupaten,Lombok Barat,Nusa Tenggara Barat (NTB)
738,83364,Mareje Timur,52.01.13.2008,Lembar,Kabupaten,Lombok Barat,Nusa Tenggara Barat (NTB)
739,83364,Sekotong Timur,52.01.13.2004,Lembar,Kabupaten,Lombok Barat,Nusa Tenggara Barat (NTB)
740,84382,Dete,52.04.12.2006,Lape (Lape Lopok),Kabupaten,Sumbawa,Nusa Tenggara Barat (NTB)
741,84382,Hijrah,52.04.12.2009,Lape (Lape Lopok),Kabupaten,Sumbawa,Nusa Tenggara Barat (NTB)
742,84382,Labuhan Kuris (Labuan Kuris),52.04.12.2005,Lape (Lape Lopok),Kabupaten,Sumbawa,Nusa Tenggara Barat (NTB)
743,84382,Lape,52.04.12.2003,Lape (Lape Lopok),Kabupaten,Sumbawa,Nusa Tenggara Barat (NTB)
744,84372,Ai Mual,52.04.29.2003,Lantung,Kabupaten,Sumbawa,Nusa Tenggara Barat (NTB)
745,84372,Lantung,52.04.29.2001,Lantung,Kabupaten,Sumbawa,Nusa Tenggara Barat (NTB)
746,84372,Padesa,52.04.29.2004,Lantung,Kabupaten,Sumbawa,Nusa Tenggara Barat (NTB)
747,84372,Sepukur,52.04.29.2002,Lantung,Kabupaten,Sumbawa,Nusa Tenggara Barat (NTB)
748,84180,Doro Oo (Doro O'o),52.06.11.2006,Langgudu,Kabupaten,Bima,Nusa Tenggara Barat (NTB)
749,84180,Dumu,52.06.11.2011,Langgudu,Kabupaten,Bima,Nusa Tenggara Barat (NTB)
750,84180,Kalodu,52.06.11.2004,Langgudu,Kabupaten,Bima,Nusa Tenggara Barat (NTB)
751,84180,Kangga,52.06.11.2008,Langgudu,Kabupaten,Bima,Nusa Tenggara Barat (NTB)
752,84180,Karampi,52.06.11.2009,Langgudu,Kabupaten,Bima,Nusa Tenggara Barat (NTB)
753,84180,Karumbu,52.06.11.2002,Langgudu,Kabupaten,Bima,Nusa Tenggara Barat (NTB)
754,84180,Kawuwu,52.06.11.2005,Langgudu,Kabupaten,Bima,Nusa Tenggara Barat (NTB)
755,84180,Laju,52.06.11.2007,Langgudu,Kabupaten,Bima,Nusa Tenggara Barat (NTB)
756,84180,Pusu,52.06.11.2014,Langgudu,Kabupaten,Bima,Nusa Tenggara Barat (NTB)
757,84180,Rompo,52.06.11.2012,Langgudu,Kabupaten,Bima,Nusa Tenggara Barat (NTB)
758,84180,Rupe,52.06.11.2003,Langgudu,Kabupaten,Bima,Nusa Tenggara Barat (NTB)
759,84180,Sambane,52.06.11.2015,Langgudu,Kabupaten,Bima,Nusa Tenggara Barat (NTB)
760,84180,Sarae Ruma,52.06.11.2013,Langgudu,Kabupaten,Bima,Nusa Tenggara Barat (NTB)
761,84180,Waduruka,52.06.11.2010,Langgudu,Kabupaten,Bima,Nusa Tenggara Barat (NTB)
762,84180,Waworada,52.06.11.2001,Langgudu,Kabupaten,Bima,Nusa Tenggara Barat (NTB)
763,84182,Hidirasa,52.06.12.2010,Lambu,Kabupaten,Bima,Nusa Tenggara Barat (NTB)
764,84182,Kaleo,52.06.12.2001,Lambu,Kabupaten,Bima,Nusa Tenggara Barat (NTB)
765,84182,Lambu,52.06.12.2009,Lambu,Kabupaten,Bima,Nusa Tenggara Barat (NTB)
766,84182,Lanta,52.06.12.2004,Lambu,Kabupaten,Bima,Nusa Tenggara Barat (NTB)
767,84182,Lanta Barat (Lauta Barat),52.06.12.2011,Lambu,Kabupaten,Bima,Nusa Tenggara Barat (NTB)
768,84182,Mangge,52.06.12.2003,Lambu,Kabupaten,Bima,Nusa Tenggara Barat (NTB)
769,84182,Melayu,52.06.12.2012,Lambu,Kabupaten,Bima,Nusa Tenggara Barat (NTB)
770,84182,Monta Baru,52.06.12.2014,Lambu,Kabupaten,Bima,Nusa Tenggara Barat (NTB)
771,84182,Nggelu,52.06.12.2005,Lambu,Kabupaten,Bima,Nusa Tenggara Barat (NTB)
772,84182,Rato,52.06.12.2006,Lambu,Kabupaten,Bima,Nusa Tenggara Barat (NTB)
773,84182,Sangga,52.06.12.2013,Lambu,Kabupaten,Bima,Nusa Tenggara Barat (NTB)
774,84182,Simpasai,52.06.12.2002,Lambu,Kabupaten,Bima,Nusa Tenggara Barat (NTB)
775,84182,Soro,52.06.12.2008,Lambu,Kabupaten,Bima,Nusa Tenggara Barat (NTB)
776,84182,Sumi,52.06.12.2007,Lambu,Kabupaten,Bima,Nusa Tenggara Barat (NTB)
777,84181,Ka'owa,52.06.17.2005,Lambitu,Kabupaten,Bima,Nusa Tenggara Barat (NTB)
778,84181,Kabaro,52.06.17.2001,Lambitu,Kabupaten,Bima,Nusa Tenggara Barat (NTB)
779,84181,Kuta,52.06.17.2002,Lambitu,Kabupaten,Bima,Nusa Tenggara Barat (NTB)
780,84181,Londu,52.06.17.2006,Lambitu,Kabupaten,Bima,Nusa Tenggara Barat (NTB)
781,84181,Sambori,52.06.17.2003,Lambitu,Kabupaten,Bima,Nusa Tenggara Barat (NTB)
782,84181,Teta,52.06.17.2004,Lambitu,Kabupaten,Bima,Nusa Tenggara Barat (NTB)
783,83614,Banjarsari,52.03.17.2010,Labuhan Haji,Kabupaten,Lombok Timur,Nusa Tenggara Barat (NTB)
784,83615,Geres,52.03.17.1012,Labuhan Haji,Kabupaten,Lombok Timur,Nusa Tenggara Barat (NTB)
785,83615,Ijobalit,52.03.17.1007,Labuhan Haji,Kabupaten,Lombok Timur,Nusa Tenggara Barat (NTB)
786,83617,Kertasari,52.03.17.2008,Labuhan Haji,Kabupaten,Lombok Timur,Nusa Tenggara Barat (NTB)
787,83615,Korleko,52.03.17.2006,Labuhan Haji,Kabupaten,Lombok Timur,Nusa Tenggara Barat (NTB)
788,83615,Korleko Selatan,52.03.17.2011,Labuhan Haji,Kabupaten,Lombok Timur,Nusa Tenggara Barat (NTB)
789,83616,Labuhan Haji,52.03.17.2001,Labuhan Haji,Kabupaten,Lombok Timur,Nusa Tenggara Barat (NTB)
790,83617,Peneda Gandor (Penedagandor),52.03.17.2002,Labuhan Haji,Kabupaten,Lombok Timur,Nusa Tenggara Barat (NTB)
791,83616,Suryawangi (Surya Wangi),52.03.17.1005,Labuhan Haji,Kabupaten,Lombok Timur,Nusa Tenggara Barat (NTB)
792,83614,Tanjung,52.03.17.1004,Labuhan Haji,Kabupaten,Lombok Timur,Nusa Tenggara Barat (NTB)
793,83614,Teros,52.03.17.2003,Labuhan Haji,Kabupaten,Lombok Timur,Nusa Tenggara Barat (NTB)
794,83615,Tirtanadi,52.03.17.2009,Labuhan Haji,Kabupaten,Lombok Timur,Nusa Tenggara Barat (NTB)
795,84316,Bajo Medang,52.04.18.2006,Labuhan Badas,Kabupaten,Sumbawa,Nusa Tenggara Barat (NTB)
796,84316,Bugis Medang,52.04.18.2007,Labuhan Badas,Kabupaten,Sumbawa,Nusa Tenggara Barat (NTB)
797,84316,Karang Dima,52.04.18.2002,Labuhan Badas,Kabupaten,Sumbawa,Nusa Tenggara Barat (NTB)
798,84316,Labuhan Aji (Labuan Aji),52.04.18.2004,Labuhan Badas,Kabupaten,Sumbawa,Nusa Tenggara Barat (NTB)
799,84316,Labuhan Badas,52.04.18.2001,Labuhan Badas,Kabupaten,Sumbawa,Nusa Tenggara Barat (NTB)
800,84316,Labuhan Sumbawa (Labuan Sumbawa),52.04.18.2003,Labuhan Badas,Kabupaten,Sumbawa,Nusa Tenggara Barat (NTB)
801,84316,Sebotok,52.04.18.2005,Labuhan Badas,Kabupaten,Sumbawa,Nusa Tenggara Barat (NTB)
802,83361,Bagik Polak,52.01.08.2003,Labuapi,Kabupaten,Lombok Barat,Nusa Tenggara Barat (NTB)
803,83361,Bagik Polak Barat,52.01.08.2011,Labuapi,Kabupaten,Lombok Barat,Nusa Tenggara Barat (NTB)
804,83361,Bajur,52.01.08.2006,Labuapi,Kabupaten,Lombok Barat,Nusa Tenggara Barat (NTB)
805,83361,Bengkel,52.01.08.2001,Labuapi,Kabupaten,Lombok Barat,Nusa Tenggara Barat (NTB)
806,83361,Karang Bongkot,52.01.08.2009,Labuapi,Kabupaten,Lombok Barat,Nusa Tenggara Barat (NTB)
807,83361,Kuranji,52.01.08.2008,Labuapi,Kabupaten,Lombok Barat,Nusa Tenggara Barat (NTB)
808,83361,Kuranji Dalang,52.01.08.2012,Labuapi,Kabupaten,Lombok Barat,Nusa Tenggara Barat (NTB)
809,83361,Labuapi,52.01.08.2010,Labuapi,Kabupaten,Lombok Barat,Nusa Tenggara Barat (NTB)
810,83361,Merembu,52.01.08.2002,Labuapi,Kabupaten,Lombok Barat,Nusa Tenggara Barat (NTB)
811,83361,Perampuan,52.01.08.2005,Labuapi,Kabupaten,Lombok Barat,Nusa Tenggara Barat (NTB)
812,83361,Telagawaru,52.01.08.2004,Labuapi,Kabupaten,Lombok Barat,Nusa Tenggara Barat (NTB)
813,83361,Terong Tawah,52.01.08.2007,Labuapi,Kabupaten,Lombok Barat,Nusa Tenggara Barat (NTB)
814,84383,Jaya Makmur,52.04.19.2005,Labangka,Kabupaten,Sumbawa,Nusa Tenggara Barat (NTB)
815,84383,Labangka,52.04.19.2001,Labangka,Kabupaten,Sumbawa,Nusa Tenggara Barat (NTB)
816,84383,Sekokat,52.04.19.2002,Labangka,Kabupaten,Sumbawa,Nusa Tenggara Barat (NTB)
817,84383,Suka Damai,52.04.19.2004,Labangka,Kabupaten,Sumbawa,Nusa Tenggara Barat (NTB)
818,84383,Suka Mulya,52.04.19.2003,Labangka,Kabupaten,Sumbawa,Nusa Tenggara Barat (NTB)
819,83360,Giri Sasak,52.01.15.2006,Kuripan,Kabupaten,Lombok Barat,Nusa Tenggara Barat (NTB)
820,83360,Jagaraga,52.01.15.2002,Kuripan,Kabupaten,Lombok Barat,Nusa Tenggara Barat (NTB)
821,83360,Kuripan,52.01.15.2001,Kuripan,Kabupaten,Lombok Barat,Nusa Tenggara Barat (NTB)
822,83360,Kuripan Selatan,52.01.15.2004,Kuripan,Kabupaten,Lombok Barat,Nusa Tenggara Barat (NTB)
823,83360,Kuripan Timur,52.01.15.2005,Kuripan,Kabupaten,Lombok Barat,Nusa Tenggara Barat (NTB)
824,83360,Kuripan Utara,52.01.15.2003,Kuripan,Kabupaten,Lombok Barat,Nusa Tenggara Barat (NTB)
825,83553,Aik Bual,52.02.09.2010,Kopang,Kabupaten,Lombok Tengah,Nusa Tenggara Barat (NTB)
826,83553,Bebuak,52.02.09.2004,Kopang,Kabupaten,Lombok Tengah,Nusa Tenggara Barat (NTB)
827,83553,Berinding,52.02.09.2012,Kopang,Kabupaten,Lombok Tengah,Nusa Tenggara Barat (NTB)
828,83553,Darmaji,52.02.09.2008,Kopang,Kabupaten,Lombok Tengah,Nusa Tenggara Barat (NTB)
829,83553,Dasan Baru,52.02.09.2006,Kopang,Kabupaten,Lombok Tengah,Nusa Tenggara Barat (NTB)
830,83553,Kopang Rembiga,52.02.09.2005,Kopang,Kabupaten,Lombok Tengah,Nusa Tenggara Barat (NTB)
831,83553,Lendang Are,52.02.09.2001,Kopang,Kabupaten,Lombok Tengah,Nusa Tenggara Barat (NTB)
832,83553,Monggas,52.02.09.2002,Kopang,Kabupaten,Lombok Tengah,Nusa Tenggara Barat (NTB)
833,83553,Montong Gamang,52.02.09.2007,Kopang,Kabupaten,Lombok Tengah,Nusa Tenggara Barat (NTB)
834,83553,Muncan,52.02.09.2003,Kopang,Kabupaten,Lombok Tengah,Nusa Tenggara Barat (NTB)
835,83553,Pajangan,52.02.09.2013,Kopang,Kabupaten,Lombok Tengah,Nusa Tenggara Barat (NTB)
836,83553,Semparu,52.02.09.2011,Kopang,Kabupaten,Lombok Tengah,Nusa Tenggara Barat (NTB)
837,83553,Wajageseng,52.02.09.2009,Kopang,Kabupaten,Lombok Tengah,Nusa Tenggara Barat (NTB)
838,84252,Karama (Kramat 2 / Keramat),52.05.04.2006,Kilo,Kabupaten,Dompu,Nusa Tenggara Barat (NTB)
839,84252,Kiwu,52.05.04.2004,Kilo,Kabupaten,Dompu,Nusa Tenggara Barat (NTB)
840,84252,Lasi,52.05.04.2002,Kilo,Kabupaten,Dompu,Nusa Tenggara Barat (NTB)
841,84252,Malaju,52.05.04.2001,Kilo,Kabupaten,Dompu,Nusa Tenggara Barat (NTB)
842,84252,Mbuju,52.05.04.2003,Kilo,Kabupaten,Dompu,Nusa Tenggara Barat (NTB)
843,84252,Taropo,52.05.04.2005,Kilo,Kabupaten,Dompu,Nusa Tenggara Barat (NTB)
844,83673,Batu Putik,52.03.01.2005,Keruak,Kabupaten,Lombok Timur,Nusa Tenggara Barat (NTB)
845,83673,Dane Rase,52.03.01.2010,Keruak,Kabupaten,Lombok Timur,Nusa Tenggara Barat (NTB)
846,83673,Keruak,52.03.01.2007,Keruak,Kabupaten,Lombok Timur,Nusa Tenggara Barat (NTB)
847,83673,Ketangga Jeraeng,52.03.01.2011,Keruak,Kabupaten,Lombok Timur,Nusa Tenggara Barat (NTB)
848,83673,Ketapang Raya,52.03.01.2008,Keruak,Kabupaten,Lombok Timur,Nusa Tenggara Barat (NTB)
849,83673,Mendana Raya,52.03.01.2012,Keruak,Kabupaten,Lombok Timur,Nusa Tenggara Barat (NTB)
850,83673,Montong Belae,52.03.01.2014,Keruak,Kabupaten,Lombok Timur,Nusa Tenggara Barat (NTB)
851,83673,Pijot,52.03.01.2002,Keruak,Kabupaten,Lombok Timur,Nusa Tenggara Barat (NTB)
852,83673,Pijot Utara,52.03.01.2009,Keruak,Kabupaten,Lombok Timur,Nusa Tenggara Barat (NTB)
853,83673,Pulau Maringkik,52.03.01.2015,Keruak,Kabupaten,Lombok Timur,Nusa Tenggara Barat (NTB)
854,83673,Selebung Ketangga,52.03.01.2003,Keruak,Kabupaten,Lombok Timur,Nusa Tenggara Barat (NTB)
855,83673,Senyiur,52.03.01.2006,Keruak,Kabupaten,Lombok Timur,Nusa Tenggara Barat (NTB)
856,83673,Sepit,52.03.01.2004,Keruak,Kabupaten,Lombok Timur,Nusa Tenggara Barat (NTB)
857,83673,Setungkep Lingsar,52.03.01.2013,Keruak,Kabupaten,Lombok Timur,Nusa Tenggara Barat (NTB)
858,83673,Tanjung Luar,52.03.01.2001,Keruak,Kabupaten,Lombok Timur,Nusa Tenggara Barat (NTB)
859,84261,Doro Kobo,52.05.02.2007,Kempo,Kabupaten,Dompu,Nusa Tenggara Barat (NTB)
860,84261,Kempo,52.05.02.2001,Kempo,Kabupaten,Dompu,Nusa Tenggara Barat (NTB)
861,84261,Konte,52.05.02.2004,Kempo,Kabupaten,Dompu,Nusa Tenggara Barat (NTB)
862,84261,Songgaja,52.05.02.2006,Kempo,Kabupaten,Dompu,Nusa Tenggara Barat (NTB)
863,84261,Soro,52.05.02.2003,Kempo,Kabupaten,Dompu,Nusa Tenggara Barat (NTB)
864,84261,Soro Barat,52.05.02.2008,Kempo,Kabupaten,Dompu,Nusa Tenggara Barat (NTB)
865,84261,Ta'a,52.05.02.2002,Kempo,Kabupaten,Dompu,Nusa Tenggara Barat (NTB)
866,84261,Tolo Kalo,52.05.02.2005,Kempo,Kabupaten,Dompu,Nusa Tenggara Barat (NTB)
867,83362,Banyumulek,52.01.02.2006,Kediri,Kabupaten,Lombok Barat,Nusa Tenggara Barat (NTB)
868,83362,Dasan Baru,52.01.02.2008,Kediri,Kabupaten,Lombok Barat,Nusa Tenggara Barat (NTB)
869,83362,Gelogor,52.01.02.2004,Kediri,Kabupaten,Lombok Barat,Nusa Tenggara Barat (NTB)
870,83362,Jagaraga Indah,52.01.02.2003,Kediri,Kabupaten,Lombok Barat,Nusa Tenggara Barat (NTB)
871,83362,Kediri,52.01.02.2001,Kediri,Kabupaten,Lombok Barat,Nusa Tenggara Barat (NTB)
872,83362,Kediri Selatan,52.01.02.2009,Kediri,Kabupaten,Lombok Barat,Nusa Tenggara Barat (NTB)
873,83362,Lelede,52.01.02.2010,Kediri,Kabupaten,Lombok Barat,Nusa Tenggara Barat (NTB)
874,83362,Montong Are,52.01.02.2002,Kediri,Kabupaten,Lombok Barat,Nusa Tenggara Barat (NTB)
875,83362,Ombe Baru,52.01.02.2007,Kediri,Kabupaten,Lombok Barat,Nusa Tenggara Barat (NTB)
876,83362,Rumak,52.01.02.2005,Kediri,Kabupaten,Lombok Barat,Nusa Tenggara Barat (NTB)
877,83356,Dangiang,52.08.03.2007,Kayangan,Kabupaten,Lombok Utara,Nusa Tenggara Barat (NTB)
878,83356,Gumantar,52.08.03.2005,Kayangan,Kabupaten,Lombok Utara,Nusa Tenggara Barat (NTB)
879,83356,Kayangan,52.08.03.2001,Kayangan,Kabupaten,Lombok Utara,Nusa Tenggara Barat (NTB)
880,83356,Pansor,52.08.03.2009,Kayangan,Kabupaten,Lombok Utara,Nusa Tenggara Barat (NTB)
881,83356,Pendua,52.08.03.2008,Kayangan,Kabupaten,Lombok Utara,Nusa Tenggara Barat (NTB)
882,83356,Salut,52.08.03.2006,Kayangan,Kabupaten,Lombok Utara,Nusa Tenggara Barat (NTB)
883,83356,Santong,52.08.03.2002,Kayangan,Kabupaten,Lombok Utara,Nusa Tenggara Barat (NTB)
884,83356,Santong Mulia,52.08.03.2010,Kayangan,Kabupaten,Lombok Utara,Nusa Tenggara Barat (NTB)
885,83356,Selengen,52.08.03.2003,Kayangan,Kabupaten,Lombok Utara,Nusa Tenggara Barat (NTB)
886,83356,Sesait,52.08.03.2004,Kayangan,Kabupaten,Lombok Utara,Nusa Tenggara Barat (NTB)
887,83561,Barejulat,52.02.02.2001,Jonggat,Kabupaten,Lombok Tengah,Nusa Tenggara Barat (NTB)
888,83561,Batu Tulis (Batutulis),52.02.02.2005,Jonggat,Kabupaten,Lombok Tengah,Nusa Tenggara Barat (NTB)
889,83561,Bonjeruk,52.02.02.2012,Jonggat,Kabupaten,Lombok Tengah,Nusa Tenggara Barat (NTB)
890,83561,Bunkate,52.02.02.2013,Jonggat,Kabupaten,Lombok Tengah,Nusa Tenggara Barat (NTB)
891,83561,Gemel,52.02.02.2011,Jonggat,Kabupaten,Lombok Tengah,Nusa Tenggara Barat (NTB)
892,83561,Jelantik,52.02.02.2003,Jonggat,Kabupaten,Lombok Tengah,Nusa Tenggara Barat (NTB)
893,83561,Labulia,52.02.02.2004,Jonggat,Kabupaten,Lombok Tengah,Nusa Tenggara Barat (NTB)
894,83561,Nyerot,52.02.02.2009,Jonggat,Kabupaten,Lombok Tengah,Nusa Tenggara Barat (NTB)
895,83561,Pengenjek,52.02.02.2007,Jonggat,Kabupaten,Lombok Tengah,Nusa Tenggara Barat (NTB)
896,83561,Perina,52.02.02.2006,Jonggat,Kabupaten,Lombok Tengah,Nusa Tenggara Barat (NTB)
897,83561,Puyung,52.02.02.2008,Jonggat,Kabupaten,Lombok Tengah,Nusa Tenggara Barat (NTB)
898,83561,Sukarara,52.02.02.2010,Jonggat,Kabupaten,Lombok Tengah,Nusa Tenggara Barat (NTB)
899,83561,Ubung,52.02.02.2002,Jonggat,Kabupaten,Lombok Tengah,Nusa Tenggara Barat (NTB)
900,83672,Batu Nampar (Batunampar),52.03.20.2001,Jerowaru,Kabupaten,Lombok Timur,Nusa Tenggara Barat (NTB)
901,83672,Batunampar Selatan,52.03.20.2013,Jerowaru,Kabupaten,Lombok Timur,Nusa Tenggara Barat (NTB)
902,83672,Ekas Buana,52.03.20.2009,Jerowaru,Kabupaten,Lombok Timur,Nusa Tenggara Barat (NTB)
903,83672,Jerowaru,52.03.20.2003,Jerowaru,Kabupaten,Lombok Timur,Nusa Tenggara Barat (NTB)
904,83672,Kwang Rundun,52.03.20.2008,Jerowaru,Kabupaten,Lombok Timur,Nusa Tenggara Barat (NTB)
905,83672,Pandan Wangi,52.03.20.2006,Jerowaru,Kabupaten,Lombok Timur,Nusa Tenggara Barat (NTB)
906,83672,Pare Mas,52.03.20.2015,Jerowaru,Kabupaten,Lombok Timur,Nusa Tenggara Barat (NTB)
907,83672,Pemongkong,52.03.20.2004,Jerowaru,Kabupaten,Lombok Timur,Nusa Tenggara Barat (NTB)
908,83672,Pene,52.03.20.2012,Jerowaru,Kabupaten,Lombok Timur,Nusa Tenggara Barat (NTB)
909,83672,Sekaroh,52.03.20.2005,Jerowaru,Kabupaten,Lombok Timur,Nusa Tenggara Barat (NTB)
910,83672,Sepapan,52.03.20.2010,Jerowaru,Kabupaten,Lombok Timur,Nusa Tenggara Barat (NTB)
911,83672,Seriwe,52.03.20.2011,Jerowaru,Kabupaten,Lombok Timur,Nusa Tenggara Barat (NTB)
912,83672,Sukadamai,52.03.20.2014,Jerowaru,Kabupaten,Lombok Timur,Nusa Tenggara Barat (NTB)
913,83672,Sukaraja,52.03.20.2002,Jerowaru,Kabupaten,Lombok Timur,Nusa Tenggara Barat (NTB)
914,83672,Wakan,52.03.20.2007,Jerowaru,Kabupaten,Lombok Timur,Nusa Tenggara Barat (NTB)
915,84456,Belo,52.07.01.2002,Jereweh,Kabupaten,Sumbawa Barat,Nusa Tenggara Barat (NTB)
916,84456,Beru,52.07.01.2003,Jereweh,Kabupaten,Sumbawa Barat,Nusa Tenggara Barat (NTB)
917,84456,Dasan Anyar,52.07.01.2009,Jereweh,Kabupaten,Sumbawa Barat,Nusa Tenggara Barat (NTB)
918,84456,Goa,52.07.01.2001,Jereweh,Kabupaten,Sumbawa Barat,Nusa Tenggara Barat (NTB)
919,83554,Bakan,52.02.07.2006,Janapria,Kabupaten,Lombok Tengah,Nusa Tenggara Barat (NTB)
920,83554,Durian,52.02.07.2007,Janapria,Kabupaten,Lombok Tengah,Nusa Tenggara Barat (NTB)
921,83554,Janapria,52.02.07.2003,Janapria,Kabupaten,Lombok Tengah,Nusa Tenggara Barat (NTB)
922,83554,Janggawana,52.02.07.2015,Janapria,Kabupaten,Lombok Tengah,Nusa Tenggara Barat (NTB)
923,83554,Jango,52.02.07.2011,Janapria,Kabupaten,Lombok Tengah,Nusa Tenggara Barat (NTB)
924,83554,Kerembong,52.02.07.2010,Janapria,Kabupaten,Lombok Tengah,Nusa Tenggara Barat (NTB)
925,83554,Langko,52.02.07.2002,Janapria,Kabupaten,Lombok Tengah,Nusa Tenggara Barat (NTB)
926,83554,Lekor,52.02.07.2001,Janapria,Kabupaten,Lombok Tengah,Nusa Tenggara Barat (NTB)
927,83554,Lingkok Berenge,52.02.07.2016,Janapria,Kabupaten,Lombok Tengah,Nusa Tenggara Barat (NTB)
928,83554,Loang Maka,52.02.07.2004,Janapria,Kabupaten,Lombok Tengah,Nusa Tenggara Barat (NTB)
929,83554,Pendem,52.02.07.2008,Janapria,Kabupaten,Lombok Tengah,Nusa Tenggara Barat (NTB)
930,83554,Prako,52.02.07.2013,Janapria,Kabupaten,Lombok Tengah,Nusa Tenggara Barat (NTB)
931,83554,Saba,52.02.07.2005,Janapria,Kabupaten,Lombok Tengah,Nusa Tenggara Barat (NTB)
932,83554,Selebung Rembiga,52.02.07.2009,Janapria,Kabupaten,Lombok Tengah,Nusa Tenggara Barat (NTB)
933,83554,Setuta,52.02.07.2012,Janapria,Kabupaten,Lombok Tengah,Nusa Tenggara Barat (NTB)
934,83554,Tibu Sisok,52.02.07.2014,Janapria,Kabupaten,Lombok Tengah,Nusa Tenggara Barat (NTB)
935,84271,Adu,52.05.03.2004,Hu'u,Kabupaten,Dompu,Nusa Tenggara Barat (NTB)
936,84271,Cempi Jaya,52.05.03.2005,Hu'u,Kabupaten,Dompu,Nusa Tenggara Barat (NTB)
937,84271,Daha,52.05.03.2002,Hu'u,Kabupaten,Dompu,Nusa Tenggara Barat (NTB)
938,84271,Hu'u,52.05.03.2003,Hu'u,Kabupaten,Dompu,Nusa Tenggara Barat (NTB)
939,84271,Jala,52.05.03.2007,Hu'u,Kabupaten,Dompu,Nusa Tenggara Barat (NTB)
940,84271,Merada,52.05.03.2006,Hu'u,Kabupaten,Dompu,Nusa Tenggara Barat (NTB)
941,84271,Rasa Bou,52.05.03.2001,Hu'u,Kabupaten,Dompu,Nusa Tenggara Barat (NTB)
942,84271,Sawe,52.05.03.2008,Hu'u,Kabupaten,Dompu,Nusa Tenggara Barat (NTB)
943,83351,Bukittinggi,52.01.09.2016,Gunungsari,Kabupaten,Lombok Barat,Nusa Tenggara Barat (NTB)
944,83351,Dopang,52.01.09.2007,Gunungsari,Kabupaten,Lombok Barat,Nusa Tenggara Barat (NTB)
945,83351,Gelangsar,52.01.09.2014,Gunungsari,Kabupaten,Lombok Barat,Nusa Tenggara Barat (NTB)
946,83351,Guntur Macan,52.01.09.2011,Gunungsari,Kabupaten,Lombok Barat,Nusa Tenggara Barat (NTB)
947,83351,Gunungsari (Gunung Sari),52.01.09.2001,Gunungsari,Kabupaten,Lombok Barat,Nusa Tenggara Barat (NTB)
948,83351,Jatisela,52.01.09.2010,Gunungsari,Kabupaten,Lombok Barat,Nusa Tenggara Barat (NTB)
949,83351,Jeringo (Jeringgo),52.01.09.2015,Gunungsari,Kabupaten,Lombok Barat,Nusa Tenggara Barat (NTB)
950,83351,Kekait,52.01.09.2004,Gunungsari,Kabupaten,Lombok Barat,Nusa Tenggara Barat (NTB)
951,83351,Kekeri,52.01.09.2005,Gunungsari,Kabupaten,Lombok Barat,Nusa Tenggara Barat (NTB)
952,83351,Mekar Sari (Mekarsari),52.01.09.2012,Gunungsari,Kabupaten,Lombok Barat,Nusa Tenggara Barat (NTB)
953,83351,Midang,52.01.09.2002,Gunungsari,Kabupaten,Lombok Barat,Nusa Tenggara Barat (NTB)
954,83351,Nambalan (Mambalan),52.01.09.2006,Gunungsari,Kabupaten,Lombok Barat,Nusa Tenggara Barat (NTB)
955,83351,Penimbung,52.01.09.2008,Gunungsari,Kabupaten,Lombok Barat,Nusa Tenggara Barat (NTB)
956,83351,Ranjok,52.01.09.2013,Gunungsari,Kabupaten,Lombok Barat,Nusa Tenggara Barat (NTB)
957,83351,Sesele (Sesela),52.01.09.2003,Gunungsari,Kabupaten,Lombok Barat,Nusa Tenggara Barat (NTB)
958,83351,Taman Sari,52.01.09.2009,Gunungsari,Kabupaten,Lombok Barat,Nusa Tenggara Barat (NTB)
959,83363,Babussalam,52.01.01.2007,Gerung,Kabupaten,Lombok Barat,Nusa Tenggara Barat (NTB)
960,83363,Banyu Urip,52.01.01.2006,Gerung,Kabupaten,Lombok Barat,Nusa Tenggara Barat (NTB)
961,83363,Beleke,52.01.01.2009,Gerung,Kabupaten,Lombok Barat,Nusa Tenggara Barat (NTB)
962,83363,Dasan Geres,52.01.01.1004,Gerung,Kabupaten,Lombok Barat,Nusa Tenggara Barat (NTB)
963,83363,Dasan Tapen,52.01.01.2008,Gerung,Kabupaten,Lombok Barat,Nusa Tenggara Barat (NTB)
964,83363,Gapuk,52.01.01.2003,Gerung,Kabupaten,Lombok Barat,Nusa Tenggara Barat (NTB)
965,83363,Gerung Selatan,52.01.01.1011,Gerung,Kabupaten,Lombok Barat,Nusa Tenggara Barat (NTB)
966,83363,Gerung Utara,52.01.01.1001,Gerung,Kabupaten,Lombok Barat,Nusa Tenggara Barat (NTB)
967,83363,Giri Tembesi,52.01.01.2014,Gerung,Kabupaten,Lombok Barat,Nusa Tenggara Barat (NTB)
968,83363,Kebon Ayu (Kebunayu),52.01.01.2002,Gerung,Kabupaten,Lombok Barat,Nusa Tenggara Barat (NTB)
969,83363,Mesanggok,52.01.01.2012,Gerung,Kabupaten,Lombok Barat,Nusa Tenggara Barat (NTB)
970,83363,Suka Makmur (Sukamakmur),52.01.01.2005,Gerung,Kabupaten,Lombok Barat,Nusa Tenggara Barat (NTB)
971,83363,Taman Ayu,52.01.01.2013,Gerung,Kabupaten,Lombok Barat,Nusa Tenggara Barat (NTB)
972,83363,Tempos,52.01.01.2010,Gerung,Kabupaten,Lombok Barat,Nusa Tenggara Barat (NTB)
973,83353,Bentek,52.08.02.2002,Gangga,Kabupaten,Lombok Utara,Nusa Tenggara Barat (NTB)
974,83353,Genggelang,52.08.02.2003,Gangga,Kabupaten,Lombok Utara,Nusa Tenggara Barat (NTB)
975,83353,Gondang,52.08.02.2001,Gangga,Kabupaten,Lombok Utara,Nusa Tenggara Barat (NTB)
976,83353,Rempek,52.08.02.2004,Gangga,Kabupaten,Lombok Utara,Nusa Tenggara Barat (NTB)
977,83353,Rempek Darussalam,52.08.02.2007,Gangga,Kabupaten,Lombok Utara,Nusa Tenggara Barat (NTB)
978,83353,Sambik Bangkol,52.08.02.2005,Gangga,Kabupaten,Lombok Utara,Nusa Tenggara Barat (NTB)
979,83353,Segara Katon,52.08.02.2008,Gangga,Kabupaten,Lombok Utara,Nusa Tenggara Barat (NTB)
980,83353,Selelos,52.08.02.2006,Gangga,Kabupaten,Lombok Utara,Nusa Tenggara Barat (NTB)
981,84384,Boal,52.04.14.2001,Empang,Kabupaten,Sumbawa,Nusa Tenggara Barat (NTB)
982,84384,Bunga Eja,52.04.14.2015,Empang,Kabupaten,Sumbawa,Nusa Tenggara Barat (NTB)
983,84384,Empang Atas,52.04.14.2003,Empang,Kabupaten,Sumbawa,Nusa Tenggara Barat (NTB)
984,84384,Empang Bawa (Empang Bawah),52.04.14.2004,Empang,Kabupaten,Sumbawa,Nusa Tenggara Barat (NTB)
985,84384,Gapit,52.04.14.2013,Empang,Kabupaten,Sumbawa,Nusa Tenggara Barat (NTB)
986,84384,Jotang,52.04.14.2002,Empang,Kabupaten,Sumbawa,Nusa Tenggara Barat (NTB)
987,84384,Jotang Beru,52.04.14.2016,Empang,Kabupaten,Sumbawa,Nusa Tenggara Barat (NTB)
988,84384,Lamenta,52.04.14.2012,Empang,Kabupaten,Sumbawa,Nusa Tenggara Barat (NTB)
989,84384,Ongko,52.04.14.2005,Empang,Kabupaten,Sumbawa,Nusa Tenggara Barat (NTB)
990,84384,Pamanto,52.04.14.2014,Empang,Kabupaten,Sumbawa,Nusa Tenggara Barat (NTB)
991,84162,Bumi Pajo,52.06.08.2013,Donggo,Kabupaten,Bima,Nusa Tenggara Barat (NTB)
992,84162,Dori Dungga,52.06.08.2005,Donggo,Kabupaten,Bima,Nusa Tenggara Barat (NTB)
993,84162,Kala,52.06.08.2006,Donggo,Kabupaten,Bima,Nusa Tenggara Barat (NTB)
994,84162,Mbawa,52.06.08.2008,Donggo,Kabupaten,Bima,Nusa Tenggara Barat (NTB)
995,84162,Mpili,52.06.08.2012,Donggo,Kabupaten,Bima,Nusa Tenggara Barat (NTB)
996,84162,Ndano Na'e,52.06.08.2014,Donggo,Kabupaten,Bima,Nusa Tenggara Barat (NTB)
997,84162,O'o,52.06.08.2007,Donggo,Kabupaten,Bima,Nusa Tenggara Barat (NTB)
998,84162,Palama,52.06.08.2009,Donggo,Kabupaten,Bima,Nusa Tenggara Barat (NTB)
999,84162,Rora,52.06.08.2010,Donggo,Kabupaten,Bima,Nusa Tenggara Barat (NTB)
1000,84211,Bada,52.05.01.1001,Dompu,Kabupaten,Dompu,Nusa Tenggara Barat (NTB)
1001,84213,Bali,52.05.01.1002,Dompu,Kabupaten,Dompu,Nusa Tenggara Barat (NTB)
1002,84219,Dora Tangga,52.05.01.1005,Dompu,Kabupaten,Dompu,Nusa Tenggara Barat (NTB)
1003,84212,Dore Bara,52.05.01.2011,Dompu,Kabupaten,Dompu,Nusa Tenggara Barat (NTB)
1004,84219,Kandai I,52.05.01.1006,Dompu,Kabupaten,Dompu,Nusa Tenggara Barat (NTB)
1005,84219,Karamabura,52.05.01.2009,Dompu,Kabupaten,Dompu,Nusa Tenggara Barat (NTB)
1006,84219,Kareke,52.05.01.2012,Dompu,Kabupaten,Dompu,Nusa Tenggara Barat (NTB)
1007,84217,Karijawa,52.05.01.1004,Dompu,Kabupaten,Dompu,Nusa Tenggara Barat (NTB)
1008,84219,Katua,52.05.01.2008,Dompu,Kabupaten,Dompu,Nusa Tenggara Barat (NTB)
1009,84219,Mangge Nae,52.05.01.2013,Dompu,Kabupaten,Dompu,Nusa Tenggara Barat (NTB)
1010,84219,Manggeasi,52.05.01.2014,Dompu,Kabupaten,Dompu,Nusa Tenggara Barat (NTB)
1011,84219,Mbawi,52.05.01.2010,Dompu,Kabupaten,Dompu,Nusa Tenggara Barat (NTB)
1012,84219,O'o,52.05.01.2007,Dompu,Kabupaten,Dompu,Nusa Tenggara Barat (NTB)
1013,84214,Potu,52.05.01.1003,Dompu,Kabupaten,Dompu,Nusa Tenggara Barat (NTB)
1014,84213,Sori Sakolo,52.05.01.2015,Dompu,Kabupaten,Dompu,Nusa Tenggara Barat (NTB)
1015,83239,Cakranegara Barat,52.71.03.1005,Cakranegara,Kota,Mataram,Nusa Tenggara Barat (NTB)
1016,83239,Cakranegara Selatan,52.71.03.1004,Cakranegara,Kota,Mataram,Nusa Tenggara Barat (NTB)
1017,83239,Cakranegara Selatan Baru,52.71.03.1010,Cakranegara,Kota,Mataram,Nusa Tenggara Barat (NTB)
1018,83239,Cakranegara Timur,52.71.03.1006,Cakranegara,Kota,Mataram,Nusa Tenggara Barat (NTB)
1019,83239,Cakranegara Utara,52.71.03.1007,Cakranegara,Kota,Mataram,Nusa Tenggara Barat (NTB)
1020,83238,Cilinaya,52.71.03.1012,Cakranegara,Kota,Mataram,Nusa Tenggara Barat (NTB)
1021,83238,Karang Taliwang,52.71.03.1014,Cakranegara,Kota,Mataram,Nusa Tenggara Barat (NTB)
1022,83238,Mayura,52.71.03.1013,Cakranegara,Kota,Mataram,Nusa Tenggara Barat (NTB)
1023,83238,Sapta Marga,52.71.03.1011,Cakranegara,Kota,Mataram,Nusa Tenggara Barat (NTB)
1024,83239,Sayang Sayang,52.71.03.1009,Cakranegara,Kota,Mataram,Nusa Tenggara Barat (NTB)
1025,84355,Buin Baru,52.04.20.2006,Buer,Kabupaten,Sumbawa,Nusa Tenggara Barat (NTB)
1026,84355,Juru Mapin,52.04.20.2002,Buer,Kabupaten,Sumbawa,Nusa Tenggara Barat (NTB)
1027,84355,Kalabeso,52.04.20.2003,Buer,Kabupaten,Sumbawa,Nusa Tenggara Barat (NTB)
1028,84355,Labuhan Burung,52.04.20.2004,Buer,Kabupaten,Sumbawa,Nusa Tenggara Barat (NTB)
1029,84355,Pulau Kaung,52.04.20.2005,Buer,Kabupaten,Sumbawa,Nusa Tenggara Barat (NTB)
1030,84355,Tarusa,52.04.20.2001,Buer,Kabupaten,Sumbawa,Nusa Tenggara Barat (NTB)
1031,84458,Bangkat Monteh (Bangkat Monte),52.07.05.2003,Brang Rea,Kabupaten,Sumbawa Barat,Nusa Tenggara Barat (NTB)
1032,84458,Desa Beru,52.07.05.2001,Brang Rea,Kabupaten,Sumbawa Barat,Nusa Tenggara Barat (NTB)
1033,84455,Lamuntet,52.07.05.2006,Brang Rea,Kabupaten,Sumbawa Barat,Nusa Tenggara Barat (NTB)
1034,84455,Moteng,52.07.05.2008,Brang Rea,Kabupaten,Sumbawa Barat,Nusa Tenggara Barat (NTB)
1035,84455,Rarak Ronges,52.07.05.2007,Brang Rea,Kabupaten,Sumbawa Barat,Nusa Tenggara Barat (NTB)
1036,84458,Sapugara Bree,52.07.05.2004,Brang Rea,Kabupaten,Sumbawa Barat,Nusa Tenggara Barat (NTB)
1037,84455,Seminar Salit,52.07.05.2009,Brang Rea,Kabupaten,Sumbawa Barat,Nusa Tenggara Barat (NTB)
1038,84458,Tepas,52.07.05.2002,Brang Rea,Kabupaten,Sumbawa Barat,Nusa Tenggara Barat (NTB)
1039,84455,Tepas Sepakat,52.07.05.2005,Brang Rea,Kabupaten,Sumbawa Barat,Nusa Tenggara Barat (NTB)
1040,84455,Kalimantong,52.07.07.2002,Brang Ene,Kabupaten,Sumbawa Barat,Nusa Tenggara Barat (NTB)
1041,84455,Lampok,52.07.07.2003,Brang Ene,Kabupaten,Sumbawa Barat,Nusa Tenggara Barat (NTB)
1042,84455,Manemeng,52.07.07.2004,Brang Ene,Kabupaten,Sumbawa Barat,Nusa Tenggara Barat (NTB)
1043,84455,Mataiyang,52.07.07.2006,Brang Ene,Kabupaten,Sumbawa Barat,Nusa Tenggara Barat (NTB)
1044,84455,Mujahiddin,52.07.07.2005,Brang Ene,Kabupaten,Sumbawa Barat,Nusa Tenggara Barat (NTB)
1045,84455,Mura,52.07.07.2001,Brang Ene,Kabupaten,Sumbawa Barat,Nusa Tenggara Barat (NTB)
1046,84161,Bontokape,52.06.02.2007,Bolo,Kabupaten,Bima,Nusa Tenggara Barat (NTB)
1047,84161,Darussalam,52.06.02.2014,Bolo,Kabupaten,Bima,Nusa Tenggara Barat (NTB)
1048,84161,Kananga,52.06.02.2004,Bolo,Kabupaten,Bima,Nusa Tenggara Barat (NTB)
1049,84161,Kara,52.06.02.2013,Bolo,Kabupaten,Bima,Nusa Tenggara Barat (NTB)
1050,84161,Leu,52.06.02.2005,Bolo,Kabupaten,Bima,Nusa Tenggara Barat (NTB)
1051,84161,Nggembe,52.06.02.2009,Bolo,Kabupaten,Bima,Nusa Tenggara Barat (NTB)
1052,84161,Rada,52.06.02.2012,Bolo,Kabupaten,Bima,Nusa Tenggara Barat (NTB)
1053,84161,Rasabau,52.06.02.2002,Bolo,Kabupaten,Bima,Nusa Tenggara Barat (NTB)
1054,84161,Rato,52.06.02.2003,Bolo,Kabupaten,Bima,Nusa Tenggara Barat (NTB)
1055,84161,Sanolo,52.06.02.2010,Bolo,Kabupaten,Bima,Nusa Tenggara Barat (NTB)
1056,84161,Sondosia,52.06.02.2008,Bolo,Kabupaten,Bima,Nusa Tenggara Barat (NTB)
1057,84161,Tambe,52.06.02.2001,Bolo,Kabupaten,Bima,Nusa Tenggara Barat (NTB)
1058,84161,Timu,52.06.02.2006,Bolo,Kabupaten,Bima,Nusa Tenggara Barat (NTB)
1059,84161,Tumpu,52.06.02.2011,Bolo,Kabupaten,Bima,Nusa Tenggara Barat (NTB)
1060,84173,Cenggu,52.06.04.2005,Belo,Kabupaten,Bima,Nusa Tenggara Barat (NTB)
1061,84173,Diha,52.06.04.2016,Belo,Kabupaten,Bima,Nusa Tenggara Barat (NTB)
1062,84173,Lido,52.06.04.2002,Belo,Kabupaten,Bima,Nusa Tenggara Barat (NTB)
1063,84173,Ncera,52.06.04.2001,Belo,Kabupaten,Bima,Nusa Tenggara Barat (NTB)
1064,84173,Ngali,52.06.04.2003,Belo,Kabupaten,Bima,Nusa Tenggara Barat (NTB)
1065,84173,Renda,52.06.04.2004,Belo,Kabupaten,Bima,Nusa Tenggara Barat (NTB)
1066,84173,Roka,52.06.04.2015,Belo,Kabupaten,Bima,Nusa Tenggara Barat (NTB)
1067,84173,Runggu,52.06.04.2006,Belo,Kabupaten,Bima,Nusa Tenggara Barat (NTB)
1068,84173,Soki,52.06.04.2014,Belo,Kabupaten,Bima,Nusa Tenggara Barat (NTB)
1069,83354,Akat Akar (Akar Akar),52.08.04.2005,Bayan,Kabupaten,Lombok Utara,Nusa Tenggara Barat (NTB)
1070,83354,Andalan,52.08.04.2011,Bayan,Kabupaten,Lombok Utara,Nusa Tenggara Barat (NTB)
1071,83354,Anyar,52.08.04.2003,Bayan,Kabupaten,Lombok Utara,Nusa Tenggara Barat (NTB)
1072,83354,Batu Rakit,52.08.04.2012,Bayan,Kabupaten,Lombok Utara,Nusa Tenggara Barat (NTB)
1073,83354,Bayan,52.08.04.2001,Bayan,Kabupaten,Lombok Utara,Nusa Tenggara Barat (NTB)
1074,83354,Gunjan Asri,52.08.04.2010,Bayan,Kabupaten,Lombok Utara,Nusa Tenggara Barat (NTB)
1075,83354,Karang Bajo,52.08.04.2009,Bayan,Kabupaten,Lombok Utara,Nusa Tenggara Barat (NTB)
1076,83354,Loloan,52.08.04.2002,Bayan,Kabupaten,Lombok Utara,Nusa Tenggara Barat (NTB)
1077,83354,Mumbul Sari,52.08.04.2007,Bayan,Kabupaten,Lombok Utara,Nusa Tenggara Barat (NTB)
1078,83354,Sambik Elen,52.08.04.2008,Bayan,Kabupaten,Lombok Utara,Nusa Tenggara Barat (NTB)
1079,83354,Senaru,52.08.04.2006,Bayan,Kabupaten,Lombok Utara,Nusa Tenggara Barat (NTB)
1080,83354,Sukadana,52.08.04.2004,Bayan,Kabupaten,Lombok Utara,Nusa Tenggara Barat (NTB)
1081,83550,Aik Berik,52.02.12.2006,Batukliang Utara,Kabupaten,Lombok Tengah,Nusa Tenggara Barat (NTB)
1082,83550,Aik Bukak (Bukaq),52.02.12.2004,Batukliang Utara,Kabupaten,Lombok Tengah,Nusa Tenggara Barat (NTB)
1083,83550,Karang Sidemen,52.02.12.2008,Batukliang Utara,Kabupaten,Lombok Tengah,Nusa Tenggara Barat (NTB)
1084,83550,Lantan,52.02.12.2001,Batukliang Utara,Kabupaten,Lombok Tengah,Nusa Tenggara Barat (NTB)
1085,83550,Mas-mas (Mas Mas),52.02.12.2007,Batukliang Utara,Kabupaten,Lombok Tengah,Nusa Tenggara Barat (NTB)
1086,83550,Setiling,52.02.12.2002,Batukliang Utara,Kabupaten,Lombok Tengah,Nusa Tenggara Barat (NTB)
1087,83550,Tanak Beak,52.02.12.2003,Batukliang Utara,Kabupaten,Lombok Tengah,Nusa Tenggara Barat (NTB)
1088,83550,Teratak,52.02.12.2005,Batukliang Utara,Kabupaten,Lombok Tengah,Nusa Tenggara Barat (NTB)
1089,83552,Aik Darek,52.02.03.2005,Batukliang,Kabupaten,Lombok Tengah,Nusa Tenggara Barat (NTB)
1090,83552,Barabali,52.02.03.2007,Batukliang,Kabupaten,Lombok Tengah,Nusa Tenggara Barat (NTB)
1091,83552,Beber,52.02.03.2008,Batukliang,Kabupaten,Lombok Tengah,Nusa Tenggara Barat (NTB)
1092,83552,Bujak,52.02.03.2001,Batukliang,Kabupaten,Lombok Tengah,Nusa Tenggara Barat (NTB)
1093,83552,Lendang Tampel,52.02.03.2011,Batukliang,Kabupaten,Lombok Tengah,Nusa Tenggara Barat (NTB)
1094,83552,Mantang,52.02.03.2004,Batukliang,Kabupaten,Lombok Tengah,Nusa Tenggara Barat (NTB)
1095,83552,Mekar Bersatu,52.02.03.2010,Batukliang,Kabupaten,Lombok Tengah,Nusa Tenggara Barat (NTB)
1096,83552,Pagutan,52.02.03.2009,Batukliang,Kabupaten,Lombok Tengah,Nusa Tenggara Barat (NTB)
1097,83552,Peresak,52.02.03.2003,Batukliang,Kabupaten,Lombok Tengah,Nusa Tenggara Barat (NTB)
1098,83552,Selebung,52.02.03.2002,Batukliang,Kabupaten,Lombok Tengah,Nusa Tenggara Barat (NTB)
1099,83552,Tampak Siring,52.02.03.2006,Batukliang,Kabupaten,Lombok Tengah,Nusa Tenggara Barat (NTB)
1100,83355,Batu Layar Barat,52.01.14.2009,Batu Layar,Kabupaten,Lombok Barat,Nusa Tenggara Barat (NTB)
1101,83355,Batulayar (Batu Layar),52.01.14.2001,Batu Layar,Kabupaten,Lombok Barat,Nusa Tenggara Barat (NTB)
1102,83355,Bengkaung,52.01.14.2007,Batu Layar,Kabupaten,Lombok Barat,Nusa Tenggara Barat (NTB)
1103,83355,Lembah Sari,52.01.14.2004,Batu Layar,Kabupaten,Lombok Barat,Nusa Tenggara Barat (NTB)
1104,83355,Meninting,52.01.14.2002,Batu Layar,Kabupaten,Lombok Barat,Nusa Tenggara Barat (NTB)
1105,83355,Pusuk Lestari,52.01.14.2008,Batu Layar,Kabupaten,Lombok Barat,Nusa Tenggara Barat (NTB)
1106,83355,Sandik,52.01.14.2003,Batu Layar,Kabupaten,Lombok Barat,Nusa Tenggara Barat (NTB)
1107,83355,Senggigi,52.01.14.2006,Batu Layar,Kabupaten,Lombok Barat,Nusa Tenggara Barat (NTB)
1108,83355,Senteluk,52.01.14.2005,Batu Layar,Kabupaten,Lombok Barat,Nusa Tenggara Barat (NTB)
1109,84361,Bao Desa,52.04.07.2003,Batu Lanteh (Batulanteh),Kabupaten,Sumbawa,Nusa Tenggara Barat (NTB)
1110,84361,Batu Dulang (Batudulang),52.04.07.2005,Batu Lanteh (Batulanteh),Kabupaten,Sumbawa,Nusa Tenggara Barat (NTB)
1111,84361,Batu Rotok (Baturotok),52.04.07.2001,Batu Lanteh (Batulanteh),Kabupaten,Sumbawa,Nusa Tenggara Barat (NTB)
1112,84361,Kelungkung,52.04.07.2006,Batu Lanteh (Batulanteh),Kabupaten,Sumbawa,Nusa Tenggara Barat (NTB)
1113,84361,Tangkam Pulit (Tangkampulit / Tangkan Pulit),52.04.07.2002,Batu Lanteh (Batulanteh),Kabupaten,Sumbawa,Nusa Tenggara Barat (NTB)
1114,84361,Tepal,52.04.07.2004,Batu Lanteh (Batulanteh),Kabupaten,Sumbawa,Nusa Tenggara Barat (NTB)
1115,84119,Jaibaru Timur,52.72.03.1005,Asakota,Kota,Bima,Nusa Tenggara Barat (NTB)
1116,84119,Jatibaru,52.72.03.1003,Asakota,Kota,Bima,Nusa Tenggara Barat (NTB)
1117,84119,Jatiwangi,52.72.03.1002,Asakota,Kota,Bima,Nusa Tenggara Barat (NTB)
1118,84119,Kolo,52.72.03.1004,Asakota,Kota,Bima,Nusa Tenggara Barat (NTB)
1119,84119,Melayu,52.72.03.1001,Asakota,Kota,Bima,Nusa Tenggara Barat (NTB)
1120,84119,Ole,52.72.03.1006,Asakota,Kota,Bima,Nusa Tenggara Barat (NTB)
1121,83114,Ampenan Selatan,52.71.01.1004,Ampenan,Kota,Mataram,Nusa Tenggara Barat (NTB)
1122,83112,Ampenan Tengah,52.71.01.1005,Ampenan,Kota,Mataram,Nusa Tenggara Barat (NTB)
1123,83511,Ampenan Utara,52.71.01.1007,Ampenan,Kota,Mataram,Nusa Tenggara Barat (NTB)
1124,83118,Banjar,52.71.01.1009,Ampenan,Kota,Mataram,Nusa Tenggara Barat (NTB)
1125,83118,Bintaro,52.71.01.1013,Ampenan,Kota,Mataram,Nusa Tenggara Barat (NTB)
1126,83118,Dayan Peken (Doyan Peken),52.71.01.1012,Ampenan,Kota,Mataram,Nusa Tenggara Barat (NTB)
1127,83118,Kebun Sari (Kebunsari),52.71.01.1010,Ampenan,Kota,Mataram,Nusa Tenggara Barat (NTB)
1128,83118,Pajarakan Karya,52.71.01.1011,Ampenan,Kota,Mataram,Nusa Tenggara Barat (NTB)
1129,83113,Pejeruk,52.71.01.1006,Ampenan,Kota,Mataram,Nusa Tenggara Barat (NTB)
1130,83118,Taman Sari (Tamansari),52.71.01.1008,Ampenan,Kota,Mataram,Nusa Tenggara Barat (NTB)
1131,84153,Kole,52.06.10.2006,Ambalawi,Kabupaten,Bima,Nusa Tenggara Barat (NTB)
1132,84153,Mawu,52.06.10.2004,Ambalawi,Kabupaten,Bima,Nusa Tenggara Barat (NTB)
1133,84153,Nipa,52.06.10.2001,Ambalawi,Kabupaten,Bima,Nusa Tenggara Barat (NTB)
1134,84153,Rite,52.06.10.2003,Ambalawi,Kabupaten,Bima,Nusa Tenggara Barat (NTB)
1135,84153,Talapiti,52.06.10.2005,Ambalawi,Kabupaten,Bima,Nusa Tenggara Barat (NTB)
1136,84153,Tolowata,52.06.10.2002,Ambalawi,Kabupaten,Bima,Nusa Tenggara Barat (NTB)
1137,84354,Gontar,52.04.17.2005,Alas Barat,Kabupaten,Sumbawa,Nusa Tenggara Barat (NTB)
1138,84354,Gontar Baru,52.04.17.2007,Alas Barat,Kabupaten,Sumbawa,Nusa Tenggara Barat (NTB)
1139,84354,Labuhan Mapin (Labuan Mapin),52.04.17.2003,Alas Barat,Kabupaten,Sumbawa,Nusa Tenggara Barat (NTB)
1140,84354,Lekong,52.04.17.2004,Alas Barat,Kabupaten,Sumbawa,Nusa Tenggara Barat (NTB)
1141,84354,Mapin Beru (Mapin Baru),52.04.17.2008,Alas Barat,Kabupaten,Sumbawa,Nusa Tenggara Barat (NTB)
1142,84354,Mapin Kebak,52.04.17.2002,Alas Barat,Kabupaten,Sumbawa,Nusa Tenggara Barat (NTB)
1143,84354,Mapin Rea,52.04.17.2001,Alas Barat,Kabupaten,Sumbawa,Nusa Tenggara Barat (NTB)
1144,84354,Usar Mapin,52.04.17.2006,Alas Barat,Kabupaten,Sumbawa,Nusa Tenggara Barat (NTB)
1145,84353,Baru,52.04.05.2002,Alas,Kabupaten,Sumbawa,Nusa Tenggara Barat (NTB)
1146,84353,Dalam,52.04.05.2006,Alas,Kabupaten,Sumbawa,Nusa Tenggara Barat (NTB)
1147,84353,Juran Alas (Juranalas),52.04.05.2005,Alas,Kabupaten,Sumbawa,Nusa Tenggara Barat (NTB)
1148,84353,Kalimango,52.04.05.2003,Alas,Kabupaten,Sumbawa,Nusa Tenggara Barat (NTB)
1149,84353,Labuhan Alas,52.04.05.2012,Alas,Kabupaten,Sumbawa,Nusa Tenggara Barat (NTB)
1150,84353,Luar,52.04.05.2001,Alas,Kabupaten,Sumbawa,Nusa Tenggara Barat (NTB)
1151,84353,Marente (Marenteh),52.04.05.2004,Alas,Kabupaten,Sumbawa,Nusa Tenggara Barat (NTB)
1152,84353,Pulau Bungin,52.04.05.2007,Alas,Kabupaten,Sumbawa,Nusa Tenggara Barat (NTB)
1153,83653,Aik Prapa,52.03.09.2021,Aikmel,Kabupaten,Lombok Timur,Nusa Tenggara Barat (NTB)
1154,83653,Aikmel,52.03.09.2002,Aikmel,Kabupaten,Lombok Timur,Nusa Tenggara Barat (NTB)
1155,83653,Aikmel Barat,52.03.09.2010,Aikmel,Kabupaten,Lombok Timur,Nusa Tenggara Barat (NTB)
1156,83653,Aikmel Timur,52.03.09.2023,Aikmel,Kabupaten,Lombok Timur,Nusa Tenggara Barat (NTB)
1157,83653,Aikmel Utara,52.03.09.2007,Aikmel,Kabupaten,Lombok Timur,Nusa Tenggara Barat (NTB)
1158,83653,Bagik Nyaka Santri,52.03.09.2020,Aikmel,Kabupaten,Lombok Timur,Nusa Tenggara Barat (NTB)
1159,83653,Kalijaga,52.03.09.2003,Aikmel,Kabupaten,Lombok Timur,Nusa Tenggara Barat (NTB)
1160,83653,Kalijaga Selatan,52.03.09.2009,Aikmel,Kabupaten,Lombok Timur,Nusa Tenggara Barat (NTB)
1161,83653,Kalijaga Tengah,52.03.09.2019,Aikmel,Kabupaten,Lombok Timur,Nusa Tenggara Barat (NTB)
1162,83653,Kalijaga Timur,52.03.09.2008,Aikmel,Kabupaten,Lombok Timur,Nusa Tenggara Barat (NTB)
1163,83653,Kembang Kerang,52.03.09.2004,Aikmel,Kabupaten,Lombok Timur,Nusa Tenggara Barat (NTB)
1164,83653,Kembang Kerang Daya,52.03.09.2011,Aikmel,Kabupaten,Lombok Timur,Nusa Tenggara Barat (NTB)
1165,83653,Keroya,52.03.09.2024,Aikmel,Kabupaten,Lombok Timur,Nusa Tenggara Barat (NTB)
1166,83653,Toya,52.03.09.2014,Aikmel,Kabupaten,Lombok Timur,Nusa Tenggara Barat (NTB)