no,postal_code,urban,area_code,sub_district,dt2,city,province
1,99685,Fefero (Fefeko),93.02.14.2004,Yaniruma,Kabupaten,Boven Digoel,Papua Selatan
2,99685,Manggemakhe (Manggemahe),93.02.14.2003,Yaniruma,Kabupaten,Boven Digoel,Papua Selatan
3,99685,Yaniruma,93.02.14.2001,Yaniruma,Kabupaten,Boven Digoel,Papua Selatan
4,99855,Amk,93.03.12.2001,Yakomi,Kabupaten,Mappi,Papua Selatan
5,99855,Benggo,93.03.12.2003,Yakomi,Kabupaten,Mappi,Papua Selatan
6,99855,Borohaba,93.03.12.2005,Yakomi,Kabupaten,Mappi,Papua Selatan
7,99855,Hebeske,93.03.12.2007,Yakomi,Kabupaten,Mappi,Papua Selatan
8,99855,Kokoya,93.03.12.2004,Yakomi,Kabupaten,Mappi,Papua Selatan
9,99855,Ogorito,93.03.12.2006,Yakomi,Kabupaten,Mappi,Papua Selatan
10,99855,Yame,93.03.12.2002,Yakomi,Kabupaten,Mappi,Papua Selatan
11,99684,Ikcan,93.02.03.2014,Waropko,Kabupaten,Boven Digoel,Papua Selatan
12,99684,Inggembit (Enggembit),93.02.03.2005,Waropko,Kabupaten,Boven Digoel,Papua Selatan
13,99684,Jetetkun / Yetetkun,93.02.03.2004,Waropko,Kabupaten,Boven Digoel,Papua Selatan
14,99684,Kanggewot,93.02.03.2003,Waropko,Kabupaten,Boven Digoel,Papua Selatan
15,99684,Upkim,93.02.03.2013,Waropko,Kabupaten,Boven Digoel,Papua Selatan
16,99684,Wametkapa,93.02.03.2006,Waropko,Kabupaten,Boven Digoel,Papua Selatan
17,99684,Winiktit,93.02.03.2002,Waropko,Kabupaten,Boven Digoel,Papua Selatan
18,99684,Wombon,93.02.03.2009,Waropko,Kabupaten,Boven Digoel,Papua Selatan
19,99684,Woropko (Waropko),93.02.03.2001,Waropko,Kabupaten,Boven Digoel,Papua Selatan
20,99643,Dafnawanga,93.01.19.2006,Waan,Kabupaten,Merauke,Papua Selatan
21,99643,Kladar,93.01.19.2004,Waan,Kabupaten,Merauke,Papua Selatan
22,99643,Konorau,93.01.19.2001,Waan,Kabupaten,Merauke,Papua Selatan
23,99643,Sabon,93.01.19.2005,Waan,Kabupaten,Merauke,Papua Selatan
24,99643,Toor (Tor),93.01.19.2003,Waan,Kabupaten,Merauke,Papua Selatan
25,99643,Waan,93.01.19.2002,Waan,Kabupaten,Merauke,Papua Selatan
26,99854,Getiyo,93.03.10.2015,Venaha,Kabupaten,Mappi,Papua Selatan
27,99854,Harapan,93.03.10.2008,Venaha,Kabupaten,Mappi,Papua Selatan
28,99854,Memes,93.03.10.2012,Venaha,Kabupaten,Mappi,Papua Selatan
29,99854,Mopio,93.03.10.2010,Venaha,Kabupaten,Mappi,Papua Selatan
30,99854,Pies (Piyes),93.03.10.2011,Venaha,Kabupaten,Mappi,Papua Selatan
31,99854,Sahapikia (Sahapikya),93.03.10.2007,Venaha,Kabupaten,Mappi,Papua Selatan
32,99854,Sien,93.03.10.2006,Venaha,Kabupaten,Mappi,Papua Selatan
33,99854,Yibin,93.03.10.2009,Venaha,Kabupaten,Mappi,Papua Selatan
34,99780,Amor,93.04.10.2002,Unir Sirau,Kabupaten,Asmat,Papua Selatan
35,99780,Ayir,93.04.10.2005,Unir Sirau,Kabupaten,Asmat,Papua Selatan
36,99780,Berip,93.04.10.2004,Unir Sirau,Kabupaten,Asmat,Papua Selatan
37,99780,Paar,93.04.10.2009,Unir Sirau,Kabupaten,Asmat,Papua Selatan
38,99780,Werer,93.04.10.2006,Unir Sirau,Kabupaten,Asmat,Papua Selatan
39,99780,Yipawer,93.04.10.2003,Unir Sirau,Kabupaten,Asmat,Papua Selatan
40,99635,Baidub,93.01.09.2011,Ulilin,Kabupaten,Merauke,Papua Selatan
41,99635,Belbeland,93.01.09.2008,Ulilin,Kabupaten,Merauke,Papua Selatan
42,99635,Kafyamke,93.01.09.2005,Ulilin,Kabupaten,Merauke,Papua Selatan
43,99635,Kandrakay (Kandrakai),93.01.09.2010,Ulilin,Kabupaten,Merauke,Papua Selatan
44,99635,Kindiki,93.01.09.2002,Ulilin,Kabupaten,Merauke,Papua Selatan
45,99635,Kir Ely (Kireli),93.01.09.2009,Ulilin,Kabupaten,Merauke,Papua Selatan
46,99635,Kumaaf,93.01.09.2003,Ulilin,Kabupaten,Merauke,Papua Selatan
47,99635,Mandekman,93.01.09.2006,Ulilin,Kabupaten,Merauke,Papua Selatan
48,99635,Nggayu,93.01.09.2004,Ulilin,Kabupaten,Merauke,Papua Selatan
49,99635,Rawahayu,93.01.09.2007,Ulilin,Kabupaten,Merauke,Papua Selatan
50,99635,Selil,93.01.09.2001,Ulilin,Kabupaten,Merauke,Papua Selatan
51,99639,Dodalim,93.01.15.2004,Tubang,Kabupaten,Merauke,Papua Selatan
52,99639,Dokib,93.01.15.2002,Tubang,Kabupaten,Merauke,Papua Selatan
53,99639,Wamal,93.01.15.2003,Tubang,Kabupaten,Merauke,Papua Selatan
54,99639,Welbuti,93.01.15.2006,Tubang,Kabupaten,Merauke,Papua Selatan
55,99639,Woboyo,93.01.15.2005,Tubang,Kabupaten,Merauke,Papua Selatan
56,99639,Yowied,93.01.15.2001,Tubang,Kabupaten,Merauke,Papua Selatan
57,99780,Abamu,93.04.24.2003,Tomor Birip,Kabupaten,Asmat,Papua Selatan
58,99781,Jifak,93.04.24.2007,Tomor Birip,Kabupaten,Asmat,Papua Selatan
59,99781,Koba,93.04.24.2005,Tomor Birip,Kabupaten,Asmat,Papua Selatan
60,99780,Munu,93.04.24.2002,Tomor Birip,Kabupaten,Asmat,Papua Selatan
61,99781,Sagapu,93.04.24.2006,Tomor Birip,Kabupaten,Asmat,Papua Selatan
62,99781,Tie,93.04.24.2004,Tomor Birip,Kabupaten,Asmat,Papua Selatan
63,99780,Tomor,93.04.24.2001,Tomor Birip,Kabupaten,Asmat,Papua Selatan
64,99781,Yensuku,93.04.24.2008,Tomor Birip,Kabupaten,Asmat,Papua Selatan
65,99878,Basman,93.03.15.2004,Ti Zain,Kabupaten,Mappi,Papua Selatan
66,99878,Kumaban,93.03.15.2002,Ti Zain,Kabupaten,Mappi,Papua Selatan
67,99878,Merokima,93.03.15.2005,Ti Zain,Kabupaten,Mappi,Papua Selatan
68,99878,Mu,93.03.15.2006,Ti Zain,Kabupaten,Mappi,Papua Selatan
69,99878,Pier,93.03.15.2007,Ti Zain,Kabupaten,Mappi,Papua Selatan
70,99878,Sagis,93.03.15.2001,Ti Zain,Kabupaten,Mappi,Papua Selatan
71,99878,Tarwa,93.03.15.2008,Ti Zain,Kabupaten,Mappi,Papua Selatan
72,99878,Tugumau,93.03.15.2003,Ti Zain,Kabupaten,Mappi,Papua Selatan
73,99632,Amun Kay,93.01.06.2004,Tanah Miring,Kabupaten,Merauke,Papua Selatan
74,99632,Bersehati,93.01.06.2013,Tanah Miring,Kabupaten,Merauke,Papua Selatan
75,99632,Hidup Baru,93.01.06.2005,Tanah Miring,Kabupaten,Merauke,Papua Selatan
76,99632,Isano Mbias (Isanombias),93.01.06.2009,Tanah Miring,Kabupaten,Merauke,Papua Selatan
77,99632,Kamangi,93.01.06.2014,Tanah Miring,Kabupaten,Merauke,Papua Selatan
78,99632,Ngguti Bob,93.01.06.2007,Tanah Miring,Kabupaten,Merauke,Papua Selatan
79,99632,Sarmayam Indah,93.01.06.2006,Tanah Miring,Kabupaten,Merauke,Papua Selatan
80,99632,Soa,93.01.06.2011,Tanah Miring,Kabupaten,Merauke,Papua Selatan
81,99632,Sumber Harapan,93.01.06.2002,Tanah Miring,Kabupaten,Merauke,Papua Selatan
82,99632,Tambat,93.01.06.2012,Tanah Miring,Kabupaten,Merauke,Papua Selatan
83,99632,Waninggap Miraf,93.01.06.2008,Tanah Miring,Kabupaten,Merauke,Papua Selatan
84,99632,Waninggap Say,93.01.06.2003,Tanah Miring,Kabupaten,Merauke,Papua Selatan
85,99632,Yaba Maru (Yabamaru),93.01.06.2010,Tanah Miring,Kabupaten,Merauke,Papua Selatan
86,99632,Yasa Mulya,93.01.06.2001,Tanah Miring,Kabupaten,Merauke,Papua Selatan
87,99642,Iromoro,93.01.18.2005,Tabonji,Kabupaten,Merauke,Papua Selatan
88,99642,Konjombando,93.01.18.2006,Tabonji,Kabupaten,Merauke,Papua Selatan
89,99642,Suam,93.01.18.2003,Tabonji,Kabupaten,Merauke,Papua Selatan
90,99642,Tabonji,93.01.18.2001,Tabonji,Kabupaten,Merauke,Papua Selatan
91,99642,Wanggambi,93.01.18.2002,Tabonji,Kabupaten,Merauke,Papua Selatan
92,99642,Yamuka,93.01.18.2004,Tabonji,Kabupaten,Merauke,Papua Selatan
93,99642,Yeraha,93.01.18.2007,Tabonji,Kabupaten,Merauke,Papua Selatan
94,99853,Asset,93.03.11.2003,Syahcame,Kabupaten,Mappi,Papua Selatan
95,99853,Bosma,93.03.11.2005,Syahcame,Kabupaten,Mappi,Papua Selatan
96,99853,Homlikia (Homilikia / Homlikya),93.03.11.2001,Syahcame,Kabupaten,Mappi,Papua Selatan
97,99853,Kobeta,93.03.11.2002,Syahcame,Kabupaten,Mappi,Papua Selatan
98,99853,Oghoto,93.03.11.2006,Syahcame,Kabupaten,Mappi,Papua Selatan
99,99853,Osso,93.03.11.2004,Syahcame,Kabupaten,Mappi,Papua Selatan
100,99781,Ajin,93.04.08.2011,Suru-suru,Kabupaten,Asmat,Papua Selatan
101,99781,Asgun,93.04.08.2017,Suru-suru,Kabupaten,Asmat,Papua Selatan
102,99781,Berimono,93.04.08.2016,Suru-suru,Kabupaten,Asmat,Papua Selatan
103,99781,Besika,93.04.08.2023,Suru-suru,Kabupaten,Asmat,Papua Selatan
104,99781,Dumaten,93.04.08.2009,Suru-suru,Kabupaten,Asmat,Papua Selatan
105,99781,Hom-hom,93.04.08.2010,Suru-suru,Kabupaten,Asmat,Papua Selatan
106,99781,Hulam,93.04.08.2014,Suru-suru,Kabupaten,Asmat,Papua Selatan
107,99781,Katalina,93.04.08.2019,Suru-suru,Kabupaten,Asmat,Papua Selatan
108,99781,Kebikduk,93.04.08.2013,Suru-suru,Kabupaten,Asmat,Papua Selatan
109,99781,Korobuk,93.04.08.2018,Suru-suru,Kabupaten,Asmat,Papua Selatan
110,99781,Laluk,93.04.08.2012,Suru-suru,Kabupaten,Asmat,Papua Selatan
111,99781,Linduk,93.04.08.2022,Suru-suru,Kabupaten,Asmat,Papua Selatan
112,99781,Obio,93.04.08.2020,Suru-suru,Kabupaten,Asmat,Papua Selatan
113,99781,Salbik,93.04.08.2021,Suru-suru,Kabupaten,Asmat,Papua Selatan
114,99781,See,93.04.08.2002,Suru-suru,Kabupaten,Asmat,Papua Selatan
115,99781,Suru-Suru,93.04.08.2001,Suru-suru,Kabupaten,Asmat,Papua Selatan
116,99781,Tomor,93.04.08.2007,Suru-suru,Kabupaten,Asmat,Papua Selatan
117,99781,Walase,93.04.08.2015,Suru-suru,Kabupaten,Asmat,Papua Selatan
118,99653,Aiwat,93.02.15.2004,Subur,Kabupaten,Boven Digoel,Papua Selatan
119,99653,Kaisa (Kaisah),93.02.15.2002,Subur,Kabupaten,Boven Digoel,Papua Selatan
120,99653,Subur,93.02.15.2001,Subur,Kabupaten,Boven Digoel,Papua Selatan
121,99653,Waghai (Bhakti),93.02.15.2003,Subur,Kabupaten,Boven Digoel,Papua Selatan
122,99792,Binam,93.04.07.2001,Suator,Kabupaten,Asmat,Papua Selatan
123,99792,Bubis,93.04.07.2004,Suator,Kabupaten,Asmat,Papua Selatan
124,99792,Bumu,93.04.07.2011,Suator,Kabupaten,Asmat,Papua Selatan
125,99792,Burbis,93.04.07.2003,Suator,Kabupaten,Asmat,Papua Selatan
126,99792,Emnam,93.04.07.2014,Suator,Kabupaten,Asmat,Papua Selatan
127,99792,Jinak,93.04.07.2006,Suator,Kabupaten,Asmat,Papua Selatan
128,99792,Kapayap Dua,93.04.07.2013,Suator,Kabupaten,Asmat,Papua Selatan
129,99792,Kapayap Satu,93.04.07.2012,Suator,Kabupaten,Asmat,Papua Selatan
130,99792,Karbis,93.04.07.2005,Suator,Kabupaten,Asmat,Papua Selatan
131,99792,Soray,93.04.07.2008,Suator,Kabupaten,Asmat,Papua Selatan
132,99792,Wagabus,93.04.07.2002,Suator,Kabupaten,Asmat,Papua Selatan
133,99792,Waganu Dua,93.04.07.2009,Suator,Kabupaten,Asmat,Papua Selatan
134,99792,Waijens,93.04.07.2010,Suator,Kabupaten,Asmat,Papua Selatan
135,99792,Wowi,93.04.07.2007,Suator,Kabupaten,Asmat,Papua Selatan
136,99648,Erambu,93.01.08.2005,Sota,Kabupaten,Merauke,Papua Selatan
137,99648,Rawa Biru,93.01.08.2003,Sota,Kabupaten,Merauke,Papua Selatan
138,99648,Sota,93.01.08.2001,Sota,Kabupaten,Merauke,Papua Selatan
139,99648,Toray (Torray),93.01.08.2004,Sota,Kabupaten,Merauke,Papua Selatan
140,99648,Yanggandur,93.01.08.2002,Sota,Kabupaten,Merauke,Papua Selatan
141,99779,Beco,93.04.25.2001,Sor Ep,Kabupaten,Asmat,Papua Selatan
142,99779,Buetkawar,93.04.25.2003,Sor Ep,Kabupaten,Asmat,Papua Selatan
143,99779,Fakan/Ani,93.04.25.2006,Sor Ep,Kabupaten,Asmat,Papua Selatan
144,99779,Manep,93.04.25.2004,Sor Ep,Kabupaten,Asmat,Papua Selatan
145,99779,Simini,93.04.25.2005,Sor Ep,Kabupaten,Asmat,Papua Selatan
146,99779,Yuni,93.04.25.2002,Sor Ep,Kabupaten,Asmat,Papua Selatan
147,99787,Awok,93.04.17.2005,Sirets,Kabupaten,Asmat,Papua Selatan
148,99787,Biwar Darat,93.04.17.2003,Sirets,Kabupaten,Asmat,Papua Selatan
149,99787,Damen,93.04.17.2002,Sirets,Kabupaten,Asmat,Papua Selatan
150,99787,Fos,93.04.17.2006,Sirets,Kabupaten,Asmat,Papua Selatan
151,99787,Kaimo,93.04.17.2004,Sirets,Kabupaten,Asmat,Papua Selatan
152,99787,Sakor,93.04.17.2008,Sirets,Kabupaten,Asmat,Papua Selatan
153,99787,Waganu,93.04.17.2007,Sirets,Kabupaten,Asmat,Papua Selatan
154,99787,Yausakor,93.04.17.2001,Sirets,Kabupaten,Asmat,Papua Selatan
155,99664,Amboran,93.02.18.2005,Sesnuk,Kabupaten,Boven Digoel,Papua Selatan
156,99664,Anggamburan,93.02.18.2002,Sesnuk,Kabupaten,Boven Digoel,Papua Selatan
157,99664,Kanggup,93.02.18.2003,Sesnuk,Kabupaten,Boven Digoel,Papua Selatan
158,99664,Sesnuk,93.02.18.2001,Sesnuk,Kabupaten,Boven Digoel,Papua Selatan
159,99664,Yomkondo,93.02.18.2004,Sesnuk,Kabupaten,Boven Digoel,Papua Selatan
160,99631,Kuper,93.01.05.2006,Semangga,Kabupaten,Merauke,Papua Selatan
161,99631,Kuprik,93.01.05.2005,Semangga,Kabupaten,Merauke,Papua Selatan
162,99631,Marga Mulya,93.01.05.2008,Semangga,Kabupaten,Merauke,Papua Selatan
163,99631,Matara,93.01.05.2001,Semangga,Kabupaten,Merauke,Papua Selatan
164,99631,Muram Sari (Muramsari),93.01.05.2009,Semangga,Kabupaten,Merauke,Papua Selatan
165,99631,Semangga Jaya (Semanggi Jaya),93.01.05.2007,Semangga,Kabupaten,Merauke,Papua Selatan
166,99631,Sido Mulyo (Sidomulyo),93.01.05.2004,Semangga,Kabupaten,Merauke,Papua Selatan
167,99631,Urumb,93.01.05.2003,Semangga,Kabupaten,Merauke,Papua Selatan
168,99631,Waninggap Kai/Kay,93.01.05.2010,Semangga,Kabupaten,Merauke,Papua Selatan
169,99631,Waninggap Nanggo,93.01.05.2002,Semangga,Kabupaten,Merauke,Papua Selatan
170,99783,Agani,93.04.03.2007,Sawa Erma,Kabupaten,Asmat,Papua Selatan
171,99783,Bu,93.04.03.2003,Sawa Erma,Kabupaten,Asmat,Papua Selatan
172,99783,Er,93.04.03.2004,Sawa Erma,Kabupaten,Asmat,Papua Selatan
173,99783,Erma,93.04.03.2002,Sawa Erma,Kabupaten,Asmat,Papua Selatan
174,99783,Mumugi II (Mumugu Dua),93.04.03.2010,Sawa Erma,Kabupaten,Asmat,Papua Selatan
175,99783,Mumugu,93.04.03.2008,Sawa Erma,Kabupaten,Asmat,Papua Selatan
176,99783,Pupis,93.04.03.2005,Sawa Erma,Kabupaten,Asmat,Papua Selatan
177,99783,Sauti,93.04.03.2009,Sawa Erma,Kabupaten,Asmat,Papua Selatan
178,99783,Sawa,93.04.03.2001,Sawa Erma,Kabupaten,Asmat,Papua Selatan
179,99783,Sona,93.04.03.2006,Sawa Erma,Kabupaten,Asmat,Papua Selatan
180,99774,Aworket,93.04.16.2002,Safan,Kabupaten,Asmat,Papua Selatan
181,99774,Bayun,93.04.16.2004,Safan,Kabupaten,Asmat,Papua Selatan
182,99774,Emene,93.04.16.2012,Safan,Kabupaten,Asmat,Papua Selatan
183,99774,Itersok (Jitorsok),93.04.16.2011,Safan,Kabupaten,Asmat,Papua Selatan
184,99774,Kayirim,93.04.16.2007,Safan,Kabupaten,Asmat,Papua Selatan
185,99774,Primapun,93.04.16.2001,Safan,Kabupaten,Asmat,Papua Selatan
186,99774,Saman,93.04.16.2003,Safan,Kabupaten,Asmat,Papua Selatan
187,99774,Santambor,93.04.16.2008,Safan,Kabupaten,Asmat,Papua Selatan
188,99774,Semendoro,93.04.16.2005,Safan,Kabupaten,Asmat,Papua Selatan
189,99774,Simsagar,93.04.16.2010,Safan,Kabupaten,Asmat,Papua Selatan
190,99774,Tareo,93.04.16.2006,Safan,Kabupaten,Asmat,Papua Selatan
191,99774,Yaptambor,93.04.16.2009,Safan,Kabupaten,Asmat,Papua Selatan
192,99778,Aoap,93.04.12.2010,Pulau Tiga,Kabupaten,Asmat,Papua Selatan
193,99778,Aou,93.04.12.2004,Pulau Tiga,Kabupaten,Asmat,Papua Selatan
194,99778,As,93.04.12.2002,Pulau Tiga,Kabupaten,Asmat,Papua Selatan
195,99778,Atat,93.04.12.2003,Pulau Tiga,Kabupaten,Asmat,Papua Selatan
196,99778,Eroko,93.04.12.2007,Pulau Tiga,Kabupaten,Asmat,Papua Selatan
197,99778,Esmapan,93.04.12.2006,Pulau Tiga,Kabupaten,Asmat,Papua Selatan
198,99778,Fumereipits,93.04.12.2011,Pulau Tiga,Kabupaten,Asmat,Papua Selatan
199,99778,Kapi,93.04.12.2001,Pulau Tiga,Kabupaten,Asmat,Papua Selatan
200,99778,Nakai,93.04.12.2005,Pulau Tiga,Kabupaten,Asmat,Papua Selatan
201,99778,Weo,93.04.12.2009,Pulau Tiga,Kabupaten,Asmat,Papua Selatan
202,99778,Yakapis,93.04.12.2008,Pulau Tiga,Kabupaten,Asmat,Papua Selatan
203,99877,Bifo,93.03.14.2007,Passue Bawah,Kabupaten,Mappi,Papua Selatan
204,99877,Busiri,93.03.14.2002,Passue Bawah,Kabupaten,Mappi,Papua Selatan
205,99877,Haku,93.03.14.2006,Passue Bawah,Kabupaten,Mappi,Papua Selatan
206,99877,Honya,93.03.14.2005,Passue Bawah,Kabupaten,Mappi,Papua Selatan
207,99877,Keta,93.03.14.2003,Passue Bawah,Kabupaten,Mappi,Papua Selatan
208,99877,Samurukie,93.03.14.2008,Passue Bawah,Kabupaten,Mappi,Papua Selatan
209,99877,Veta,93.03.14.2004,Passue Bawah,Kabupaten,Mappi,Papua Selatan
210,99877,Wonggi,93.03.14.2001,Passue Bawah,Kabupaten,Mappi,Papua Selatan
211,99871,Afogoma,93.03.08.2013,Passue,Kabupaten,Mappi,Papua Selatan
212,99871,Bagaram,93.03.08.2002,Passue,Kabupaten,Mappi,Papua Selatan
213,99871,Baitate,93.03.08.2011,Passue,Kabupaten,Mappi,Papua Selatan
214,99871,Kaime,93.03.08.2010,Passue,Kabupaten,Mappi,Papua Selatan
215,99871,Kotiak,93.03.08.2005,Passue,Kabupaten,Mappi,Papua Selatan
216,99871,Kotup (Xotup),93.03.08.2008,Passue,Kabupaten,Mappi,Papua Selatan
217,99871,Menya,93.03.08.2006,Passue,Kabupaten,Mappi,Papua Selatan
218,99871,Nohon,93.03.08.2004,Passue,Kabupaten,Mappi,Papua Selatan
219,99871,Passue/Taim,93.03.08.2003,Passue,Kabupaten,Mappi,Papua Selatan
220,99871,Rimba Jaya (Gayu),93.03.08.2009,Passue,Kabupaten,Mappi,Papua Selatan
221,99871,Sepoh,93.03.08.2001,Passue,Kabupaten,Mappi,Papua Selatan
222,99871,Tokhompatu / Tokompatu (Thokompatu),93.03.08.2007,Passue,Kabupaten,Mappi,Papua Selatan
223,99871,Urufu,93.03.08.2012,Passue,Kabupaten,Mappi,Papua Selatan
224,99773,Bawor,93.04.06.2007,Pantai Kasuari,Kabupaten,Asmat,Papua Selatan
225,99773,Hainam,93.04.06.2005,Pantai Kasuari,Kabupaten,Asmat,Papua Selatan
226,99773,Kamur,93.04.06.2001,Pantai Kasuari,Kabupaten,Asmat,Papua Selatan
227,99773,Sanapai,93.04.06.2008,Pantai Kasuari,Kabupaten,Asmat,Papua Selatan
228,99773,Sanep,93.04.06.2002,Pantai Kasuari,Kabupaten,Asmat,Papua Selatan
229,99773,Saramit,93.04.06.2003,Pantai Kasuari,Kabupaten,Asmat,Papua Selatan
230,99773,Sarmafo,93.04.06.2009,Pantai Kasuari,Kabupaten,Asmat,Papua Selatan
231,99773,Yagamit,93.04.06.2006,Pantai Kasuari,Kabupaten,Asmat,Papua Selatan
232,99773,Yahoi,93.04.06.2004,Pantai Kasuari,Kabupaten,Asmat,Papua Selatan
233,99642,Bamol I,93.01.21.2004,Padua,Kabupaten,Merauke,Papua Selatan
234,99642,Bamol II,93.01.21.2005,Padua,Kabupaten,Merauke,Papua Selatan
235,99640,Padua,93.01.21.2002,Padua,Kabupaten,Merauke,Papua Selatan
236,99641,Sabudon,93.01.21.2001,Padua,Kabupaten,Merauke,Papua Selatan
237,99640,Sigad,93.01.21.2003,Padua,Kabupaten,Merauke,Papua Selatan
238,99638,Alaku,93.01.03.2007,Okaba,Kabupaten,Merauke,Papua Selatan
239,99638,Alatep,93.01.03.2004,Okaba,Kabupaten,Merauke,Papua Selatan
240,99638,Duf Miraf (Dufmiraf),93.01.03.2006,Okaba,Kabupaten,Merauke,Papua Selatan
241,99638,Es Wambi,93.01.03.2009,Okaba,Kabupaten,Merauke,Papua Selatan
242,99638,Iwol,93.01.03.2005,Okaba,Kabupaten,Merauke,Papua Selatan
243,99638,Makaling,93.01.03.2003,Okaba,Kabupaten,Merauke,Papua Selatan
244,99638,Okaba,93.01.03.2001,Okaba,Kabupaten,Merauke,Papua Selatan
245,99638,Sanggase,93.01.03.2008,Okaba,Kabupaten,Merauke,Papua Selatan
246,99638,Wambi,93.01.03.2002,Okaba,Kabupaten,Merauke,Papua Selatan
247,99870,Dagimon,93.03.01.2002,Obaa,Kabupaten,Mappi,Papua Selatan
248,99870,Emete,93.03.01.2024,Obaa,Kabupaten,Mappi,Papua Selatan
249,99870,Enem,93.03.01.2013,Obaa,Kabupaten,Mappi,Papua Selatan
250,99870,Gauda,93.03.01.2011,Obaa,Kabupaten,Mappi,Papua Selatan
251,99870,Harome,93.03.01.2028,Obaa,Kabupaten,Mappi,Papua Selatan
252,99870,Kadam/Oyim,93.03.01.2015,Obaa,Kabupaten,Mappi,Papua Selatan
253,99870,Kepi,93.03.01.1022,Obaa,Kabupaten,Mappi,Papua Selatan
254,99870,Kogo,93.03.01.2014,Obaa,Kabupaten,Mappi,Papua Selatan
255,99870,Madu,93.03.01.2031,Obaa,Kabupaten,Mappi,Papua Selatan
256,99870,Mappi Bawah / Yamui,93.03.01.2004,Obaa,Kabupaten,Mappi,Papua Selatan
257,99870,Marbin,93.03.01.2034,Obaa,Kabupaten,Mappi,Papua Selatan
258,99870,Masin,93.03.01.2030,Obaa,Kabupaten,Mappi,Papua Selatan
259,99870,Metim,93.03.01.2029,Obaa,Kabupaten,Mappi,Papua Selatan
260,99870,Muin,93.03.01.2010,Obaa,Kabupaten,Mappi,Papua Selatan
261,99870,Obaa,93.03.01.2001,Obaa,Kabupaten,Mappi,Papua Selatan
262,99870,Paedam,93.03.01.2033,Obaa,Kabupaten,Mappi,Papua Selatan
263,99870,Piai,93.03.01.2009,Obaa,Kabupaten,Mappi,Papua Selatan
264,99870,Rayam,93.03.01.2026,Obaa,Kabupaten,Mappi,Papua Selatan
265,99870,Rep,93.03.01.2003,Obaa,Kabupaten,Mappi,Papua Selatan
266,99870,Soba,93.03.01.2012,Obaa,Kabupaten,Mappi,Papua Selatan
267,99870,Tokhom,93.03.01.2023,Obaa,Kabupaten,Mappi,Papua Selatan
268,99870,Wairu,93.03.01.2025,Obaa,Kabupaten,Mappi,Papua Selatan
269,99870,Wanggate,93.03.01.2005,Obaa,Kabupaten,Mappi,Papua Selatan
270,99870,Yangpop,93.03.01.2032,Obaa,Kabupaten,Mappi,Papua Selatan
271,99683,Kawaktembut,93.02.17.2003,Ninati,Kabupaten,Boven Digoel,Papua Selatan
272,99683,Ninati,93.02.17.2001,Ninati,Kabupaten,Boven Digoel,Papua Selatan
273,99683,Tembutka,93.02.17.2004,Ninati,Kabupaten,Boven Digoel,Papua Selatan
274,99683,Timka,93.02.17.2005,Ninati,Kabupaten,Boven Digoel,Papua Selatan
275,99683,Upyetetko,93.02.17.2002,Ninati,Kabupaten,Boven Digoel,Papua Selatan
276,99637,Nakias,93.01.16.2004,Ngguti,Kabupaten,Merauke,Papua Selatan
277,99637,Po Epe,93.01.16.2001,Ngguti,Kabupaten,Merauke,Papua Selatan
278,99637,Salam Epe,93.01.16.2005,Ngguti,Kabupaten,Merauke,Papua Selatan
279,99637,Taga Epe,93.01.16.2003,Ngguti,Kabupaten,Merauke,Papua Selatan
280,99637,Yawimu,93.01.16.2002,Ngguti,Kabupaten,Merauke,Papua Selatan
281,99637,Yomop,93.01.16.2006,Ngguti,Kabupaten,Merauke,Papua Selatan
282,99621,Kondo,93.01.12.2005,Naukenjerai,Kabupaten,Merauke,Papua Selatan
283,99621,Kuler,93.01.12.2001,Naukenjerai,Kabupaten,Merauke,Papua Selatan
284,99621,Onggaya,93.01.12.2002,Naukenjerai,Kabupaten,Merauke,Papua Selatan
285,99621,Tomer,93.01.12.2003,Naukenjerai,Kabupaten,Merauke,Papua Selatan
286,99621,Tomerau,93.01.12.2004,Naukenjerai,Kabupaten,Merauke,Papua Selatan
287,99634,Afkab Makmur,93.01.02.2010,Muting,Kabupaten,Merauke,Papua Selatan
288,99634,Andaito,93.01.02.2012,Muting,Kabupaten,Merauke,Papua Selatan
289,99634,Boha,93.01.02.2002,Muting,Kabupaten,Merauke,Papua Selatan
290,99634,Enggol Jaya (Elanggol Jaya),93.01.02.2008,Muting,Kabupaten,Merauke,Papua Selatan
291,99634,Kolam,93.01.02.2004,Muting,Kabupaten,Merauke,Papua Selatan
292,99634,Manway Bop (Manway Bob / Man Wai Bob),93.01.02.2009,Muting,Kabupaten,Merauke,Papua Selatan
293,99634,Muting,93.01.02.2001,Muting,Kabupaten,Merauke,Papua Selatan
294,99634,Pachas,93.01.02.2006,Muting,Kabupaten,Merauke,Papua Selatan
295,99634,Seed Agung (Sedayu Agung Prasasti),93.01.02.2007,Muting,Kabupaten,Merauke,Papua Selatan
296,99634,Selauw,93.01.02.2005,Muting,Kabupaten,Merauke,Papua Selatan
297,99634,Sigabel Jaya,93.01.02.2011,Muting,Kabupaten,Merauke,Papua Selatan
298,99634,Wan (Waan),93.01.02.2003,Muting,Kabupaten,Merauke,Papua Selatan
299,99872,Ati / Atti,93.03.09.2004,Minyamur,Kabupaten,Mappi,Papua Selatan
300,99872,Kabe,93.03.09.2001,Minyamur,Kabupaten,Mappi,Papua Selatan
301,99872,Kaumi,93.03.09.2002,Minyamur,Kabupaten,Mappi,Papua Selatan
302,99872,Kayagae (Kayagai),93.03.09.2003,Minyamur,Kabupaten,Mappi,Papua Selatan
303,99872,Kofar,93.03.09.2009,Minyamur,Kabupaten,Mappi,Papua Selatan
304,99872,Kogir,93.03.09.2012,Minyamur,Kabupaten,Mappi,Papua Selatan
305,99872,Komru,93.03.09.2008,Minyamur,Kabupaten,Mappi,Papua Selatan
306,99872,Pano,93.03.09.2011,Minyamur,Kabupaten,Mappi,Papua Selatan
307,99872,Sene,93.03.09.2007,Minyamur,Kabupaten,Mappi,Papua Selatan
308,99872,Sumuraman (Sumur Aman),93.03.09.2010,Minyamur,Kabupaten,Mappi,Papua Selatan
309,99872,Taragai / Taragae,93.03.09.2006,Minyamur,Kabupaten,Mappi,Papua Selatan
310,99872,Upin,93.03.09.2005,Minyamur,Kabupaten,Mappi,Papua Selatan
311,99663,Andobit (Andopbit),93.02.02.2013,Mindiptana,Kabupaten,Boven Digoel,Papua Selatan
312,99663,Anggumbit,93.02.02.2015,Mindiptana,Kabupaten,Boven Digoel,Papua Selatan
313,99663,Awayanka,93.02.02.2005,Mindiptana,Kabupaten,Boven Digoel,Papua Selatan
314,99663,Epsembit,93.02.02.2012,Mindiptana,Kabupaten,Boven Digoel,Papua Selatan
315,99663,Imko,93.02.02.2016,Mindiptana,Kabupaten,Boven Digoel,Papua Selatan
316,99663,Kakuna,93.02.02.2023,Mindiptana,Kabupaten,Boven Digoel,Papua Selatan
317,99663,Kamka,93.02.02.2017,Mindiptana,Kabupaten,Boven Digoel,Papua Selatan
318,99663,Mindiptana,93.02.02.2001,Mindiptana,Kabupaten,Boven Digoel,Papua Selatan
319,99663,Niyimbang,93.02.02.2014,Mindiptana,Kabupaten,Boven Digoel,Papua Selatan
320,99663,Osso,93.02.02.2018,Mindiptana,Kabupaten,Boven Digoel,Papua Selatan
321,99663,Tinggam,93.02.02.2019,Mindiptana,Kabupaten,Boven Digoel,Papua Selatan
322,99663,Umap,93.02.02.2003,Mindiptana,Kabupaten,Boven Digoel,Papua Selatan
323,99663,Wanggatkibi (Wanggat Kibi),93.02.02.2009,Mindiptana,Kabupaten,Boven Digoel,Papua Selatan
324,99616,Bambu Pemali,93.01.01.1009,Merauke,Kabupaten,Merauke,Papua Selatan
325,99604,Bokem,93.01.01.2014,Merauke,Kabupaten,Merauke,Papua Selatan
326,99605,Buti,93.01.01.2015,Merauke,Kabupaten,Merauke,Papua Selatan
327,99606,Kamahedoga,93.01.01.1012,Merauke,Kabupaten,Merauke,Papua Selatan
328,99607,Kamundu,93.01.01.1011,Merauke,Kabupaten,Merauke,Papua Selatan
329,99614,Karang Indah,93.01.01.1003,Merauke,Kabupaten,Merauke,Papua Selatan
330,99612,Kelapa Lima,93.01.01.1006,Merauke,Kabupaten,Merauke,Papua Selatan
331,99617,Mandala,93.01.01.1004,Merauke,Kabupaten,Merauke,Papua Selatan
332,99613,Maro,93.01.01.1005,Merauke,Kabupaten,Merauke,Papua Selatan
333,99608,Muli,93.01.01.1013,Merauke,Kabupaten,Merauke,Papua Selatan
334,99618,Nasem,93.01.01.2001,Merauke,Kabupaten,Merauke,Papua Selatan
335,99609,Nggolar,93.01.01.2016,Merauke,Kabupaten,Merauke,Papua Selatan
336,99610,Rimba Jaya,93.01.01.1007,Merauke,Kabupaten,Merauke,Papua Selatan
337,99615,Samkai,93.01.01.1002,Merauke,Kabupaten,Merauke,Papua Selatan
338,99619,Seringgu Jaya,93.01.01.1010,Merauke,Kabupaten,Merauke,Papua Selatan
339,99611,Wasur,93.01.01.2008,Merauke,Kabupaten,Merauke,Papua Selatan
340,99692,Bayanggop,93.02.12.2003,Manggelum,Kabupaten,Boven Digoel,Papua Selatan
341,99692,Burunggop,93.02.12.2002,Manggelum,Kabupaten,Boven Digoel,Papua Selatan
342,99692,Gaguop,93.02.12.2004,Manggelum,Kabupaten,Boven Digoel,Papua Selatan
343,99692,Kewam,93.02.12.2005,Manggelum,Kabupaten,Boven Digoel,Papua Selatan
344,99692,Mangga Tiga,93.02.12.2006,Manggelum,Kabupaten,Boven Digoel,Papua Selatan
345,99692,Manggelum,93.02.12.2001,Manggelum,Kabupaten,Boven Digoel,Papua Selatan
346,99674,Ampera,93.02.01.2003,Mandobo,Kabupaten,Boven Digoel,Papua Selatan
347,99674,Mariam,93.02.01.2011,Mandobo,Kabupaten,Boven Digoel,Papua Selatan
348,99674,Mawan,93.02.01.2012,Mandobo,Kabupaten,Boven Digoel,Papua Selatan
349,99674,Persatuan,93.02.01.2005,Mandobo,Kabupaten,Boven Digoel,Papua Selatan
350,99674,Sohokanggo (Sokanggo),93.02.01.2004,Mandobo,Kabupaten,Boven Digoel,Papua Selatan
351,99873,Agham,93.03.02.2003,Mambioman Bapai,Kabupaten,Mappi,Papua Selatan
352,99873,Ghanu,93.03.02.2025,Mambioman Bapai,Kabupaten,Mappi,Papua Selatan
353,99873,Ima,93.03.02.2014,Mambioman Bapai,Kabupaten,Mappi,Papua Selatan
354,99873,Khatan,93.03.02.2005,Mambioman Bapai,Kabupaten,Mappi,Papua Selatan
355,99873,Kogoyaman,93.03.02.2015,Mambioman Bapai,Kabupaten,Mappi,Papua Selatan
356,99873,Linggua,93.03.02.2019,Mambioman Bapai,Kabupaten,Mappi,Papua Selatan
357,99873,Magabag,93.03.02.2016,Mambioman Bapai,Kabupaten,Mappi,Papua Selatan
358,99873,Monana,93.03.02.2008,Mambioman Bapai,Kabupaten,Mappi,Papua Selatan
359,99873,Mur,93.03.02.2001,Mambioman Bapai,Kabupaten,Mappi,Papua Selatan
360,99873,Tereyemu,93.03.02.2017,Mambioman Bapai,Kabupaten,Mappi,Papua Selatan
361,99873,Waghien/Koba,93.03.02.2004,Mambioman Bapai,Kabupaten,Mappi,Papua Selatan
362,99873,Wagin,93.03.02.2009,Mambioman Bapai,Kabupaten,Mappi,Papua Selatan
363,99873,Waman,93.03.02.2013,Mambioman Bapai,Kabupaten,Mappi,Papua Selatan
364,99873,Waruwe,93.03.02.2024,Mambioman Bapai,Kabupaten,Mappi,Papua Selatan
365,99873,Yatan,93.03.02.2018,Mambioman Bapai,Kabupaten,Mappi,Papua Selatan
366,99647,Domande,93.01.14.2006,Malind,Kabupaten,Merauke,Papua Selatan
367,99647,Kaiburse,93.01.14.2005,Malind,Kabupaten,Merauke,Papua Selatan
368,99647,Kumbe,93.01.14.2001,Malind,Kabupaten,Merauke,Papua Selatan
369,99647,Onggari,93.01.14.2002,Malind,Kabupaten,Merauke,Papua Selatan
370,99647,Padang Raharja,93.01.14.2004,Malind,Kabupaten,Merauke,Papua Selatan
371,99647,Rawa Sari (Rawasari),93.01.14.2003,Malind,Kabupaten,Merauke,Papua Selatan
372,99647,Suka Maju,93.01.14.2007,Malind,Kabupaten,Merauke,Papua Selatan
373,99646,Anum Bob (Anumbob),93.01.11.2012,Kurik,Kabupaten,Merauke,Papua Selatan
374,99646,Candra Jaya,93.01.11.2010,Kurik,Kabupaten,Merauke,Papua Selatan
375,99646,Harapan Makmur,93.01.11.2001,Kurik,Kabupaten,Merauke,Papua Selatan
376,99646,Ivimahad (Ivi Mahad),93.01.11.2008,Kurik,Kabupaten,Merauke,Papua Selatan
377,99646,Jaya Makmur,93.01.11.2005,Kurik,Kabupaten,Merauke,Papua Selatan
378,99646,Kaliki,93.01.11.2007,Kurik,Kabupaten,Merauke,Papua Selatan
379,99646,Kurik,93.01.11.2002,Kurik,Kabupaten,Merauke,Papua Selatan
380,99646,Salor Indah,93.01.11.2009,Kurik,Kabupaten,Merauke,Papua Selatan
381,99646,Sumber Mulya,93.01.11.2006,Kurik,Kabupaten,Merauke,Papua Selatan
382,99646,Sumber Rejeki,93.01.11.2004,Kurik,Kabupaten,Merauke,Papua Selatan
383,99646,Telaga Sari,93.01.11.2003,Kurik,Kabupaten,Merauke,Papua Selatan
384,99646,Wapeko,93.01.11.2013,Kurik,Kabupaten,Merauke,Papua Selatan
385,99646,Wonorejo,93.01.11.2011,Kurik,Kabupaten,Merauke,Papua Selatan
386,99655,Jair,93.02.04.2007,Kouh,Kabupaten,Boven Digoel,Papua Selatan
387,99655,Kouh,93.02.04.2001,Kouh,Kabupaten,Boven Digoel,Papua Selatan
388,99655,Mandobo,93.02.04.2008,Kouh,Kabupaten,Boven Digoel,Papua Selatan
389,99792,Amakot,93.04.23.2004,Koroway Buluanop,Kabupaten,Asmat,Papua Selatan
390,99792,Ayak,93.04.23.2003,Koroway Buluanop,Kabupaten,Asmat,Papua Selatan
391,99792,Banum,93.04.23.2002,Koroway Buluanop,Kabupaten,Asmat,Papua Selatan
392,99792,Kapayap Tiga,93.04.23.2007,Koroway Buluanop,Kabupaten,Asmat,Papua Selatan
393,99791,Mabul,93.04.23.2001,Koroway Buluanop,Kabupaten,Asmat,Papua Selatan
394,99792,Nagatun,93.04.23.2005,Koroway Buluanop,Kabupaten,Asmat,Papua Selatan
395,99791,Sipanap,93.04.23.2008,Koroway Buluanop,Kabupaten,Asmat,Papua Selatan
396,99792,Ujung Batu,93.04.23.2006,Koroway Buluanop,Kabupaten,Asmat,Papua Selatan
397,99772,Aikut,93.04.15.2003,Kopay,Kabupaten,Asmat,Papua Selatan
398,99772,Airo Sapem (Sapen),93.04.15.2006,Kopay,Kabupaten,Asmat,Papua Selatan
399,99772,Hahare,93.04.15.2002,Kopay,Kabupaten,Asmat,Papua Selatan
400,99772,Heiyaram,93.04.15.2008,Kopay,Kabupaten,Asmat,Papua Selatan
401,99772,Kaipom,93.04.15.2005,Kopay,Kabupaten,Asmat,Papua Selatan
402,99772,Kawem,93.04.15.2001,Kopay,Kabupaten,Asmat,Papua Selatan
403,99772,Sanem,93.04.15.2004,Kopay,Kabupaten,Asmat,Papua Selatan
404,99772,Sasime,93.04.15.2010,Kopay,Kabupaten,Asmat,Papua Selatan
405,99772,Simipit,93.04.15.2007,Kopay,Kabupaten,Asmat,Papua Selatan
406,99772,Wagasu,93.04.15.2009,Kopay,Kabupaten,Asmat,Papua Selatan
407,99643,Kawe,93.01.22.2001,Kontuar,Kabupaten,Merauke,Papua Selatan
408,99643,Pembri,93.01.22.2003,Kontuar,Kabupaten,Merauke,Papua Selatan
409,99643,Sibenda,93.01.22.2004,Kontuar,Kabupaten,Merauke,Papua Selatan
410,99643,Wantarma,93.01.22.2005,Kontuar,Kabupaten,Merauke,Papua Selatan
411,99643,Wetau,93.01.22.2002,Kontuar,Kabupaten,Merauke,Papua Selatan
412,99662,Amuan,93.02.07.2004,Kombut,Kabupaten,Boven Digoel,Papua Selatan
413,99662,Kawangtet,93.02.07.2003,Kombut,Kabupaten,Boven Digoel,Papua Selatan
414,99662,Kombut,93.02.07.2001,Kombut,Kabupaten,Boven Digoel,Papua Selatan
415,99662,Moukbiran (Mokbiran),93.02.07.2002,Kombut,Kabupaten,Boven Digoel,Papua Selatan
416,99682,Dema,93.02.16.2005,Kombay,Kabupaten,Boven Digoel,Papua Selatan
417,99682,Sinimburu,93.02.16.2002,Kombay,Kabupaten,Boven Digoel,Papua Selatan
418,99682,Ugo,93.02.16.2004,Kombay,Kabupaten,Boven Digoel,Papua Selatan
419,99682,Wanggemalo,93.02.16.2001,Kombay,Kabupaten,Boven Digoel,Papua Selatan
420,99682,Yafufla,93.02.16.2003,Kombay,Kabupaten,Boven Digoel,Papua Selatan
421,99791,Auban,93.04.09.2008,Kolf Braza,Kabupaten,Asmat,Papua Selatan
422,99791,Binamsain,93.04.09.2001,Kolf Braza,Kabupaten,Asmat,Papua Selatan
423,99791,Butukatnau,93.04.09.2007,Kolf Braza,Kabupaten,Asmat,Papua Selatan
424,99791,Patipi,93.04.09.2004,Kolf Braza,Kabupaten,Asmat,Papua Selatan
425,99791,Pepera,93.04.09.2009,Kolf Braza,Kabupaten,Asmat,Papua Selatan
426,99791,Pirabanak,93.04.09.2002,Kolf Braza,Kabupaten,Asmat,Papua Selatan
427,99791,Ulakin,93.04.09.2005,Kolf Braza,Kabupaten,Asmat,Papua Selatan
428,99791,Woutu Braza,93.04.09.2003,Kolf Braza,Kabupaten,Asmat,Papua Selatan
429,99791,Woutu Kolof,93.04.09.2006,Kolf Braza,Kabupaten,Asmat,Papua Selatan
430,99641,Deka,93.01.04.2009,Kimaam,Kabupaten,Merauke,Papua Selatan
431,99641,Kalilam,93.01.04.2004,Kimaam,Kabupaten,Merauke,Papua Selatan
432,99641,Kimaam,93.01.04.2001,Kimaam,Kabupaten,Merauke,Papua Selatan
433,99641,Kiworo,93.01.04.2007,Kimaam,Kabupaten,Merauke,Papua Selatan
434,99641,Komolom,93.01.04.2002,Kimaam,Kabupaten,Merauke,Papua Selatan
435,99641,Kumbis,93.01.04.2003,Kimaam,Kabupaten,Merauke,Papua Selatan
436,99641,Mambum,93.01.04.2006,Kimaam,Kabupaten,Merauke,Papua Selatan
437,99641,Purawanderu,93.01.04.2011,Kimaam,Kabupaten,Merauke,Papua Selatan
438,99641,Teri,93.01.04.2005,Kimaam,Kabupaten,Merauke,Papua Selatan
439,99641,Turiram,93.01.04.2010,Kimaam,Kabupaten,Merauke,Papua Selatan
440,99641,Umanderu,93.01.04.2012,Kimaam,Kabupaten,Merauke,Papua Selatan
441,99641,Webu,93.01.04.2013,Kimaam,Kabupaten,Merauke,Papua Selatan
442,99641,Woner,93.01.04.2008,Kimaam,Kabupaten,Merauke,Papua Selatan
443,99652,Metto,93.02.19.2001,Ki,Kabupaten,Boven Digoel,Papua Selatan
444,99652,Obinangge,93.02.19.2002,Ki,Kabupaten,Boven Digoel,Papua Selatan
445,99652,Ujungkia,93.02.19.2004,Ki,Kabupaten,Boven Digoel,Papua Selatan
446,99652,Watemu,93.02.19.2003,Ki,Kabupaten,Boven Digoel,Papua Selatan
447,99654,Biwage,93.02.20.2004,Kawagit,Kabupaten,Boven Digoel,Papua Selatan
448,99654,Biwage Dua,93.02.20.2005,Kawagit,Kabupaten,Boven Digoel,Papua Selatan
449,99654,Kawagit,93.02.20.2002,Kawagit,Kabupaten,Boven Digoel,Papua Selatan
450,99654,Kombai,93.02.20.2003,Kawagit,Kabupaten,Boven Digoel,Papua Selatan
451,99654,Niop,93.02.20.2006,Kawagit,Kabupaten,Boven Digoel,Papua Selatan
452,99654,Wanggom,93.02.20.2001,Kawagit,Kabupaten,Boven Digoel,Papua Selatan
453,99636,Bu Epe,93.01.17.2005,Kaptel,Kabupaten,Merauke,Papua Selatan
454,99636,Ihalik,93.01.17.2004,Kaptel,Kabupaten,Merauke,Papua Selatan
455,99636,Kaniskobat,93.01.17.2003,Kaptel,Kabupaten,Merauke,Papua Selatan
456,99636,Kaptel,93.01.17.2002,Kaptel,Kabupaten,Merauke,Papua Selatan
457,99636,Kwemsid,93.01.17.2001,Kaptel,Kabupaten,Merauke,Papua Selatan
458,99876,Amasu (Amazu),93.03.07.2001,Kaibar,Kabupaten,Mappi,Papua Selatan
459,99876,Binerbis,93.03.07.2007,Kaibar,Kabupaten,Mappi,Papua Selatan
460,99876,Fomu,93.03.07.2005,Kaibar,Kabupaten,Mappi,Papua Selatan
461,99876,Imembi,93.03.07.2002,Kaibar,Kabupaten,Mappi,Papua Selatan
462,99876,Tayau,93.03.07.2012,Kaibar,Kabupaten,Mappi,Papua Selatan
463,99876,Tiau,93.03.07.2006,Kaibar,Kabupaten,Mappi,Papua Selatan
464,99876,Yemu,93.03.07.2003,Kaibar,Kabupaten,Mappi,Papua Selatan
465,99792,Bor,93.04.20.2001,Joutu,Kabupaten,Asmat,Papua Selatan
466,99792,Daikot,93.04.20.2002,Joutu,Kabupaten,Asmat,Papua Selatan
467,99792,Dekamer,93.04.20.2007,Joutu,Kabupaten,Asmat,Papua Selatan
468,99792,Somnak,93.04.20.2003,Joutu,Kabupaten,Asmat,Papua Selatan
469,99792,Vakam,93.04.20.2005,Joutu,Kabupaten,Asmat,Papua Selatan
470,99792,Vakam Dua,93.04.20.2006,Joutu,Kabupaten,Asmat,Papua Selatan
471,99792,Wabak,93.04.20.2004,Joutu,Kabupaten,Asmat,Papua Selatan
472,99784,Jufri,93.04.11.2004,Joerat,Kabupaten,Asmat,Papua Selatan
473,99784,Omor,93.04.11.2003,Joerat,Kabupaten,Asmat,Papua Selatan
474,99784,Onavai,93.04.11.2006,Joerat,Kabupaten,Asmat,Papua Selatan
475,99784,Yamas,93.04.11.2001,Joerat,Kabupaten,Asmat,Papua Selatan
476,99784,Yaun,93.04.11.2005,Joerat,Kabupaten,Asmat,Papua Selatan
477,99784,Yeni,93.04.11.2002,Joerat,Kabupaten,Asmat,Papua Selatan
478,99785,Akamar,93.04.13.2005,Jetsy,Kabupaten,Asmat,Papua Selatan
479,99785,Birak,93.04.13.2006,Jetsy,Kabupaten,Asmat,Papua Selatan
480,99785,Dawer,93.04.13.2008,Jetsy,Kabupaten,Asmat,Papua Selatan
481,99785,Katew,93.04.13.2007,Jetsy,Kabupaten,Asmat,Papua Selatan
482,99785,Pau,93.04.13.2003,Jetsy,Kabupaten,Asmat,Papua Selatan
483,99785,Powetsy/Amborep,93.04.13.2002,Jetsy,Kabupaten,Asmat,Papua Selatan
484,99785,Sesakam,93.04.13.2004,Jetsy,Kabupaten,Asmat,Papua Selatan
485,99785,Warse/Jetsy,93.04.13.2001,Jetsy,Kabupaten,Asmat,Papua Selatan
486,99651,Anggai,93.02.05.2008,Jair,Kabupaten,Boven Digoel,Papua Selatan
487,99651,Asiki,93.02.05.2010,Jair,Kabupaten,Boven Digoel,Papua Selatan
488,99651,Butiptiri,93.02.05.2009,Jair,Kabupaten,Boven Digoel,Papua Selatan
489,99651,Getentiri,93.02.05.2006,Jair,Kabupaten,Boven Digoel,Papua Selatan
490,99651,Kapogu,93.02.05.2013,Jair,Kabupaten,Boven Digoel,Papua Selatan
491,99651,Miri,93.02.05.2014,Jair,Kabupaten,Boven Digoel,Papua Selatan
492,99645,Angger Permegi,93.01.07.2004,Jagebob,Kabupaten,Merauke,Papua Selatan
493,99645,Blandin Kakayo (Blandin Kakayu),93.01.07.2008,Jagebob,Kabupaten,Merauke,Papua Selatan
494,99645,Gurinda Jaya,93.01.07.2009,Jagebob,Kabupaten,Merauke,Papua Selatan
495,99645,Jagebob Raya,93.01.07.2010,Jagebob,Kabupaten,Merauke,Papua Selatan
496,99645,Kamno Sari,93.01.07.2007,Jagebob,Kabupaten,Merauke,Papua Selatan
497,99645,Kartini,93.01.07.2001,Jagebob,Kabupaten,Merauke,Papua Selatan
498,99645,Makarti Jaya,93.01.07.2002,Jagebob,Kabupaten,Merauke,Papua Selatan
499,99645,Melin Megikar,93.01.07.2012,Jagebob,Kabupaten,Merauke,Papua Selatan
500,99645,Mimi Baru,93.01.07.2006,Jagebob,Kabupaten,Merauke,Papua Selatan
501,99645,Nalkin,93.01.07.2003,Jagebob,Kabupaten,Merauke,Papua Selatan
502,99645,Obaat Throw,93.01.07.2013,Jagebob,Kabupaten,Merauke,Papua Selatan
503,99645,Poo,93.01.07.2005,Jagebob,Kabupaten,Merauke,Papua Selatan
504,99645,Wenda Asri,93.01.07.2011,Jagebob,Kabupaten,Merauke,Papua Selatan
505,99645,Yemunain Jaya,93.01.07.2014,Jagebob,Kabupaten,Merauke,Papua Selatan
506,99661,Autriop,93.02.08.2004,Iniyandit,Kabupaten,Boven Digoel,Papua Selatan
507,99661,Langgoan,93.02.08.2001,Iniyandit,Kabupaten,Boven Digoel,Papua Selatan
508,99661,Ogenatan (Ogenetan / Ogenathan),93.02.08.2005,Iniyandit,Kabupaten,Boven Digoel,Papua Selatan
509,99661,Tetop,93.02.08.2002,Iniyandit,Kabupaten,Boven Digoel,Papua Selatan
510,99661,Wariktop (Wariktoop),93.02.08.2003,Iniyandit,Kabupaten,Boven Digoel,Papua Selatan
511,99640,Bibikem,93.01.20.2002,Ilwayab (Ilyawab),Kabupaten,Merauke,Papua Selatan
512,99640,Uli Uli,93.01.20.2004,Ilwayab (Ilyawab),Kabupaten,Merauke,Papua Selatan
513,99640,Wanam,93.01.20.2001,Ilwayab (Ilyawab),Kabupaten,Merauke,Papua Selatan
514,99640,Wogekel,93.01.20.2003,Ilwayab (Ilyawab),Kabupaten,Merauke,Papua Selatan
515,99881,Amagatsu,93.03.05.2002,Haju,Kabupaten,Mappi,Papua Selatan
516,99881,Amenda,93.03.05.2007,Haju,Kabupaten,Mappi,Papua Selatan
517,99881,Amuro (Omuro),93.03.05.2009,Haju,Kabupaten,Mappi,Papua Selatan
518,99881,Arare,93.03.05.2016,Haju,Kabupaten,Mappi,Papua Selatan
519,99881,Atsipim,93.03.05.2011,Haju,Kabupaten,Mappi,Papua Selatan
520,99881,Gairipim,93.03.05.2013,Haju,Kabupaten,Mappi,Papua Selatan
521,99881,Kaibu,93.03.05.2008,Haju,Kabupaten,Mappi,Papua Selatan
522,99881,Kaibusene,93.03.05.2015,Haju,Kabupaten,Mappi,Papua Selatan
523,99881,Kasima,93.03.05.2006,Haju,Kabupaten,Mappi,Papua Selatan
524,99881,Katage,93.03.05.2003,Haju,Kabupaten,Mappi,Papua Selatan
525,99881,Kerke,93.03.05.2018,Haju,Kabupaten,Mappi,Papua Selatan
526,99881,Mani,93.03.05.2019,Haju,Kabupaten,Mappi,Papua Selatan
527,99881,Okor (Okoor),93.03.05.2010,Haju,Kabupaten,Mappi,Papua Selatan
528,99881,Paghai (Pagai),93.03.05.2017,Haju,Kabupaten,Mappi,Papua Selatan
529,99881,Semtaipim (Tsemtaipim),93.03.05.2012,Haju,Kabupaten,Mappi,Papua Selatan
530,99881,Sogope (Sogophe),93.03.05.2004,Haju,Kabupaten,Mappi,Papua Selatan
531,99881,Warogom,93.03.05.2014,Haju,Kabupaten,Mappi,Papua Selatan
532,99881,Wiyage,93.03.05.2005,Haju,Kabupaten,Mappi,Papua Selatan
533,99881,Yagatsu,93.03.05.2001,Haju,Kabupaten,Mappi,Papua Selatan
534,99673,Bangun,93.02.10.2002,Fofi,Kabupaten,Boven Digoel,Papua Selatan
535,99673,Domo,93.02.10.2005,Fofi,Kabupaten,Boven Digoel,Papua Selatan
536,99673,Hamkhu,93.02.10.2006,Fofi,Kabupaten,Boven Digoel,Papua Selatan
537,99673,Hello,93.02.10.2007,Fofi,Kabupaten,Boven Digoel,Papua Selatan
538,99673,Makmur,93.02.10.2003,Fofi,Kabupaten,Boven Digoel,Papua Selatan
539,99673,Navini,93.02.10.2008,Fofi,Kabupaten,Boven Digoel,Papua Selatan
540,99673,Sadar,93.02.10.2001,Fofi,Kabupaten,Boven Digoel,Papua Selatan
541,99673,Sohokanggo,93.02.10.2004,Fofi,Kabupaten,Boven Digoel,Papua Selatan
542,99691,Firiwage,93.02.13.2001,Firiwage,Kabupaten,Boven Digoel,Papua Selatan
543,99691,Kabuwage,93.02.13.2006,Firiwage,Kabupaten,Boven Digoel,Papua Selatan
544,99691,Karuwage,93.02.13.2002,Firiwage,Kabupaten,Boven Digoel,Papua Selatan
545,99691,Waliburu,93.02.13.2005,Firiwage,Kabupaten,Boven Digoel,Papua Selatan
546,99782,Ais,93.04.05.2007,Fayit,Kabupaten,Asmat,Papua Selatan
547,99782,Bakyor,93.04.05.2009,Fayit,Kabupaten,Asmat,Papua Selatan
548,99782,Basim,93.04.05.2001,Fayit,Kabupaten,Asmat,Papua Selatan
549,99782,Biopis,93.04.05.2003,Fayit,Kabupaten,Asmat,Papua Selatan
550,99782,Bora,93.04.05.2013,Fayit,Kabupaten,Asmat,Papua Selatan
551,99782,Isar,93.04.05.2010,Fayit,Kabupaten,Asmat,Papua Selatan
552,99782,Kayarpis,93.04.05.2011,Fayit,Kabupaten,Asmat,Papua Selatan
553,99782,Nanai,93.04.05.2004,Fayit,Kabupaten,Asmat,Papua Selatan
554,99782,Ocenep,93.04.05.2006,Fayit,Kabupaten,Asmat,Papua Selatan
555,99782,Pirien,93.04.05.2005,Fayit,Kabupaten,Asmat,Papua Selatan
556,99782,Sayoa,93.04.05.2012,Fayit,Kabupaten,Asmat,Papua Selatan
557,99782,Waras,93.04.05.2002,Fayit,Kabupaten,Asmat,Papua Selatan
558,99782,Yawas,93.04.05.2008,Fayit,Kabupaten,Asmat,Papua Selatan
559,99633,Bouwer,93.01.10.2011,Elikobal,Kabupaten,Merauke,Papua Selatan
560,99633,Bumun,93.01.10.2012,Elikobal,Kabupaten,Merauke,Papua Selatan
561,99633,Bunggay,93.01.10.2010,Elikobal,Kabupaten,Merauke,Papua Selatan
562,99633,Bupul,93.01.10.2001,Elikobal,Kabupaten,Merauke,Papua Selatan
563,99633,Bupul Indah,93.01.10.2008,Elikobal,Kabupaten,Merauke,Papua Selatan
564,99633,Enggal Jaya,93.01.10.2006,Elikobal,Kabupaten,Merauke,Papua Selatan
565,99633,Gerisar (Geriser),93.01.10.2007,Elikobal,Kabupaten,Merauke,Papua Selatan
566,99633,Kweel,93.01.10.2003,Elikobal,Kabupaten,Merauke,Papua Selatan
567,99633,Metaat Makmur (Mantaat Makmur),93.01.10.2005,Elikobal,Kabupaten,Merauke,Papua Selatan
568,99633,Sipias,93.01.10.2004,Elikobal,Kabupaten,Merauke,Papua Selatan
569,99633,Tanas (Tanaas),93.01.10.2002,Elikobal,Kabupaten,Merauke,Papua Selatan
570,99633,Tof-Tof (Taftof),93.01.10.2009,Elikobal,Kabupaten,Merauke,Papua Selatan
571,99852,Bade,93.03.04.1001,Edera,Kabupaten,Mappi,Papua Selatan
572,99852,Banamepe,93.03.04.2014,Edera,Kabupaten,Mappi,Papua Selatan
573,99852,Geturki,93.03.04.2002,Edera,Kabupaten,Mappi,Papua Selatan
574,99852,Gimikia (Gemikya),93.03.04.2013,Edera,Kabupaten,Mappi,Papua Selatan
575,99852,Isyaman,93.03.04.2016,Edera,Kabupaten,Mappi,Papua Selatan
576,99852,Mememu,93.03.04.2012,Edera,Kabupaten,Mappi,Papua Selatan
577,99852,Yodom,93.03.04.2015,Edera,Kabupaten,Mappi,Papua Selatan
578,99771,Amagais,93.04.14.2005,Der Koumur,Kabupaten,Asmat,Papua Selatan
579,99771,Amaru,93.04.14.2003,Der Koumur,Kabupaten,Asmat,Papua Selatan
580,99771,Amkai,93.04.14.2004,Der Koumur,Kabupaten,Asmat,Papua Selatan
581,99771,Amkum,93.04.14.2002,Der Koumur,Kabupaten,Asmat,Papua Selatan
582,99771,Erosaman (Ero Saman),93.04.14.2006,Der Koumur,Kabupaten,Asmat,Papua Selatan
583,99771,Yamkap,93.04.14.2001,Der Koumur,Kabupaten,Asmat,Papua Selatan
584,99875,Abau,93.03.03.2015,Citak-Mitak (Citakmitak),Kabupaten,Mappi,Papua Selatan
585,99875,Bidneu (Bidnew),93.03.03.2003,Citak-Mitak (Citakmitak),Kabupaten,Mappi,Papua Selatan
586,99875,Epem,93.03.03.2014,Citak-Mitak (Citakmitak),Kabupaten,Mappi,Papua Selatan
587,99875,Kumasma,93.03.03.2005,Citak-Mitak (Citakmitak),Kabupaten,Mappi,Papua Selatan
588,99875,Senggo,93.03.03.2004,Citak-Mitak (Citakmitak),Kabupaten,Mappi,Papua Selatan
589,99875,Tamanin (Tamanim),93.03.03.2013,Citak-Mitak (Citakmitak),Kabupaten,Mappi,Papua Selatan
590,99875,Womin,93.03.03.2012,Citak-Mitak (Citakmitak),Kabupaten,Mappi,Papua Selatan
591,99672,Aifa (Aifo),93.02.06.2004,Bomakia,Kabupaten,Boven Digoel,Papua Selatan
592,99672,Bomakia Dua (II),93.02.06.2002,Bomakia,Kabupaten,Boven Digoel,Papua Selatan
593,99672,Bomakia Satu (I),93.02.06.2001,Bomakia,Kabupaten,Boven Digoel,Papua Selatan
594,99672,Somi,93.02.06.2003,Bomakia,Kabupaten,Boven Digoel,Papua Selatan
595,99672,Uni,93.02.06.2005,Bomakia,Kabupaten,Boven Digoel,Papua Selatan
596,99786,Atambuts,93.04.19.2002,Betcbamu,Kabupaten,Asmat,Papua Selatan
597,99786,Biwar Laut,93.04.19.2001,Betcbamu,Kabupaten,Asmat,Papua Selatan
598,99786,Desep,93.04.19.2007,Betcbamu,Kabupaten,Asmat,Papua Selatan
599,99786,Omanesep,93.04.19.2003,Betcbamu,Kabupaten,Asmat,Papua Selatan
600,99786,Pirpis,93.04.19.2006,Betcbamu,Kabupaten,Asmat,Papua Selatan
601,99786,Warkai,93.04.19.2004,Betcbamu,Kabupaten,Asmat,Papua Selatan
602,99786,You,93.04.19.2005,Betcbamu,Kabupaten,Asmat,Papua Selatan
603,99851,Konebi,93.03.13.2002,Bamgi,Kabupaten,Mappi,Papua Selatan
604,99851,Sibi,93.03.13.2003,Bamgi,Kabupaten,Mappi,Papua Selatan
605,99851,Tagaimon Karome,93.03.13.2005,Bamgi,Kabupaten,Mappi,Papua Selatan
606,99851,Tagaimon Sino,93.03.13.2004,Bamgi,Kabupaten,Mappi,Papua Selatan
607,99851,Yeloba,93.03.13.2001,Bamgi,Kabupaten,Mappi,Papua Selatan
608,99776,Comoro,93.04.18.2001,Ayip,Kabupaten,Asmat,Papua Selatan
609,99776,Ero Airo,93.04.18.2006,Ayip,Kabupaten,Asmat,Papua Selatan
610,99776,Kawet,93.04.18.2002,Ayip,Kabupaten,Asmat,Papua Selatan
611,99776,Mausi,93.04.18.2003,Ayip,Kabupaten,Asmat,Papua Selatan
612,99776,Sato Yod,93.04.18.2004,Ayip,Kabupaten,Asmat,Papua Selatan
613,99776,Tamor,93.04.18.2005,Ayip,Kabupaten,Asmat,Papua Selatan
614,99776,Sagare,93.04.22.2004,Awyu,Kabupaten,Asmat,Papua Selatan
615,99771,Sohomane,93.04.22.2003,Awyu,Kabupaten,Asmat,Papua Selatan
616,99771,Suagai,93.04.22.2002,Awyu,Kabupaten,Asmat,Papua Selatan
617,99776,Wagi,93.04.22.2006,Awyu,Kabupaten,Asmat,Papua Selatan
618,99776,Yefuwagi,93.04.22.2005,Awyu,Kabupaten,Asmat,Papua Selatan
619,99771,Yerfum,93.04.22.2001,Awyu,Kabupaten,Asmat,Papua Selatan
620,99775,Amanamkai,93.04.02.2003,Atsj (Atsy),Kabupaten,Asmat,Papua Selatan
621,99775,Ambisu,93.04.02.2004,Atsj (Atsy),Kabupaten,Asmat,Papua Selatan
622,99775,Atsj,93.04.02.2001,Atsj (Atsy),Kabupaten,Asmat,Papua Selatan
623,99775,Bakasai,93.04.02.2008,Atsj (Atsy),Kabupaten,Asmat,Papua Selatan
624,99775,Bine,93.04.02.2005,Atsj (Atsy),Kabupaten,Asmat,Papua Selatan
625,99775,Bipim,93.04.02.2006,Atsj (Atsy),Kabupaten,Asmat,Papua Selatan
626,99775,Cewewyamew,93.04.02.2009,Atsj (Atsy),Kabupaten,Asmat,Papua Selatan
627,99775,Sogoni,93.04.02.2002,Atsj (Atsy),Kabupaten,Asmat,Papua Selatan
628,99775,Yasiuw,93.04.02.2007,Atsj (Atsy),Kabupaten,Asmat,Papua Selatan
629,99782,Ainamsato,93.04.21.2009,Aswi,Kabupaten,Asmat,Papua Selatan
630,99782,Akan Tapak,93.04.21.2003,Aswi,Kabupaten,Asmat,Papua Selatan
631,99782,Amaita,93.04.21.2010,Aswi,Kabupaten,Asmat,Papua Selatan
632,99782,Bagair,93.04.21.2005,Aswi,Kabupaten,Asmat,Papua Selatan
633,99782,Bawos,93.04.21.2002,Aswi,Kabupaten,Asmat,Papua Selatan
634,99782,Kagas,93.04.21.2007,Aswi,Kabupaten,Asmat,Papua Selatan
635,99782,Mapane,93.04.21.2008,Aswi,Kabupaten,Asmat,Papua Selatan
636,99782,Piramat,93.04.21.2001,Aswi,Kabupaten,Asmat,Papua Selatan
637,99782,Tauro,93.04.21.2004,Aswi,Kabupaten,Asmat,Papua Selatan
638,99782,Wiyar,93.04.21.2006,Aswi,Kabupaten,Asmat,Papua Selatan
639,99874,Aboge,93.03.06.2004,Assue,Kabupaten,Mappi,Papua Selatan
640,99874,Asaren (Assaren),93.03.06.2014,Assue,Kabupaten,Mappi,Papua Selatan
641,99874,Chanani (Khanami),93.03.06.2005,Assue,Kabupaten,Mappi,Papua Selatan
642,99874,Eci,93.03.06.2003,Assue,Kabupaten,Mappi,Papua Selatan
643,99874,Girimio,93.03.06.2016,Assue,Kabupaten,Mappi,Papua Selatan
644,99874,Haffo,93.03.06.2017,Assue,Kabupaten,Mappi,Papua Selatan
645,99874,Homang,93.03.06.2008,Assue,Kabupaten,Mappi,Papua Selatan
646,99874,Isage,93.03.06.2012,Assue,Kabupaten,Mappi,Papua Selatan
647,99874,Jufo Besar,93.03.06.2002,Assue,Kabupaten,Mappi,Papua Selatan
648,99874,Jufo Kecil,93.03.06.2009,Assue,Kabupaten,Mappi,Papua Selatan
649,99874,Kaitok,93.03.06.2007,Assue,Kabupaten,Mappi,Papua Selatan
650,99874,Keru,93.03.06.2015,Assue,Kabupaten,Mappi,Papua Selatan
651,99874,Khabu,93.03.06.2010,Assue,Kabupaten,Mappi,Papua Selatan
652,99874,Kiki,93.03.06.2011,Assue,Kabupaten,Mappi,Papua Selatan
653,99874,Kopi,93.03.06.2013,Assue,Kabupaten,Mappi,Papua Selatan
654,99874,Meda,93.03.06.2018,Assue,Kabupaten,Mappi,Papua Selatan
655,99874,Sigare,93.03.06.2001,Assue,Kabupaten,Mappi,Papua Selatan
656,99874,Yame,93.03.06.2006,Assue,Kabupaten,Mappi,Papua Selatan
657,99671,Arimbet,93.02.09.2006,Arimop,Kabupaten,Boven Digoel,Papua Selatan
658,99671,Aroa,93.02.09.2007,Arimop,Kabupaten,Boven Digoel,Papua Selatan
659,99671,Bukit,93.02.09.2002,Arimop,Kabupaten,Boven Digoel,Papua Selatan
660,99671,Ginggimop (Ginggimob),93.02.09.2004,Arimop,Kabupaten,Boven Digoel,Papua Selatan
661,99671,Maju,93.02.09.2001,Arimop,Kabupaten,Boven Digoel,Papua Selatan
662,99671,Patriot,93.02.09.2005,Arimop,Kabupaten,Boven Digoel,Papua Selatan
663,99671,Ujung,93.02.09.2003,Arimop,Kabupaten,Boven Digoel,Papua Selatan
664,99644,Baad,93.01.13.2002,Animha,Kabupaten,Merauke,Papua Selatan
665,99644,Kaisah,93.01.13.2005,Animha,Kabupaten,Merauke,Papua Selatan
666,99644,Koa,93.01.13.2001,Animha,Kabupaten,Merauke,Papua Selatan
667,99644,Senegi,93.01.13.2003,Animha,Kabupaten,Merauke,Papua Selatan
668,99644,Wayau (Wayao/Wajau),93.01.13.2004,Animha,Kabupaten,Merauke,Papua Selatan
669,99681,Anyumka,93.02.11.2005,Ambatkwi (Ambatkui),Kabupaten,Boven Digoel,Papua Selatan
670,99681,Arimbit,93.02.11.2004,Ambatkwi (Ambatkui),Kabupaten,Boven Digoel,Papua Selatan
671,99681,Awaken (Nyum),93.02.11.2003,Ambatkwi (Ambatkui),Kabupaten,Boven Digoel,Papua Selatan
672,99681,Klofkamp (Kolopkam),93.02.11.2002,Ambatkwi (Ambatkui),Kabupaten,Boven Digoel,Papua Selatan
673,99681,Kuken,93.02.11.2001,Ambatkwi (Ambatkui),Kabupaten,Boven Digoel,Papua Selatan
674,99779,Ayam,93.04.04.2001,Akat,Kabupaten,Asmat,Papua Selatan
675,99779,Bayiw Pinam,93.04.04.2007,Akat,Kabupaten,Asmat,Papua Selatan
676,99779,Cumnew,93.04.04.2008,Akat,Kabupaten,Asmat,Papua Selatan
677,99779,Jewes,93.04.04.2009,Akat,Kabupaten,Asmat,Papua Selatan
678,99779,Waw,93.04.04.2006,Akat,Kabupaten,Asmat,Papua Selatan
679,99777,Asuwetsy,93.04.01.2003,Agats,Kabupaten,Asmat,Papua Selatan
680,99777,Beriten,93.04.01.2007,Agats,Kabupaten,Asmat,Papua Selatan
681,99777,Bis Agats,93.04.01.2005,Agats,Kabupaten,Asmat,Papua Selatan
682,99777,Bismam,93.04.01.2004,Agats,Kabupaten,Asmat,Papua Selatan
683,99777,Bou,93.04.01.2009,Agats,Kabupaten,Asmat,Papua Selatan
684,99777,Kaye,93.04.01.2011,Agats,Kabupaten,Asmat,Papua Selatan
685,99777,Mbait,93.04.01.2008,Agats,Kabupaten,Asmat,Papua Selatan
686,99777,Per,93.04.01.2006,Agats,Kabupaten,Asmat,Papua Selatan
687,99777,Saw,93.04.01.2010,Agats,Kabupaten,Asmat,Papua Selatan
688,99777,Suwru,93.04.01.2012,Agats,Kabupaten,Asmat,Papua Selatan
689,99777,Uwus,93.04.01.2002,Agats,Kabupaten,Asmat,Papua Selatan
690,99777,Yomoth,93.04.01.2001,Agats,Kabupaten,Asmat,Papua Selatan