no,postal_code,urban,area_code,sub_district,dt2,city,province
1,99355,Buseryo,91.03.19.2005,Yokari,Kabupaten,Jayapura,Papua
2,99355,Endokisi,91.03.19.2003,Yokari,Kabupaten,Jayapura,Papua
3,99355,Maruwai (Maruway),91.03.19.2001,Yokari,Kabupaten,Jayapura,Papua
4,99355,Meukisi,91.03.19.2002,Yokari,Kabupaten,Jayapura,Papua
5,99355,Senamay (Snamay),91.03.19.2006,Yokari,Kabupaten,Jayapura,Papua
6,98547,Adoki,91.06.11.2002,Yendidori,Kabupaten,Biak Numfor,Papua
7,98547,Amyabenram,91.06.11.2016,Yendidori,Kabupaten,Biak Numfor,Papua
8,98547,Binyeri,91.06.11.2018,Yendidori,Kabupaten,Biak Numfor,Papua
9,98547,Birubi (Birub),91.06.11.2017,Yendidori,Kabupaten,Biak Numfor,Papua
10,98547,Inpendi,91.06.11.2015,Yendidori,Kabupaten,Biak Numfor,Papua
11,98547,Kabidon,91.06.11.2005,Yendidori,Kabupaten,Biak Numfor,Papua
12,98547,Maibaken,91.06.11.2007,Yendidori,Kabupaten,Biak Numfor,Papua
13,98547,Padwa,91.06.11.2013,Yendidori,Kabupaten,Biak Numfor,Papua
14,98547,Padwa Pantai,91.06.11.2019,Yendidori,Kabupaten,Biak Numfor,Papua
15,98547,Rarnpimbo,91.06.11.2012,Yendidori,Kabupaten,Biak Numfor,Papua
16,98547,Samber,91.06.11.2004,Yendidori,Kabupaten,Biak Numfor,Papua
17,98547,Samber Sup,91.06.11.2010,Yendidori,Kabupaten,Biak Numfor,Papua
18,98547,Suneri,91.06.11.2011,Yendidori,Kabupaten,Biak Numfor,Papua
19,98547,Sunyar,91.06.11.2006,Yendidori,Kabupaten,Biak Numfor,Papua
20,98547,Syabes,91.06.11.2009,Yendidori,Kabupaten,Biak Numfor,Papua
21,98547,Urfu,91.06.11.2003,Yendidori,Kabupaten,Biak Numfor,Papua
22,98547,Waroi (Waroy),91.06.11.2014,Yendidori,Kabupaten,Biak Numfor,Papua
23,98547,Wirmaker,91.06.11.2008,Yendidori,Kabupaten,Biak Numfor,Papua
24,98547,Yendidori,91.06.11.2001,Yendidori,Kabupaten,Biak Numfor,Papua
25,98552,Asur,91.06.13.2001,Yawosi,Kabupaten,Biak Numfor,Papua
26,98552,Bosnabraidi,91.06.13.2002,Yawosi,Kabupaten,Biak Numfor,Papua
27,98552,Indawi,91.06.13.2008,Yawosi,Kabupaten,Biak Numfor,Papua
28,98552,Karmon,91.06.13.2005,Yawosi,Kabupaten,Biak Numfor,Papua
29,98552,Madirai,91.06.13.2007,Yawosi,Kabupaten,Biak Numfor,Papua
30,98552,Syor (Soor / Sor),91.06.13.2004,Yawosi,Kabupaten,Biak Numfor,Papua
31,98552,Wasori,91.06.13.2003,Yawosi,Kabupaten,Biak Numfor,Papua
32,98552,Yawosi (Fanindi),91.06.13.2006,Yawosi,Kabupaten,Biak Numfor,Papua
33,98654,Borai,91.05.16.2006,Yawakukat,Kabupaten,Kepulauan Yapen,Papua
34,98654,Kabuaena,91.05.16.2007,Yawakukat,Kabupaten,Kepulauan Yapen,Papua
35,98654,Kontinuai,91.05.16.2001,Yawakukat,Kabupaten,Kepulauan Yapen,Papua
36,98654,Rambai,91.05.16.2004,Yawakukat,Kabupaten,Kepulauan Yapen,Papua
37,98654,Sanayoka,91.05.16.2003,Yawakukat,Kabupaten,Kepulauan Yapen,Papua
38,98654,Woniwon,91.05.16.2002,Yawakukat,Kabupaten,Kepulauan Yapen,Papua
39,98654,Yafanani,91.05.16.2005,Yawakukat,Kabupaten,Kepulauan Yapen,Papua
40,99365,Bumi Sahaja,91.03.15.2004,Yapsi,Kabupaten,Jayapura,Papua
41,99365,Bundru,91.03.15.2009,Yapsi,Kabupaten,Jayapura,Papua
42,99365,Kwarja (Kwaja),91.03.15.2002,Yapsi,Kabupaten,Jayapura,Papua
43,99365,Nawa Mukti,91.03.15.2006,Yapsi,Kabupaten,Jayapura,Papua
44,99365,Nawa Mulya,91.03.15.2005,Yapsi,Kabupaten,Jayapura,Papua
45,99365,Ongan Jaya,91.03.15.2003,Yapsi,Kabupaten,Jayapura,Papua
46,99365,Purnawajati (Purnama Jati),91.03.15.2008,Yapsi,Kabupaten,Jayapura,Papua
47,99365,Tabbeyan (Tabeyan),91.03.15.2001,Yapsi,Kabupaten,Jayapura,Papua
48,99365,Taqwa/Takwa Bangun,91.03.15.2007,Yapsi,Kabupaten,Jayapura,Papua
49,98645,Doreimanona,91.05.07.2010,Yapen Utara,Kabupaten,Kepulauan Yapen,Papua
50,98645,Kiriyou (Kiriyow),91.05.07.2006,Yapen Utara,Kabupaten,Kepulauan Yapen,Papua
51,98645,Roswari (Artaneng),91.05.07.2009,Yapen Utara,Kabupaten,Kepulauan Yapen,Papua
52,98645,Sambrawai (Samrawai),91.05.07.2003,Yapen Utara,Kabupaten,Kepulauan Yapen,Papua
53,98645,Soromasen (Soromasem),91.05.07.2007,Yapen Utara,Kabupaten,Kepulauan Yapen,Papua
54,98645,Tindaret,91.05.07.2001,Yapen Utara,Kabupaten,Kepulauan Yapen,Papua
55,98645,Yobi,91.05.07.2002,Yapen Utara,Kabupaten,Kepulauan Yapen,Papua
56,98644,Awunawai,91.05.03.2024,Yapen Timur,Kabupaten,Kepulauan Yapen,Papua
57,98644,Dawai,91.05.03.2005,Yapen Timur,Kabupaten,Kepulauan Yapen,Papua
58,98644,Duai,91.05.03.2036,Yapen Timur,Kabupaten,Kepulauan Yapen,Papua
59,98644,Korombobi (Karombobi),91.05.03.2004,Yapen Timur,Kabupaten,Kepulauan Yapen,Papua
60,98644,Mareruni (Mereruni / Maseruni),91.05.03.2025,Yapen Timur,Kabupaten,Kepulauan Yapen,Papua
61,98644,Nunsembai (Hunsembai),91.05.03.2014,Yapen Timur,Kabupaten,Kepulauan Yapen,Papua
62,98644,Nunsiari,91.05.03.2015,Yapen Timur,Kabupaten,Kepulauan Yapen,Papua
63,98644,Sere Sere,91.05.03.2037,Yapen Timur,Kabupaten,Kepulauan Yapen,Papua
64,98644,Wabo,91.05.03.2010,Yapen Timur,Kabupaten,Kepulauan Yapen,Papua
65,98644,Wabompi,91.05.03.2031,Yapen Timur,Kabupaten,Kepulauan Yapen,Papua
66,98644,Woinsupi (Waisopi),91.05.03.2023,Yapen Timur,Kabupaten,Kepulauan Yapen,Papua
67,98621,Banawa,91.05.01.2015,Yapen Selatan,Kabupaten,Kepulauan Yapen,Papua
68,98622,Barawaikap,91.05.01.2026,Yapen Selatan,Kabupaten,Kepulauan Yapen,Papua
69,98623,Bawai,91.05.01.2027,Yapen Selatan,Kabupaten,Kepulauan Yapen,Papua
70,98614,Imandoa,91.05.01.2024,Yapen Selatan,Kabupaten,Kepulauan Yapen,Papua
71,98615,Manaini,91.05.01.2023,Yapen Selatan,Kabupaten,Kepulauan Yapen,Papua
72,98624,Nundawipi,91.05.01.2028,Yapen Selatan,Kabupaten,Kepulauan Yapen,Papua
73,98625,Pasir Hitam,91.05.01.2019,Yapen Selatan,Kabupaten,Kepulauan Yapen,Papua
74,98626,Pasir Putih,91.05.01.2020,Yapen Selatan,Kabupaten,Kepulauan Yapen,Papua
75,98612,Serui Jaya,91.05.01.1006,Yapen Selatan,Kabupaten,Kepulauan Yapen,Papua
76,98616,Serui Kota,91.05.01.1005,Yapen Selatan,Kabupaten,Kepulauan Yapen,Papua
77,98627,Serui Laut,91.05.01.2014,Yapen Selatan,Kabupaten,Kepulauan Yapen,Papua
78,98613,Tarau,91.05.01.1004,Yapen Selatan,Kabupaten,Kepulauan Yapen,Papua
79,98617,Turu,91.05.01.2017,Yapen Selatan,Kabupaten,Kepulauan Yapen,Papua
80,98648,Ansus,91.05.02.1003,Yapen Barat,Kabupaten,Kepulauan Yapen,Papua
81,98648,Inowa,91.05.02.2015,Yapen Barat,Kabupaten,Kepulauan Yapen,Papua
82,98648,Kairawi,91.05.02.2007,Yapen Barat,Kabupaten,Kepulauan Yapen,Papua
83,98648,Maniri,91.05.02.2016,Yapen Barat,Kabupaten,Kepulauan Yapen,Papua
84,98648,Marau,91.05.02.2019,Yapen Barat,Kabupaten,Kepulauan Yapen,Papua
85,98648,Narei,91.05.02.2023,Yapen Barat,Kabupaten,Kepulauan Yapen,Papua
86,98648,Natabui,91.05.02.2008,Yapen Barat,Kabupaten,Kepulauan Yapen,Papua
87,98648,Nuiwiora,91.05.02.2017,Yapen Barat,Kabupaten,Kepulauan Yapen,Papua
88,98648,Papuama,91.05.02.2004,Yapen Barat,Kabupaten,Kepulauan Yapen,Papua
89,98648,Sasawa,91.05.02.2013,Yapen Barat,Kabupaten,Kepulauan Yapen,Papua
90,98648,Toweta,91.05.02.2020,Yapen Barat,Kabupaten,Kepulauan Yapen,Papua
91,98648,Warabori,91.05.02.2010,Yapen Barat,Kabupaten,Kepulauan Yapen,Papua
92,98648,Webi,91.05.02.2002,Yapen Barat,Kabupaten,Kepulauan Yapen,Papua
93,98648,Wimoni,91.05.02.2012,Yapen Barat,Kabupaten,Kepulauan Yapen,Papua
94,98648,Woiwani,91.05.02.2021,Yapen Barat,Kabupaten,Kepulauan Yapen,Papua
95,98648,Yarori,91.05.02.2022,Yapen Barat,Kabupaten,Kepulauan Yapen,Papua
96,98648,Yenusi Marau,91.05.02.2018,Yapen Barat,Kabupaten,Kepulauan Yapen,Papua
97,99463,Akarinda,91.11.10.2007,Yaffi,Kabupaten,Keerom,Papua
98,99463,Amgotro,91.11.10.2003,Yaffi,Kabupaten,Keerom,Papua
99,99463,Fafenumbu,91.11.10.2006,Yaffi,Kabupaten,Keerom,Papua
100,99463,Jifanggry,91.11.10.2004,Yaffi,Kabupaten,Keerom,Papua
101,99463,Monggoafi,91.11.10.2005,Yaffi,Kabupaten,Keerom,Papua
102,99463,Yabanda,91.11.10.2001,Yaffi,Kabupaten,Keerom,Papua
103,99463,Yuruf,91.11.10.2002,Yaffi,Kabupaten,Keerom,Papua
104,98676,Bakadaro,91.15.14.2003,Wonti,Kabupaten,Waropen,Papua
105,98676,Borumei,91.15.14.2010,Wonti,Kabupaten,Waropen,Papua
106,98676,Fimore,91.15.14.2008,Wonti,Kabupaten,Waropen,Papua
107,98676,Gheroi,91.15.14.2007,Wonti,Kabupaten,Waropen,Papua
108,98676,Ghoiwi Samberi,91.15.14.2006,Wonti,Kabupaten,Waropen,Papua
109,98676,Moyufuri,91.15.14.2004,Wonti,Kabupaten,Waropen,Papua
110,98676,Odase,91.15.14.2001,Wonti,Kabupaten,Waropen,Papua
111,98676,Sifuisera,91.15.14.2009,Wonti,Kabupaten,Waropen,Papua
112,98676,Wanda,91.15.14.2002,Wonti,Kabupaten,Waropen,Papua
113,98676,Wonti Kai,91.15.14.2005,Wonti,Kabupaten,Waropen,Papua
114,98647,Aibondeni,91.05.11.2003,Wonawa,Kabupaten,Kepulauan Yapen,Papua
115,98647,Awado,91.05.11.2011,Wonawa,Kabupaten,Kepulauan Yapen,Papua
116,98647,Dumani,91.05.11.2005,Wonawa,Kabupaten,Kepulauan Yapen,Papua
117,98647,Haihorei,91.05.11.2008,Wonawa,Kabupaten,Kepulauan Yapen,Papua
118,98647,Jaimaria,91.05.11.2010,Wonawa,Kabupaten,Kepulauan Yapen,Papua
119,98647,Kanaki,91.05.11.2004,Wonawa,Kabupaten,Kepulauan Yapen,Papua
120,98647,Karemoni,91.05.11.2007,Wonawa,Kabupaten,Kepulauan Yapen,Papua
121,98647,Rembai,91.05.11.2009,Wonawa,Kabupaten,Kepulauan Yapen,Papua
122,98647,Woinap,91.05.11.2002,Wonawa,Kabupaten,Kepulauan Yapen,Papua
123,98647,Wooi,91.05.11.2001,Wonawa,Kabupaten,Kepulauan Yapen,Papua
124,98651,Aryobu,91.05.12.2009,Windesi,Kabupaten,Kepulauan Yapen,Papua
125,98651,Asai,91.05.12.2005,Windesi,Kabupaten,Kepulauan Yapen,Papua
126,98651,Kaonda,91.05.12.2001,Windesi,Kabupaten,Kepulauan Yapen,Papua
127,98651,Karawi,91.05.12.2004,Windesi,Kabupaten,Kepulauan Yapen,Papua
128,98651,Munggui,91.05.12.2003,Windesi,Kabupaten,Kepulauan Yapen,Papua
129,98651,Rosbori,91.05.12.2006,Windesi,Kabupaten,Kepulauan Yapen,Papua
130,98651,Saruman,91.05.12.2008,Windesi,Kabupaten,Kepulauan Yapen,Papua
131,98651,Waisani,91.05.12.2007,Windesi,Kabupaten,Kepulauan Yapen,Papua
132,98651,Windesi,91.05.12.2002,Windesi,Kabupaten,Kepulauan Yapen,Papua
133,99462,Dubu,91.11.04.2001,Web,Kabupaten,Keerom,Papua
134,99462,Embi,91.11.04.2005,Web,Kabupaten,Keerom,Papua
135,99462,Semografi,91.11.04.2003,Web,Kabupaten,Keerom,Papua
136,99462,Tatakra,91.11.04.2017,Web,Kabupaten,Keerom,Papua
137,99462,Umuraf (Umuaf),91.11.04.2002,Web,Kabupaten,Keerom,Papua
138,99462,Yamraf Dua,91.11.04.2015,Web,Kabupaten,Keerom,Papua
139,98553,Aman,91.06.09.2006,Warsa,Kabupaten,Biak Numfor,Papua
140,98553,Amoi (Ammoy),91.06.09.2008,Warsa,Kabupaten,Biak Numfor,Papua
141,98553,Biawer,91.06.09.2028,Warsa,Kabupaten,Biak Numfor,Papua
142,98553,Diano,91.06.09.2004,Warsa,Kabupaten,Biak Numfor,Papua
143,98553,Imbari,91.06.09.2024,Warsa,Kabupaten,Biak Numfor,Papua
144,98553,Inswambesi (Inswanbesi),91.06.09.2009,Warsa,Kabupaten,Biak Numfor,Papua
145,98553,Inswambesi Sup (Inswanbesi Sup),91.06.09.2020,Warsa,Kabupaten,Biak Numfor,Papua
146,98553,Inyobi,91.06.09.2021,Warsa,Kabupaten,Biak Numfor,Papua
147,98553,Karuiberik,91.06.09.2017,Warsa,Kabupaten,Biak Numfor,Papua
148,98553,Komboi (Komboy),91.06.09.2018,Warsa,Kabupaten,Biak Numfor,Papua
149,98553,Koyomi,91.06.09.2010,Warsa,Kabupaten,Biak Numfor,Papua
150,98553,Mamfias,91.06.09.2029,Warsa,Kabupaten,Biak Numfor,Papua
151,98553,Manbeori,91.06.09.2025,Warsa,Kabupaten,Biak Numfor,Papua
152,98553,Maniri,91.06.09.2023,Warsa,Kabupaten,Biak Numfor,Papua
153,98553,Marur,91.06.09.2003,Warsa,Kabupaten,Biak Numfor,Papua
154,98553,Sawai (Saway),91.06.09.2005,Warsa,Kabupaten,Biak Numfor,Papua
155,98553,Warawaf,91.06.09.2026,Warsa,Kabupaten,Biak Numfor,Papua
156,98553,Wasani,91.06.09.2011,Warsa,Kabupaten,Biak Numfor,Papua
157,98553,Wir Insos,91.06.09.2027,Warsa,Kabupaten,Biak Numfor,Papua
158,98553,Yeruboi (Yeruboy),91.06.09.2007,Warsa,Kabupaten,Biak Numfor,Papua
159,98662,Batu Zaman,91.15.01.2027,Waropen Bawah,Kabupaten,Waropen,Papua
160,98662,Nonomi,91.15.01.2011,Waropen Bawah,Kabupaten,Waropen,Papua
161,98662,Sarafambai,91.15.01.2020,Waropen Bawah,Kabupaten,Waropen,Papua
162,98662,Sawara Jaya,91.15.01.2029,Waropen Bawah,Kabupaten,Waropen,Papua
163,98662,Uri,91.15.01.2025,Waropen Bawah,Kabupaten,Waropen,Papua
164,98662,Waren Dua (II),91.15.01.2004,Waropen Bawah,Kabupaten,Waropen,Papua
165,98662,Waren Satu (I),91.15.01.2003,Waropen Bawah,Kabupaten,Waropen,Papua
166,98681,Barapasi,91.20.06.2002,Waropen Atas,Kabupaten,Mamberamo Raya,Papua
167,98681,Bariwaro,91.20.06.2004,Waropen Atas,Kabupaten,Mamberamo Raya,Papua
168,98681,Bensor,91.20.06.2005,Waropen Atas,Kabupaten,Mamberamo Raya,Papua
169,98681,Marikai,91.20.06.2007,Waropen Atas,Kabupaten,Mamberamo Raya,Papua
170,98681,Nadofoai,91.20.06.2001,Waropen Atas,Kabupaten,Mamberamo Raya,Papua
171,98681,Rawiwa,91.20.06.2006,Waropen Atas,Kabupaten,Mamberamo Raya,Papua
172,98681,Sipisi,91.20.06.2003,Waropen Atas,Kabupaten,Mamberamo Raya,Papua
173,99467,Ampas,91.11.01.2006,Waris,Kabupaten,Keerom,Papua
174,99467,Banda,91.11.01.2001,Waris,Kabupaten,Keerom,Papua
175,99467,Bompai,91.11.01.2007,Waris,Kabupaten,Keerom,Papua
176,99467,Kalifam,91.11.01.2003,Waris,Kabupaten,Keerom,Papua
177,99467,Kalimala,91.11.01.2005,Waris,Kabupaten,Keerom,Papua
178,99467,Pund,91.11.01.2002,Waris,Kabupaten,Keerom,Papua
179,99467,Sack,91.11.01.2008,Waris,Kabupaten,Keerom,Papua
180,99467,Yuwainda,91.11.01.2004,Waris,Kabupaten,Keerom,Papua
181,98664,Awera,91.15.12.2003,Wapoga,Kabupaten,Waropen,Papua
182,98664,Dokis,91.15.12.2007,Wapoga,Kabupaten,Waropen,Papua
183,98664,Kamarisano,91.15.12.2005,Wapoga,Kabupaten,Waropen,Papua
184,98664,Pirare,91.15.12.2002,Wapoga,Kabupaten,Waropen,Papua
185,98664,Syewa Merare,91.15.12.2004,Wapoga,Kabupaten,Waropen,Papua
186,98664,Wapoga,91.15.12.2001,Wapoga,Kabupaten,Waropen,Papua
187,98664,Waweri,91.15.12.2006,Wapoga,Kabupaten,Waropen,Papua
188,99368,Bambar,91.03.13.2007,Waibu,Kabupaten,Jayapura,Papua
189,99368,Dondai (Donday),91.03.13.2001,Waibu,Kabupaten,Jayapura,Papua
190,99368,Doyo Baru,91.03.13.2006,Waibu,Kabupaten,Jayapura,Papua
191,99368,Doyo Lama,91.03.13.2002,Waibu,Kabupaten,Jayapura,Papua
192,99368,Kwadeware (Kanda),91.03.13.2003,Waibu,Kabupaten,Jayapura,Papua
193,99368,Sosiri,91.03.13.2005,Waibu,Kabupaten,Jayapura,Papua
194,99368,Yakonde,91.03.13.2004,Waibu,Kabupaten,Jayapura,Papua
195,98663,Apainabo,91.15.08.2005,Urei Faisei,Kabupaten,Waropen,Papua
196,98663,Ghoyui,91.15.08.2010,Urei Faisei,Kabupaten,Waropen,Papua
197,98663,Khemoon Jaya (Kemon Jaya),91.15.08.2007,Urei Faisei,Kabupaten,Waropen,Papua
198,98663,Mambui,91.15.08.2006,Urei Faisei,Kabupaten,Waropen,Papua
199,98663,Nubuai,91.15.08.2003,Urei Faisei,Kabupaten,Waropen,Papua
200,98663,Paradoi,91.15.08.2009,Urei Faisei,Kabupaten,Waropen,Papua
201,98663,Ronggaiwa,91.15.08.2012,Urei Faisei,Kabupaten,Waropen,Papua
202,98663,Rorisi,91.15.08.2011,Urei Faisei,Kabupaten,Waropen,Papua
203,98663,Ureifaisei I/Sanggae,91.15.08.2001,Urei Faisei,Kabupaten,Waropen,Papua
204,98663,Ureifaisei III/ Paradoi,91.15.08.2004,Urei Faisei,Kabupaten,Waropen,Papua
205,98663,Urfas II (Ureifasei Dua / II),91.15.08.2002,Urei Faisei,Kabupaten,Waropen,Papua
206,98663,Usaiwa,91.15.08.2008,Urei Faisei,Kabupaten,Waropen,Papua
207,99356,Beneik,91.03.09.2001,Unurum Guay,Kabupaten,Jayapura,Papua
208,99356,Ganusa (Garusa),91.03.09.2002,Unurum Guay,Kabupaten,Jayapura,Papua
209,99356,Guriyad (Guryard),91.03.09.2003,Unurum Guay,Kabupaten,Jayapura,Papua
210,99356,Nandalzi (Nandaizi),91.03.09.2006,Unurum Guay,Kabupaten,Jayapura,Papua
211,99356,Sawesuma (Sawa Suma),91.03.09.2005,Unurum Guay,Kabupaten,Jayapura,Papua
212,99356,Sentosa (Santosa),91.03.09.2004,Unurum Guay,Kabupaten,Jayapura,Papua
213,99466,Bias,91.11.07.2005,Towe,Kabupaten,Keerom,Papua
214,99466,Jember,91.11.07.2009,Towe,Kabupaten,Keerom,Papua
215,99466,Lules,91.11.07.2007,Towe,Kabupaten,Keerom,Papua
216,99466,Milki,91.11.07.2006,Towe,Kabupaten,Keerom,Papua
217,99466,Niliti,91.11.07.2010,Towe,Kabupaten,Keerom,Papua
218,99466,Pris,91.11.07.2011,Towe,Kabupaten,Keerom,Papua
219,99466,Tefalma (Tefanma),91.11.07.2004,Towe,Kabupaten,Keerom,Papua
220,99466,Terfones,91.11.07.2003,Towe,Kabupaten,Keerom,Papua
221,99466,Towe Atas,91.11.07.2002,Towe,Kabupaten,Keerom,Papua
222,99466,Towe Hitam,91.11.07.2001,Towe,Kabupaten,Keerom,Papua
223,99372,Bota-Bora,91.10.02.2001,Tor Atas,Kabupaten,Sarmi,Papua
224,99372,Denander,91.10.02.2010,Tor Atas,Kabupaten,Sarmi,Papua
225,99372,Denender,91.10.02.2007,Tor Atas,Kabupaten,Sarmi,Papua
226,99372,Kanderjan,91.10.02.2004,Tor Atas,Kabupaten,Sarmi,Papua
227,99372,Omte,91.10.02.2005,Tor Atas,Kabupaten,Sarmi,Papua
228,99372,Safrom Tane,91.10.02.2006,Tor Atas,Kabupaten,Sarmi,Papua
229,99372,Safron Tane,91.10.02.2009,Tor Atas,Kabupaten,Sarmi,Papua
230,99372,Samanente,91.10.02.2003,Tor Atas,Kabupaten,Sarmi,Papua
231,99372,Toganto,91.10.02.2002,Tor Atas,Kabupaten,Sarmi,Papua
232,99372,Waaf,91.10.02.2011,Tor Atas,Kabupaten,Sarmi,Papua
233,98642,Ampimoi,91.05.09.2003,Teluk Ampimoi,Kabupaten,Kepulauan Yapen,Papua
234,98642,Arareni,91.05.09.2010,Teluk Ampimoi,Kabupaten,Kepulauan Yapen,Papua
235,98642,Ayari,91.05.09.2005,Teluk Ampimoi,Kabupaten,Kepulauan Yapen,Papua
236,98642,Bareraif,91.05.09.2009,Teluk Ampimoi,Kabupaten,Kepulauan Yapen,Papua
237,98642,Koroapi,91.05.09.2006,Teluk Ampimoi,Kabupaten,Kepulauan Yapen,Papua
238,98642,Randawaya,91.05.09.2001,Teluk Ampimoi,Kabupaten,Kepulauan Yapen,Papua
239,98642,Siromi,91.05.09.2011,Teluk Ampimoi,Kabupaten,Kepulauan Yapen,Papua
240,98642,Tarei,91.05.09.2008,Teluk Ampimoi,Kabupaten,Kepulauan Yapen,Papua
241,98642,Wabuayar (Wabuayer),91.05.09.2007,Teluk Ampimoi,Kabupaten,Kepulauan Yapen,Papua
242,98642,Waita,91.05.09.2004,Teluk Ampimoi,Kabupaten,Kepulauan Yapen,Papua
243,98642,Warironi,91.05.09.2002,Teluk Ampimoi,Kabupaten,Kepulauan Yapen,Papua
244,98546,Andoina,91.06.15.2014,Swandiwe,Kabupaten,Biak Numfor,Papua
245,98546,Busdori,91.06.15.2010,Swandiwe,Kabupaten,Biak Numfor,Papua
246,98546,Farusi,91.06.15.2001,Swandiwe,Kabupaten,Biak Numfor,Papua
247,98546,Insusbari,91.06.15.2015,Swandiwe,Kabupaten,Biak Numfor,Papua
248,98546,Mardori,91.06.15.2004,Swandiwe,Kabupaten,Biak Numfor,Papua
249,98546,Mendenderi (Mandenderi),91.06.15.2002,Swandiwe,Kabupaten,Biak Numfor,Papua
250,98546,Napdori,91.06.15.2008,Swandiwe,Kabupaten,Biak Numfor,Papua
251,98546,Orkdori,91.06.15.2012,Swandiwe,Kabupaten,Biak Numfor,Papua
252,98546,Ramdori,91.06.15.2009,Swandiwe,Kabupaten,Biak Numfor,Papua
253,98546,Sarwa,91.06.15.2007,Swandiwe,Kabupaten,Biak Numfor,Papua
254,98546,Saswarbo,91.06.15.2013,Swandiwe,Kabupaten,Biak Numfor,Papua
255,98546,Swainober,91.06.15.2003,Swandiwe,Kabupaten,Biak Numfor,Papua
256,98546,Swaipak,91.06.15.2005,Swandiwe,Kabupaten,Biak Numfor,Papua
257,98546,Wombrisau (Wombrisauw),91.06.15.2011,Swandiwe,Kabupaten,Biak Numfor,Papua
258,98546,Yenbepioper (Yembepioper),91.06.15.2006,Swandiwe,Kabupaten,Biak Numfor,Papua
259,98582,Fanjur,91.19.02.2010,Supiori Utara,Kabupaten,Supiori,Papua
260,98582,Kobari Jaya,91.19.02.2009,Supiori Utara,Kabupaten,Supiori,Papua
261,98582,Puweri,91.19.02.2015,Supiori Utara,Kabupaten,Supiori,Papua
262,98582,Warbor,91.19.02.2008,Supiori Utara,Kabupaten,Supiori,Papua
263,98582,Warsa,91.19.02.2003,Supiori Utara,Kabupaten,Supiori,Papua
264,98573,Douwbo (Doubo),91.19.03.2010,Supiori Timur,Kabupaten,Supiori,Papua
265,98573,Duber,91.19.03.2004,Supiori Timur,Kabupaten,Supiori,Papua
266,98573,Marsram,91.19.03.2003,Supiori Timur,Kabupaten,Supiori,Papua
267,98573,Sauyas,91.19.03.2005,Supiori Timur,Kabupaten,Supiori,Papua
268,98573,Sorendidori (Sorendiweri),91.19.03.2007,Supiori Timur,Kabupaten,Supiori,Papua
269,98573,Syurdori,91.19.03.2009,Supiori Timur,Kabupaten,Supiori,Papua
270,98573,Wafor,91.19.03.2006,Supiori Timur,Kabupaten,Supiori,Papua
271,98573,Waryesi,91.19.03.2008,Supiori Timur,Kabupaten,Supiori,Papua
272,98573,Wombonda,91.19.03.2002,Supiori Timur,Kabupaten,Supiori,Papua
273,98573,Yawerma,91.19.03.2001,Supiori Timur,Kabupaten,Supiori,Papua
274,98572,Awaki,91.19.01.2016,Supiori Selatan,Kabupaten,Supiori,Papua
275,98572,Biniki,91.19.01.2010,Supiori Selatan,Kabupaten,Supiori,Papua
276,98572,Didiabolo,91.19.01.2011,Supiori Selatan,Kabupaten,Supiori,Papua
277,98572,Fanindi,91.19.01.2003,Supiori Selatan,Kabupaten,Supiori,Papua
278,98572,Maryaidori,91.19.01.2019,Supiori Selatan,Kabupaten,Supiori,Papua
279,98572,Odori,91.19.01.2004,Supiori Selatan,Kabupaten,Supiori,Papua
280,98572,Warbefondi (Waberfondi / Warbepondi),91.19.01.2015,Supiori Selatan,Kabupaten,Supiori,Papua
281,98581,Amyas,91.19.05.2004,Supiori Barat,Kabupaten,Supiori,Papua
282,98581,Koryakam (Koiryakam),91.19.05.2002,Supiori Barat,Kabupaten,Supiori,Papua
283,98581,Mapia,91.19.05.2007,Supiori Barat,Kabupaten,Supiori,Papua
284,98581,Masyai,91.19.05.2006,Supiori Barat,Kabupaten,Supiori,Papua
285,98581,Napisndi (Napisandi),91.19.05.2005,Supiori Barat,Kabupaten,Supiori,Papua
286,98581,Waryei (Wariyei),91.19.05.2001,Supiori Barat,Kabupaten,Supiori,Papua
287,98581,Wayori (Mayori),91.19.05.2003,Supiori Barat,Kabupaten,Supiori,Papua
288,98675,Daimboa,91.15.15.2003,Soyoi Mambai,Kabupaten,Waropen,Papua
289,98675,Dawoa,91.15.15.2008,Soyoi Mambai,Kabupaten,Waropen,Papua
290,98675,Fafarui,91.15.15.2007,Soyoi Mambai,Kabupaten,Waropen,Papua
291,98675,Mambai,91.15.15.2001,Soyoi Mambai,Kabupaten,Waropen,Papua
292,98675,Napani,91.15.15.2004,Soyoi Mambai,Kabupaten,Waropen,Papua
293,98675,Segha,91.15.15.2005,Soyoi Mambai,Kabupaten,Waropen,Papua
294,98675,Sinabo,91.15.15.2009,Soyoi Mambai,Kabupaten,Waropen,Papua
295,98675,Soyoi,91.15.15.2002,Soyoi Mambai,Kabupaten,Waropen,Papua
296,98675,Wainarisi,91.15.15.2006,Soyoi Mambai,Kabupaten,Waropen,Papua
297,98675,Woinui,91.15.15.2010,Soyoi Mambai,Kabupaten,Waropen,Papua
298,99469,Alang-alang Raya,91.11.05.2012,Skanto,Kabupaten,Keerom,Papua
299,99469,Arsopura,91.11.05.2003,Skanto,Kabupaten,Keerom,Papua
300,99469,Gudang Garam,91.11.05.2009,Skanto,Kabupaten,Keerom,Papua
301,99469,Intaimelyan,91.11.05.2006,Skanto,Kabupaten,Keerom,Papua
302,99469,Jaifuri,91.11.05.2002,Skanto,Kabupaten,Keerom,Papua
303,99469,Naramben,91.11.05.2005,Skanto,Kabupaten,Keerom,Papua
304,99469,Saefen Empat Dua,91.11.05.2010,Skanto,Kabupaten,Keerom,Papua
305,99469,Skanto,91.11.05.2001,Skanto,Kabupaten,Keerom,Papua
306,99469,Traimelyan,91.11.05.2007,Skanto,Kabupaten,Keerom,Papua
307,99469,Walma,91.11.05.2011,Skanto,Kabupaten,Keerom,Papua
308,99469,Wiantre,91.11.05.2004,Skanto,Kabupaten,Keerom,Papua
309,99469,Wulukubun,91.11.05.2008,Skanto,Kabupaten,Keerom,Papua
310,99359,Asei Besar,91.03.02.2004,Sentani Timur,Kabupaten,Jayapura,Papua
311,99359,Asei Kecil,91.03.02.2005,Sentani Timur,Kabupaten,Jayapura,Papua
312,99359,Ayapo (Itakiwa),91.03.02.2003,Sentani Timur,Kabupaten,Jayapura,Papua
313,99359,Nendali,91.03.02.2006,Sentani Timur,Kabupaten,Jayapura,Papua
314,99359,Nolokla,91.03.02.2001,Sentani Timur,Kabupaten,Jayapura,Papua
315,99359,Puay (Puai),91.03.02.2002,Sentani Timur,Kabupaten,Jayapura,Papua
316,99359,Yokiwa,91.03.02.2007,Sentani Timur,Kabupaten,Jayapura,Papua
317,99358,Dosay (Dosai),91.03.04.2001,Sentani Barat,Kabupaten,Jayapura,Papua
318,99358,Maribu,91.03.04.2005,Sentani Barat,Kabupaten,Jayapura,Papua
319,99358,Sabron Sari,91.03.04.2008,Sentani Barat,Kabupaten,Jayapura,Papua
320,99358,Sabron Yaru (Sabro Yaru),91.03.04.2011,Sentani Barat,Kabupaten,Jayapura,Papua
321,99358,Waibron,91.03.04.2006,Sentani Barat,Kabupaten,Jayapura,Papua
322,99352,Dobonsolo,91.03.01.1002,Sentani,Kabupaten,Jayapura,Papua
323,99352,Hinekombe,91.03.01.1003,Sentani,Kabupaten,Jayapura,Papua
324,99352,Hobong,91.03.01.2011,Sentani,Kabupaten,Jayapura,Papua
325,99352,Ifale (Ilfele),91.03.01.2006,Sentani,Kabupaten,Jayapura,Papua
326,99352,Ifar Besar,91.03.01.2010,Sentani,Kabupaten,Jayapura,Papua
327,99352,Keheran (Kehiran),91.03.01.2007,Sentani,Kabupaten,Jayapura,Papua
328,99352,Sentani Kota,91.03.01.1001,Sentani,Kabupaten,Jayapura,Papua
329,99352,Sereh,91.03.01.2004,Sentani,Kabupaten,Jayapura,Papua
330,99352,Yahim,91.03.01.2017,Sentani,Kabupaten,Jayapura,Papua
331,99352,Yobeh,91.03.01.2005,Sentani,Kabupaten,Jayapura,Papua
332,99464,Molof,91.11.03.2001,Senggi,Kabupaten,Keerom,Papua
333,99464,Namla,91.11.03.2010,Senggi,Kabupaten,Keerom,Papua
334,99464,Senggi,91.11.03.2002,Senggi,Kabupaten,Keerom,Papua
335,99464,Usku,91.11.03.2005,Senggi,Kabupaten,Keerom,Papua
336,99464,Waley,91.11.03.2011,Senggi,Kabupaten,Keerom,Papua
337,99464,Warlef,91.11.03.2003,Senggi,Kabupaten,Keerom,Papua
338,99464,Woslay,91.11.03.2006,Senggi,Kabupaten,Keerom,Papua
339,98682,Anasi,91.20.08.2006,Sawai,Kabupaten,Mamberamo Raya,Papua
340,98682,Bonoi,91.20.08.2003,Sawai,Kabupaten,Mamberamo Raya,Papua
341,98682,Poiwai,91.20.08.2001,Sawai,Kabupaten,Mamberamo Raya,Papua
342,98682,Rapambrei,91.20.08.2005,Sawai,Kabupaten,Mamberamo Raya,Papua
343,98682,Sorabi,91.20.08.2004,Sawai,Kabupaten,Mamberamo Raya,Papua
344,98682,Tamakuri,91.20.08.2002,Sawai,Kabupaten,Mamberamo Raya,Papua
345,99377,Bagaiserwar Dua,91.10.13.2006,Sarmi Timur,Kabupaten,Sarmi,Papua
346,99377,Binyer,91.10.13.2005,Sarmi Timur,Kabupaten,Sarmi,Papua
347,99377,Ebram,91.10.13.2004,Sarmi Timur,Kabupaten,Sarmi,Papua
348,99377,Holmafen,91.10.13.2001,Sarmi Timur,Kabupaten,Sarmi,Papua
349,99377,Sewan,91.10.13.2002,Sarmi Timur,Kabupaten,Sarmi,Papua
350,99377,Tanjung Batu,91.10.13.2008,Sarmi Timur,Kabupaten,Sarmi,Papua
351,99377,Waskey,91.10.13.2007,Sarmi Timur,Kabupaten,Sarmi,Papua
352,99377,Waskey / Tanjung Batu,91.10.13.2003,Sarmi Timur,Kabupaten,Sarmi,Papua
353,99376,Amsira,91.10.12.2001,Sarmi Selatan,Kabupaten,Sarmi,Papua
354,99376,Angkasa Dua,91.10.12.2008,Sarmi Selatan,Kabupaten,Sarmi,Papua
355,99376,Kasukwe,91.10.12.2004,Sarmi Selatan,Kabupaten,Sarmi,Papua
356,99376,Munukania (Manukania),91.10.12.2003,Sarmi Selatan,Kabupaten,Sarmi,Papua
357,99376,Siaratesa,91.10.12.2002,Sarmi Selatan,Kabupaten,Sarmi,Papua
358,99376,Wapo,91.10.12.2005,Sarmi Selatan,Kabupaten,Sarmi,Papua
359,99373,Armo,91.10.01.2014,Sarmi,Kabupaten,Sarmi,Papua
360,99373,Bagaiserwar,91.10.01.2007,Sarmi,Kabupaten,Sarmi,Papua
361,99373,Bagaisewar II,91.10.01.2018,Sarmi,Kabupaten,Sarmi,Papua
362,99373,Lembah Neidam,91.10.01.2020,Sarmi,Kabupaten,Sarmi,Papua
363,99373,Liki,91.10.01.2004,Sarmi,Kabupaten,Sarmi,Papua
364,99373,Mararena,91.10.01.1001,Sarmi,Kabupaten,Sarmi,Papua
365,99373,Pulau Armo,91.10.01.2019,Sarmi,Kabupaten,Sarmi,Papua
366,99373,Sarmi Kota (Sarmi),91.10.01.1002,Sarmi,Kabupaten,Sarmi,Papua
367,99373,Sarmo,91.10.01.2003,Sarmi,Kabupaten,Sarmi,Papua
368,99373,Sawar,91.10.01.2006,Sarmi,Kabupaten,Sarmi,Papua
369,99373,Tefarewar,91.10.01.2021,Sarmi,Kabupaten,Sarmi,Papua
370,98551,Adainasnosen,91.06.12.2008,Samofa,Kabupaten,Biak Numfor,Papua
371,98551,Anjarew,91.06.12.1014,Samofa,Kabupaten,Biak Numfor,Papua
372,98551,Anjereuw,91.06.12.2016,Samofa,Kabupaten,Biak Numfor,Papua
373,98551,Brambaken,91.06.12.1002,Samofa,Kabupaten,Biak Numfor,Papua
374,98551,Darmopis,91.06.12.2009,Samofa,Kabupaten,Biak Numfor,Papua
375,98551,Kamorfuar,91.06.12.2015,Samofa,Kabupaten,Biak Numfor,Papua
376,98551,Karang Mulia,91.06.12.1010,Samofa,Kabupaten,Biak Numfor,Papua
377,98551,Kinmom,91.06.12.2018,Samofa,Kabupaten,Biak Numfor,Papua
378,98551,Mandouw,91.06.12.2003,Samofa,Kabupaten,Biak Numfor,Papua
379,98551,Mansinyas,91.06.12.1012,Samofa,Kabupaten,Biak Numfor,Papua
380,98551,Maryendi,91.06.12.2006,Samofa,Kabupaten,Biak Numfor,Papua
381,98551,Sambawofuar,91.06.12.2007,Samofa,Kabupaten,Biak Numfor,Papua
382,98551,Samofa,91.06.12.1001,Samofa,Kabupaten,Biak Numfor,Papua
383,98551,Snerbo,91.06.12.1013,Samofa,Kabupaten,Biak Numfor,Papua
384,98551,Sumberker,91.06.12.2004,Samofa,Kabupaten,Biak Numfor,Papua
385,98551,Wisata Binsari,91.06.12.2017,Samofa,Kabupaten,Biak Numfor,Papua
386,98551,Yafdas,91.06.12.1011,Samofa,Kabupaten,Biak Numfor,Papua
387,98695,Bareri,91.20.03.2003,Rufaer,Kabupaten,Mamberamo Raya,Papua
388,98695,Fona,91.20.03.2001,Rufaer,Kabupaten,Mamberamo Raya,Papua
389,98694,Haya,91.20.03.2007,Rufaer,Kabupaten,Mamberamo Raya,Papua
390,98695,Kai,91.20.03.2006,Rufaer,Kabupaten,Mamberamo Raya,Papua
391,98695,Sikari,91.20.03.2004,Rufaer,Kabupaten,Mamberamo Raya,Papua
392,98695,Tayai,91.20.03.2002,Rufaer,Kabupaten,Mamberamo Raya,Papua
393,98674,Aimasi,91.15.07.2013,Risei Sayati,Kabupaten,Waropen,Papua
394,98674,Fafado,91.15.07.2002,Risei Sayati,Kabupaten,Waropen,Papua
395,98674,Ghaiwando,91.15.07.2016,Risei Sayati,Kabupaten,Waropen,Papua
396,98674,Ghaiwaru,91.15.07.2020,Risei Sayati,Kabupaten,Waropen,Papua
397,98674,Mui,91.15.07.2014,Risei Sayati,Kabupaten,Waropen,Papua
398,98674,Orambin,91.15.07.2018,Risei Sayati,Kabupaten,Waropen,Papua
399,98674,Unareu,91.15.07.2019,Risei Sayati,Kabupaten,Waropen,Papua
400,98674,Waghare,91.15.07.2015,Risei Sayati,Kabupaten,Waropen,Papua
401,98674,Wobari,91.15.07.2003,Risei Sayati,Kabupaten,Waropen,Papua
402,98674,Womorisi,91.15.07.2017,Risei Sayati,Kabupaten,Waropen,Papua
403,99350,Nehibe (Nacha Tawa),91.03.17.2004,Raveni Rara (Ravenirara),Kabupaten,Jayapura,Papua
404,99350,Ormuwari (Newa),91.03.17.2003,Raveni Rara (Ravenirara),Kabupaten,Jayapura,Papua
405,99350,Yongsu Besar (Dosoyo),91.03.17.2002,Raveni Rara (Ravenirara),Kabupaten,Jayapura,Papua
406,99350,Yongsu Sapari,91.03.17.2001,Raveni Rara (Ravenirara),Kabupaten,Jayapura,Papua
407,98641,Aisau,91.05.08.2011,Raimbawi,Kabupaten,Kepulauan Yapen,Papua
408,98641,Barawai,91.05.08.2008,Raimbawi,Kabupaten,Kepulauan Yapen,Papua
409,98641,Kororompui,91.05.08.2010,Raimbawi,Kabupaten,Kepulauan Yapen,Papua
410,98641,Sawendui,91.05.08.2013,Raimbawi,Kabupaten,Kepulauan Yapen,Papua
411,98641,Sewenui,91.05.08.2012,Raimbawi,Kabupaten,Kepulauan Yapen,Papua
412,98641,Waindu,91.05.08.2001,Raimbawi,Kabupaten,Kepulauan Yapen,Papua
413,98641,Woda,91.05.08.2009,Raimbawi,Kabupaten,Kepulauan Yapen,Papua
414,98646,Ausem,91.05.14.2004,Pulau Yerui,Kabupaten,Kepulauan Yapen,Papua
415,98646,Jeniari,91.05.14.2002,Pulau Yerui,Kabupaten,Kepulauan Yapen,Papua
416,98646,Miosnum,91.05.14.2001,Pulau Yerui,Kabupaten,Kepulauan Yapen,Papua
417,98646,Umpeki,91.05.14.2003,Pulau Yerui,Kabupaten,Kepulauan Yapen,Papua
418,98646,Yeituarau,91.05.14.2005,Pulau Yerui,Kabupaten,Kepulauan Yapen,Papua
419,98643,Andersaria (Andesaria),91.05.13.2003,Pulau Kurudu,Kabupaten,Kepulauan Yapen,Papua
420,98643,Doreianmini,91.05.13.2002,Pulau Kurudu,Kabupaten,Kepulauan Yapen,Papua
421,98643,Kaipuri,91.05.13.2001,Pulau Kurudu,Kabupaten,Kepulauan Yapen,Papua
422,98643,Kirimbri,91.05.13.2005,Pulau Kurudu,Kabupaten,Kepulauan Yapen,Papua
423,98643,Kurudu,91.05.13.2004,Pulau Kurudu,Kabupaten,Kepulauan Yapen,Papua
424,98643,Mansesi,91.05.13.2008,Pulau Kurudu,Kabupaten,Kepulauan Yapen,Papua
425,98643,Manusundu,91.05.13.2006,Pulau Kurudu,Kabupaten,Kepulauan Yapen,Papua
426,98643,Mnukwar,91.05.13.2007,Pulau Kurudu,Kabupaten,Kepulauan Yapen,Papua
427,98652,Humbe Awai,91.05.05.2015,Poom,Kabupaten,Kepulauan Yapen,Papua
428,98652,Mokiroan,91.05.05.2007,Poom,Kabupaten,Kepulauan Yapen,Papua
429,98652,Nurawi,91.05.05.2016,Poom,Kabupaten,Kepulauan Yapen,Papua
430,98652,Poom I,91.05.05.2001,Poom,Kabupaten,Kepulauan Yapen,Papua
431,98652,Poom II,91.05.05.2006,Poom,Kabupaten,Kepulauan Yapen,Papua
432,98652,Rasiri (Woisiri),91.05.05.2011,Poom,Kabupaten,Kepulauan Yapen,Papua
433,98652,Serewen,91.05.05.2003,Poom,Kabupaten,Kepulauan Yapen,Papua
434,98652,Warioi,91.05.05.2012,Poom,Kabupaten,Kepulauan Yapen,Papua
435,98563,Andei,91.06.18.2001,Poiru,Kabupaten,Biak Numfor,Papua
436,98563,Andei Sup,91.06.18.2007,Poiru,Kabupaten,Biak Numfor,Papua
437,98563,Bawei,91.06.18.2005,Poiru,Kabupaten,Biak Numfor,Papua
438,98563,Koryakam,91.06.18.2009,Poiru,Kabupaten,Biak Numfor,Papua
439,98563,Manggari,91.06.18.2004,Poiru,Kabupaten,Biak Numfor,Papua
440,98563,Saunbri (Sauribru),91.06.18.2003,Poiru,Kabupaten,Biak Numfor,Papua
441,98563,Sauri,91.06.18.2006,Poiru,Kabupaten,Biak Numfor,Papua
442,98563,Serdori,91.06.18.2008,Poiru,Kabupaten,Biak Numfor,Papua
443,98563,Syoribu (Syoribo),91.06.18.2002,Poiru,Kabupaten,Biak Numfor,Papua
444,99371,Arare,91.10.14.2001,Pantai Timur Bagian Barat,Kabupaten,Sarmi,Papua
445,99371,Dabe,91.10.14.2004,Pantai Timur Bagian Barat,Kabupaten,Sarmi,Papua
446,99371,Dabe Dua (Dabe II),91.10.14.2015,Pantai Timur Bagian Barat,Kabupaten,Sarmi,Papua
447,99371,Finyabor (Vinyabor),91.10.14.2006,Pantai Timur Bagian Barat,Kabupaten,Sarmi,Papua
448,99371,Finyabor Dua,91.10.14.2014,Pantai Timur Bagian Barat,Kabupaten,Sarmi,Papua
449,99371,Keder Lama,91.10.14.2013,Pantai Timur Bagian Barat,Kabupaten,Sarmi,Papua
450,99371,Nengke,91.10.14.2005,Pantai Timur Bagian Barat,Kabupaten,Sarmi,Papua
451,99371,Nengke Dua (Nengke II / Nengke Baru),91.10.14.2016,Pantai Timur Bagian Barat,Kabupaten,Sarmi,Papua
452,99371,Tambrawar (Tabrawar),91.10.14.2012,Pantai Timur Bagian Barat,Kabupaten,Sarmi,Papua
453,99371,Timron/Keder,91.10.14.2003,Pantai Timur Bagian Barat,Kabupaten,Sarmi,Papua
454,99371,Wakde,91.10.14.2002,Pantai Timur Bagian Barat,Kabupaten,Sarmi,Papua
455,99370,Ansudu (Ansubi),91.10.04.2001,Pantai Timur,Kabupaten,Sarmi,Papua
456,99370,Ansudu Dua (Ansudu II / Srem),91.10.04.2014,Pantai Timur,Kabupaten,Sarmi,Papua
457,99370,Betaf,91.10.04.2002,Pantai Timur,Kabupaten,Sarmi,Papua
458,99370,Betaf Dua (Betaf II / Tamnir),91.10.04.2013,Pantai Timur,Kabupaten,Sarmi,Papua
459,99370,Komra,91.10.04.2011,Pantai Timur,Kabupaten,Sarmi,Papua
460,99370,Sunum (Yamna),91.10.04.2010,Pantai Timur,Kabupaten,Sarmi,Papua
461,99370,Yamben (Jamber/Beneraf),91.10.04.2003,Pantai Timur,Kabupaten,Sarmi,Papua
462,99375,Arbais,91.10.03.2007,Pantai Barat,Kabupaten,Sarmi,Papua
463,99375,Aruswar,91.10.03.2013,Pantai Barat,Kabupaten,Sarmi,Papua
464,99375,Burgena,91.10.03.2023,Pantai Barat,Kabupaten,Sarmi,Papua
465,99375,Kamenawari,91.10.03.2014,Pantai Barat,Kabupaten,Sarmi,Papua
466,99375,Kapeso,91.10.03.2008,Pantai Barat,Kabupaten,Sarmi,Papua
467,99375,Karfasia,91.10.03.2017,Pantai Barat,Kabupaten,Sarmi,Papua
468,99375,Masep,91.10.03.2009,Pantai Barat,Kabupaten,Sarmi,Papua
469,99375,Mertewar (Martewar),91.10.03.2005,Pantai Barat,Kabupaten,Sarmi,Papua
470,99375,Nisro,91.10.03.2012,Pantai Barat,Kabupaten,Sarmi,Papua
471,99375,Niwerawar,91.10.03.2026,Pantai Barat,Kabupaten,Sarmi,Papua
472,99375,Samorkena,91.10.03.2006,Pantai Barat,Kabupaten,Sarmi,Papua
473,99375,Siantoa,91.10.03.2025,Pantai Barat,Kabupaten,Sarmi,Papua
474,99375,Subu,91.10.03.2016,Pantai Barat,Kabupaten,Sarmi,Papua
475,99375,Waim,91.10.03.2015,Pantai Barat,Kabupaten,Sarmi,Papua
476,99375,Wari,91.10.03.2027,Pantai Barat,Kabupaten,Sarmi,Papua
477,99375,Webro,91.10.03.2024,Pantai Barat,Kabupaten,Sarmi,Papua
478,98556,Auki,91.06.10.2002,Padaido,Kabupaten,Biak Numfor,Papua
479,98556,Inyebomi (Inbeyomi),91.06.10.2014,Padaido,Kabupaten,Biak Numfor,Papua
480,98556,Kanai,91.06.10.2021,Padaido,Kabupaten,Biak Numfor,Papua
481,98556,Nusi,91.06.10.2005,Padaido,Kabupaten,Biak Numfor,Papua
482,98556,Nusi Babaruk,91.06.10.2004,Padaido,Kabupaten,Biak Numfor,Papua
483,98556,Pai,91.06.10.2001,Padaido,Kabupaten,Biak Numfor,Papua
484,98556,Paidori,91.06.10.2020,Padaido,Kabupaten,Biak Numfor,Papua
485,98556,Sandidori (Sandedori),91.06.10.2016,Padaido,Kabupaten,Biak Numfor,Papua
486,98556,Sokani,91.06.10.2022,Padaido,Kabupaten,Biak Numfor,Papua
487,98556,Sorina,91.06.10.2015,Padaido,Kabupaten,Biak Numfor,Papua
488,98556,Wundi,91.06.10.2003,Padaido,Kabupaten,Biak Numfor,Papua
489,98665,Baino Jaya,91.15.11.2003,Oudate,Kabupaten,Waropen,Papua
490,98665,Botawa,91.15.11.2001,Oudate,Kabupaten,Waropen,Papua
491,98665,Moroa,91.15.11.2007,Oudate,Kabupaten,Waropen,Papua
492,98665,Nau,91.15.11.2004,Oudate,Kabupaten,Waropen,Papua
493,98665,Oiboa,91.15.11.2008,Oudate,Kabupaten,Waropen,Papua
494,98665,Rasawa,91.15.11.2005,Oudate,Kabupaten,Waropen,Papua
495,98665,Ruambak Jaya,91.15.11.2006,Oudate,Kabupaten,Waropen,Papua
496,98665,Sowiwa,91.15.11.2002,Oudate,Kabupaten,Waropen,Papua
497,98565,Manwor Indah,91.06.17.2009,Orkeri,Kabupaten,Biak Numfor,Papua
498,98565,Masyarah (Masyara),91.06.17.2007,Orkeri,Kabupaten,Biak Numfor,Papua
499,98565,Pakreki,91.06.17.2006,Orkeri,Kabupaten,Biak Numfor,Papua
500,98565,Rawar,91.06.17.2005,Orkeri,Kabupaten,Biak Numfor,Papua
501,98565,Saribi,91.06.17.2003,Orkeri,Kabupaten,Biak Numfor,Papua
502,98565,Sub Mander (Supmander),91.06.17.2004,Orkeri,Kabupaten,Biak Numfor,Papua
503,98565,Wansra,91.06.17.2008,Orkeri,Kabupaten,Biak Numfor,Papua
504,98565,Yenbeba,91.06.17.2001,Orkeri,Kabupaten,Biak Numfor,Papua
505,98565,Yenbebon (Yenbepon),91.06.17.2002,Orkeri,Kabupaten,Biak Numfor,Papua
506,98542,Anggaduber,91.06.20.2007,Oridek,Kabupaten,Biak Numfor,Papua
507,98542,Anggopi,91.06.20.2006,Oridek,Kabupaten,Biak Numfor,Papua
508,98542,Animi,91.06.20.2008,Oridek,Kabupaten,Biak Numfor,Papua
509,98542,Bakribo,91.06.20.2002,Oridek,Kabupaten,Biak Numfor,Papua
510,98542,Kakur,91.06.20.2009,Oridek,Kabupaten,Biak Numfor,Papua
511,98542,Makmakerbo,91.06.20.2013,Oridek,Kabupaten,Biak Numfor,Papua
512,98542,Marauw (Marao),91.06.20.2004,Oridek,Kabupaten,Biak Numfor,Papua
513,98542,Opiaref,91.06.20.2001,Oridek,Kabupaten,Biak Numfor,Papua
514,98542,Sauri,91.06.20.2012,Oridek,Kabupaten,Biak Numfor,Papua
515,98542,Sawa,91.06.20.2003,Oridek,Kabupaten,Biak Numfor,Papua
516,98542,Sawadori,91.06.20.2011,Oridek,Kabupaten,Biak Numfor,Papua
517,98542,Tanjung Barari,91.06.20.2010,Oridek,Kabupaten,Biak Numfor,Papua
518,98542,Wadibu,91.06.20.2005,Oridek,Kabupaten,Biak Numfor,Papua
519,98542,Yensama,91.06.20.2014,Oridek,Kabupaten,Biak Numfor,Papua
520,98653,Dorau,91.05.17.2005,Nusawani,Kabupaten,Kepulauan Yapen,Papua
521,98653,Nuniandei,91.05.17.2004,Nusawani,Kabupaten,Kepulauan Yapen,Papua
522,98653,Perea,91.05.17.2003,Nusawani,Kabupaten,Kepulauan Yapen,Papua
523,98653,Saweru,91.05.17.2001,Nusawani,Kabupaten,Kepulauan Yapen,Papua
524,98653,Umani,91.05.17.2002,Nusawani,Kabupaten,Kepulauan Yapen,Papua
525,98562,Asaibori,91.06.05.2020,Numfor Timur,Kabupaten,Biak Numfor,Papua
526,98562,Asaryendi,91.06.05.2015,Numfor Timur,Kabupaten,Biak Numfor,Papua
527,98562,Barkori,91.06.05.2019,Numfor Timur,Kabupaten,Biak Numfor,Papua
528,98562,Indaibori,91.06.05.2018,Numfor Timur,Kabupaten,Biak Numfor,Papua
529,98562,Kornasoren,91.06.05.2011,Numfor Timur,Kabupaten,Biak Numfor,Papua
530,98562,Pyefuri,91.06.05.2017,Numfor Timur,Kabupaten,Biak Numfor,Papua
531,98562,Rarsibo,91.06.05.2014,Numfor Timur,Kabupaten,Biak Numfor,Papua
532,98562,Yenburwo,91.06.05.2006,Numfor Timur,Kabupaten,Biak Numfor,Papua
533,98562,Yenmaru,91.06.05.2016,Numfor Timur,Kabupaten,Biak Numfor,Papua
534,98564,Baruki,91.06.04.2004,Numfor Barat,Kabupaten,Biak Numfor,Papua
535,98564,Kameri,91.06.04.2005,Numfor Barat,Kabupaten,Biak Numfor,Papua
536,98564,Kansai,91.06.04.2014,Numfor Barat,Kabupaten,Biak Numfor,Papua
537,98564,Mambodo Sawai,91.06.04.2020,Numfor Barat,Kabupaten,Biak Numfor,Papua
538,98564,Namber,91.06.04.2003,Numfor Barat,Kabupaten,Biak Numfor,Papua
539,98564,Pomdori Sup,91.06.04.2022,Numfor Barat,Kabupaten,Biak Numfor,Papua
540,98564,Pondori (Pomdori),91.06.04.2015,Numfor Barat,Kabupaten,Biak Numfor,Papua
541,98564,Rimbaraya,91.06.04.2021,Numfor Barat,Kabupaten,Biak Numfor,Papua
542,98564,Semayen,91.06.04.2019,Numfor Barat,Kabupaten,Biak Numfor,Papua
543,98564,Serbin,91.06.04.2013,Numfor Barat,Kabupaten,Biak Numfor,Papua
544,98564,Sub Manggunsi (Subangungsi / Submanggunsi),91.06.04.2012,Numfor Barat,Kabupaten,Biak Numfor,Papua
545,98564,Warido,91.06.04.2008,Numfor Barat,Kabupaten,Biak Numfor,Papua
546,99361,Benyom,91.03.07.2004,Nimboran,Kabupaten,Jayapura,Papua
547,99361,Gemebs,91.03.07.2001,Nimboran,Kabupaten,Jayapura,Papua
548,99361,Imsar,91.03.07.2009,Nimboran,Kabupaten,Jayapura,Papua
549,99361,Kaitemung (Kautemung),91.03.07.2018,Nimboran,Kabupaten,Jayapura,Papua
550,99361,Kuipon (Kuipons),91.03.07.2010,Nimboran,Kabupaten,Jayapura,Papua
551,99361,Kuwase,91.03.07.2017,Nimboran,Kabupaten,Jayapura,Papua
552,99361,Meyu,91.03.07.2003,Nimboran,Kabupaten,Jayapura,Papua
553,99361,Oyengsi,91.03.07.2005,Nimboran,Kabupaten,Jayapura,Papua
554,99361,Pobaim,91.03.07.2019,Nimboran,Kabupaten,Jayapura,Papua
555,99361,Singgri,91.03.07.2002,Nimboran,Kabupaten,Jayapura,Papua
556,99361,Singgriway (Singgriwai),91.03.07.2006,Nimboran,Kabupaten,Jayapura,Papua
557,99361,Tabri,91.03.07.1021,Nimboran,Kabupaten,Jayapura,Papua
558,99361,Yenggu (Yenggu Lama),91.03.07.2015,Nimboran,Kabupaten,Jayapura,Papua
559,99361,Yenggu Baru,91.03.07.2014,Nimboran,Kabupaten,Jayapura,Papua
560,99362,Benyom Jaya I,91.03.08.2002,Nimbokrang,Kabupaten,Jayapura,Papua
561,99362,Benyom Jaya II,91.03.08.2003,Nimbokrang,Kabupaten,Jayapura,Papua
562,99362,Berab,91.03.08.2004,Nimbokrang,Kabupaten,Jayapura,Papua
563,99362,Bunyom,91.03.08.2009,Nimbokrang,Kabupaten,Jayapura,Papua
564,99362,Hamonggrang (Hamongkrang),91.03.08.2005,Nimbokrang,Kabupaten,Jayapura,Papua
565,99362,Nembukrang (Nimbokrang),91.03.08.2001,Nimbokrang,Kabupaten,Jayapura,Papua
566,99362,Nombukrang Sari (Nembukrang / Nimbokrang Sari),91.03.08.2007,Nimbokrang,Kabupaten,Jayapura,Papua
567,99362,Rhepang Muaf (Rhepang Muaif / Muaib),91.03.08.2008,Nimbokrang,Kabupaten,Jayapura,Papua
568,99362,Wahab,91.03.08.2006,Nimbokrang,Kabupaten,Jayapura,Papua
569,99360,Besum,91.03.14.2005,Nambluong,Kabupaten,Jayapura,Papua
570,99360,Hanggaiy Hamong,91.03.14.2009,Nambluong,Kabupaten,Jayapura,Papua
571,99360,Imestum (Imustum),91.03.14.2007,Nambluong,Kabupaten,Jayapura,Papua
572,99360,Karya Bumi,91.03.14.2008,Nambluong,Kabupaten,Jayapura,Papua
573,99360,Sanggai,91.03.14.2003,Nambluong,Kabupaten,Jayapura,Papua
574,99360,Sarmai Atas,91.03.14.2001,Nambluong,Kabupaten,Jayapura,Papua
575,99360,Sarmai Bawah,91.03.14.2002,Nambluong,Kabupaten,Jayapura,Papua
576,99360,Sumbe,91.03.14.2010,Nambluong,Kabupaten,Jayapura,Papua
577,99360,Yakasib (Yakasip/Yokasib),91.03.14.2004,Nambluong,Kabupaten,Jayapura,Papua
578,99311,Holtekamp,91.71.04.2006,Muara Tami,Kota,Jayapura,Papua
579,99312,Koya Barat,91.71.04.1004,Muara Tami,Kota,Jayapura,Papua
580,99313,Koya Tengah,91.71.04.2007,Muara Tami,Kota,Jayapura,Papua
581,99314,Koya Timur,91.71.04.1005,Muara Tami,Kota,Jayapura,Papua
582,99318,Mosso,91.71.04.2008,Muara Tami,Kota,Jayapura,Papua
583,99316,Skow Mabo (Skouw Mabo ),91.71.04.2001,Muara Tami,Kota,Jayapura,Papua
584,99317,Skow Sae (Skouw Sae),91.71.04.2003,Muara Tami,Kota,Jayapura,Papua
585,99315,Skow Yambe (Skouw Yambe),91.71.04.2002,Muara Tami,Kota,Jayapura,Papua
586,98671,Bunggu,91.15.03.2015,Masirei,Kabupaten,Waropen,Papua
587,98671,Emauri,91.15.03.2017,Masirei,Kabupaten,Waropen,Papua
588,98671,Kali Baru,91.15.03.2013,Masirei,Kabupaten,Waropen,Papua
589,98671,Kowogi,91.15.03.2016,Masirei,Kabupaten,Waropen,Papua
590,98671,Obutay,91.15.03.2018,Masirei,Kabupaten,Waropen,Papua
591,98671,Saurisirami,91.15.03.2006,Masirei,Kabupaten,Waropen,Papua
592,98671,Sinonde,91.15.03.2009,Masirei,Kabupaten,Waropen,Papua
593,98671,Sirami,91.15.03.2014,Masirei,Kabupaten,Waropen,Papua
594,98671,Wairo,91.15.03.2019,Masirei,Kabupaten,Waropen,Papua
595,99468,Pyawi,91.11.09.2004,Mannem,Kabupaten,Keerom,Papua
596,99468,Sawyatami,91.11.09.2005,Mannem,Kabupaten,Keerom,Papua
597,99468,Uskwar,91.11.09.2007,Mannem,Kabupaten,Keerom,Papua
598,99468,Wambes,91.11.09.2006,Mannem,Kabupaten,Keerom,Papua
599,99468,Wembi,91.11.09.2002,Mannem,Kabupaten,Keerom,Papua
600,99468,Wonorejo,91.11.09.2003,Mannem,Kabupaten,Keerom,Papua
601,99468,Yamara,91.11.09.2001,Mannem,Kabupaten,Keerom,Papua
602,98693,Biri,91.20.04.2004,Mamberamo Tengah Timur,Kabupaten,Mamberamo Raya,Papua
603,98693,Eri,91.20.04.2006,Mamberamo Tengah Timur,Kabupaten,Mamberamo Raya,Papua
604,98693,Kustra,91.20.04.2001,Mamberamo Tengah Timur,Kabupaten,Mamberamo Raya,Papua
605,98693,Noyadi,91.20.04.2002,Mamberamo Tengah Timur,Kabupaten,Mamberamo Raya,Papua
606,98693,Obogai,91.20.04.2003,Mamberamo Tengah Timur,Kabupaten,Mamberamo Raya,Papua
607,98693,Towae,91.20.04.2007,Mamberamo Tengah Timur,Kabupaten,Mamberamo Raya,Papua
608,98693,Wakeyadi,91.20.04.2005,Mamberamo Tengah Timur,Kabupaten,Mamberamo Raya,Papua
609,98692,Anggreso,91.20.01.2002,Mamberamo Tengah,Kabupaten,Mamberamo Raya,Papua
610,98692,Babija,91.20.01.2010,Mamberamo Tengah,Kabupaten,Mamberamo Raya,Papua
611,98692,Burmeso,91.20.01.2001,Mamberamo Tengah,Kabupaten,Mamberamo Raya,Papua
612,98692,Danau Bira,91.20.01.2006,Mamberamo Tengah,Kabupaten,Mamberamo Raya,Papua
613,98692,Kasonaweja,91.20.01.2003,Mamberamo Tengah,Kabupaten,Mamberamo Raya,Papua
614,98692,Kwerba,91.20.01.2008,Mamberamo Tengah,Kabupaten,Mamberamo Raya,Papua
615,98692,Marina Valen,91.20.01.2011,Mamberamo Tengah,Kabupaten,Mamberamo Raya,Papua
616,98692,Metaweja,91.20.01.2004,Mamberamo Tengah,Kabupaten,Mamberamo Raya,Papua
617,98692,Muru Mare,91.20.01.2007,Mamberamo Tengah,Kabupaten,Mamberamo Raya,Papua
618,98692,Namunaweja,91.20.01.2005,Mamberamo Tengah,Kabupaten,Mamberamo Raya,Papua
619,98692,Sosawakwesar,91.20.01.2009,Mamberamo Tengah,Kabupaten,Mamberamo Raya,Papua
620,98694,Dabra,91.20.02.2001,Mamberamo Hulu,Kabupaten,Mamberamo Raya,Papua
621,98694,Dou,91.20.02.2006,Mamberamo Hulu,Kabupaten,Mamberamo Raya,Papua
622,98694,Fokri,91.20.02.2008,Mamberamo Hulu,Kabupaten,Mamberamo Raya,Papua
623,98694,Fuao,91.20.02.2003,Mamberamo Hulu,Kabupaten,Mamberamo Raya,Papua
624,98694,Pepasena I,91.20.02.2004,Mamberamo Hulu,Kabupaten,Mamberamo Raya,Papua
625,98694,Pepasena II,91.20.02.2005,Mamberamo Hulu,Kabupaten,Mamberamo Raya,Papua
626,98694,Taiyeve,91.20.02.2002,Mamberamo Hulu,Kabupaten,Mamberamo Raya,Papua
627,98695,Taria,91.20.02.2015,Mamberamo Hulu,Kabupaten,Mamberamo Raya,Papua
628,98691,Bagusa,91.20.05.2003,Mamberamo Hilir,Kabupaten,Mamberamo Raya,Papua
629,98691,Baudi,91.20.05.2001,Mamberamo Hilir,Kabupaten,Mamberamo Raya,Papua
630,98691,Kapeso,91.20.05.2004,Mamberamo Hilir,Kabupaten,Mamberamo Raya,Papua
631,98691,Suaseso,91.20.05.2005,Mamberamo Hilir,Kabupaten,Mamberamo Raya,Papua
632,98683,Taya,91.20.05.2008,Mamberamo Hilir,Kabupaten,Mamberamo Raya,Papua
633,98691,Trimuris,91.20.05.2002,Mamberamo Hilir,Kabupaten,Mamberamo Raya,Papua
634,98691,Warembori,91.20.05.2006,Mamberamo Hilir,Kabupaten,Mamberamo Raya,Papua
635,98691,Yoke,91.20.05.2007,Mamberamo Hilir,Kabupaten,Mamberamo Raya,Papua
636,98632,Ambaidiru,91.05.06.2008,Kosiwo,Kabupaten,Kepulauan Yapen,Papua
637,98632,Ariepi,91.05.06.2006,Kosiwo,Kabupaten,Kepulauan Yapen,Papua
638,98632,Ariepi Dua,91.05.06.2014,Kosiwo,Kabupaten,Kepulauan Yapen,Papua
639,98632,Aromarea,91.05.06.2002,Kosiwo,Kabupaten,Kepulauan Yapen,Papua
640,98632,Kamanap,91.05.06.2001,Kosiwo,Kabupaten,Kepulauan Yapen,Papua
641,98632,Kanawa,91.05.06.2004,Kosiwo,Kabupaten,Kepulauan Yapen,Papua
642,98632,Mambo,91.05.06.2009,Kosiwo,Kabupaten,Kepulauan Yapen,Papua
643,98632,Manainin,91.05.06.2010,Kosiwo,Kabupaten,Kepulauan Yapen,Papua
644,98632,Maria Rotu (Mariarotu / Mariar Rotu),91.05.06.2003,Kosiwo,Kabupaten,Kepulauan Yapen,Papua
645,98632,Numaman,91.05.06.2011,Kosiwo,Kabupaten,Kepulauan Yapen,Papua
646,98632,Panduami (Pandoami/Panduani),91.05.06.2015,Kosiwo,Kabupaten,Kepulauan Yapen,Papua
647,98632,Ramangkurani,91.05.06.2012,Kosiwo,Kabupaten,Kepulauan Yapen,Papua
648,98632,Sarawandori,91.05.06.2007,Kosiwo,Kabupaten,Kepulauan Yapen,Papua
649,98632,Sarawandori Dua,91.05.06.2013,Kosiwo,Kabupaten,Kepulauan Yapen,Papua
650,98632,Tatui,91.05.06.2005,Kosiwo,Kabupaten,Kepulauan Yapen,Papua
651,98673,Aru Antu (Antu Aru),91.15.10.2007,Kirihi,Kabupaten,Waropen,Papua
652,98673,Dairi,91.15.10.2001,Kirihi,Kabupaten,Waropen,Papua
653,98673,Dirou,91.15.10.2004,Kirihi,Kabupaten,Waropen,Papua
654,98673,Diwah (Diwa),91.15.10.2005,Kirihi,Kabupaten,Waropen,Papua
655,98673,Foira (Poira),91.15.10.2008,Kirihi,Kabupaten,Waropen,Papua
656,98673,Kawari,91.15.10.2009,Kirihi,Kabupaten,Waropen,Papua
657,98673,Kuaisa,91.15.10.2006,Kirihi,Kabupaten,Waropen,Papua
658,98673,Sooh,91.15.10.2003,Kirihi,Kabupaten,Waropen,Papua
659,98673,Spoiri,91.15.10.2002,Kirihi,Kabupaten,Waropen,Papua
660,98673,Wafuka,91.15.10.2010,Kirihi,Kabupaten,Waropen,Papua
661,98571,Aruri,91.19.04.2006,Kepulauan Aruri,Kabupaten,Supiori,Papua
662,98571,Imbrisbari (Imbirsbari),91.19.04.2007,Kepulauan Aruri,Kabupaten,Supiori,Papua
663,98571,Ineki,91.19.04.2008,Kepulauan Aruri,Kabupaten,Supiori,Papua
664,98571,Insumbrei,91.19.04.2009,Kepulauan Aruri,Kabupaten,Supiori,Papua
665,98571,Manggonswan (Mangoswan),91.19.04.2003,Kepulauan Aruri,Kabupaten,Supiori,Papua
666,98571,Mbrurwandi (Mbruwandi / Bruwandi),91.19.04.2002,Kepulauan Aruri,Kabupaten,Supiori,Papua
667,98571,Rayori,91.19.04.2001,Kepulauan Aruri,Kabupaten,Supiori,Papua
668,98571,Wonggeina (Wongkeina),91.19.04.2004,Kepulauan Aruri,Kabupaten,Supiori,Papua
669,98571,Yamnaisu,91.19.04.2005,Kepulauan Aruri,Kabupaten,Supiori,Papua
670,98653,Adiwipi,91.05.10.2006,Kepulauan Ambai,Kabupaten,Kepulauan Yapen,Papua
671,98653,Aiwaraggani,91.05.10.2016,Kepulauan Ambai,Kabupaten,Kepulauan Yapen,Papua
672,98653,Ambai I,91.05.10.2001,Kepulauan Ambai,Kabupaten,Kepulauan Yapen,Papua
673,98653,Ambai II,91.05.10.2008,Kepulauan Ambai,Kabupaten,Kepulauan Yapen,Papua
674,98653,Bairei,91.05.10.2015,Kepulauan Ambai,Kabupaten,Kepulauan Yapen,Papua
675,98653,Baisore,91.05.10.2010,Kepulauan Ambai,Kabupaten,Kepulauan Yapen,Papua
676,98653,Imboriawa,91.05.10.2014,Kepulauan Ambai,Kabupaten,Kepulauan Yapen,Papua
677,98653,Kawipi,91.05.10.2004,Kepulauan Ambai,Kabupaten,Kepulauan Yapen,Papua
678,98653,Mambawi,91.05.10.2009,Kepulauan Ambai,Kabupaten,Kepulauan Yapen,Papua
679,98653,Marawi,91.05.10.2019,Kepulauan Ambai,Kabupaten,Kepulauan Yapen,Papua
680,98653,Rondepi,91.05.10.2011,Kepulauan Ambai,Kabupaten,Kepulauan Yapen,Papua
681,98653,Toroa,91.05.10.2017,Kepulauan Ambai,Kabupaten,Kepulauan Yapen,Papua
682,98653,Wamori,91.05.10.2005,Kepulauan Ambai,Kabupaten,Kepulauan Yapen,Papua
683,99367,Braso,91.03.06.2004,Kemtuk Gresi,Kabupaten,Jayapura,Papua
684,99367,Bring,91.03.06.2006,Kemtuk Gresi,Kabupaten,Jayapura,Papua
685,99367,Dementin (Demetin),91.03.06.2002,Kemtuk Gresi,Kabupaten,Jayapura,Papua
686,99367,Domoikati (Damoi Kati),91.03.06.2001,Kemtuk Gresi,Kabupaten,Jayapura,Papua
687,99367,Hatib,91.03.06.1015,Kemtuk Gresi,Kabupaten,Jayapura,Papua
688,99367,Hyansip,91.03.06.2016,Kemtuk Gresi,Kabupaten,Jayapura,Papua
689,99367,Ibub,91.03.06.2009,Kemtuk Gresi,Kabupaten,Jayapura,Papua
690,99367,Jagrang,91.03.06.2014,Kemtuk Gresi,Kabupaten,Jayapura,Papua
691,99367,Nembu Gresi,91.03.06.2007,Kemtuk Gresi,Kabupaten,Jayapura,Papua
692,99367,Pupehabu,91.03.06.2005,Kemtuk Gresi,Kabupaten,Jayapura,Papua
693,99367,Swentab,91.03.06.2013,Kemtuk Gresi,Kabupaten,Jayapura,Papua
694,99367,Yanbra (Yanim),91.03.06.2003,Kemtuk Gresi,Kabupaten,Jayapura,Papua
695,99366,Aib,91.03.05.2012,Kemtuk,Kabupaten,Jayapura,Papua
696,99366,Benggwin Progo (Bengguin Progo),91.03.05.2011,Kemtuk,Kabupaten,Jayapura,Papua
697,99366,Kwansu,91.03.05.2006,Kemtuk,Kabupaten,Jayapura,Papua
698,99366,Mamda,91.03.05.2003,Kemtuk,Kabupaten,Jayapura,Papua
699,99366,Mamei (Namei),91.03.05.2004,Kemtuk,Kabupaten,Jayapura,Papua
700,99366,Manda Yawan (Mandayawan),91.03.05.2002,Kemtuk,Kabupaten,Jayapura,Papua
701,99366,Nambom (Nambon),91.03.05.2005,Kemtuk,Kabupaten,Jayapura,Papua
702,99366,Sabeab Kecil,91.03.05.2008,Kemtuk,Kabupaten,Jayapura,Papua
703,99366,Sama,91.03.05.2001,Kemtuk,Kabupaten,Jayapura,Papua
704,99366,Sekori,91.03.05.2009,Kemtuk,Kabupaten,Jayapura,Papua
705,99366,Skoaim,91.03.05.2010,Kemtuk,Kabupaten,Jayapura,Papua
706,99366,Soaib,91.03.05.2007,Kemtuk,Kabupaten,Jayapura,Papua
707,99364,Lapua,91.03.11.2001,Kaureh,Kabupaten,Jayapura,Papua
708,99364,Sebum,91.03.11.2002,Kaureh,Kabupaten,Jayapura,Papua
709,99364,Soskotek,91.03.11.2003,Kaureh,Kabupaten,Jayapura,Papua
710,99364,Umbron,91.03.11.2006,Kaureh,Kabupaten,Jayapura,Papua
711,99364,Yadouw (Yadauw),91.03.11.2004,Kaureh,Kabupaten,Jayapura,Papua
712,99465,Kaisenar,91.11.11.2001,Kaisenar,Kabupaten,Keerom,Papua
713,99465,Kiambra,91.11.11.2002,Kaisenar,Kabupaten,Keerom,Papua
714,99465,Liket,91.11.11.2003,Kaisenar,Kabupaten,Keerom,Papua
715,99465,Onam,91.11.11.2004,Kaisenar,Kabupaten,Keerom,Papua
716,99465,Tefanma Satu,91.11.11.2005,Kaisenar,Kabupaten,Keerom,Papua
717,99113,Angkasapura,91.71.01.1007,Jayapura Utara,Kota,Jayapura,Papua
718,99112,Bayangkara (Bhayangkara),91.71.01.1002,Jayapura Utara,Kota,Jayapura,Papua
719,99111,Gurabesi,91.71.01.1001,Jayapura Utara,Kota,Jayapura,Papua
720,99116,Imbi,91.71.01.1004,Jayapura Utara,Kota,Jayapura,Papua
721,99118,Kayo Batu,91.71.01.2008,Jayapura Utara,Kota,Jayapura,Papua
722,99115,Mandala,91.71.01.1006,Jayapura Utara,Kota,Jayapura,Papua
723,99117,Tanjung Ria,91.71.01.1005,Jayapura Utara,Kota,Jayapura,Papua
724,99114,Trikora,91.71.01.1003,Jayapura Utara,Kota,Jayapura,Papua
725,99223,Ardipura,91.71.02.1002,Jayapura Selatan,Kota,Jayapura,Papua
726,99222,Argapura,91.71.02.1001,Jayapura Selatan,Kota,Jayapura,Papua
727,99224,Entrop,91.71.02.1005,Jayapura Selatan,Kota,Jayapura,Papua
728,99220,Hamadi,91.71.02.1006,Jayapura Selatan,Kota,Jayapura,Papua
729,99227,Numbai (Numbay),91.71.02.1003,Jayapura Selatan,Kota,Jayapura,Papua
730,99221,Tahima Sorama,91.71.02.2007,Jayapura Selatan,Kota,Jayapura,Papua
731,99228,Tobati,91.71.02.2008,Jayapura Selatan,Kota,Jayapura,Papua
732,98661,Awaso,91.15.09.2011,Inggerus,Kabupaten,Waropen,Papua
733,98661,Demisa,91.15.09.2006,Inggerus,Kabupaten,Waropen,Papua
734,98661,Firo,91.15.09.2012,Inggerus,Kabupaten,Waropen,Papua
735,98661,Harapan Jaya,91.15.09.2005,Inggerus,Kabupaten,Waropen,Papua
736,98661,Otodemo,91.15.09.2008,Inggerus,Kabupaten,Waropen,Papua
737,98661,Somiangga,91.15.09.2002,Inggerus,Kabupaten,Waropen,Papua
738,98661,Toire,91.15.09.2004,Inggerus,Kabupaten,Waropen,Papua
739,99331,Hedam,91.71.05.1001,Heram,Kota,Jayapura,Papua
740,99332,Waena,91.71.05.1002,Heram,Kota,Jayapura,Papua
741,99328,Waena II,91.71.05.2005,Heram,Kota,Jayapura,Papua
742,99333,Yabansai,91.71.05.1004,Heram,Kota,Jayapura,Papua
743,99334,Yoka,91.71.05.2003,Heram,Kota,Jayapura,Papua
744,99357,Bangai,91.03.18.2004,Gresi Selatan,Kabupaten,Jayapura,Papua
745,99357,Iwon,91.03.18.2002,Gresi Selatan,Kabupaten,Jayapura,Papua
746,99357,Klaisu,91.03.18.2003,Gresi Selatan,Kabupaten,Jayapura,Papua
747,99357,Omon,91.03.18.2001,Gresi Selatan,Kabupaten,Jayapura,Papua
748,99351,Abar (Atabar),91.03.12.2002,Ebungfao (Ebungfau / Ebungfa),Kabupaten,Jayapura,Papua
749,99351,Babrongko (Ifar Bobrongko),91.03.12.2003,Ebungfao (Ebungfau / Ebungfa),Kabupaten,Jayapura,Papua
750,99351,Ebungfa,91.03.12.2001,Ebungfao (Ebungfau / Ebungfa),Kabupaten,Jayapura,Papua
751,99351,Khameyoka (Khameyaka / Kameyoka / Khamaeka),91.03.12.2004,Ebungfao (Ebungfau / Ebungfa),Kabupaten,Jayapura,Papua
752,99351,Simporo (Babo/Yosiba/Homf),91.03.12.2005,Ebungfao (Ebungfau / Ebungfa),Kabupaten,Jayapura,Papua
753,99353,Doromena,91.03.03.2012,Depapre,Kabupaten,Jayapura,Papua
754,99353,Entiyebo,91.03.03.2002,Depapre,Kabupaten,Jayapura,Papua
755,99353,Kendate,91.03.03.2003,Depapre,Kabupaten,Jayapura,Papua
756,99353,Tablasupa,91.03.03.2004,Depapre,Kabupaten,Jayapura,Papua
757,99353,Waiya,91.03.03.2001,Depapre,Kabupaten,Jayapura,Papua
758,99353,Wambena,91.03.03.2006,Depapre,Kabupaten,Jayapura,Papua
759,99353,Yefase (Yepase),91.03.03.2005,Depapre,Kabupaten,Jayapura,Papua
760,99353,Yewena,91.03.03.2007,Depapre,Kabupaten,Jayapura,Papua
761,99354,Ambora,91.03.10.2002,Demta,Kabupaten,Jayapura,Papua
762,99354,Demta (Demta Kota),91.03.10.2001,Demta,Kabupaten,Jayapura,Papua
763,99354,Kamdera,91.03.10.2006,Demta,Kabupaten,Jayapura,Papua
764,99354,Muaif,91.03.10.2007,Demta,Kabupaten,Jayapura,Papua
765,99354,Muris Kecil,91.03.10.2004,Demta,Kabupaten,Jayapura,Papua
766,99354,Yakore,91.03.10.2005,Demta,Kabupaten,Jayapura,Papua
767,99354,Yaugapsa (Yougapsa),91.03.10.2003,Demta,Kabupaten,Jayapura,Papua
768,98672,Aiwa,91.15.13.2018,Demba,Kabupaten,Waropen,Papua
769,98672,Aniboi,91.15.13.2003,Demba,Kabupaten,Waropen,Papua
770,98672,Biati,91.15.13.2019,Demba,Kabupaten,Waropen,Papua
771,98672,Demba,91.15.13.2008,Demba,Kabupaten,Waropen,Papua
772,98672,Fafai,91.15.13.2009,Demba,Kabupaten,Waropen,Papua
773,98672,Mayaghaido,91.15.13.2002,Demba,Kabupaten,Waropen,Papua
774,98672,Ronarai,91.15.13.2020,Demba,Kabupaten,Waropen,Papua
775,98672,Tetui,91.15.13.2007,Demba,Kabupaten,Waropen,Papua
776,98672,Urato,91.15.13.2001,Demba,Kabupaten,Waropen,Papua
777,98672,Wudokuri,91.15.13.2017,Demba,Kabupaten,Waropen,Papua
778,98561,Amberparem (Amperem),91.06.16.2004,Bruyadori,Kabupaten,Biak Numfor,Papua
779,98561,Arimi Jaya,91.06.16.2009,Bruyadori,Kabupaten,Biak Numfor,Papua
780,98561,Bruyadori,91.06.16.2002,Bruyadori,Kabupaten,Biak Numfor,Papua
781,98561,Dafi,91.06.16.2003,Bruyadori,Kabupaten,Biak Numfor,Papua
782,98561,Duai,91.06.16.2006,Bruyadori,Kabupaten,Biak Numfor,Papua
783,98561,Kamumi,91.06.16.2008,Bruyadori,Kabupaten,Biak Numfor,Papua
784,98561,Mandori,91.06.16.2005,Bruyadori,Kabupaten,Biak Numfor,Papua
785,98561,Mandori Sup,91.06.16.2007,Bruyadori,Kabupaten,Biak Numfor,Papua
786,98561,Sandou (Sandau),91.06.16.2001,Bruyadori,Kabupaten,Biak Numfor,Papua
787,98561,Warbukor,91.06.16.2010,Bruyadori,Kabupaten,Biak Numfor,Papua
788,99382,Gwinjaya (Gwin Jaya),91.10.15.2001,Bonggo Timur,Kabupaten,Sarmi,Papua
789,99382,Kapitiau (Kaptiau),91.10.15.2005,Bonggo Timur,Kabupaten,Sarmi,Papua
790,99382,Mawes Mukti,91.10.15.2003,Bonggo Timur,Kabupaten,Sarmi,Papua
791,99382,Mawesday,91.10.15.2004,Bonggo Timur,Kabupaten,Sarmi,Papua
792,99382,Tamar Sari (Tamas Sari),91.10.15.2002,Bonggo Timur,Kabupaten,Sarmi,Papua
793,99381,Anus,91.10.05.2006,Bonggo,Kabupaten,Sarmi,Papua
794,99381,Armopa,91.10.05.2004,Bonggo,Kabupaten,Sarmi,Papua
795,99381,Bebon Jaya,91.10.05.2010,Bonggo,Kabupaten,Sarmi,Papua
796,99381,Kiren,91.10.05.2007,Bonggo,Kabupaten,Sarmi,Papua
797,99381,Krim Podena,91.10.05.2017,Bonggo,Kabupaten,Sarmi,Papua
798,99381,Maweswares (Mawesres),91.10.05.2008,Bonggo,Kabupaten,Sarmi,Papua
799,99381,Rimsersari (Rimser Sari),91.10.05.2015,Bonggo,Kabupaten,Sarmi,Papua
800,99381,Rotea,91.10.05.2018,Bonggo,Kabupaten,Sarmi,Papua
801,99381,Tarontha Srum (Taronta Srum),91.10.05.2005,Bonggo,Kabupaten,Sarmi,Papua
802,99381,Tetom,91.10.05.2011,Bonggo,Kabupaten,Sarmi,Papua
803,98554,Doubo,91.06.21.2003,Bondifuar,Kabupaten,Biak Numfor,Papua
804,98554,Sansundi,91.06.21.2005,Bondifuar,Kabupaten,Biak Numfor,Papua
805,98554,Syurdori,91.06.21.2004,Bondifuar,Kabupaten,Biak Numfor,Papua
806,98554,Wandos,91.06.21.2002,Bondifuar,Kabupaten,Biak Numfor,Papua
807,98554,Wopes,91.06.21.2001,Bondifuar,Kabupaten,Biak Numfor,Papua
808,98544,Andei,91.06.02.2002,Biak Utara,Kabupaten,Biak Numfor,Papua
809,98544,Dernafi,91.06.02.2012,Biak Utara,Kabupaten,Biak Numfor,Papua
810,98544,Dofyo Wafor,91.06.02.2020,Biak Utara,Kabupaten,Biak Numfor,Papua
811,98544,Kobeoser,91.06.02.2006,Biak Utara,Kabupaten,Biak Numfor,Papua
812,98544,Korem,91.06.02.2018,Biak Utara,Kabupaten,Biak Numfor,Papua
813,98544,Mambesak,91.06.02.2007,Biak Utara,Kabupaten,Biak Numfor,Papua
814,98544,Mnuswor,91.06.02.2019,Biak Utara,Kabupaten,Biak Numfor,Papua
815,98544,Nermnu,91.06.02.2017,Biak Utara,Kabupaten,Biak Numfor,Papua
816,98544,Rosayendi (Rosayendo),91.06.02.2013,Biak Utara,Kabupaten,Biak Numfor,Papua
817,98544,Sarwom,91.06.02.2001,Biak Utara,Kabupaten,Biak Numfor,Papua
818,98544,Saukobye,91.06.02.2008,Biak Utara,Kabupaten,Biak Numfor,Papua
819,98544,Warbon,91.06.02.2021,Biak Utara,Kabupaten,Biak Numfor,Papua
820,98544,Wari,91.06.02.2022,Biak Utara,Kabupaten,Biak Numfor,Papua
821,98544,Waromi,91.06.02.2004,Biak Utara,Kabupaten,Biak Numfor,Papua
822,98544,Warsansan,91.06.02.2016,Biak Utara,Kabupaten,Biak Numfor,Papua
823,98544,Yobdi,91.06.02.2010,Biak Utara,Kabupaten,Biak Numfor,Papua
824,98541,Adorbari,91.06.03.2031,Biak Timur,Kabupaten,Biak Numfor,Papua
825,98541,Afefbo,91.06.03.2038,Biak Timur,Kabupaten,Biak Numfor,Papua
826,98541,Bindusi,91.06.03.2014,Biak Timur,Kabupaten,Biak Numfor,Papua
827,98541,Bosnik Sup,91.06.03.2032,Biak Timur,Kabupaten,Biak Numfor,Papua
828,98541,Inmdi,91.06.03.2039,Biak Timur,Kabupaten,Biak Numfor,Papua
829,98541,Inofi,91.06.03.2033,Biak Timur,Kabupaten,Biak Numfor,Papua
830,98541,Insumamires (Insumarires),91.06.03.2028,Biak Timur,Kabupaten,Biak Numfor,Papua
831,98541,Kajasbo,91.06.03.2017,Biak Timur,Kabupaten,Biak Numfor,Papua
832,98541,Kajasi,91.06.03.2005,Biak Timur,Kabupaten,Biak Numfor,Papua
833,98541,Mandon,91.06.03.2022,Biak Timur,Kabupaten,Biak Numfor,Papua
834,98541,Orwer,91.06.03.2015,Biak Timur,Kabupaten,Biak Numfor,Papua
835,98541,Owi,91.06.03.2003,Biak Timur,Kabupaten,Biak Numfor,Papua
836,98541,Rim,91.06.03.2030,Biak Timur,Kabupaten,Biak Numfor,Papua
837,98541,Rimba Jaya,91.06.03.2002,Biak Timur,Kabupaten,Biak Numfor,Papua
838,98541,Ruar,91.06.03.2021,Biak Timur,Kabupaten,Biak Numfor,Papua
839,98541,Sareidi (Saraeidi),91.06.03.2013,Biak Timur,Kabupaten,Biak Numfor,Papua
840,98541,Seepse (Sepse),91.06.03.2011,Biak Timur,Kabupaten,Biak Numfor,Papua
841,98541,Soon,91.06.03.2012,Biak Timur,Kabupaten,Biak Numfor,Papua
842,98541,Soryar,91.06.03.2023,Biak Timur,Kabupaten,Biak Numfor,Papua
843,98541,Sunde,91.06.03.2010,Biak Timur,Kabupaten,Biak Numfor,Papua
844,98541,Waderbo,91.06.03.2037,Biak Timur,Kabupaten,Biak Numfor,Papua
845,98541,Wasori,91.06.03.2035,Biak Timur,Kabupaten,Biak Numfor,Papua
846,98541,Woniki,91.06.03.2004,Biak Timur,Kabupaten,Biak Numfor,Papua
847,98541,Yenberok,91.06.03.2034,Biak Timur,Kabupaten,Biak Numfor,Papua
848,98541,Yendakem,91.06.03.2036,Biak Timur,Kabupaten,Biak Numfor,Papua
849,98541,Yenusi,91.06.03.2016,Biak Timur,Kabupaten,Biak Numfor,Papua
850,98518,Anggraidi,91.06.01.2014,Biak Kota,Kabupaten,Biak Numfor,Papua
851,98516,Babrinbo,91.06.01.2021,Biak Kota,Kabupaten,Biak Numfor,Papua
852,98513,Burokup (Burokub),91.06.01.1004,Biak Kota,Kabupaten,Biak Numfor,Papua
853,98512,Fandoi,91.06.01.1005,Biak Kota,Kabupaten,Biak Numfor,Papua
854,98519,Inggiri,91.06.01.2010,Biak Kota,Kabupaten,Biak Numfor,Papua
855,98521,Inggupi,91.06.01.2022,Biak Kota,Kabupaten,Biak Numfor,Papua
856,98522,Insrom,91.06.01.2013,Biak Kota,Kabupaten,Biak Numfor,Papua
857,98523,Kababur,91.06.01.2020,Biak Kota,Kabupaten,Biak Numfor,Papua
858,98524,Karyendi,91.06.01.2019,Biak Kota,Kabupaten,Biak Numfor,Papua
859,98511,Mandala,91.06.01.1006,Biak Kota,Kabupaten,Biak Numfor,Papua
860,98525,Manggandisapi,91.06.01.2018,Biak Kota,Kabupaten,Biak Numfor,Papua
861,98526,Manswam (Manswan),91.06.01.2015,Biak Kota,Kabupaten,Biak Numfor,Papua
862,98527,Mnubabo (Ambroben),91.06.01.2007,Biak Kota,Kabupaten,Biak Numfor,Papua
863,98528,Mokmer,91.06.01.2009,Biak Kota,Kabupaten,Biak Numfor,Papua
864,98529,Paray (Parai),91.06.01.2011,Biak Kota,Kabupaten,Biak Numfor,Papua
865,98531,Samau,91.06.01.2012,Biak Kota,Kabupaten,Biak Numfor,Papua
866,98532,Sanumi,91.06.01.2017,Biak Kota,Kabupaten,Biak Numfor,Papua
867,98514,Saramon (Saramom),91.06.01.1003,Biak Kota,Kabupaten,Biak Numfor,Papua
868,98517,Sorido,91.06.01.1001,Biak Kota,Kabupaten,Biak Numfor,Papua
869,98533,Swapodibo,91.06.01.2008,Biak Kota,Kabupaten,Biak Numfor,Papua
870,98515,Waupnor,91.06.01.1002,Biak Kota,Kabupaten,Biak Numfor,Papua
871,98534,Yenures,91.06.01.1016,Biak Kota,Kabupaten,Biak Numfor,Papua
872,98545,Amponbukor,91.06.08.2006,Biak Barat,Kabupaten,Biak Numfor,Papua
873,98545,Andei,91.06.08.2001,Biak Barat,Kabupaten,Biak Numfor,Papua
874,98545,Asarkir,91.06.08.2024,Biak Barat,Kabupaten,Biak Numfor,Papua
875,98545,Asaryendi,91.06.08.2003,Biak Barat,Kabupaten,Biak Numfor,Papua
876,98545,Banasrares,91.06.08.2030,Biak Barat,Kabupaten,Biak Numfor,Papua
877,98545,Dedifu,91.06.08.2032,Biak Barat,Kabupaten,Biak Numfor,Papua
878,98545,Dousi,91.06.08.2025,Biak Barat,Kabupaten,Biak Numfor,Papua
879,98545,Insiri,91.06.08.2021,Biak Barat,Kabupaten,Biak Numfor,Papua
880,98545,Kababur,91.06.08.2009,Biak Barat,Kabupaten,Biak Numfor,Papua
881,98545,Kanaan,91.06.08.2002,Biak Barat,Kabupaten,Biak Numfor,Papua
882,98545,Karnindi,91.06.08.2031,Biak Barat,Kabupaten,Biak Numfor,Papua
883,98545,Mamoribo,91.06.08.2014,Biak Barat,Kabupaten,Biak Numfor,Papua
884,98545,Marisen,91.06.08.2026,Biak Barat,Kabupaten,Biak Numfor,Papua
885,98545,Opuri,91.06.08.2013,Biak Barat,Kabupaten,Biak Numfor,Papua
886,98545,Rarsbari,91.06.08.2029,Biak Barat,Kabupaten,Biak Numfor,Papua
887,98545,Sopendo,91.06.08.2004,Biak Barat,Kabupaten,Biak Numfor,Papua
888,98545,Sopendo Sup Karkir,91.06.08.2033,Biak Barat,Kabupaten,Biak Numfor,Papua
889,98545,Sosmay / Sosmai,91.06.08.2011,Biak Barat,Kabupaten,Biak Numfor,Papua
890,98545,Sumbinya (Sunbinya),91.06.08.2027,Biak Barat,Kabupaten,Biak Numfor,Papua
891,98545,Warberik (Waberik),91.06.08.2010,Biak Barat,Kabupaten,Biak Numfor,Papua
892,98545,Wasyai,91.06.08.2008,Biak Barat,Kabupaten,Biak Numfor,Papua
893,98545,Yomdori,91.06.08.2012,Biak Barat,Kabupaten,Biak Numfor,Papua
894,98683,Baitanasa,91.20.07.2008,Benuki,Kabupaten,Mamberamo Raya,Papua
895,98683,Dadat,91.20.07.2002,Benuki,Kabupaten,Mamberamo Raya,Papua
896,98683,Gesa Baru,91.20.07.2007,Benuki,Kabupaten,Mamberamo Raya,Papua
897,98683,Kamai,91.20.07.2001,Benuki,Kabupaten,Mamberamo Raya,Papua
898,98683,Kerema,91.20.07.2003,Benuki,Kabupaten,Mamberamo Raya,Papua
899,98683,Teuw* (Teuw),91.20.07.2005,Benuki,Kabupaten,Mamberamo Raya,Papua
900,98683,Watiaro,91.20.07.2006,Benuki,Kabupaten,Mamberamo Raya,Papua
901,99472,Amyu,91.11.06.2013,Arso Timur,Kabupaten,Keerom,Papua
902,99472,Kibay,91.11.06.2008,Arso Timur,Kabupaten,Keerom,Papua
903,99472,Kikere (Pikere),91.11.06.2014,Arso Timur,Kabupaten,Keerom,Papua
904,99472,Kriku,91.11.06.2006,Arso Timur,Kabupaten,Keerom,Papua
905,99472,Petewi,91.11.06.2015,Arso Timur,Kabupaten,Keerom,Papua
906,99472,Sangke,91.11.06.2009,Arso Timur,Kabupaten,Keerom,Papua
907,99472,Skofro,91.11.06.2007,Arso Timur,Kabupaten,Keerom,Papua
908,99472,Suskun,91.11.06.2011,Arso Timur,Kabupaten,Keerom,Papua
909,99472,Yetti,91.11.06.2005,Arso Timur,Kabupaten,Keerom,Papua
910,99473,Baburia,91.11.08.2007,Arso Barat,Kabupaten,Keerom,Papua
911,99473,Dukwia,91.11.08.2001,Arso Barat,Kabupaten,Keerom,Papua
912,99473,Ifia-fia,91.11.08.2006,Arso Barat,Kabupaten,Keerom,Papua
913,99473,Sanggaria,91.11.08.2002,Arso Barat,Kabupaten,Keerom,Papua
914,99473,Warbo,91.11.08.2004,Arso Barat,Kabupaten,Keerom,Papua
915,99473,Yammua,91.11.08.2005,Arso Barat,Kabupaten,Keerom,Papua
916,99473,Yatu Raharja,91.11.08.2003,Arso Barat,Kabupaten,Keerom,Papua
917,99473,Yowong,91.11.08.2008,Arso Barat,Kabupaten,Keerom,Papua
918,99471,Arso Kota,91.11.02.2001,Arso,Kabupaten,Keerom,Papua
919,99471,Asyaman,91.11.02.2011,Arso,Kabupaten,Keerom,Papua
920,99471,Bagia,91.11.02.2016,Arso,Kabupaten,Keerom,Papua
921,99471,Bibiosi,91.11.02.2031,Arso,Kabupaten,Keerom,Papua
922,99471,Kwimi,91.11.02.2003,Arso,Kabupaten,Keerom,Papua
923,99471,Sawabuun,91.11.02.2030,Arso,Kabupaten,Keerom,Papua
924,99471,Sawanawa,91.11.02.2006,Arso,Kabupaten,Keerom,Papua
925,99471,Ubiyau,91.11.02.2004,Arso,Kabupaten,Keerom,Papua
926,99471,Workwana,91.11.02.2002,Arso,Kabupaten,Keerom,Papua
927,99471,Yamta,91.11.02.2012,Arso,Kabupaten,Keerom,Papua
928,99471,Yanamaa,91.11.02.2010,Arso,Kabupaten,Keerom,Papua
929,99471,Yuwanain,91.11.02.2009,Arso,Kabupaten,Keerom,Papua
930,99374,Airoran,91.10.09.2004,Apawer Hulu,Kabupaten,Sarmi,Papua
931,99374,Aurimi,91.10.09.2002,Apawer Hulu,Kabupaten,Sarmi,Papua
932,99374,Bina,91.10.09.2014,Apawer Hulu,Kabupaten,Sarmi,Papua
933,99374,Kwawitania,91.10.09.2013,Apawer Hulu,Kabupaten,Sarmi,Papua
934,99374,Maniwa,91.10.09.2011,Apawer Hulu,Kabupaten,Sarmi,Papua
935,99374,Murara,91.10.09.2005,Apawer Hulu,Kabupaten,Sarmi,Papua
936,99374,Sasawapece,91.10.09.2006,Apawer Hulu,Kabupaten,Sarmi,Papua
937,99374,Surimania (Syurimania),91.10.09.2012,Apawer Hulu,Kabupaten,Sarmi,Papua
938,99374,Tamaja (Tamaya),91.10.09.2003,Apawer Hulu,Kabupaten,Sarmi,Papua
939,99374,Wamariri,91.10.09.2001,Apawer Hulu,Kabupaten,Sarmi,Papua
940,98631,Anatorei (Anotaurei),91.05.15.1001,Anotaurei,Kabupaten,Kepulauan Yapen,Papua
941,98631,Famboaman,91.05.15.2005,Anotaurei,Kabupaten,Kepulauan Yapen,Papua
942,98631,Kandowarira,91.05.15.2006,Anotaurei,Kabupaten,Kepulauan Yapen,Papua
943,98631,Ketu Api,91.05.15.2001,Anotaurei,Kabupaten,Kepulauan Yapen,Papua
944,98631,Mantembu,91.05.15.2004,Anotaurei,Kabupaten,Kepulauan Yapen,Papua
945,98631,Mariaderi,91.05.15.2002,Anotaurei,Kabupaten,Kepulauan Yapen,Papua
946,98631,Warari,91.05.15.2007,Anotaurei,Kabupaten,Kepulauan Yapen,Papua
947,98631,Yapan,91.05.15.2003,Anotaurei,Kabupaten,Kepulauan Yapen,Papua
948,98655,Aitiri,91.05.04.2010,Angkaisera,Kabupaten,Kepulauan Yapen,Papua
949,98655,Kainui I,91.05.04.2009,Angkaisera,Kabupaten,Kepulauan Yapen,Papua
950,98655,Kainui II,91.05.04.2021,Angkaisera,Kabupaten,Kepulauan Yapen,Papua
951,98655,Mananayam,91.05.04.2028,Angkaisera,Kabupaten,Kepulauan Yapen,Papua
952,98655,Menawi,91.05.04.2003,Angkaisera,Kabupaten,Kepulauan Yapen,Papua
953,98655,Ransarnoni,91.05.04.2016,Angkaisera,Kabupaten,Kepulauan Yapen,Papua
954,98655,Roipi,91.05.04.2015,Angkaisera,Kabupaten,Kepulauan Yapen,Papua
955,98655,Roipi Dua,91.05.04.2030,Angkaisera,Kabupaten,Kepulauan Yapen,Papua
956,98655,Wadapi,91.05.04.2004,Angkaisera,Kabupaten,Kepulauan Yapen,Papua
957,98655,Wanampompi,91.05.04.2024,Angkaisera,Kabupaten,Kepulauan Yapen,Papua
958,98655,Wawuti,91.05.04.2011,Angkaisera,Kabupaten,Kepulauan Yapen,Papua
959,98543,Armnu,91.06.14.2009,Andey,Kabupaten,Biak Numfor,Papua
960,98543,Dasdo,91.06.14.2012,Andey,Kabupaten,Biak Numfor,Papua
961,98543,Faknikdi,91.06.14.2008,Andey,Kabupaten,Biak Numfor,Papua
962,98543,Mamorbo,91.06.14.2007,Andey,Kabupaten,Biak Numfor,Papua
963,98543,Rodifu,91.06.14.2003,Andey,Kabupaten,Biak Numfor,Papua
964,98543,Rumbin,91.06.14.2001,Andey,Kabupaten,Biak Numfor,Papua
965,98543,Sup Mbrur,91.06.14.2010,Andey,Kabupaten,Biak Numfor,Papua
966,98543,Warbinsi,91.06.14.2002,Andey,Kabupaten,Biak Numfor,Papua
967,98543,Wodu,91.06.14.2011,Andey,Kabupaten,Biak Numfor,Papua
968,98543,Wonabraidi,91.06.14.2004,Andey,Kabupaten,Biak Numfor,Papua
969,98543,Wouna,91.06.14.2005,Andey,Kabupaten,Biak Numfor,Papua
970,99363,Aurina,91.03.16.2003,Airu,Kabupaten,Jayapura,Papua
971,99363,Hulu Atas,91.03.16.2001,Airu,Kabupaten,Jayapura,Papua
972,99363,Kamikaru,91.03.16.2005,Airu,Kabupaten,Jayapura,Papua
973,99363,Muara Nawa (Muarah Mawa),91.03.16.2004,Airu,Kabupaten,Jayapura,Papua
974,99363,Naira,91.03.16.2006,Airu,Kabupaten,Jayapura,Papua
975,99363,Pagai,91.03.16.2002,Airu,Kabupaten,Jayapura,Papua
976,98555,Anobo,91.06.19.2012,Aimando Padaido,Kabupaten,Biak Numfor,Papua
977,98555,Karabai,91.06.19.2006,Aimando Padaido,Kabupaten,Biak Numfor,Papua
978,98555,Mbromsi,91.06.19.2005,Aimando Padaido,Kabupaten,Biak Numfor,Papua
979,98555,Mios Mangguandi,91.06.19.2001,Aimando Padaido,Kabupaten,Biak Numfor,Papua
980,98555,Nyansoren,91.06.19.2008,Aimando Padaido,Kabupaten,Biak Numfor,Papua
981,98555,Padaido,91.06.19.2010,Aimando Padaido,Kabupaten,Biak Numfor,Papua
982,98555,Pasi,91.06.19.2004,Aimando Padaido,Kabupaten,Biak Numfor,Papua
983,98555,Samber Pasi,91.06.19.2003,Aimando Padaido,Kabupaten,Biak Numfor,Papua
984,98555,Saribra,91.06.19.2007,Aimando Padaido,Kabupaten,Biak Numfor,Papua
985,98555,Sasarari (Sasari),91.06.19.2009,Aimando Padaido,Kabupaten,Biak Numfor,Papua
986,98555,Supraima,91.06.19.2002,Aimando Padaido,Kabupaten,Biak Numfor,Papua
987,98555,Yen Manaina,91.06.19.2013,Aimando Padaido,Kabupaten,Biak Numfor,Papua
988,98555,Yeri,91.06.19.2011,Aimando Padaido,Kabupaten,Biak Numfor,Papua
989,99321,Abepantai,91.71.03.1011,Abepura,Kota,Jayapura,Papua
990,99322,Asano,91.71.03.1002,Abepura,Kota,Jayapura,Papua
991,99323,Awiyo,91.71.03.1008,Abepura,Kota,Jayapura,Papua
992,99324,Engros (Enggros),91.71.03.2004,Abepura,Kota,Jayapura,Papua
993,99325,Kota Baru,91.71.03.1012,Abepura,Kota,Jayapura,Papua
994,99326,Koya Koso,91.71.03.2007,Abepura,Kota,Jayapura,Papua
995,99327,Nafri,91.71.03.2001,Abepura,Kota,Jayapura,Papua
996,99225,Vim,91.71.03.1014,Abepura,Kota,Jayapura,Papua
997,99226,Wahno,91.71.03.1015,Abepura,Kota,Jayapura,Papua
998,99229,Way Mhorock,91.71.03.1016,Abepura,Kota,Jayapura,Papua
999,99329,Yobe,91.71.03.1010,Abepura,Kota,Jayapura,Papua