no,postal_code,urban,area_code,sub_district,dt2,city,province
1,98979,Agenggen,94.05.17.2002,Yugumuak,Kabupaten,Puncak,Papua Tengah
2,98979,Jerusalem,94.05.17.2009,Yugumuak,Kabupaten,Puncak,Papua Tengah
3,98979,Lambera,94.05.17.2005,Yugumuak,Kabupaten,Puncak,Papua Tengah
4,98979,Manggame,94.05.17.2008,Yugumuak,Kabupaten,Puncak,Papua Tengah
5,98979,Mugalolo,94.05.17.2007,Yugumuak,Kabupaten,Puncak,Papua Tengah
6,98979,Pamebut,94.05.17.2001,Yugumuak,Kabupaten,Puncak,Papua Tengah
7,98979,Wilewak,94.05.17.2004,Yugumuak,Kabupaten,Puncak,Papua Tengah
8,98979,Wiyabubu,94.05.17.2010,Yugumuak,Kabupaten,Puncak,Papua Tengah
9,98979,Wobulo,94.05.17.2006,Yugumuak,Kabupaten,Puncak,Papua Tengah
10,98979,Yugumuak,94.05.17.2003,Yugumuak,Kabupaten,Puncak,Papua Tengah
11,98737,Dokoneida,94.03.18.2005,Youtadi,Kabupaten,Paniai,Papua Tengah
12,98737,Ipouwa,94.03.18.2003,Youtadi,Kabupaten,Paniai,Papua Tengah
13,98737,Munaiyepa,94.03.18.2004,Youtadi,Kabupaten,Paniai,Papua Tengah
14,98737,Namutadi,94.03.18.2006,Youtadi,Kabupaten,Paniai,Papua Tengah
15,98737,Uwagi,94.03.18.2002,Youtadi,Kabupaten,Paniai,Papua Tengah
16,98737,Youtadi,94.03.18.2001,Youtadi,Kabupaten,Paniai,Papua Tengah
17,98852,Akudiomi (Akuidiomi),94.01.03.2002,Yaur,Kabupaten,Nabire,Papua Tengah
18,98852,Sima,94.01.03.2004,Yaur,Kabupaten,Nabire,Papua Tengah
19,98852,Wami (Wamijaya),94.01.03.2008,Yaur,Kabupaten,Nabire,Papua Tengah
20,98852,Yaur,94.01.03.2001,Yaur,Kabupaten,Nabire,Papua Tengah
21,98726,Dimiya,94.03.09.2004,Yatamo,Kabupaten,Paniai,Papua Tengah
22,98726,Keniapa,94.03.09.2002,Yatamo,Kabupaten,Paniai,Papua Tengah
23,98726,Memiyaibutu,94.03.09.2003,Yatamo,Kabupaten,Paniai,Papua Tengah
24,98726,Udaugi,94.03.09.2005,Yatamo,Kabupaten,Paniai,Papua Tengah
25,98726,Wotai,94.03.09.2001,Yatamo,Kabupaten,Paniai,Papua Tengah
26,98853,Bomopai,94.01.10.2007,Yaro,Kabupaten,Nabire,Papua Tengah
27,98853,Jaya Mukti,94.01.10.2004,Yaro,Kabupaten,Nabire,Papua Tengah
28,98853,Ororodo,94.01.10.2006,Yaro,Kabupaten,Nabire,Papua Tengah
29,98853,Parauto,94.01.10.2008,Yaro,Kabupaten,Nabire,Papua Tengah
30,98853,Wanggar Pantai,94.01.10.2005,Yaro,Kabupaten,Nabire,Papua Tengah
31,98853,Wanggar Sari,94.01.10.2001,Yaro,Kabupaten,Nabire,Papua Tengah
32,98853,Wiraska,94.01.10.2002,Yaro,Kabupaten,Nabire,Papua Tengah
33,98853,Yaro Makmur,94.01.10.2003,Yaro,Kabupaten,Nabire,Papua Tengah
34,98937,Amberiambut,94.02.20.2001,Yamoneri,Kabupaten,Puncak Jaya,Papua Tengah
35,98937,Bunume,94.02.20.2011,Yamoneri,Kabupaten,Puncak Jaya,Papua Tengah
36,98937,Digolome,94.02.20.2010,Yamoneri,Kabupaten,Puncak Jaya,Papua Tengah
37,98937,Gumawi,94.02.20.2009,Yamoneri,Kabupaten,Puncak Jaya,Papua Tengah
38,98937,Jembeneri,94.02.20.2013,Yamoneri,Kabupaten,Puncak Jaya,Papua Tengah
39,98937,Jibonok,94.02.20.2016,Yamoneri,Kabupaten,Puncak Jaya,Papua Tengah
40,98937,Jigelo,94.02.20.2014,Yamoneri,Kabupaten,Puncak Jaya,Papua Tengah
41,98937,Jiguluk,94.02.20.2007,Yamoneri,Kabupaten,Puncak Jaya,Papua Tengah
42,98937,Jimbanime,94.02.20.2006,Yamoneri,Kabupaten,Puncak Jaya,Papua Tengah
43,98937,Kobarak,94.02.20.2002,Yamoneri,Kabupaten,Puncak Jaya,Papua Tengah
44,98937,Moulo,94.02.20.2005,Yamoneri,Kabupaten,Puncak Jaya,Papua Tengah
45,98937,Ngginigum,94.02.20.2012,Yamoneri,Kabupaten,Puncak Jaya,Papua Tengah
46,98937,Piyapigi,94.02.20.2015,Yamoneri,Kabupaten,Puncak Jaya,Papua Tengah
47,98937,Wugiwagi,94.02.20.2003,Yamoneri,Kabupaten,Puncak Jaya,Papua Tengah
48,98937,Yagaluk,94.02.20.2004,Yamoneri,Kabupaten,Puncak Jaya,Papua Tengah
49,98937,Yamoneri,94.02.20.2008,Yamoneri,Kabupaten,Puncak Jaya,Papua Tengah
50,98925,Binime,94.02.05.2007,Yamo,Kabupaten,Puncak Jaya,Papua Tengah
51,98925,Gibaga,94.02.05.2021,Yamo,Kabupaten,Puncak Jaya,Papua Tengah
52,98925,Goyage,94.02.05.2009,Yamo,Kabupaten,Puncak Jaya,Papua Tengah
53,98925,Kabilimbut,94.02.05.2010,Yamo,Kabupaten,Puncak Jaya,Papua Tengah
54,98925,Kwatineri,94.02.05.2030,Yamo,Kabupaten,Puncak Jaya,Papua Tengah
55,98925,Linwakwi,94.02.05.2023,Yamo,Kabupaten,Puncak Jaya,Papua Tengah
56,98925,Muara,94.02.05.2018,Yamo,Kabupaten,Puncak Jaya,Papua Tengah
57,98925,Nami,94.02.05.2022,Yamo,Kabupaten,Puncak Jaya,Papua Tengah
58,98925,Tiogeme,94.02.05.2008,Yamo,Kabupaten,Puncak Jaya,Papua Tengah
59,98925,Wolame,94.02.05.2017,Yamo,Kabupaten,Puncak Jaya,Papua Tengah
60,98925,Wundu,94.02.05.2006,Yamo,Kabupaten,Puncak Jaya,Papua Tengah
61,98925,Yambuni,94.02.05.2003,Yamo,Kabupaten,Puncak Jaya,Papua Tengah
62,98925,Yileyale,94.02.05.2031,Yamo,Kabupaten,Puncak Jaya,Papua Tengah
63,98925,Yogolawi,94.02.05.2005,Yamo,Kabupaten,Puncak Jaya,Papua Tengah
64,98917,Dangenpaga,94.02.14.2006,Yambi,Kabupaten,Puncak Jaya,Papua Tengah
65,98917,Ginigom,94.02.14.2005,Yambi,Kabupaten,Puncak Jaya,Papua Tengah
66,98917,Mondu,94.02.14.2001,Yambi,Kabupaten,Puncak Jaya,Papua Tengah
67,98917,Moulo,94.02.14.2003,Yambi,Kabupaten,Puncak Jaya,Papua Tengah
68,98917,Tenolok,94.02.14.2004,Yambi,Kabupaten,Puncak Jaya,Papua Tengah
69,98917,Tirineri,94.02.14.2009,Yambi,Kabupaten,Puncak Jaya,Papua Tengah
70,98917,Wonome,94.02.14.2007,Yambi,Kabupaten,Puncak Jaya,Papua Tengah
71,98917,Yambi,94.02.14.2002,Yambi,Kabupaten,Puncak Jaya,Papua Tengah
72,98917,Yoboluk,94.02.14.2008,Yambi,Kabupaten,Puncak Jaya,Papua Tengah
73,98718,Aweubutu,94.03.17.2003,Yagai,Kabupaten,Paniai,Papua Tengah
74,98718,Detauwo,94.03.17.2008,Yagai,Kabupaten,Paniai,Papua Tengah
75,98718,Ipuwa,94.03.17.2004,Yagai,Kabupaten,Paniai,Papua Tengah
76,98718,Kebo I,94.03.17.2006,Yagai,Kabupaten,Paniai,Papua Tengah
77,98718,Munaiyepa (Muniyepa),94.03.17.2005,Yagai,Kabupaten,Paniai,Papua Tengah
78,98718,Panibagata,94.03.17.2001,Yagai,Kabupaten,Paniai,Papua Tengah
79,98718,Payogei,94.03.17.2007,Yagai,Kabupaten,Paniai,Papua Tengah
80,98718,Pugaida,94.03.17.2002,Yagai,Kabupaten,Paniai,Papua Tengah
81,98718,Woyouto,94.03.17.2010,Yagai,Kabupaten,Paniai,Papua Tengah
82,98718,Yaibu,94.03.17.2009,Yagai,Kabupaten,Paniai,Papua Tengah
83,98717,Badawo,94.03.11.1006,Wegee Muka,Kabupaten,Paniai,Papua Tengah
84,98717,Geko,94.03.11.2007,Wegee Muka,Kabupaten,Paniai,Papua Tengah
85,98717,Kinou,94.03.11.2008,Wegee Muka,Kabupaten,Paniai,Papua Tengah
86,98717,Kobouyagapa,94.03.11.2005,Wegee Muka,Kabupaten,Paniai,Papua Tengah
87,98717,Kugitadi,94.03.11.2004,Wegee Muka,Kabupaten,Paniai,Papua Tengah
88,98717,Muyadebe,94.03.11.2002,Wegee Muka,Kabupaten,Paniai,Papua Tengah
89,98717,Obaidagi,94.03.11.2011,Wegee Muka,Kabupaten,Paniai,Papua Tengah
90,98717,Toko,94.03.11.2009,Wegee Muka,Kabupaten,Paniai,Papua Tengah
91,98717,Uwamani,94.03.11.2001,Wegee Muka,Kabupaten,Paniai,Papua Tengah
92,98717,Woubutu,94.03.11.2003,Wegee Muka,Kabupaten,Paniai,Papua Tengah
93,98717,Yagiyo Butu,94.03.11.2010,Wegee Muka,Kabupaten,Paniai,Papua Tengah
94,98716,Boutai,94.03.12.2008,Wegee Bino,Kabupaten,Paniai,Papua Tengah
95,98716,Bubugiwo,94.03.12.2003,Wegee Bino,Kabupaten,Paniai,Papua Tengah
96,98716,Buka Duwata,94.03.12.2009,Wegee Bino,Kabupaten,Paniai,Papua Tengah
97,98716,Dagouto,94.03.12.2006,Wegee Bino,Kabupaten,Paniai,Papua Tengah
98,98716,Dei,94.03.12.2001,Wegee Bino,Kabupaten,Paniai,Papua Tengah
99,98716,Kopabutu,94.03.12.2007,Wegee Bino,Kabupaten,Paniai,Papua Tengah
100,98716,Obaiyoweta,94.03.12.2002,Wegee Bino,Kabupaten,Paniai,Papua Tengah
101,98716,Tamugauwo,94.03.12.2005,Wegee Bino,Kabupaten,Paniai,Papua Tengah
102,98716,Yimouto,94.03.12.2004,Wegee Bino,Kabupaten,Paniai,Papua Tengah
103,98861,Kamarisanoi,94.01.11.2003,Wapoga,Kabupaten,Nabire,Papua Tengah
104,98861,Keuw,94.01.11.2005,Wapoga,Kabupaten,Nabire,Papua Tengah
105,98861,Samanui,94.01.11.2002,Wapoga,Kabupaten,Nabire,Papua Tengah
106,98861,Taumi,94.01.11.2004,Wapoga,Kabupaten,Nabire,Papua Tengah
107,98861,Totoberi,94.01.11.2001,Wapoga,Kabupaten,Nabire,Papua Tengah
108,98923,Anggagalo,94.02.19.2012,Wanwi,Kabupaten,Puncak Jaya,Papua Tengah
109,98923,Anggalo,94.02.19.2013,Wanwi,Kabupaten,Puncak Jaya,Papua Tengah
110,98923,Anggege,94.02.19.2004,Wanwi,Kabupaten,Puncak Jaya,Papua Tengah
111,98923,Bime,94.02.19.2003,Wanwi,Kabupaten,Puncak Jaya,Papua Tengah
112,98923,Bunaluk,94.02.19.2016,Wanwi,Kabupaten,Puncak Jaya,Papua Tengah
113,98923,Gereja Lama,94.02.19.2017,Wanwi,Kabupaten,Puncak Jaya,Papua Tengah
114,98923,Gibume,94.02.19.2009,Wanwi,Kabupaten,Puncak Jaya,Papua Tengah
115,98923,Kiburu,94.02.19.2006,Wanwi,Kabupaten,Puncak Jaya,Papua Tengah
116,98923,Naburage,94.02.19.2010,Wanwi,Kabupaten,Puncak Jaya,Papua Tengah
117,98923,Nenegame,94.02.19.2002,Wanwi,Kabupaten,Puncak Jaya,Papua Tengah
118,98923,Nuwi,94.02.19.2007,Wanwi,Kabupaten,Puncak Jaya,Papua Tengah
119,98923,Pernaluk,94.02.19.2005,Wanwi,Kabupaten,Puncak Jaya,Papua Tengah
120,98923,Piyabigimbut,94.02.19.2015,Wanwi,Kabupaten,Puncak Jaya,Papua Tengah
121,98923,Ponggoname,94.02.19.2008,Wanwi,Kabupaten,Puncak Jaya,Papua Tengah
122,98923,Wiyage,94.02.19.2014,Wanwi,Kabupaten,Puncak Jaya,Papua Tengah
123,98923,Wonwi,94.02.19.2001,Wanwi,Kabupaten,Puncak Jaya,Papua Tengah
124,98923,Yunggwi,94.02.19.2011,Wanwi,Kabupaten,Puncak Jaya,Papua Tengah
125,99963,Inauga,94.04.16.1005,Wania,Kabupaten,Mimika,Papua Tengah
126,99963,Kadun Jaya,94.04.16.2001,Wania,Kabupaten,Mimika,Papua Tengah
127,99963,Kamoro Jaya,94.04.16.1002,Wania,Kabupaten,Mimika,Papua Tengah
128,99963,Mandiri Jaya,94.04.16.2007,Wania,Kabupaten,Mimika,Papua Tengah
129,99963,Mawokau Jaya,94.04.16.2006,Wania,Kabupaten,Mimika,Papua Tengah
130,99963,Nawaripi,94.04.16.2004,Wania,Kabupaten,Mimika,Papua Tengah
131,99963,Wonosari Jaya,94.04.16.1003,Wania,Kabupaten,Mimika,Papua Tengah
132,98854,Bumi Mulia (Bumi Mulya / Bumimulia),94.01.05.2001,Wanggar,Kabupaten,Nabire,Papua Tengah
133,98854,Karadiri,94.01.05.2010,Wanggar,Kabupaten,Nabire,Papua Tengah
134,98854,Wanggar Makmur,94.01.05.2013,Wanggar,Kabupaten,Nabire,Papua Tengah
135,98955,Ailpailin,94.05.02.2010,Wangbe,Kabupaten,Puncak,Papua Tengah
136,98955,Jindak,94.05.02.2003,Wangbe,Kabupaten,Puncak,Papua Tengah
137,98955,Marilaukin,94.05.02.2009,Wangbe,Kabupaten,Puncak,Papua Tengah
138,98955,Mongkoihol,94.05.02.2014,Wangbe,Kabupaten,Puncak,Papua Tengah
139,98955,Nagaljagama,94.05.02.2013,Wangbe,Kabupaten,Puncak,Papua Tengah
140,98955,Nangi,94.05.02.2015,Wangbe,Kabupaten,Puncak,Papua Tengah
141,98955,Pungki,94.05.02.2004,Wangbe,Kabupaten,Puncak,Papua Tengah
142,98955,Ulipia,94.05.02.2008,Wangbe,Kabupaten,Puncak,Papua Tengah
143,98955,Wangbe,94.05.02.2001,Wangbe,Kabupaten,Puncak,Papua Tengah
144,98955,Wonalbe,94.05.02.2005,Wangbe,Kabupaten,Puncak,Papua Tengah
145,98955,Wungbet,94.05.02.2012,Wangbe,Kabupaten,Puncak,Papua Tengah
146,98785,Debasiga,94.07.03.2003,Wandai,Kabupaten,Intan Jaya,Papua Tengah
147,98785,Debasiga Dua,94.07.03.2004,Wandai,Kabupaten,Intan Jaya,Papua Tengah
148,98785,Dubandoga (Dubasiga),94.07.03.2002,Wandai,Kabupaten,Intan Jaya,Papua Tengah
149,98785,Hulapuga,94.07.03.2009,Wandai,Kabupaten,Intan Jaya,Papua Tengah
150,98785,Isandoga,94.07.03.2005,Wandai,Kabupaten,Intan Jaya,Papua Tengah
151,98785,Jae,94.07.03.2007,Wandai,Kabupaten,Intan Jaya,Papua Tengah
152,98785,Mbugulo,94.07.03.2008,Wandai,Kabupaten,Intan Jaya,Papua Tengah
153,98785,Mogalo,94.07.03.2006,Wandai,Kabupaten,Intan Jaya,Papua Tengah
154,98785,Sabisa,94.07.03.2001,Wandai,Kabupaten,Intan Jaya,Papua Tengah
155,98936,Agopaga,94.02.21.2002,Waegi,Kabupaten,Puncak Jaya,Papua Tengah
156,98936,Ambit-Mbit,94.02.21.2018,Waegi,Kabupaten,Puncak Jaya,Papua Tengah
157,98936,Andiron,94.02.21.2017,Waegi,Kabupaten,Puncak Jaya,Papua Tengah
158,98936,Anggutare,94.02.21.2001,Waegi,Kabupaten,Puncak Jaya,Papua Tengah
159,98936,Aulakme,94.02.21.2019,Waegi,Kabupaten,Puncak Jaya,Papua Tengah
160,98936,Ginilome,94.02.21.2005,Waegi,Kabupaten,Puncak Jaya,Papua Tengah
161,98936,Jimbinggame,94.02.21.2008,Waegi,Kabupaten,Puncak Jaya,Papua Tengah
162,98936,Jiogobak,94.02.21.2013,Waegi,Kabupaten,Puncak Jaya,Papua Tengah
163,98936,Lerawera,94.02.21.2003,Waegi,Kabupaten,Puncak Jaya,Papua Tengah
164,98936,Mondogoneri,94.02.21.2015,Waegi,Kabupaten,Puncak Jaya,Papua Tengah
165,98936,Nakongwe,94.02.21.2004,Waegi,Kabupaten,Puncak Jaya,Papua Tengah
166,98936,Oriluk,94.02.21.2009,Waegi,Kabupaten,Puncak Jaya,Papua Tengah
167,98936,Pagargom,94.02.21.2010,Waegi,Kabupaten,Puncak Jaya,Papua Tengah
168,98936,Tenolok,94.02.21.2012,Waegi,Kabupaten,Puncak Jaya,Papua Tengah
169,98936,Tenomanggen,94.02.21.2016,Waegi,Kabupaten,Puncak Jaya,Papua Tengah
170,98936,Tirigoi,94.02.21.2014,Waegi,Kabupaten,Puncak Jaya,Papua Tengah
171,98936,Towoluk,94.02.21.2011,Waegi,Kabupaten,Puncak Jaya,Papua Tengah
172,98936,Wurunikme (Wurungkime),94.02.21.2007,Waegi,Kabupaten,Puncak Jaya,Papua Tengah
173,98936,Yalibate,94.02.21.2006,Waegi,Kabupaten,Puncak Jaya,Papua Tengah
174,98842,Argo Mulyo (Argomulyo),94.01.04.2016,Uwapa,Kabupaten,Nabire,Papua Tengah
175,98842,Gamei Jaya,94.01.04.2018,Uwapa,Kabupaten,Nabire,Papua Tengah
176,98842,Marga Jaya (Margajaya),94.01.04.2015,Uwapa,Kabupaten,Nabire,Papua Tengah
177,98842,Topo,94.01.04.2005,Uwapa,Kabupaten,Nabire,Papua Tengah
178,98842,Topo Jaya,94.01.04.2017,Uwapa,Kabupaten,Nabire,Papua Tengah
179,98842,Urumusu,94.01.04.2013,Uwapa,Kabupaten,Nabire,Papua Tengah
180,98794,Bunaopa,94.07.07.2002,Ugimba,Kabupaten,Intan Jaya,Papua Tengah
181,98794,Dukendopa,94.07.07.2005,Ugimba,Kabupaten,Intan Jaya,Papua Tengah
182,98794,Nggamagae,94.07.07.2006,Ugimba,Kabupaten,Intan Jaya,Papua Tengah
183,98794,Pigabu,94.07.07.2003,Ugimba,Kabupaten,Intan Jaya,Papua Tengah
184,98794,Teteopa,94.07.07.2004,Ugimba,Kabupaten,Intan Jaya,Papua Tengah
185,98794,Ugimba,94.07.07.2001,Ugimba,Kabupaten,Intan Jaya,Papua Tengah
186,98926,Ambok,94.02.07.2003,Torere,Kabupaten,Puncak Jaya,Papua Tengah
187,98926,Asua,94.02.07.2012,Torere,Kabupaten,Puncak Jaya,Papua Tengah
188,98926,Awiyam,94.02.07.2004,Torere,Kabupaten,Puncak Jaya,Papua Tengah
189,98926,Degei,94.02.07.2013,Torere,Kabupaten,Puncak Jaya,Papua Tengah
190,98926,Digi,94.02.07.2007,Torere,Kabupaten,Puncak Jaya,Papua Tengah
191,98926,Gubugani,94.02.07.2001,Torere,Kabupaten,Puncak Jaya,Papua Tengah
192,98926,Gunung Tayok,94.02.07.2009,Torere,Kabupaten,Puncak Jaya,Papua Tengah
193,98926,Kikup,94.02.07.2008,Torere,Kabupaten,Puncak Jaya,Papua Tengah
194,98926,Nalu,94.02.07.2015,Torere,Kabupaten,Puncak Jaya,Papua Tengah
195,98926,Nambu,94.02.07.2011,Torere,Kabupaten,Puncak Jaya,Papua Tengah
196,98926,Sigou,94.02.07.2014,Torere,Kabupaten,Puncak Jaya,Papua Tengah
197,98926,Tubugime,94.02.07.2005,Torere,Kabupaten,Puncak Jaya,Papua Tengah
198,98926,Wariru,94.02.07.2006,Torere,Kabupaten,Puncak Jaya,Papua Tengah
199,98734,Debakebouda,94.03.23.2005,Topiyai,Kabupaten,Paniai,Papua Tengah
200,98734,Ekauwiya,94.03.23.2004,Topiyai,Kabupaten,Paniai,Papua Tengah
201,98734,Eyagitaida,94.03.23.2002,Topiyai,Kabupaten,Paniai,Papua Tengah
202,98734,Gakokotu,94.03.23.2009,Topiyai,Kabupaten,Paniai,Papua Tengah
203,98734,Kaidoutadi,94.03.23.2006,Topiyai,Kabupaten,Paniai,Papua Tengah
204,98734,Kegama,94.03.23.2010,Topiyai,Kabupaten,Paniai,Papua Tengah
205,98734,Momageida,94.03.23.2003,Topiyai,Kabupaten,Paniai,Papua Tengah
206,98734,Obaipugaida,94.03.23.2001,Topiyai,Kabupaten,Paniai,Papua Tengah
207,98734,Okonobaida,94.03.23.2008,Topiyai,Kabupaten,Paniai,Papua Tengah
208,98734,Pogeidimi,94.03.23.2007,Topiyai,Kabupaten,Paniai,Papua Tengah
209,98783,Bigasiga,94.07.08.2002,Tomosiga,Kabupaten,Intan Jaya,Papua Tengah
210,98783,Dapiaga,94.07.08.2003,Tomosiga,Kabupaten,Intan Jaya,Papua Tengah
211,98783,Duginggobo,94.07.08.2008,Tomosiga,Kabupaten,Intan Jaya,Papua Tengah
212,98783,Gaimigi,94.07.08.2006,Tomosiga,Kabupaten,Intan Jaya,Papua Tengah
213,98783,Hegenagai,94.07.08.2005,Tomosiga,Kabupaten,Intan Jaya,Papua Tengah
214,98783,Jawasiga,94.07.08.2007,Tomosiga,Kabupaten,Intan Jaya,Papua Tengah
215,98783,Pewesiga,94.07.08.2004,Tomosiga,Kabupaten,Intan Jaya,Papua Tengah
216,98783,Sugulubagala,94.07.08.2009,Tomosiga,Kabupaten,Intan Jaya,Papua Tengah
217,98783,Tomosiga,94.07.08.2001,Tomosiga,Kabupaten,Intan Jaya,Papua Tengah
218,98922,Berime,94.02.08.2072,Tingginambut,Kabupaten,Puncak Jaya,Papua Tengah
219,98922,Bigirage,94.02.08.2031,Tingginambut,Kabupaten,Puncak Jaya,Papua Tengah
220,98922,Degi,94.02.08.2025,Tingginambut,Kabupaten,Puncak Jaya,Papua Tengah
221,98922,Gigume,94.02.08.2018,Tingginambut,Kabupaten,Puncak Jaya,Papua Tengah
222,98922,Gimanggen,94.02.08.2022,Tingginambut,Kabupaten,Puncak Jaya,Papua Tengah
223,98922,Gobak,94.02.08.2035,Tingginambut,Kabupaten,Puncak Jaya,Papua Tengah
224,98922,Gubupur,94.02.08.2071,Tingginambut,Kabupaten,Puncak Jaya,Papua Tengah
225,98922,Inikimaluk,94.02.08.2033,Tingginambut,Kabupaten,Puncak Jaya,Papua Tengah
226,98922,Jugumbelawi,94.02.08.2026,Tingginambut,Kabupaten,Puncak Jaya,Papua Tengah
227,98922,Lumbuk,94.02.08.2032,Tingginambut,Kabupaten,Puncak Jaya,Papua Tengah
228,98922,Melekom,94.02.08.2010,Tingginambut,Kabupaten,Puncak Jaya,Papua Tengah
229,98922,Monia,94.02.08.2003,Tingginambut,Kabupaten,Puncak Jaya,Papua Tengah
230,98922,Papua,94.02.08.2019,Tingginambut,Kabupaten,Puncak Jaya,Papua Tengah
231,98922,Paralo,94.02.08.2027,Tingginambut,Kabupaten,Puncak Jaya,Papua Tengah
232,98922,Tingginambut,94.02.08.2008,Tingginambut,Kabupaten,Puncak Jaya,Papua Tengah
233,98922,Tinggineri,94.02.08.2002,Tingginambut,Kabupaten,Puncak Jaya,Papua Tengah
234,98922,Tingginime,94.02.08.2020,Tingginambut,Kabupaten,Puncak Jaya,Papua Tengah
235,98922,Tombo,94.02.08.2021,Tingginambut,Kabupaten,Puncak Jaya,Papua Tengah
236,98922,Uragi,94.02.08.2023,Tingginambut,Kabupaten,Puncak Jaya,Papua Tengah
237,98922,Womelagandan,94.02.08.2028,Tingginambut,Kabupaten,Puncak Jaya,Papua Tengah
238,98922,Yamengga,94.02.08.2024,Tingginambut,Kabupaten,Puncak Jaya,Papua Tengah
239,98922,Yonggun,94.02.08.2034,Tingginambut,Kabupaten,Puncak Jaya,Papua Tengah
240,98771,Bagou,94.08.02.2006,Tigi Timur,Kabupaten,Deiyai,Papua Tengah
241,98771,Bagou II,94.08.02.2013,Tigi Timur,Kabupaten,Deiyai,Papua Tengah
242,98771,Bagumoma,94.08.02.2011,Tigi Timur,Kabupaten,Deiyai,Papua Tengah
243,98771,Dagokebo,94.08.02.2007,Tigi Timur,Kabupaten,Deiyai,Papua Tengah
244,98771,Dakebo,94.08.02.2005,Tigi Timur,Kabupaten,Deiyai,Papua Tengah
245,98771,Damabagata,94.08.02.2001,Tigi Timur,Kabupaten,Deiyai,Papua Tengah
246,98771,Edagotadi,94.08.02.2004,Tigi Timur,Kabupaten,Deiyai,Papua Tengah
247,98771,Idayodagi,94.08.02.2014,Tigi Timur,Kabupaten,Deiyai,Papua Tengah
248,98771,Ipoke,94.08.02.2008,Tigi Timur,Kabupaten,Deiyai,Papua Tengah
249,98771,Kokobaya,94.08.02.2002,Tigi Timur,Kabupaten,Deiyai,Papua Tengah
250,98771,Pekepa,94.08.02.2010,Tigi Timur,Kabupaten,Deiyai,Papua Tengah
251,98771,Udaugida,94.08.02.2012,Tigi Timur,Kabupaten,Deiyai,Papua Tengah
252,98771,Waitakotu,94.08.02.2009,Tigi Timur,Kabupaten,Deiyai,Papua Tengah
253,98771,Watiyai,94.08.02.2003,Tigi Timur,Kabupaten,Deiyai,Papua Tengah
254,98761,Ayatei,94.08.04.2008,Tigi Barat,Kabupaten,Deiyai,Papua Tengah
255,98761,Demago,94.08.04.2002,Tigi Barat,Kabupaten,Deiyai,Papua Tengah
256,98761,Digibagata,94.08.04.2006,Tigi Barat,Kabupaten,Deiyai,Papua Tengah
257,98761,Digikotu,94.08.04.2019,Tigi Barat,Kabupaten,Deiyai,Papua Tengah
258,98761,Diyai,94.08.04.2010,Tigi Barat,Kabupaten,Deiyai,Papua Tengah
259,98761,Diyai II,94.08.04.2016,Tigi Barat,Kabupaten,Deiyai,Papua Tengah
260,98761,Epanai,94.08.04.2022,Tigi Barat,Kabupaten,Deiyai,Papua Tengah
261,98761,Gakokebo,94.08.04.2001,Tigi Barat,Kabupaten,Deiyai,Papua Tengah
262,98761,Jinidaba,94.08.04.2011,Tigi Barat,Kabupaten,Deiyai,Papua Tengah
263,98761,Kogemani,94.08.04.2018,Tigi Barat,Kabupaten,Deiyai,Papua Tengah
264,98761,Maatadi,94.08.04.2021,Tigi Barat,Kabupaten,Deiyai,Papua Tengah
265,98761,Meyepa,94.08.04.2017,Tigi Barat,Kabupaten,Deiyai,Papua Tengah
266,98761,Obai,94.08.04.2014,Tigi Barat,Kabupaten,Deiyai,Papua Tengah
267,98761,Onago,94.08.04.2004,Tigi Barat,Kabupaten,Deiyai,Papua Tengah
268,98761,Onago II,94.08.04.2020,Tigi Barat,Kabupaten,Deiyai,Papua Tengah
269,98761,Piyekedimi,94.08.04.2007,Tigi Barat,Kabupaten,Deiyai,Papua Tengah
270,98761,Tenedagi,94.08.04.2009,Tigi Barat,Kabupaten,Deiyai,Papua Tengah
271,98761,Wagomani,94.08.04.2005,Tigi Barat,Kabupaten,Deiyai,Papua Tengah
272,98761,Widimei,94.08.04.2012,Tigi Barat,Kabupaten,Deiyai,Papua Tengah
273,98761,Widuwakiya,94.08.04.2003,Tigi Barat,Kabupaten,Deiyai,Papua Tengah
274,98761,Yagu,94.08.04.2013,Tigi Barat,Kabupaten,Deiyai,Papua Tengah
275,98761,Yipai,94.08.04.2015,Tigi Barat,Kabupaten,Deiyai,Papua Tengah
276,98764,Amago,94.08.01.2018,Tigi,Kabupaten,Deiyai,Papua Tengah
277,98764,Atouda,94.08.01.2008,Tigi,Kabupaten,Deiyai,Papua Tengah
278,98764,Bamou II,94.08.01.2007,Tigi,Kabupaten,Deiyai,Papua Tengah
279,98764,Bomau I,94.08.01.2005,Tigi,Kabupaten,Deiyai,Papua Tengah
280,98764,Bomou III,94.08.01.2012,Tigi,Kabupaten,Deiyai,Papua Tengah
281,98764,Buwoudimi,94.08.01.2014,Tigi,Kabupaten,Deiyai,Papua Tengah
282,98764,Ibodiyo,94.08.01.2015,Tigi,Kabupaten,Deiyai,Papua Tengah
283,98764,Idege,94.08.01.2019,Tigi,Kabupaten,Deiyai,Papua Tengah
284,98764,Ikiyawo,94.08.01.2016,Tigi,Kabupaten,Deiyai,Papua Tengah
285,98764,Motano,94.08.01.2017,Tigi,Kabupaten,Deiyai,Papua Tengah
286,98764,Mugouda,94.08.01.2011,Tigi,Kabupaten,Deiyai,Papua Tengah
287,98764,Okomakebo,94.08.01.2006,Tigi,Kabupaten,Deiyai,Papua Tengah
288,98764,Okomotadi,94.08.01.2013,Tigi,Kabupaten,Deiyai,Papua Tengah
289,98764,Oneibo,94.08.01.2009,Tigi,Kabupaten,Deiyai,Papua Tengah
290,98764,Peku,94.08.01.2020,Tigi,Kabupaten,Deiyai,Papua Tengah
291,98764,Ugiya,94.08.01.2002,Tigi,Kabupaten,Deiyai,Papua Tengah
292,98764,Waghete I,94.08.01.2001,Tigi,Kabupaten,Deiyai,Papua Tengah
293,98764,Waghete II,94.08.01.2004,Tigi,Kabupaten,Deiyai,Papua Tengah
294,98764,Yaba,94.08.01.2003,Tigi,Kabupaten,Deiyai,Papua Tengah
295,98764,Yaba II,94.08.01.2010,Tigi,Kabupaten,Deiyai,Papua Tengah
296,99967,Aingogin,94.04.10.2014,Tembagapura,Kabupaten,Mimika,Papua Tengah
297,99967,Arwanop,94.04.10.2003,Tembagapura,Kabupaten,Mimika,Papua Tengah
298,99967,Baluni,94.04.10.2015,Tembagapura,Kabupaten,Mimika,Papua Tengah
299,99967,Banigogom,94.04.10.2007,Tembagapura,Kabupaten,Mimika,Papua Tengah
300,99967,Banti Dua,94.04.10.2013,Tembagapura,Kabupaten,Mimika,Papua Tengah
301,99967,Doliningokngin,94.04.10.2009,Tembagapura,Kabupaten,Mimika,Papua Tengah
302,99967,Jagamin,94.04.10.2006,Tembagapura,Kabupaten,Mimika,Papua Tengah
303,99967,Jongkogama,94.04.10.2018,Tembagapura,Kabupaten,Mimika,Papua Tengah
304,99967,Meningimponogama,94.04.10.2017,Tembagapura,Kabupaten,Mimika,Papua Tengah
305,99967,Noselanop,94.04.10.2016,Tembagapura,Kabupaten,Mimika,Papua Tengah
306,99967,Opitawak,94.04.10.2008,Tembagapura,Kabupaten,Mimika,Papua Tengah
307,99967,Tembagapura,94.04.10.1001,Tembagapura,Kabupaten,Mimika,Papua Tengah
308,99967,TSinga (T Singa),94.04.10.2004,Tembagapura,Kabupaten,Mimika,Papua Tengah
309,99967,Waa,94.04.10.2002,Tembagapura,Kabupaten,Mimika,Papua Tengah
310,98851,Bawei,94.01.08.2003,Teluk Umar,Kabupaten,Nabire,Papua Tengah
311,98851,Goni,94.01.08.2004,Teluk Umar,Kabupaten,Nabire,Papua Tengah
312,98851,Napan Yaur,94.01.08.2001,Teluk Umar,Kabupaten,Nabire,Papua Tengah
313,98851,Yeretuar,94.01.08.2002,Teluk Umar,Kabupaten,Nabire,Papua Tengah
314,98831,Air Mandidi,94.01.09.2005,Teluk Kimi,Kabupaten,Nabire,Papua Tengah
315,98832,Kimi,94.01.09.2003,Teluk Kimi,Kabupaten,Nabire,Papua Tengah
316,98833,Lani,94.01.09.2004,Teluk Kimi,Kabupaten,Nabire,Papua Tengah
317,98834,Samabusa,94.01.09.2001,Teluk Kimi,Kabupaten,Nabire,Papua Tengah
318,98835,Waharia,94.01.09.2002,Teluk Kimi,Kabupaten,Nabire,Papua Tengah
319,98727,Biyadide,94.03.16.2005,Teluk Deya,Kabupaten,Paniai,Papua Tengah
320,98727,Pekege,94.03.16.2006,Teluk Deya,Kabupaten,Paniai,Papua Tengah
321,98727,Totiyo,94.03.16.2004,Teluk Deya,Kabupaten,Paniai,Papua Tengah
322,98727,Ukago,94.03.16.2003,Teluk Deya,Kabupaten,Paniai,Papua Tengah
323,98727,Ukauwo,94.03.16.2001,Teluk Deya,Kabupaten,Paniai,Papua Tengah
324,98727,Waipa,94.03.16.2002,Teluk Deya,Kabupaten,Paniai,Papua Tengah
325,98934,Abili,94.02.24.2006,Taganombak,Kabupaten,Puncak Jaya,Papua Tengah
326,98934,Andugir,94.02.24.2004,Taganombak,Kabupaten,Puncak Jaya,Papua Tengah
327,98934,Ginimanggen,94.02.24.2008,Taganombak,Kabupaten,Puncak Jaya,Papua Tengah
328,98934,Guna,94.02.24.2001,Taganombak,Kabupaten,Puncak Jaya,Papua Tengah
329,98934,Laworege,94.02.24.2009,Taganombak,Kabupaten,Puncak Jaya,Papua Tengah
330,98934,Lugubago,94.02.24.2003,Taganombak,Kabupaten,Puncak Jaya,Papua Tengah
331,98934,Mandura,94.02.24.2002,Taganombak,Kabupaten,Puncak Jaya,Papua Tengah
332,98934,Muara Miguni,94.02.24.2005,Taganombak,Kabupaten,Puncak Jaya,Papua Tengah
333,98934,Pereya,94.02.24.2007,Taganombak,Kabupaten,Puncak Jaya,Papua Tengah
334,98934,Wumbiri,94.02.24.2010,Taganombak,Kabupaten,Puncak Jaya,Papua Tengah
335,98875,Iyaro,94.06.05.2003,Sukikai Selatan,Kabupaten,Dogiyai,Papua Tengah
336,98875,Sukikai,94.06.05.2002,Sukikai Selatan,Kabupaten,Dogiyai,Papua Tengah
337,98875,Unito,94.06.05.2001,Sukikai Selatan,Kabupaten,Dogiyai,Papua Tengah
338,98875,Wigoumakida,94.06.05.2004,Sukikai Selatan,Kabupaten,Dogiyai,Papua Tengah
339,98793,Bilogai,94.07.01.2006,Sugapa,Kabupaten,Intan Jaya,Papua Tengah
340,98793,Buwisiga,94.07.01.2017,Sugapa,Kabupaten,Intan Jaya,Papua Tengah
341,98793,Eknemba,94.07.01.2011,Sugapa,Kabupaten,Intan Jaya,Papua Tengah
342,98793,Emondi,94.07.01.2001,Sugapa,Kabupaten,Intan Jaya,Papua Tengah
343,98793,Kumlagupa,94.07.01.2016,Sugapa,Kabupaten,Intan Jaya,Papua Tengah
344,98793,Mamba,94.07.01.2009,Sugapa,Kabupaten,Intan Jaya,Papua Tengah
345,98793,Mbilusiga,94.07.01.2014,Sugapa,Kabupaten,Intan Jaya,Papua Tengah
346,98793,Mindau,94.07.01.2002,Sugapa,Kabupaten,Intan Jaya,Papua Tengah
347,98793,Ndugusiga,94.07.01.2015,Sugapa,Kabupaten,Intan Jaya,Papua Tengah
348,98793,Pesiga,94.07.01.2013,Sugapa,Kabupaten,Intan Jaya,Papua Tengah
349,98793,Puyagiya,94.07.01.2007,Sugapa,Kabupaten,Intan Jaya,Papua Tengah
350,98793,Sambili,94.07.01.2003,Sugapa,Kabupaten,Intan Jaya,Papua Tengah
351,98793,Titigi,94.07.01.2010,Sugapa,Kabupaten,Intan Jaya,Papua Tengah
352,98793,Wandoga,94.07.01.2012,Sugapa,Kabupaten,Intan Jaya,Papua Tengah
353,98793,Yalai,94.07.01.2008,Sugapa,Kabupaten,Intan Jaya,Papua Tengah
354,98793,Yokatapa,94.07.01.2005,Sugapa,Kabupaten,Intan Jaya,Papua Tengah
355,98793,Yoparu,94.07.01.2004,Sugapa,Kabupaten,Intan Jaya,Papua Tengah
356,98841,Aibone (Aibore),94.01.06.2002,Siriwo,Kabupaten,Nabire,Papua Tengah
357,98724,Bua,94.03.07.2003,Siriwo,Kabupaten,Paniai,Papua Tengah
358,98724,Bugubutu,94.03.07.2006,Siriwo,Kabupaten,Paniai,Papua Tengah
359,98724,Dadou,94.03.07.2002,Siriwo,Kabupaten,Paniai,Papua Tengah
360,98724,Degatadi,94.03.07.2011,Siriwo,Kabupaten,Paniai,Papua Tengah
361,98724,Dogomouto,94.03.07.2007,Siriwo,Kabupaten,Paniai,Papua Tengah
362,98724,Eguai,94.03.07.2010,Siriwo,Kabupaten,Paniai,Papua Tengah
363,98841,Epomani,94.01.06.2003,Siriwo,Kabupaten,Nabire,Papua Tengah
364,98724,Giwo,94.03.07.2008,Siriwo,Kabupaten,Paniai,Papua Tengah
365,98724,Kepi,94.03.07.2004,Siriwo,Kabupaten,Paniai,Papua Tengah
366,98841,Mabua / Mabou,94.01.06.2005,Siriwo,Kabupaten,Nabire,Papua Tengah
367,98724,Nomokepota,94.03.07.2009,Siriwo,Kabupaten,Paniai,Papua Tengah
368,98841,Tibai,94.01.06.2004,Siriwo,Kabupaten,Nabire,Papua Tengah
369,98724,Todia (Tadia/Ayaikebo),94.03.07.2001,Siriwo,Kabupaten,Paniai,Papua Tengah
370,98841,Ugida,94.01.06.2006,Siriwo,Kabupaten,Nabire,Papua Tengah
371,98841,Unipa (Siriwo / Unipo),94.01.06.2001,Siriwo,Kabupaten,Nabire,Papua Tengah
372,98724,Uwoyupi,94.03.07.2012,Siriwo,Kabupaten,Paniai,Papua Tengah
373,98724,Wageme,94.03.07.2005,Siriwo,Kabupaten,Paniai,Papua Tengah
374,98724,Wegekebo,94.03.07.2013,Siriwo,Kabupaten,Paniai,Papua Tengah
375,98724,Yinotadi,94.03.07.2014,Siriwo,Kabupaten,Paniai,Papua Tengah
376,98978,Bakcini,94.05.15.2002,Sinak Barat,Kabupaten,Puncak,Papua Tengah
377,98978,Kilunggame,94.05.15.2001,Sinak Barat,Kabupaten,Puncak,Papua Tengah
378,98978,Komapaga,94.05.15.2006,Sinak Barat,Kabupaten,Puncak,Papua Tengah
379,98978,Tagalame I,94.05.15.2004,Sinak Barat,Kabupaten,Puncak,Papua Tengah
380,98978,Timobut,94.05.15.2003,Sinak Barat,Kabupaten,Puncak,Papua Tengah
381,98978,Timobut Egewak,94.05.15.2007,Sinak Barat,Kabupaten,Puncak,Papua Tengah
382,98978,Wonelupaga,94.05.15.2005,Sinak Barat,Kabupaten,Puncak,Papua Tengah
383,98977,Gigobak,94.05.06.2002,Sinak,Kabupaten,Puncak,Papua Tengah
384,98977,Gigobak II,94.05.06.2016,Sinak,Kabupaten,Puncak,Papua Tengah
385,98977,Gingga Baru,94.05.06.2018,Sinak,Kabupaten,Puncak,Papua Tengah
386,98977,Gulabut,94.05.06.2013,Sinak,Kabupaten,Puncak,Papua Tengah
387,98977,Kalibuk,94.05.06.2009,Sinak,Kabupaten,Puncak,Papua Tengah
388,98977,Kelemame,94.05.06.2010,Sinak,Kabupaten,Puncak,Papua Tengah
389,98977,Kolaribanak,94.05.06.2014,Sinak,Kabupaten,Puncak,Papua Tengah
390,98977,Mogulu,94.05.06.2015,Sinak,Kabupaten,Puncak,Papua Tengah
391,98977,Pasir Putih,94.05.06.2017,Sinak,Kabupaten,Puncak,Papua Tengah
392,98977,Tenonggame,94.05.06.2019,Sinak,Kabupaten,Puncak,Papua Tengah
393,98977,Yauria,94.05.06.2001,Sinak,Kabupaten,Puncak,Papua Tengah
394,98719,Boba,94.03.13.2006,Pugo Dagi,Kabupaten,Paniai,Papua Tengah
395,98719,Iyaidagi,94.03.13.2007,Pugo Dagi,Kabupaten,Paniai,Papua Tengah
396,98719,Iyaitadi,94.03.13.2008,Pugo Dagi,Kabupaten,Paniai,Papua Tengah
397,98719,Kopaidagi,94.03.13.2003,Pugo Dagi,Kabupaten,Paniai,Papua Tengah
398,98719,Pugo,94.03.13.2001,Pugo Dagi,Kabupaten,Paniai,Papua Tengah
399,98719,Tipago,94.03.13.2005,Pugo Dagi,Kabupaten,Paniai,Papua Tengah
400,98719,Uwibutu,94.03.13.2004,Pugo Dagi,Kabupaten,Paniai,Papua Tengah
401,98719,Waidide,94.03.13.2002,Pugo Dagi,Kabupaten,Paniai,Papua Tengah
402,98719,Waiepo,94.03.13.2009,Pugo Dagi,Kabupaten,Paniai,Papua Tengah
403,98976,Gagama,94.05.05.2006,Pogoma,Kabupaten,Puncak,Papua Tengah
404,98976,Guwamu,94.05.05.2014,Pogoma,Kabupaten,Puncak,Papua Tengah
405,98976,Kolamagi,94.05.05.2013,Pogoma,Kabupaten,Puncak,Papua Tengah
406,98976,Kumasingga,94.05.05.2015,Pogoma,Kabupaten,Puncak,Papua Tengah
407,98976,Pogoma,94.05.05.2002,Pogoma,Kabupaten,Puncak,Papua Tengah
408,98976,Ugutmu,94.05.05.2011,Pogoma,Kabupaten,Puncak,Papua Tengah
409,98976,Wakme,94.05.05.2010,Pogoma,Kabupaten,Puncak,Papua Tengah
410,98976,Wiha,94.05.05.2008,Pogoma,Kabupaten,Puncak,Papua Tengah
411,98976,Yugume,94.05.05.2012,Pogoma,Kabupaten,Puncak,Papua Tengah
412,98874,Apogomakida (Aporomakida),94.06.03.2001,Piyaiye,Kabupaten,Dogiyai,Papua Tengah
413,98874,Deniyode (Deneiode),94.06.03.2002,Piyaiye,Kabupaten,Dogiyai,Papua Tengah
414,98874,Egipa,94.06.03.2006,Piyaiye,Kabupaten,Dogiyai,Papua Tengah
415,98874,Ideduwa,94.06.03.2004,Piyaiye,Kabupaten,Dogiyai,Papua Tengah
416,98874,Kegata,94.06.03.2005,Piyaiye,Kabupaten,Dogiyai,Papua Tengah
417,98874,Tipaugi,94.06.03.2008,Piyaiye,Kabupaten,Dogiyai,Papua Tengah
418,98874,Ukagu,94.06.03.2007,Piyaiye,Kabupaten,Dogiyai,Papua Tengah
419,98874,Yegiyepa (Yegeiyepa),94.06.03.2003,Piyaiye,Kabupaten,Dogiyai,Papua Tengah
420,98711,Agumaida,94.03.01.2025,Paniai Timur,Kabupaten,Paniai,Papua Tengah
421,98711,Aikai,94.03.01.2003,Paniai Timur,Kabupaten,Paniai,Papua Tengah
422,98713,Amougibutu,94.03.01.2022,Paniai Timur,Kabupaten,Paniai,Papua Tengah
423,98713,Awabutu,94.03.01.2012,Paniai Timur,Kabupaten,Paniai,Papua Tengah
424,98714,Dapaiba,94.03.01.2023,Paniai Timur,Kabupaten,Paniai,Papua Tengah
425,98714,Enarotali,94.03.01.1001,Paniai Timur,Kabupaten,Paniai,Papua Tengah
426,98711,Geibu,94.03.01.2016,Paniai Timur,Kabupaten,Paniai,Papua Tengah
427,98711,Geko,94.03.01.2013,Paniai Timur,Kabupaten,Paniai,Papua Tengah
428,98711,Ipakiye,94.03.01.2004,Paniai Timur,Kabupaten,Paniai,Papua Tengah
429,98714,Iyaitaka,94.03.01.2019,Paniai Timur,Kabupaten,Paniai,Papua Tengah
430,98711,Kagupago,94.03.01.2009,Paniai Timur,Kabupaten,Paniai,Papua Tengah
431,98713,Kogekotu,94.03.01.2011,Paniai Timur,Kabupaten,Paniai,Papua Tengah
432,98713,Kogekotu (Kogekotu II / Kogetoku),94.03.01.2018,Paniai Timur,Kabupaten,Paniai,Papua Tengah
433,98712,Kopo,94.03.01.2007,Paniai Timur,Kabupaten,Paniai,Papua Tengah
434,98714,Madi,94.03.01.2002,Paniai Timur,Kabupaten,Paniai,Papua Tengah
435,98714,Mugimeketago,94.03.01.2014,Paniai Timur,Kabupaten,Paniai,Papua Tengah
436,98714,Oyaigo,94.03.01.2010,Paniai Timur,Kabupaten,Paniai,Papua Tengah
437,98711,Papato,94.03.01.2005,Paniai Timur,Kabupaten,Paniai,Papua Tengah
438,98714,Pudotadi,94.03.01.2017,Paniai Timur,Kabupaten,Paniai,Papua Tengah
439,98713,Timida,94.03.01.1006,Paniai Timur,Kabupaten,Paniai,Papua Tengah
440,98713,Tuamakida,94.03.01.2015,Paniai Timur,Kabupaten,Paniai,Papua Tengah
441,98714,Ugibutu,94.03.01.2020,Paniai Timur,Kabupaten,Paniai,Papua Tengah
442,98711,Wage,94.03.01.2008,Paniai Timur,Kabupaten,Paniai,Papua Tengah
443,98712,Wouyebutu,94.03.01.2021,Paniai Timur,Kabupaten,Paniai,Papua Tengah
444,98714,Yagiyo Butu,94.03.01.2026,Paniai Timur,Kabupaten,Paniai,Papua Tengah
445,98711,Yukekebo,94.03.01.2024,Paniai Timur,Kabupaten,Paniai,Papua Tengah
446,98723,Beko,94.03.02.2004,Paniai Barat,Kabupaten,Paniai,Papua Tengah
447,98723,Digiugii,94.03.02.2013,Paniai Barat,Kabupaten,Paniai,Papua Tengah
448,98723,Ekinauwo,94.03.02.2009,Paniai Barat,Kabupaten,Paniai,Papua Tengah
449,98723,Epo Obano,94.03.02.2006,Paniai Barat,Kabupaten,Paniai,Papua Tengah
450,98723,Kegouda,94.03.02.2002,Paniai Barat,Kabupaten,Paniai,Papua Tengah
451,98723,Kigodide,94.03.02.2010,Paniai Barat,Kabupaten,Paniai,Papua Tengah
452,98723,Obano,94.03.02.1001,Paniai Barat,Kabupaten,Paniai,Papua Tengah
453,98723,Putakogopa,94.03.02.2011,Paniai Barat,Kabupaten,Paniai,Papua Tengah
454,98723,Tipakotu,94.03.02.2005,Paniai Barat,Kabupaten,Paniai,Papua Tengah
455,98723,Totiyo,94.03.02.2003,Paniai Barat,Kabupaten,Paniai,Papua Tengah
456,98723,Towauwo,94.03.02.2007,Paniai Barat,Kabupaten,Paniai,Papua Tengah
457,98723,Waukotopa,94.03.02.2012,Paniai Barat,Kabupaten,Paniai,Papua Tengah
458,98723,Wiyogei,94.03.02.2008,Paniai Barat,Kabupaten,Paniai,Papua Tengah
459,98916,Igimbut,94.02.09.2004,Pagaleme,Kabupaten,Puncak Jaya,Papua Tengah
460,98916,Kulok Enggame,94.02.09.2005,Pagaleme,Kabupaten,Puncak Jaya,Papua Tengah
461,98916,Lunggineri,94.02.09.2003,Pagaleme,Kabupaten,Puncak Jaya,Papua Tengah
462,98916,Muliambut,94.02.09.2002,Pagaleme,Kabupaten,Puncak Jaya,Papua Tengah
463,98916,Pagaleme,94.02.09.2001,Pagaleme,Kabupaten,Puncak Jaya,Papua Tengah
464,98975,Deogi,94.05.22.2005,Oneri,Kabupaten,Puncak,Papua Tengah
465,98975,Gunaluk,94.05.22.2002,Oneri,Kabupaten,Puncak,Papua Tengah
466,98975,Jiwot,94.05.22.2001,Oneri,Kabupaten,Puncak,Papua Tengah
467,98975,Jugumi,94.05.22.2006,Oneri,Kabupaten,Puncak,Papua Tengah
468,98975,Kugiame,94.05.22.2003,Oneri,Kabupaten,Puncak,Papua Tengah
469,98975,Wuyunggame,94.05.22.2004,Oneri,Kabupaten,Puncak,Papua Tengah
470,98968,Aminggaru,94.05.20.2014,Omukia,Kabupaten,Puncak,Papua Tengah
471,98968,Awilkinop,94.05.20.2010,Omukia,Kabupaten,Puncak,Papua Tengah
472,98968,Balamagalama,94.05.20.2013,Omukia,Kabupaten,Puncak,Papua Tengah
473,98968,Domaoa,94.05.20.2011,Omukia,Kabupaten,Puncak,Papua Tengah
474,98968,Eromaga,94.05.20.2001,Omukia,Kabupaten,Puncak,Papua Tengah
475,98968,Gilini,94.05.20.2003,Omukia,Kabupaten,Puncak,Papua Tengah
476,98968,Kuleme,94.05.20.2008,Omukia,Kabupaten,Puncak,Papua Tengah
477,98968,Kunga,94.05.20.2005,Omukia,Kabupaten,Puncak,Papua Tengah
478,98968,Manggume,94.05.20.2007,Omukia,Kabupaten,Puncak,Papua Tengah
479,98968,Ninggibome,94.05.20.2009,Omukia,Kabupaten,Puncak,Papua Tengah
480,98968,Ondugura,94.05.20.2006,Omukia,Kabupaten,Puncak,Papua Tengah
481,98968,Pinapa,94.05.20.2004,Omukia,Kabupaten,Puncak,Papua Tengah
482,98968,Pinggil/Eronggobak,94.05.20.2002,Omukia,Kabupaten,Puncak,Papua Tengah
483,98968,Pungtrama,94.05.20.2012,Omukia,Kabupaten,Puncak,Papua Tengah
484,98954,Daung,94.05.12.2003,Ogamanim,Kabupaten,Puncak,Papua Tengah
485,98954,Erong Berong,94.05.12.2001,Ogamanim,Kabupaten,Puncak,Papua Tengah
486,98954,Hikinat,94.05.12.2002,Ogamanim,Kabupaten,Puncak,Papua Tengah
487,98954,Kombet,94.05.12.2004,Ogamanim,Kabupaten,Puncak,Papua Tengah
488,98954,Kulamagom,94.05.12.2006,Ogamanim,Kabupaten,Puncak,Papua Tengah
489,98954,Ogamanin (Ogamanim),94.05.12.2007,Ogamanim,Kabupaten,Puncak,Papua Tengah
490,98954,Onop,94.05.12.2005,Ogamanim,Kabupaten,Puncak,Papua Tengah
491,98933,Akwibaga,94.02.06.2048,Nume,Kabupaten,Puncak Jaya,Papua Tengah
492,98933,Anebalui,94.02.06.2034,Nume,Kabupaten,Puncak Jaya,Papua Tengah
493,98933,Kering,94.02.06.2037,Nume,Kabupaten,Puncak Jaya,Papua Tengah
494,98933,Mepar,94.02.06.2031,Nume,Kabupaten,Puncak Jaya,Papua Tengah
495,98933,Meyongga,94.02.06.2039,Nume,Kabupaten,Puncak Jaya,Papua Tengah
496,98933,Nume,94.02.06.2042,Nume,Kabupaten,Puncak Jaya,Papua Tengah
497,98933,Onendu,94.02.06.2047,Nume,Kabupaten,Puncak Jaya,Papua Tengah
498,98933,Oum,94.02.06.2041,Nume,Kabupaten,Puncak Jaya,Papua Tengah
499,98933,Pagolome,94.02.06.2035,Nume,Kabupaten,Puncak Jaya,Papua Tengah
500,98933,Tombok,94.02.06.2036,Nume,Kabupaten,Puncak Jaya,Papua Tengah
501,98933,Woraluk,94.02.06.2046,Nume,Kabupaten,Puncak Jaya,Papua Tengah
502,98933,Wurina,94.02.06.2045,Nume,Kabupaten,Puncak Jaya,Papua Tengah
503,98933,Yawor,94.02.06.2043,Nume,Kabupaten,Puncak Jaya,Papua Tengah
504,98932,Gibaga,94.02.22.2008,Nioga,Kabupaten,Puncak Jaya,Papua Tengah
505,98932,Jigonikme,94.02.22.2005,Nioga,Kabupaten,Puncak Jaya,Papua Tengah
506,98932,Muruwi,94.02.22.2006,Nioga,Kabupaten,Puncak Jaya,Papua Tengah
507,98932,Nioga,94.02.22.2001,Nioga,Kabupaten,Puncak Jaya,Papua Tengah
508,98932,Papak,94.02.22.2009,Nioga,Kabupaten,Puncak Jaya,Papua Tengah
509,98932,Walom,94.02.22.2011,Nioga,Kabupaten,Puncak Jaya,Papua Tengah
510,98932,Wambagalo,94.02.22.2004,Nioga,Kabupaten,Puncak Jaya,Papua Tengah
511,98932,Wanduri,94.02.22.2010,Nioga,Kabupaten,Puncak Jaya,Papua Tengah
512,98932,Wonggi,94.02.22.2003,Nioga,Kabupaten,Puncak Jaya,Papua Tengah
513,98932,Wutime,94.02.22.2007,Nioga,Kabupaten,Puncak Jaya,Papua Tengah
514,98932,Yonggi,94.02.22.2002,Nioga,Kabupaten,Puncak Jaya,Papua Tengah
515,98862,Masipawa,94.01.02.2004,Napan,Kabupaten,Nabire,Papua Tengah
516,98862,Napan,94.01.02.2001,Napan,Kabupaten,Nabire,Papua Tengah
517,98862,Weinami,94.01.02.2005,Napan,Kabupaten,Nabire,Papua Tengah
518,98722,Digiyo Tuwataida,94.03.15.2006,Nakama,Kabupaten,Paniai,Papua Tengah
519,98722,Geiketago,94.03.15.2003,Nakama,Kabupaten,Paniai,Papua Tengah
520,98722,Itoka,94.03.15.2007,Nakama,Kabupaten,Paniai,Papua Tengah
521,98722,Kadiyai,94.03.15.2004,Nakama,Kabupaten,Paniai,Papua Tengah
522,98722,Kito,94.03.15.2002,Nakama,Kabupaten,Paniai,Papua Tengah
523,98722,Okaitadi,94.03.15.2001,Nakama,Kabupaten,Paniai,Papua Tengah
524,98722,Uwodege,94.03.15.2005,Nakama,Kabupaten,Paniai,Papua Tengah
525,98856,Bumi Raya,94.01.12.2001,Nabire Barat,Kabupaten,Nabire,Papua Tengah
526,98856,Gerbang Sadu,94.01.12.2003,Nabire Barat,Kabupaten,Nabire,Papua Tengah
527,98856,Kali Semen (Kalisemen),94.01.12.2004,Nabire Barat,Kabupaten,Nabire,Papua Tengah
528,98856,Wadio,94.01.12.2005,Nabire Barat,Kabupaten,Nabire,Papua Tengah
529,98856,Waroki,94.01.12.2002,Nabire Barat,Kabupaten,Nabire,Papua Tengah
530,98814,Girimulyo,94.01.01.1004,Nabire,Kabupaten,Nabire,Papua Tengah
531,98818,Kali Bobo (Kalibobo),94.01.01.1002,Nabire,Kabupaten,Nabire,Papua Tengah
532,98822,Kali Harapan,94.01.01.2012,Nabire,Kabupaten,Nabire,Papua Tengah
533,98821,Kalisusu (Kali Susu),94.01.01.2011,Nabire,Kabupaten,Nabire,Papua Tengah
534,98815,Karang Mulia,94.01.01.1007,Nabire,Kabupaten,Nabire,Papua Tengah
535,98812,Karang Tumaritis,94.01.01.1005,Nabire,Kabupaten,Nabire,Papua Tengah
536,98811,Morgo,94.01.01.1003,Nabire,Kabupaten,Nabire,Papua Tengah
537,98817,Nabarua,94.01.01.1009,Nabire,Kabupaten,Nabire,Papua Tengah
538,98816,Oyehe,94.01.01.1006,Nabire,Kabupaten,Nabire,Papua Tengah
539,98819,Sanoba (Sanoba Pantai),94.01.01.2013,Nabire,Kabupaten,Nabire,Papua Tengah
540,98820,Siriwini,94.01.01.1010,Nabire,Kabupaten,Nabire,Papua Tengah
541,98813,Wonorejo (Bumi Wonorejo),94.01.01.1001,Nabire,Kabupaten,Nabire,Papua Tengah
542,98721,Amopa,94.03.14.2010,Muye,Kabupaten,Paniai,Papua Tengah
543,98721,Bebiyai,94.03.14.2005,Muye,Kabupaten,Paniai,Papua Tengah
544,98721,Damuto,94.03.14.2008,Muye,Kabupaten,Paniai,Papua Tengah
545,98721,Epabutu,94.03.14.2003,Muye,Kabupaten,Paniai,Papua Tengah
546,98721,Idaiyo,94.03.14.2006,Muye,Kabupaten,Paniai,Papua Tengah
547,98721,Mogeya,94.03.14.2002,Muye,Kabupaten,Paniai,Papua Tengah
548,98721,Muyetadi,94.03.14.2001,Muye,Kabupaten,Paniai,Papua Tengah
549,98721,Obaiyodimi,94.03.14.2009,Muye,Kabupaten,Paniai,Papua Tengah
550,98721,Tiga Damuto,94.03.14.2004,Muye,Kabupaten,Paniai,Papua Tengah
551,98721,Tinou,94.03.14.2007,Muye,Kabupaten,Paniai,Papua Tengah
552,98915,Birak Ambut,94.02.01.2047,Mulia,Kabupaten,Puncak Jaya,Papua Tengah
553,98915,Muliagambut,94.02.01.2044,Mulia,Kabupaten,Puncak Jaya,Papua Tengah
554,98915,Pagaleme,94.02.01.1060,Mulia,Kabupaten,Puncak Jaya,Papua Tengah
555,98915,Pepera,94.02.01.2042,Mulia,Kabupaten,Puncak Jaya,Papua Tengah
556,98915,Pruleme,94.02.01.2001,Mulia,Kabupaten,Puncak Jaya,Papua Tengah
557,98915,Towogi,94.02.01.2046,Mulia,Kabupaten,Puncak Jaya,Papua Tengah
558,98915,Trikora,94.02.01.2045,Mulia,Kabupaten,Puncak Jaya,Papua Tengah
559,98915,Usir,94.02.01.2049,Mulia,Kabupaten,Puncak Jaya,Papua Tengah
560,98915,Wuyukwi,94.02.01.2003,Mulia,Kabupaten,Puncak Jaya,Papua Tengah
561,98915,Wuyukwi (Kelurahan Wuyukwi),94.02.01.1059,Mulia,Kabupaten,Puncak Jaya,Papua Tengah
562,98915,Wuyuneri,94.02.01.2023,Mulia,Kabupaten,Puncak Jaya,Papua Tengah
563,98914,Doligobak,94.02.12.2002,Muara,Kabupaten,Puncak Jaya,Papua Tengah
564,98914,Dologobak,94.02.12.2007,Muara,Kabupaten,Puncak Jaya,Papua Tengah
565,98914,Karubate,94.02.12.2006,Muara,Kabupaten,Puncak Jaya,Papua Tengah
566,98914,Kulirik,94.02.12.2001,Muara,Kabupaten,Puncak Jaya,Papua Tengah
567,98914,Muara,94.02.12.2005,Muara,Kabupaten,Puncak Jaya,Papua Tengah
568,98914,Talilome,94.02.12.2004,Muara,Kabupaten,Puncak Jaya,Papua Tengah
569,98914,Yalinggua,94.02.12.2003,Muara,Kabupaten,Puncak Jaya,Papua Tengah
570,98914,Yambidugun,94.02.12.2008,Muara,Kabupaten,Puncak Jaya,Papua Tengah
571,98864,Arui,94.01.13.2005,Moora,Kabupaten,Nabire,Papua Tengah
572,98864,Hariti,94.01.13.2002,Moora,Kabupaten,Nabire,Papua Tengah
573,98864,Kama,94.01.13.2004,Moora,Kabupaten,Nabire,Papua Tengah
574,98864,Mambor,94.01.13.2001,Moora,Kabupaten,Nabire,Papua Tengah
575,98864,Moor,94.01.13.2003,Moora,Kabupaten,Nabire,Papua Tengah
576,98946,Belabaga,94.02.16.2002,Molanikime,Kabupaten,Puncak Jaya,Papua Tengah
577,98946,Maloinggen,94.02.16.2004,Molanikime,Kabupaten,Puncak Jaya,Papua Tengah
578,98946,Mewut,94.02.16.2003,Molanikime,Kabupaten,Puncak Jaya,Papua Tengah
579,98946,Tiolome,94.02.16.2001,Molanikime,Kabupaten,Puncak Jaya,Papua Tengah
580,98946,Wanume,94.02.16.2005,Molanikime,Kabupaten,Puncak Jaya,Papua Tengah
581,99971,Amamapare,94.04.07.2002,Mimika Timur Jauh,Kabupaten,Mimika,Papua Tengah
582,99971,Ayuka,94.04.07.2001,Mimika Timur Jauh,Kabupaten,Mimika,Papua Tengah
583,99971,Fanamo,94.04.07.2005,Mimika Timur Jauh,Kabupaten,Mimika,Papua Tengah
584,99971,Ohotya,94.04.07.2003,Mimika Timur Jauh,Kabupaten,Mimika,Papua Tengah
585,99971,Omawita,94.04.07.2004,Mimika Timur Jauh,Kabupaten,Mimika,Papua Tengah
586,99962,Hiripau,94.04.03.2007,Mimika Timur,Kabupaten,Mimika,Papua Tengah
587,99962,Kaugapa,94.04.03.2002,Mimika Timur,Kabupaten,Mimika,Papua Tengah
588,99962,Muare,94.04.03.2005,Mimika Timur,Kabupaten,Mimika,Papua Tengah
589,99962,Poumako,94.04.03.2003,Mimika Timur,Kabupaten,Mimika,Papua Tengah
590,99962,Tipuka,94.04.03.2004,Mimika Timur,Kabupaten,Mimika,Papua Tengah
591,99962,Wania,94.04.03.1001,Mimika Timur,Kabupaten,Mimika,Papua Tengah
592,99972,Aikawapuka,94.04.08.2004,Mimika Tengah,Kabupaten,Mimika,Papua Tengah
593,99972,Atuka,94.04.08.2001,Mimika Tengah,Kabupaten,Mimika,Papua Tengah
594,99972,Kamoro,94.04.08.2005,Mimika Tengah,Kabupaten,Mimika,Papua Tengah
595,99972,Keakwa,94.04.08.2003,Mimika Tengah,Kabupaten,Mimika,Papua Tengah
596,99972,Tiwaka,94.04.08.2002,Mimika Tengah,Kabupaten,Mimika,Papua Tengah
597,99952,Dingo Narama,94.04.01.1032,Mimika Baru,Kabupaten,Mimika,Papua Tengah
598,99952,Hangaitji,94.04.01.2013,Mimika Baru,Kabupaten,Mimika,Papua Tengah
599,99952,Kebun Sirih,94.04.01.1029,Mimika Baru,Kabupaten,Mimika,Papua Tengah
600,99952,Koperapoka,94.04.01.1001,Mimika Baru,Kabupaten,Mimika,Papua Tengah
601,99952,Kwamki,94.04.01.1002,Mimika Baru,Kabupaten,Mimika,Papua Tengah
602,99952,Minabua,94.04.01.2012,Mimika Baru,Kabupaten,Mimika,Papua Tengah
603,99952,Nayaro,94.04.01.2010,Mimika Baru,Kabupaten,Mimika,Papua Tengah
604,99952,Otomona,94.04.01.1030,Mimika Baru,Kabupaten,Mimika,Papua Tengah
605,99952,Pasar Sentral,94.04.01.1027,Mimika Baru,Kabupaten,Mimika,Papua Tengah
606,99952,Perintis,94.04.01.1031,Mimika Baru,Kabupaten,Mimika,Papua Tengah
607,99952,Sempan,94.04.01.1026,Mimika Baru,Kabupaten,Mimika,Papua Tengah
608,99952,Timika Indah,94.04.01.1033,Mimika Baru,Kabupaten,Mimika,Papua Tengah
609,99952,Timika Jaya,94.04.01.1007,Mimika Baru,Kabupaten,Mimika,Papua Tengah
610,99952,Wanagon,94.04.01.1028,Mimika Baru,Kabupaten,Mimika,Papua Tengah
611,99976,Akar,94.04.12.2005,Mimika Barat Tengah,Kabupaten,Mimika,Papua Tengah
612,99976,Kapiraya,94.04.12.2001,Mimika Barat Tengah,Kabupaten,Mimika,Papua Tengah
613,99976,Kipia,94.04.12.2007,Mimika Barat Tengah,Kabupaten,Mimika,Papua Tengah
614,99976,Mapar,94.04.12.2006,Mimika Barat Tengah,Kabupaten,Mimika,Papua Tengah
615,99976,Mapuruku (Mapuruka/Mupuruka),94.04.12.2003,Mimika Barat Tengah,Kabupaten,Mimika,Papua Tengah
616,99976,Pronggo,94.04.12.2008,Mimika Barat Tengah,Kabupaten,Mimika,Papua Tengah
617,99976,Uta,94.04.12.2002,Mimika Barat Tengah,Kabupaten,Mimika,Papua Tengah
618,99976,Wakia,94.04.12.2009,Mimika Barat Tengah,Kabupaten,Mimika,Papua Tengah
619,99976,Wumuka,94.04.12.2004,Mimika Barat Tengah,Kabupaten,Mimika,Papua Tengah
620,99974,Aiduna (Aindua),94.04.11.2003,Mimika Barat Jauh,Kabupaten,Mimika,Papua Tengah
621,99974,Potowai Buru (Potowayburu / Potowaiburu),94.04.11.2001,Mimika Barat Jauh,Kabupaten,Mimika,Papua Tengah
622,99974,Tapomai (Tapormai),94.04.11.2004,Mimika Barat Jauh,Kabupaten,Mimika,Papua Tengah
623,99974,Umar,94.04.11.2005,Mimika Barat Jauh,Kabupaten,Mimika,Papua Tengah
624,99974,Yapkoka (Yapakopa),94.04.11.2002,Mimika Barat Jauh,Kabupaten,Mimika,Papua Tengah
625,99975,Aparuka,94.04.04.2011,Mimika Barat,Kabupaten,Mimika,Papua Tengah
626,99975,Apuri,94.04.04.2013,Mimika Barat,Kabupaten,Mimika,Papua Tengah
627,99975,Atapo,94.04.04.2012,Mimika Barat,Kabupaten,Mimika,Papua Tengah
628,99975,Kiura,94.04.04.2003,Mimika Barat,Kabupaten,Mimika,Papua Tengah
629,99975,Kokonao,94.04.04.2001,Mimika Barat,Kabupaten,Mimika,Papua Tengah
630,99975,Migiwia,94.04.04.2002,Mimika Barat,Kabupaten,Mimika,Papua Tengah
631,99975,Mimika,94.04.04.2004,Mimika Barat,Kabupaten,Mimika,Papua Tengah
632,98945,Anggolapaga,94.02.04.2007,Mewoluk,Kabupaten,Puncak Jaya,Papua Tengah
633,98945,Balinggup,94.02.04.2008,Mewoluk,Kabupaten,Puncak Jaya,Papua Tengah
634,98945,Biak,94.02.04.2011,Mewoluk,Kabupaten,Puncak Jaya,Papua Tengah
635,98945,Gumbru,94.02.04.2005,Mewoluk,Kabupaten,Puncak Jaya,Papua Tengah
636,98945,Mewoluk,94.02.04.2001,Mewoluk,Kabupaten,Puncak Jaya,Papua Tengah
637,98945,Nggininik,94.02.04.2010,Mewoluk,Kabupaten,Puncak Jaya,Papua Tengah
638,98945,Waliba,94.02.04.2009,Mewoluk,Kabupaten,Puncak Jaya,Papua Tengah
639,98945,Wutikme,94.02.04.2023,Mewoluk,Kabupaten,Puncak Jaya,Papua Tengah
640,98855,Kunupi / Obaipoto,94.01.15.2001,Menou,Kabupaten,Nabire,Papua Tengah
641,98855,Lokodimi / Bokomidi,94.01.15.2003,Menou,Kabupaten,Nabire,Papua Tengah
642,98855,Ogiyai (Ogiay/Waisai),94.01.15.2002,Menou,Kabupaten,Nabire,Papua Tengah
643,98855,Yegeugi (Yageugi),94.01.15.2004,Menou,Kabupaten,Nabire,Papua Tengah
644,98873,Adauwo,94.06.09.2009,Mapia Tengah,Kabupaten,Dogiyai,Papua Tengah
645,98873,Atou (Tuamani),94.06.09.2004,Mapia Tengah,Kabupaten,Dogiyai,Papua Tengah
646,98873,Diyeugi,94.06.09.2002,Mapia Tengah,Kabupaten,Dogiyai,Papua Tengah
647,98873,Gabaikunu,94.06.09.2008,Mapia Tengah,Kabupaten,Dogiyai,Papua Tengah
648,98873,Magaikebo (Megaikebo),94.06.09.2010,Mapia Tengah,Kabupaten,Dogiyai,Papua Tengah
649,98873,Modio,94.06.09.2005,Mapia Tengah,Kabupaten,Dogiyai,Papua Tengah
650,98873,Piyakunu,94.06.09.2001,Mapia Tengah,Kabupaten,Dogiyai,Papua Tengah
651,98873,Putapa,94.06.09.2003,Mapia Tengah,Kabupaten,Dogiyai,Papua Tengah
652,98873,Timopa (Timepa),94.06.09.2007,Mapia Tengah,Kabupaten,Dogiyai,Papua Tengah
653,98873,Upibega (Ukudawata),94.06.09.2006,Mapia Tengah,Kabupaten,Dogiyai,Papua Tengah
654,98872,Abouyaga,94.06.06.2001,Mapia Barat,Kabupaten,Dogiyai,Papua Tengah
655,98872,Maikotu,94.06.06.2002,Mapia Barat,Kabupaten,Dogiyai,Papua Tengah
656,98872,Taubaikebo (Toubaikebo / Tobaikebo),94.06.06.2003,Mapia Barat,Kabupaten,Dogiyai,Papua Tengah
657,98872,Yegoukotu,94.06.06.2004,Mapia Barat,Kabupaten,Dogiyai,Papua Tengah
658,98871,Abaimaida,94.06.02.2002,Mapia,Kabupaten,Dogiyai,Papua Tengah
659,98871,Bobomani (Bomomani),94.06.02.2001,Mapia,Kabupaten,Dogiyai,Papua Tengah
660,98871,Bonakunu,94.06.02.2003,Mapia,Kabupaten,Dogiyai,Papua Tengah
661,98871,Dawaikunu,94.06.02.2004,Mapia,Kabupaten,Dogiyai,Papua Tengah
662,98871,Diyoudimi,94.06.02.2006,Mapia,Kabupaten,Dogiyai,Papua Tengah
663,98871,Magode (Magone),94.06.02.2005,Mapia,Kabupaten,Dogiyai,Papua Tengah
664,98871,Obaikagopa (Abaugi),94.06.02.2007,Mapia,Kabupaten,Dogiyai,Papua Tengah
665,98863,Biha,94.01.07.2003,Makimi,Kabupaten,Nabire,Papua Tengah
666,98863,Lagari Jaya (Legari Jaya),94.01.07.2004,Makimi,Kabupaten,Nabire,Papua Tengah
667,98863,Maidei,94.01.07.2005,Makimi,Kabupaten,Nabire,Papua Tengah
668,98863,Makimi,94.01.07.2001,Makimi,Kabupaten,Nabire,Papua Tengah
669,98863,Manunggal Jaya,94.01.07.2006,Makimi,Kabupaten,Nabire,Papua Tengah
670,98863,Nifasi,94.01.07.2002,Makimi,Kabupaten,Nabire,Papua Tengah
671,98974,Amuleme,94.05.16.2003,Mage'abume,Kabupaten,Puncak,Papua Tengah
672,98974,Gelegi,94.05.16.2007,Mage'abume,Kabupaten,Puncak,Papua Tengah
673,98974,Jigunggi,94.05.16.2004,Mage'abume,Kabupaten,Puncak,Papua Tengah
674,98974,Kondokwe,94.05.16.2009,Mage'abume,Kabupaten,Puncak,Papua Tengah
675,98974,Kumikomo,94.05.16.2005,Mage'abume,Kabupaten,Puncak,Papua Tengah
676,98974,Nigilome,94.05.16.2001,Mage'abume,Kabupaten,Puncak,Papua Tengah
677,98974,Rumagi,94.05.16.2006,Mage'abume,Kabupaten,Puncak,Papua Tengah
678,98974,Tinibolu,94.05.16.2010,Mage'abume,Kabupaten,Puncak,Papua Tengah
679,98974,Weni,94.05.16.2002,Mage'abume,Kabupaten,Puncak,Papua Tengah
680,98974,Winanggwi,94.05.16.2011,Mage'abume,Kabupaten,Puncak,Papua Tengah
681,98974,Wombru,94.05.16.2008,Mage'abume,Kabupaten,Puncak,Papua Tengah
682,98967,Bologobak,94.05.19.2002,Mabugi,Kabupaten,Puncak,Papua Tengah
683,98967,Bubet,94.05.19.2001,Mabugi,Kabupaten,Puncak,Papua Tengah
684,98967,Kabuki,94.05.19.2006,Mabugi,Kabupaten,Puncak,Papua Tengah
685,98967,Kalemogom,94.05.19.2008,Mabugi,Kabupaten,Puncak,Papua Tengah
686,98967,Ko'eao,94.05.19.2003,Mabugi,Kabupaten,Puncak,Papua Tengah
687,98967,Mabuga,94.05.19.2005,Mabugi,Kabupaten,Puncak,Papua Tengah
688,98967,Ogongki,94.05.19.2004,Mabugi,Kabupaten,Puncak,Papua Tengah
689,98967,Oknanim,94.05.19.2007,Mabugi,Kabupaten,Puncak,Papua Tengah
690,98944,Gilibe,94.02.15.2003,Lumo,Kabupaten,Puncak Jaya,Papua Tengah
691,98944,Gililome,94.02.15.2008,Lumo,Kabupaten,Puncak Jaya,Papua Tengah
692,98944,Kililumo,94.02.15.2002,Lumo,Kabupaten,Puncak Jaya,Papua Tengah
693,98944,Lumo,94.02.15.2001,Lumo,Kabupaten,Puncak Jaya,Papua Tengah
694,98944,Ninggineri,94.02.15.2004,Lumo,Kabupaten,Puncak Jaya,Papua Tengah
695,98944,Tigir,94.02.15.2007,Lumo,Kabupaten,Puncak Jaya,Papua Tengah
696,98944,Wuluma,94.02.15.2006,Lumo,Kabupaten,Puncak Jaya,Papua Tengah
697,98944,Wurabak,94.02.15.2005,Lumo,Kabupaten,Puncak Jaya,Papua Tengah
698,98944,Wuramburu,94.02.15.2009,Lumo,Kabupaten,Puncak Jaya,Papua Tengah
699,98973,Piluwolu,94.05.21.2004,Lambewi,Kabupaten,Puncak,Papua Tengah
700,98973,Pumbanak,94.05.21.2007,Lambewi,Kabupaten,Puncak,Papua Tengah
701,98973,Tenawi,94.05.21.2005,Lambewi,Kabupaten,Puncak,Papua Tengah
702,98973,Tuput,94.05.21.2001,Lambewi,Kabupaten,Puncak,Papua Tengah
703,98973,Wamiru,94.05.21.2003,Lambewi,Kabupaten,Puncak,Papua Tengah
704,98973,Wanombut,94.05.21.2006,Lambewi,Kabupaten,Puncak,Papua Tengah
705,98973,Wenggen'ambut,94.05.21.2002,Lambewi,Kabupaten,Puncak,Papua Tengah
706,99951,Amole,94.04.13.2008,Kwamki Narama,Kabupaten,Mimika,Papua Tengah
707,99951,Bintang Lima,94.04.13.2005,Kwamki Narama,Kabupaten,Mimika,Papua Tengah
708,99951,Damai,94.04.13.2006,Kwamki Narama,Kabupaten,Mimika,Papua Tengah
709,99951,Harapan,94.04.13.1001,Kwamki Narama,Kabupaten,Mimika,Papua Tengah
710,99951,Lamopi,94.04.13.2009,Kwamki Narama,Kabupaten,Mimika,Papua Tengah
711,99951,Landun Mekar,94.04.13.2003,Kwamki Narama,Kabupaten,Mimika,Papua Tengah
712,99951,Meekurima,94.04.13.2002,Kwamki Narama,Kabupaten,Mimika,Papua Tengah
713,99951,Olaroa,94.04.13.2004,Kwamki Narama,Kabupaten,Mimika,Papua Tengah
714,99951,Tunas Matoa,94.04.13.2010,Kwamki Narama,Kabupaten,Mimika,Papua Tengah
715,99951,Walani,94.04.13.2007,Kwamki Narama,Kabupaten,Mimika,Papua Tengah
716,99969,Bhintuka,94.04.09.2007,Kuala Kencana,Kabupaten,Mimika,Papua Tengah
717,99969,Jimbi,94.04.09.2013,Kuala Kencana,Kabupaten,Mimika,Papua Tengah
718,99969,Karang Senang,94.04.09.1005,Kuala Kencana,Kabupaten,Mimika,Papua Tengah
719,99969,Karya Kencana,94.04.09.2010,Kuala Kencana,Kabupaten,Mimika,Papua Tengah
720,99969,Kuala Kencana,94.04.09.1001,Kuala Kencana,Kabupaten,Mimika,Papua Tengah
721,99969,Mimika Gunung,94.04.09.2009,Kuala Kencana,Kabupaten,Mimika,Papua Tengah
722,99969,Tioka Kencana,94.04.09.2008,Kuala Kencana,Kabupaten,Mimika,Papua Tengah
723,99969,Utikini Baru,94.04.09.2006,Kuala Kencana,Kabupaten,Mimika,Papua Tengah
724,99969,Utikini Dua,94.04.09.2011,Kuala Kencana,Kabupaten,Mimika,Papua Tengah
725,99969,Utikini Tiga,94.04.09.2012,Kuala Kencana,Kabupaten,Mimika,Papua Tengah
726,98943,Ambo,94.02.26.2007,Kiyage,Kabupaten,Puncak Jaya,Papua Tengah
727,98943,Amuringgik,94.02.26.2003,Kiyage,Kabupaten,Puncak Jaya,Papua Tengah
728,98943,Atoli,94.02.26.2008,Kiyage,Kabupaten,Puncak Jaya,Papua Tengah
729,98943,Kelandu,94.02.26.2006,Kiyage,Kabupaten,Puncak Jaya,Papua Tengah
730,98943,Kiyage,94.02.26.2001,Kiyage,Kabupaten,Puncak Jaya,Papua Tengah
731,98943,Tenggabanggwi,94.02.26.2004,Kiyage,Kabupaten,Puncak Jaya,Papua Tengah
732,98943,Tumbiwolu,94.02.26.2005,Kiyage,Kabupaten,Puncak Jaya,Papua Tengah
733,98943,Wanggiba,94.02.26.2002,Kiyage,Kabupaten,Puncak Jaya,Papua Tengah
734,98972,Aguit,94.05.13.2001,Kembru,Kabupaten,Puncak,Papua Tengah
735,98972,Belaba,94.05.13.2004,Kembru,Kabupaten,Puncak,Papua Tengah
736,98972,Kembru,94.05.13.2002,Kembru,Kabupaten,Puncak,Papua Tengah
737,98972,Makuma,94.05.13.2005,Kembru,Kabupaten,Puncak,Papua Tengah
738,98972,Molu,94.05.13.2003,Kembru,Kabupaten,Puncak,Papua Tengah
739,98972,Nilime,94.05.13.2007,Kembru,Kabupaten,Puncak,Papua Tengah
740,98972,Tinoti,94.05.13.2006,Kembru,Kabupaten,Puncak,Papua Tengah
741,98715,Ayaigo,94.03.08.2005,Kebo,Kabupaten,Paniai,Papua Tengah
742,98715,Bunaida,94.03.08.2008,Kebo,Kabupaten,Paniai,Papua Tengah
743,98715,Dawawa,94.03.08.2011,Kebo,Kabupaten,Paniai,Papua Tengah
744,98715,Geibu,94.03.08.2006,Kebo,Kabupaten,Paniai,Papua Tengah
745,98715,Ibumaida,94.03.08.2003,Kebo,Kabupaten,Paniai,Papua Tengah
746,98715,Kagupagu,94.03.08.2004,Kebo,Kabupaten,Paniai,Papua Tengah
747,98715,Kebo II,94.03.08.2001,Kebo,Kabupaten,Paniai,Papua Tengah
748,98715,Kedege,94.03.08.2009,Kebo,Kabupaten,Paniai,Papua Tengah
749,98715,Mugime Ketago (Mugimeketago),94.03.08.2012,Kebo,Kabupaten,Paniai,Papua Tengah
750,98715,Togowa,94.03.08.2002,Kebo,Kabupaten,Paniai,Papua Tengah
751,98715,Tuwamakida,94.03.08.2013,Kebo,Kabupaten,Paniai,Papua Tengah
752,98715,Uwaiye,94.03.08.2010,Kebo,Kabupaten,Paniai,Papua Tengah
753,98715,Yokadagi,94.03.08.2007,Kebo,Kabupaten,Paniai,Papua Tengah
754,98752,Idego,94.08.05.2004,Kapiraya,Kabupaten,Deiyai,Papua Tengah
755,98752,Kapiraya (Komauto),94.08.05.2001,Kapiraya,Kabupaten,Deiyai,Papua Tengah
756,98752,Mogodagi,94.08.05.2002,Kapiraya,Kabupaten,Deiyai,Papua Tengah
757,98752,Uwe Onagei,94.08.05.2005,Kapiraya,Kabupaten,Deiyai,Papua Tengah
758,98752,Yamouwitina,94.08.05.2003,Kapiraya,Kabupaten,Deiyai,Papua Tengah
759,98885,Duntek (Dumtek),94.06.04.2009,Kamu Utara,Kabupaten,Dogiyai,Papua Tengah
760,98885,Ekimani (Ekiwani),94.06.04.2010,Kamu Utara,Kabupaten,Dogiyai,Papua Tengah
761,98885,Idakebo,94.06.04.2001,Kamu Utara,Kabupaten,Dogiyai,Papua Tengah
762,98885,Ikrar,94.06.04.2004,Kamu Utara,Kabupaten,Dogiyai,Papua Tengah
763,98885,Koyakago (Kuyakago),94.06.04.2006,Kamu Utara,Kabupaten,Dogiyai,Papua Tengah
764,98885,Mogou,94.06.04.2007,Kamu Utara,Kabupaten,Dogiyai,Papua Tengah
765,98885,Obayo,94.06.04.2005,Kamu Utara,Kabupaten,Dogiyai,Papua Tengah
766,98885,Pugatadi Dua (II),94.06.04.2003,Kamu Utara,Kabupaten,Dogiyai,Papua Tengah
767,98885,Pugatadi Satu (I),94.06.04.2002,Kamu Utara,Kabupaten,Dogiyai,Papua Tengah
768,98885,Yametadi (Yawetadi),94.06.04.2008,Kamu Utara,Kabupaten,Dogiyai,Papua Tengah
769,98884,Boduda,94.06.08.2003,Kamu Timur,Kabupaten,Dogiyai,Papua Tengah
770,98884,Bokaibutu (Bukaibuto),94.06.08.2005,Kamu Timur,Kabupaten,Dogiyai,Papua Tengah
771,98884,Bonauwo (Bunauwo),94.06.08.2006,Kamu Timur,Kabupaten,Dogiyai,Papua Tengah
772,98884,Deiyapa (Deiyepa),94.06.08.2002,Kamu Timur,Kabupaten,Dogiyai,Papua Tengah
773,98884,Nuwa (Nua),94.06.08.2007,Kamu Timur,Kabupaten,Dogiyai,Papua Tengah
774,98884,Ugapuga,94.06.08.2001,Kamu Timur,Kabupaten,Dogiyai,Papua Tengah
775,98884,Yotapuga,94.06.08.2004,Kamu Timur,Kabupaten,Dogiyai,Papua Tengah
776,98883,Bogiyoteugi,94.06.07.2007,Kamu Selatan,Kabupaten,Dogiyai,Papua Tengah
777,98883,Botumuma (Botumoma),94.06.07.2004,Kamu Selatan,Kabupaten,Dogiyai,Papua Tengah
778,98883,Digikebo,94.06.07.2006,Kamu Selatan,Kabupaten,Dogiyai,Papua Tengah
779,98883,Matadi,94.06.07.2008,Kamu Selatan,Kabupaten,Dogiyai,Papua Tengah
780,98883,Obaibega,94.06.07.2005,Kamu Selatan,Kabupaten,Dogiyai,Papua Tengah
781,98883,Pouwouda (Pouwoda / Pouwuoda),94.06.07.2002,Kamu Selatan,Kabupaten,Dogiyai,Papua Tengah
782,98883,Puweta/Pueta I,94.06.07.2001,Kamu Selatan,Kabupaten,Dogiyai,Papua Tengah
783,98883,Puweta/Pueta II,94.06.07.2003,Kamu Selatan,Kabupaten,Dogiyai,Papua Tengah
784,98883,Tuwaida,94.06.07.2009,Kamu Selatan,Kabupaten,Dogiyai,Papua Tengah
785,98883,Ugikagouda,94.06.07.2011,Kamu Selatan,Kabupaten,Dogiyai,Papua Tengah
786,98883,Ugikebo,94.06.07.2012,Kamu Selatan,Kabupaten,Dogiyai,Papua Tengah
787,98883,Yepo (Makidimi),94.06.07.2010,Kamu Selatan,Kabupaten,Dogiyai,Papua Tengah
788,98882,Bukapa (Bugapa),94.06.01.2004,Kamu,Kabupaten,Dogiyai,Papua Tengah
789,98882,Dikiyouwo (Dikiyouwa / Dikiyouma / Tokapo),94.06.01.2006,Kamu,Kabupaten,Dogiyai,Papua Tengah
790,98882,Ekemanida (Ekemenida),94.06.01.2003,Kamu,Kabupaten,Dogiyai,Papua Tengah
791,98882,Idakotu,94.06.01.2007,Kamu,Kabupaten,Dogiyai,Papua Tengah
792,98882,Ikebo (Moanemani),94.06.01.2001,Kamu,Kabupaten,Dogiyai,Papua Tengah
793,98882,Kimipugi (Kimupugi),94.06.01.2005,Kamu,Kabupaten,Dogiyai,Papua Tengah
794,98882,Mauwa,94.06.01.2002,Kamu,Kabupaten,Dogiyai,Papua Tengah
795,98882,Putapa (Uputapa),94.06.01.2008,Kamu,Kabupaten,Dogiyai,Papua Tengah
796,98921,Agape,94.02.18.2002,Kalome,Kabupaten,Puncak Jaya,Papua Tengah
797,98921,Berem,94.02.18.2006,Kalome,Kabupaten,Puncak Jaya,Papua Tengah
798,98921,Binggelakme,94.02.18.2011,Kalome,Kabupaten,Puncak Jaya,Papua Tengah
799,98921,Cilome,94.02.18.2003,Kalome,Kabupaten,Puncak Jaya,Papua Tengah
800,98921,Diraluk,94.02.18.2007,Kalome,Kabupaten,Puncak Jaya,Papua Tengah
801,98921,Jinggwi,94.02.18.2015,Kalome,Kabupaten,Puncak Jaya,Papua Tengah
802,98921,Jiramok,94.02.18.2014,Kalome,Kabupaten,Puncak Jaya,Papua Tengah
803,98921,Kalome,94.02.18.2001,Kalome,Kabupaten,Puncak Jaya,Papua Tengah
804,98921,Kayogebur,94.02.18.2009,Kalome,Kabupaten,Puncak Jaya,Papua Tengah
805,98921,Longgawi,94.02.18.2004,Kalome,Kabupaten,Puncak Jaya,Papua Tengah
806,98921,Palumagi,94.02.18.2013,Kalome,Kabupaten,Puncak Jaya,Papua Tengah
807,98921,Pilibur,94.02.18.2016,Kalome,Kabupaten,Puncak Jaya,Papua Tengah
808,98921,Torage,94.02.18.2012,Kalome,Kabupaten,Puncak Jaya,Papua Tengah
809,98921,Wundini,94.02.18.2005,Kalome,Kabupaten,Puncak Jaya,Papua Tengah
810,98921,Wurabume,94.02.18.2010,Kalome,Kabupaten,Puncak Jaya,Papua Tengah
811,98921,Yanenggawi,94.02.18.2008,Kalome,Kabupaten,Puncak Jaya,Papua Tengah
812,99965,Bulumen,94.04.05.2008,Jita,Kabupaten,Mimika,Papua Tengah
813,99965,Jaitak,94.04.05.2010,Jita,Kabupaten,Mimika,Papua Tengah
814,99965,Kanmapiri,94.04.05.2009,Jita,Kabupaten,Mimika,Papua Tengah
815,99965,Noema,94.04.05.2003,Jita,Kabupaten,Mimika,Papua Tengah
816,99965,Sempan Timur,94.04.05.2001,Jita,Kabupaten,Mimika,Papua Tengah
817,99965,Sumapro,94.04.05.2005,Jita,Kabupaten,Mimika,Papua Tengah
818,99965,Wacakam,94.04.05.2006,Jita,Kabupaten,Mimika,Papua Tengah
819,99965,Waituku,94.04.05.2007,Jita,Kabupaten,Mimika,Papua Tengah
820,99965,Wapu,94.04.05.2004,Jita,Kabupaten,Mimika,Papua Tengah
821,99965,Wenin,94.04.05.2002,Jita,Kabupaten,Mimika,Papua Tengah
822,99961,Amua Ogom,94.04.06.2011,Jila,Kabupaten,Mimika,Papua Tengah
823,99961,Bunaraugin,94.04.06.2009,Jila,Kabupaten,Mimika,Papua Tengah
824,99961,Diloa,94.04.06.2002,Jila,Kabupaten,Mimika,Papua Tengah
825,99961,Diloa Dua,94.04.06.2025,Jila,Kabupaten,Mimika,Papua Tengah
826,99961,Jengkon,94.04.06.2007,Jila,Kabupaten,Mimika,Papua Tengah
827,99961,Jila,94.04.06.2001,Jila,Kabupaten,Mimika,Papua Tengah
828,99961,Noemun,94.04.06.2003,Jila,Kabupaten,Mimika,Papua Tengah
829,99961,Pasir Putih,94.04.06.2006,Jila,Kabupaten,Mimika,Papua Tengah
830,99961,Pilik Ogom,94.04.06.2008,Jila,Kabupaten,Mimika,Papua Tengah
831,99961,Pusuwe,94.04.06.2022,Jila,Kabupaten,Mimika,Papua Tengah
832,99961,Umpliga,94.04.06.2010,Jila,Kabupaten,Mimika,Papua Tengah
833,99961,Wandud,94.04.06.2024,Jila,Kabupaten,Mimika,Papua Tengah
834,99968,Iwaka,94.04.15.2003,Iwaka,Kabupaten,Mimika,Papua Tengah
835,99968,Limau Asri Barat,94.04.15.2007,Iwaka,Kabupaten,Mimika,Papua Tengah
836,99968,Limau Asri Timur,94.04.15.2001,Iwaka,Kabupaten,Mimika,Papua Tengah
837,99968,Mulia Kencana,94.04.15.2005,Iwaka,Kabupaten,Mimika,Papua Tengah
838,99968,Naena Muktipura,94.04.15.2004,Iwaka,Kabupaten,Mimika,Papua Tengah
839,99968,Pigapu,94.04.15.2006,Iwaka,Kabupaten,Mimika,Papua Tengah
840,99968,Wangirja,94.04.15.2002,Iwaka,Kabupaten,Mimika,Papua Tengah
841,98913,Anggutari,94.02.11.2004,Irimuli,Kabupaten,Puncak Jaya,Papua Tengah
842,98913,Dondo,94.02.11.2006,Irimuli,Kabupaten,Puncak Jaya,Papua Tengah
843,98913,Jiginikime,94.02.11.2002,Irimuli,Kabupaten,Puncak Jaya,Papua Tengah
844,98913,Niruwi,94.02.11.2008,Irimuli,Kabupaten,Puncak Jaya,Papua Tengah
845,98913,Puncak Senyum,94.02.11.2003,Irimuli,Kabupaten,Puncak Jaya,Papua Tengah
846,98913,Tanoba,94.02.11.2007,Irimuli,Kabupaten,Puncak Jaya,Papua Tengah
847,98913,Wondenggobak,94.02.11.2001,Irimuli,Kabupaten,Puncak Jaya,Papua Tengah
848,98913,Wunagelo,94.02.11.2005,Irimuli,Kabupaten,Puncak Jaya,Papua Tengah
849,98913,Yalikambi,94.02.11.2009,Irimuli,Kabupaten,Puncak Jaya,Papua Tengah
850,98935,Alukme (Aulukme),94.02.02.2069,Ilu,Kabupaten,Puncak Jaya,Papua Tengah
851,98935,Belantara,94.02.02.2035,Ilu,Kabupaten,Puncak Jaya,Papua Tengah
852,98935,Dolinggame,94.02.02.2027,Ilu,Kabupaten,Puncak Jaya,Papua Tengah
853,98935,Ginipago,94.02.02.2068,Ilu,Kabupaten,Puncak Jaya,Papua Tengah
854,98935,Girmor,94.02.02.2038,Ilu,Kabupaten,Puncak Jaya,Papua Tengah
855,98935,Gubulome,94.02.02.2046,Ilu,Kabupaten,Puncak Jaya,Papua Tengah
856,98935,Juria Satu,94.02.02.2041,Ilu,Kabupaten,Puncak Jaya,Papua Tengah
857,98935,Kalengga,94.02.02.2036,Ilu,Kabupaten,Puncak Jaya,Papua Tengah
858,98935,Kaninonggo,94.02.02.2051,Ilu,Kabupaten,Puncak Jaya,Papua Tengah
859,98935,Kirigimaduk,94.02.02.2065,Ilu,Kabupaten,Puncak Jaya,Papua Tengah
860,98935,Kurikpulok,94.02.02.2049,Ilu,Kabupaten,Puncak Jaya,Papua Tengah
861,98935,Lambo,94.02.02.2010,Ilu,Kabupaten,Puncak Jaya,Papua Tengah
862,98935,Maka,94.02.02.2039,Ilu,Kabupaten,Puncak Jaya,Papua Tengah
863,98935,Megawi Megewa,94.02.02.2048,Ilu,Kabupaten,Puncak Jaya,Papua Tengah
864,98935,Mobigi,94.02.02.2040,Ilu,Kabupaten,Puncak Jaya,Papua Tengah
865,98935,Pindebaga,94.02.02.2018,Ilu,Kabupaten,Puncak Jaya,Papua Tengah
866,98935,Pukipaki,94.02.02.2050,Ilu,Kabupaten,Puncak Jaya,Papua Tengah
867,98935,Pulau Timur,94.02.02.2037,Ilu,Kabupaten,Puncak Jaya,Papua Tengah
868,98935,Pulogengga,94.02.02.2067,Ilu,Kabupaten,Puncak Jaya,Papua Tengah
869,98935,Wurak,94.02.02.2002,Ilu,Kabupaten,Puncak Jaya,Papua Tengah
870,98935,Wurak (Kelurahan Wurak),94.02.02.1070,Ilu,Kabupaten,Puncak Jaya,Papua Tengah
871,98912,Berelema,94.02.13.2002,Ilamburawi,Kabupaten,Puncak Jaya,Papua Tengah
872,98912,Ilamburawi,94.02.13.2001,Ilamburawi,Kabupaten,Puncak Jaya,Papua Tengah
873,98912,Jigunikime,94.02.13.2005,Ilamburawi,Kabupaten,Puncak Jaya,Papua Tengah
874,98912,Kalome,94.02.13.2003,Ilamburawi,Kabupaten,Puncak Jaya,Papua Tengah
875,98912,Temu,94.02.13.2004,Ilamburawi,Kabupaten,Puncak Jaya,Papua Tengah
876,98966,Akonobak,94.05.18.2009,Ilaga Utara,Kabupaten,Puncak,Papua Tengah
877,98966,Amungi,94.05.18.2006,Ilaga Utara,Kabupaten,Puncak,Papua Tengah
878,98966,Ayali,94.05.18.2004,Ilaga Utara,Kabupaten,Puncak,Papua Tengah
879,98966,Maki,94.05.18.2002,Ilaga Utara,Kabupaten,Puncak,Papua Tengah
880,98966,Mayuberi,94.05.18.2001,Ilaga Utara,Kabupaten,Puncak,Papua Tengah
881,98966,Mundiba,94.05.18.2008,Ilaga Utara,Kabupaten,Puncak,Papua Tengah
882,98966,Olenki,94.05.18.2007,Ilaga Utara,Kabupaten,Puncak,Papua Tengah
883,98966,Paluga,94.05.18.2003,Ilaga Utara,Kabupaten,Puncak,Papua Tengah
884,98966,Toegi,94.05.18.2005,Ilaga Utara,Kabupaten,Puncak,Papua Tengah
885,98965,Ilambet,94.05.01.2020,Ilaga,Kabupaten,Puncak,Papua Tengah
886,98965,Jenggerpaga,94.05.01.2018,Ilaga,Kabupaten,Puncak,Papua Tengah
887,98965,Kago,94.05.01.2002,Ilaga,Kabupaten,Puncak,Papua Tengah
888,98965,Kalebut,94.05.01.2021,Ilaga,Kabupaten,Puncak,Papua Tengah
889,98965,kibogolome,94.05.01.2019,Ilaga,Kabupaten,Puncak,Papua Tengah
890,98965,Kimak,94.05.01.2006,Ilaga,Kabupaten,Puncak,Papua Tengah
891,98965,Nipuralome,94.05.01.2016,Ilaga,Kabupaten,Puncak,Papua Tengah
892,98965,Tagaloa,94.05.01.2017,Ilaga,Kabupaten,Puncak,Papua Tengah
893,98965,Wuloni,94.05.01.2012,Ilaga,Kabupaten,Puncak,Papua Tengah
894,99960,Hoya,94.04.14.2001,Hoya,Kabupaten,Mimika,Papua Tengah
895,99960,Jawa,94.04.14.2006,Hoya,Kabupaten,Mimika,Papua Tengah
896,99960,Jinonin,94.04.14.2003,Hoya,Kabupaten,Mimika,Papua Tengah
897,99960,Kulama Ogom,94.04.14.2004,Hoya,Kabupaten,Mimika,Papua Tengah
898,99960,Mamontoga,94.04.14.2002,Hoya,Kabupaten,Mimika,Papua Tengah
899,99960,Puti (Puti Semula),94.04.14.2005,Hoya,Kabupaten,Mimika,Papua Tengah
900,98791,Agapa,94.07.02.2014,Homeyo,Kabupaten,Intan Jaya,Papua Tengah
901,98791,Bamba,94.07.02.2006,Homeyo,Kabupaten,Intan Jaya,Papua Tengah
902,98791,Bilai Dua/Sanepa,94.07.02.2002,Homeyo,Kabupaten,Intan Jaya,Papua Tengah
903,98791,Bonogo,94.07.02.2013,Homeyo,Kabupaten,Intan Jaya,Papua Tengah
904,98791,Bubisiga,94.07.02.2018,Homeyo,Kabupaten,Intan Jaya,Papua Tengah
905,98791,Degesiga,94.07.02.2004,Homeyo,Kabupaten,Intan Jaya,Papua Tengah
906,98791,Engganenga,94.07.02.2015,Homeyo,Kabupaten,Intan Jaya,Papua Tengah
907,98791,Hiyabu,94.07.02.2011,Homeyo,Kabupaten,Intan Jaya,Papua Tengah
908,98791,Hugitapa,94.07.02.2017,Homeyo,Kabupaten,Intan Jaya,Papua Tengah
909,98791,Kendetapa,94.07.02.2010,Homeyo,Kabupaten,Intan Jaya,Papua Tengah
910,98791,Kobae,94.07.02.2008,Homeyo,Kabupaten,Intan Jaya,Papua Tengah
911,98791,Mapa,94.07.02.2001,Homeyo,Kabupaten,Intan Jaya,Papua Tengah
912,98791,Maya,94.07.02.2003,Homeyo,Kabupaten,Intan Jaya,Papua Tengah
913,98791,Mbomogo,94.07.02.2021,Homeyo,Kabupaten,Intan Jaya,Papua Tengah
914,98791,Nggagemba,94.07.02.2019,Homeyo,Kabupaten,Intan Jaya,Papua Tengah
915,98791,Ogeapa,94.07.02.2012,Homeyo,Kabupaten,Intan Jaya,Papua Tengah
916,98791,Pogapa,94.07.02.2005,Homeyo,Kabupaten,Intan Jaya,Papua Tengah
917,98791,Sanepa,94.07.02.2020,Homeyo,Kabupaten,Intan Jaya,Papua Tengah
918,98791,Selemama,94.07.02.2009,Homeyo,Kabupaten,Intan Jaya,Papua Tengah
919,98791,Waiagepa,94.07.02.2016,Homeyo,Kabupaten,Intan Jaya,Papua Tengah
920,98791,Zombandoga,94.07.02.2007,Homeyo,Kabupaten,Intan Jaya,Papua Tengah
921,98792,Balamai,94.07.06.2002,Hitadipa,Kabupaten,Intan Jaya,Papua Tengah
922,98792,Danggomba,94.07.06.2008,Hitadipa,Kabupaten,Intan Jaya,Papua Tengah
923,98792,Hitadipa,94.07.06.2006,Hitadipa,Kabupaten,Intan Jaya,Papua Tengah
924,98792,Janamba,94.07.06.2003,Hitadipa,Kabupaten,Intan Jaya,Papua Tengah
925,98792,Kulapa,94.07.06.2004,Hitadipa,Kabupaten,Intan Jaya,Papua Tengah
926,98792,Pugisiga,94.07.06.2005,Hitadipa,Kabupaten,Intan Jaya,Papua Tengah
927,98792,Sakumba,94.07.06.2009,Hitadipa,Kabupaten,Intan Jaya,Papua Tengah
928,98792,Soagama,94.07.06.2007,Hitadipa,Kabupaten,Intan Jaya,Papua Tengah
929,98792,Wabui,94.07.06.2001,Hitadipa,Kabupaten,Intan Jaya,Papua Tengah
930,98911,Gwenggu,94.02.10.2004,Gurage,Kabupaten,Puncak Jaya,Papua Tengah
931,98911,Lulame,94.02.10.2011,Gurage,Kabupaten,Puncak Jaya,Papua Tengah
932,98911,Nalime,94.02.10.2008,Gurage,Kabupaten,Puncak Jaya,Papua Tengah
933,98911,Pilia,94.02.10.2002,Gurage,Kabupaten,Puncak Jaya,Papua Tengah
934,98911,Tiru,94.02.10.2006,Gurage,Kabupaten,Puncak Jaya,Papua Tengah
935,98911,Tukwi,94.02.10.2005,Gurage,Kabupaten,Puncak Jaya,Papua Tengah
936,98911,Urgele,94.02.10.2009,Gurage,Kabupaten,Puncak Jaya,Papua Tengah
937,98911,Yagonik,94.02.10.2010,Gurage,Kabupaten,Puncak Jaya,Papua Tengah
938,98911,Yaniruk,94.02.10.2003,Gurage,Kabupaten,Puncak Jaya,Papua Tengah
939,98911,Yarmukum,94.02.10.2001,Gurage,Kabupaten,Puncak Jaya,Papua Tengah
940,98911,Yogorini,94.02.10.2007,Gurage,Kabupaten,Puncak Jaya,Papua Tengah
941,98931,Apelome,94.02.23.2005,Gubume,Kabupaten,Puncak Jaya,Papua Tengah
942,98931,Ginilume,94.02.23.2013,Gubume,Kabupaten,Puncak Jaya,Papua Tengah
943,98931,Gubume,94.02.23.2001,Gubume,Kabupaten,Puncak Jaya,Papua Tengah
944,98931,Gubuneri,94.02.23.2009,Gubume,Kabupaten,Puncak Jaya,Papua Tengah
945,98931,Jinggi,94.02.23.2012,Gubume,Kabupaten,Puncak Jaya,Papua Tengah
946,98931,Kenendaga,94.02.23.2004,Gubume,Kabupaten,Puncak Jaya,Papua Tengah
947,98931,Kumigi,94.02.23.2006,Gubume,Kabupaten,Puncak Jaya,Papua Tengah
948,98931,Liguni,94.02.23.2010,Gubume,Kabupaten,Puncak Jaya,Papua Tengah
949,98931,Melela,94.02.23.2003,Gubume,Kabupaten,Puncak Jaya,Papua Tengah
950,98931,Menggegenikime,94.02.23.2015,Gubume,Kabupaten,Puncak Jaya,Papua Tengah
951,98931,Milineri,94.02.23.2002,Gubume,Kabupaten,Puncak Jaya,Papua Tengah
952,98931,Mondu,94.02.23.2011,Gubume,Kabupaten,Puncak Jaya,Papua Tengah
953,98931,Noba Noba,94.02.23.2007,Gubume,Kabupaten,Puncak Jaya,Papua Tengah
954,98931,Nogi,94.02.23.2008,Gubume,Kabupaten,Puncak Jaya,Papua Tengah
955,98931,Timoramo,94.02.23.2017,Gubume,Kabupaten,Puncak Jaya,Papua Tengah
956,98931,Tinggirege,94.02.23.2016,Gubume,Kabupaten,Puncak Jaya,Papua Tengah
957,98931,Wunggani,94.02.23.2014,Gubume,Kabupaten,Puncak Jaya,Papua Tengah
958,98964,Mundidok,94.05.24.2001,Gome Utara,Kabupaten,Puncak,Papua Tengah
959,98964,Tobenggi,94.05.24.2003,Gome Utara,Kabupaten,Puncak,Papua Tengah
960,98964,Towenggi II,94.05.24.2004,Gome Utara,Kabupaten,Puncak,Papua Tengah
961,98964,Welenggaru,94.05.24.2005,Gome Utara,Kabupaten,Puncak,Papua Tengah
962,98964,Yaiki Maiki,94.05.24.2002,Gome Utara,Kabupaten,Puncak,Papua Tengah
963,98963,Agiyome,94.05.08.2007,Gome,Kabupaten,Puncak,Papua Tengah
964,98963,Gome,94.05.08.2002,Gome,Kabupaten,Puncak,Papua Tengah
965,98963,Kelanungin,94.05.08.2015,Gome,Kabupaten,Puncak,Papua Tengah
966,98963,Misimaga,94.05.08.2004,Gome,Kabupaten,Puncak,Papua Tengah
967,98963,Ninggabuma,94.05.08.2014,Gome,Kabupaten,Puncak,Papua Tengah
968,98963,Tegelobak,94.05.08.2013,Gome,Kabupaten,Puncak,Papua Tengah
969,98963,Upaga,94.05.08.2006,Gome,Kabupaten,Puncak,Papua Tengah
970,98963,Wako,94.05.08.2009,Gome,Kabupaten,Puncak,Papua Tengah
971,98963,Yenggernok,94.05.08.2008,Gome,Kabupaten,Puncak,Papua Tengah
972,98963,Yonggolawi,94.05.08.2016,Gome,Kabupaten,Puncak,Papua Tengah
973,98942,Bakusi,94.02.03.2007,Fawi,Kabupaten,Puncak Jaya,Papua Tengah
974,98942,Biricare,94.02.03.2013,Fawi,Kabupaten,Puncak Jaya,Papua Tengah
975,98942,Dorey,94.02.03.2014,Fawi,Kabupaten,Puncak Jaya,Papua Tengah
976,98942,Evo,94.02.03.2016,Fawi,Kabupaten,Puncak Jaya,Papua Tengah
977,98942,Fawi,94.02.03.2001,Fawi,Kabupaten,Puncak Jaya,Papua Tengah
978,98942,Fii,94.02.03.2015,Fawi,Kabupaten,Puncak Jaya,Papua Tengah
979,98942,Kaho,94.02.03.2012,Fawi,Kabupaten,Puncak Jaya,Papua Tengah
980,98942,Turumo,94.02.03.2008,Fawi,Kabupaten,Puncak Jaya,Papua Tengah
981,98942,Yerei,94.02.03.2017,Fawi,Kabupaten,Puncak Jaya,Papua Tengah
982,98732,Akoubaida,94.03.24.2002,Fajar Timur,Kabupaten,Paniai,Papua Tengah
983,98731,Bodatadi,94.03.24.2006,Fajar Timur,Kabupaten,Paniai,Papua Tengah
984,98731,Dauwagu,94.03.24.2003,Fajar Timur,Kabupaten,Paniai,Papua Tengah
985,98731,Ganeyetaka,94.03.24.2004,Fajar Timur,Kabupaten,Paniai,Papua Tengah
986,98731,Ibouwagu,94.03.24.2007,Fajar Timur,Kabupaten,Paniai,Papua Tengah
987,98732,Yabomaida,94.03.24.2001,Fajar Timur,Kabupaten,Paniai,Papua Tengah
988,98732,Yabomaida II,94.03.24.2005,Fajar Timur,Kabupaten,Paniai,Papua Tengah
989,98962,Ai Arama,94.05.25.2009,Erelmakawia,Kabupaten,Puncak,Papua Tengah
990,98962,Amungkonin,94.05.25.2006,Erelmakawia,Kabupaten,Puncak,Papua Tengah
991,98962,Bomogin,94.05.25.2003,Erelmakawia,Kabupaten,Puncak,Papua Tengah
992,98962,Erelmakawia,94.05.25.2001,Erelmakawia,Kabupaten,Puncak,Papua Tengah
993,98962,Ipmangkop,94.05.25.2007,Erelmakawia,Kabupaten,Puncak,Papua Tengah
994,98962,Kalpamonora,94.05.25.2002,Erelmakawia,Kabupaten,Puncak,Papua Tengah
995,98962,Mamoldema,94.05.25.2004,Erelmakawia,Kabupaten,Puncak,Papua Tengah
996,98962,Tamagun,94.05.25.2008,Erelmakawia,Kabupaten,Puncak,Papua Tengah
997,98962,Wamagun,94.05.25.2005,Erelmakawia,Kabupaten,Puncak,Papua Tengah
998,98733,Baguwo,94.03.10.2009,Ekadide,Kabupaten,Paniai,Papua Tengah
999,98733,Dabamomaida,94.03.10.2008,Ekadide,Kabupaten,Paniai,Papua Tengah
1000,98733,Debamomaida,94.03.10.2011,Ekadide,Kabupaten,Paniai,Papua Tengah
1001,98733,Geida,94.03.10.2002,Ekadide,Kabupaten,Paniai,Papua Tengah
1002,98733,Iteuwo,94.03.10.2005,Ekadide,Kabupaten,Paniai,Papua Tengah
1003,98733,Keneugi,94.03.10.2010,Ekadide,Kabupaten,Paniai,Papua Tengah
1004,98733,Makidimi,94.03.10.2004,Ekadide,Kabupaten,Paniai,Papua Tengah
1005,98733,Ogeida,94.03.10.2006,Ekadide,Kabupaten,Paniai,Papua Tengah
1006,98733,Pasir Putih,94.03.10.2001,Ekadide,Kabupaten,Paniai,Papua Tengah
1007,98733,Tegougi Pugaida,94.03.10.2012,Ekadide,Kabupaten,Paniai,Papua Tengah
1008,98733,Teguogi Pugaida II,94.03.10.2007,Ekadide,Kabupaten,Paniai,Papua Tengah
1009,98733,Widimeida,94.03.10.2003,Ekadide,Kabupaten,Paniai,Papua Tengah
1010,98743,Bomosiga,94.03.06.2002,Dumadama,Kabupaten,Paniai,Papua Tengah
1011,98743,Duma,94.03.06.2001,Dumadama,Kabupaten,Paniai,Papua Tengah
1012,98743,Duma II,94.03.06.2005,Dumadama,Kabupaten,Paniai,Papua Tengah
1013,98743,Japesigaiwaka,94.03.06.2003,Dumadama,Kabupaten,Paniai,Papua Tengah
1014,98743,Waitapa,94.03.06.2004,Dumadama,Kabupaten,Paniai,Papua Tengah
1015,98982,Doufo,94.05.04.2001,Doufo,Kabupaten,Puncak,Papua Tengah
1016,98982,Iratoi,94.05.04.2002,Doufo,Kabupaten,Puncak,Papua Tengah
1017,98982,Jirei,94.05.04.2010,Doufo,Kabupaten,Puncak,Papua Tengah
1018,98982,Lani,94.05.04.2006,Doufo,Kabupaten,Puncak,Papua Tengah
1019,98982,Rawa,94.05.04.2009,Doufo,Kabupaten,Puncak,Papua Tengah
1020,98982,Sibita,94.05.04.2008,Doufo,Kabupaten,Puncak,Papua Tengah
1021,98982,Wahuka,94.05.04.2007,Doufo,Kabupaten,Puncak,Papua Tengah
1022,98924,Dokome,94.02.17.2001,Dokome,Kabupaten,Puncak Jaya,Papua Tengah
1023,98924,Imulineri,94.02.17.2006,Dokome,Kabupaten,Puncak Jaya,Papua Tengah
1024,98924,Kimibut,94.02.17.2008,Dokome,Kabupaten,Puncak Jaya,Papua Tengah
1025,98924,Molobak,94.02.17.2007,Dokome,Kabupaten,Puncak Jaya,Papua Tengah
1026,98924,Nowome,94.02.17.2005,Dokome,Kabupaten,Puncak Jaya,Papua Tengah
1027,98924,Nowoneri,94.02.17.2004,Dokome,Kabupaten,Puncak Jaya,Papua Tengah
1028,98924,Nungwawi,94.02.17.2009,Dokome,Kabupaten,Puncak Jaya,Papua Tengah
1029,98924,Purbalo,94.02.17.2002,Dokome,Kabupaten,Puncak Jaya,Papua Tengah
1030,98924,Wurage,94.02.17.2003,Dokome,Kabupaten,Puncak Jaya,Papua Tengah
1031,98742,Bomong Bugopa,94.03.21.2002,Dogomo,Kabupaten,Paniai,Papua Tengah
1032,98742,Dangipa,94.03.21.2003,Dogomo,Kabupaten,Paniai,Papua Tengah
1033,98742,Dogomo,94.03.21.2001,Dogomo,Kabupaten,Paniai,Papua Tengah
1034,98742,Ondegapa,94.03.21.2004,Dogomo,Kabupaten,Paniai,Papua Tengah
1035,98742,Sogomo,94.03.21.2005,Dogomo,Kabupaten,Paniai,Papua Tengah
1036,98881,Bobobutu (Bobubutu),94.06.10.2008,Dogiyai,Kabupaten,Dogiyai,Papua Tengah
1037,98881,Denemani,94.06.10.2004,Dogiyai,Kabupaten,Dogiyai,Papua Tengah
1038,98881,Dogimani (Abgoigi),94.06.10.2001,Dogiyai,Kabupaten,Dogiyai,Papua Tengah
1039,98881,Egebutu,94.06.10.2006,Dogiyai,Kabupaten,Dogiyai,Papua Tengah
1040,98881,Idadagi,94.06.10.2003,Dogiyai,Kabupaten,Dogiyai,Papua Tengah
1041,98881,Kegemani (Kigamani),94.06.10.2002,Dogiyai,Kabupaten,Dogiyai,Papua Tengah
1042,98881,Makidimi (Makidini),94.06.10.2005,Dogiyai,Kabupaten,Dogiyai,Papua Tengah
1043,98881,Motito,94.06.10.2007,Dogiyai,Kabupaten,Dogiyai,Papua Tengah
1044,98881,Pona (Sukamaju),94.06.10.2009,Dogiyai,Kabupaten,Dogiyai,Papua Tengah
1045,98843,Dikia (Dikiya),94.01.14.2002,Dipa,Kabupaten,Nabire,Papua Tengah
1046,98843,Epouwa (Epowa),94.01.14.2001,Dipa,Kabupaten,Nabire,Papua Tengah
1047,98843,Jainoa,94.01.14.2005,Dipa,Kabupaten,Nabire,Papua Tengah
1048,98843,Jigikebo,94.01.14.2004,Dipa,Kabupaten,Nabire,Papua Tengah
1049,98843,Tagauto (Tadautu),94.01.14.2003,Dipa,Kabupaten,Nabire,Papua Tengah
1050,98981,Dervos,94.05.09.2007,Dervos,Kabupaten,Puncak,Papua Tengah
1051,98981,Duaita,94.05.09.2006,Dervos,Kabupaten,Puncak,Papua Tengah
1052,98981,Faisau,94.05.09.2003,Dervos,Kabupaten,Puncak,Papua Tengah
1053,98981,Foisa,94.05.09.2005,Dervos,Kabupaten,Puncak,Papua Tengah
1054,98981,Fokri,94.05.09.2004,Dervos,Kabupaten,Puncak,Papua Tengah
1055,98981,Kordesi,94.05.09.2002,Dervos,Kabupaten,Puncak,Papua Tengah
1056,98981,Tayai,94.05.09.2001,Dervos,Kabupaten,Puncak,Papua Tengah
1057,98725,Deiyamo,94.03.20.2005,Deiyai Miyo,Kabupaten,Paniai,Papua Tengah
1058,98725,Epouto,94.03.20.2002,Deiyai Miyo,Kabupaten,Paniai,Papua Tengah
1059,98725,Miyamo,94.03.20.2006,Deiyai Miyo,Kabupaten,Paniai,Papua Tengah
1060,98725,Tugu Kagomoma,94.03.20.2004,Deiyai Miyo,Kabupaten,Paniai,Papua Tengah
1061,98725,Tugumo,94.03.20.2003,Deiyai Miyo,Kabupaten,Paniai,Papua Tengah
1062,98725,Uwebutu,94.03.20.2001,Deiyai Miyo,Kabupaten,Paniai,Papua Tengah
1063,98941,Dagai,94.02.25.2001,Dagai,Kabupaten,Puncak Jaya,Papua Tengah
1064,98941,Dagai Dua,94.02.25.2002,Dagai,Kabupaten,Puncak Jaya,Papua Tengah
1065,98941,Debite,94.02.25.2009,Dagai,Kabupaten,Puncak Jaya,Papua Tengah
1066,98941,Deide,94.02.25.2003,Dagai,Kabupaten,Puncak Jaya,Papua Tengah
1067,98941,Farride,94.02.25.2004,Dagai,Kabupaten,Puncak Jaya,Papua Tengah
1068,98941,Gueri,94.02.25.2010,Dagai,Kabupaten,Puncak Jaya,Papua Tengah
1069,98941,Mandara Lani,94.02.25.2008,Dagai,Kabupaten,Puncak Jaya,Papua Tengah
1070,98941,Mbomban,94.02.25.2006,Dagai,Kabupaten,Puncak Jaya,Papua Tengah
1071,98941,Soi,94.02.25.2005,Dagai,Kabupaten,Puncak Jaya,Papua Tengah
1072,98941,Yeihineri (Yeihneri),94.02.25.2007,Dagai,Kabupaten,Puncak Jaya,Papua Tengah
1073,98751,Diita,94.08.03.2006,Bowobado,Kabupaten,Deiyai,Papua Tengah
1074,98751,Kopai Dua (II),94.08.03.2002,Bowobado,Kabupaten,Deiyai,Papua Tengah
1075,98751,Kopai Satu (I),94.08.03.2001,Bowobado,Kabupaten,Deiyai,Papua Tengah
1076,98751,Mudetadi,94.08.03.2005,Bowobado,Kabupaten,Deiyai,Papua Tengah
1077,98751,Woge,94.08.03.2003,Bowobado,Kabupaten,Deiyai,Papua Tengah
1078,98751,Yewadide,94.08.03.2004,Bowobado,Kabupaten,Deiyai,Papua Tengah
1079,98736,Bogobaida,94.03.04.2001,Bogabaida,Kabupaten,Paniai,Papua Tengah
1080,98736,Eyapouda,94.03.04.2007,Bogabaida,Kabupaten,Paniai,Papua Tengah
1081,98736,Jibudide II,94.03.04.2004,Bogabaida,Kabupaten,Paniai,Papua Tengah
1082,98736,Kagoudide,94.03.04.2006,Bogabaida,Kabupaten,Paniai,Papua Tengah
1083,98736,Madou,94.03.04.2003,Bogabaida,Kabupaten,Paniai,Papua Tengah
1084,98736,Miyokepi,94.03.04.2008,Bogabaida,Kabupaten,Paniai,Papua Tengah
1085,98736,Nawipauwo,94.03.04.2002,Bogabaida,Kabupaten,Paniai,Papua Tengah
1086,98736,Obaya Dimi,94.03.04.2009,Bogabaida,Kabupaten,Paniai,Papua Tengah
1087,98736,Yumauwo,94.03.04.2005,Bogabaida,Kabupaten,Paniai,Papua Tengah
1088,98971,Bina,94.05.14.2002,Bina,Kabupaten,Puncak,Papua Tengah
1089,98971,Golu,94.05.14.2001,Bina,Kabupaten,Puncak,Papua Tengah
1090,98971,Kabogoluk,94.05.14.2005,Bina,Kabupaten,Puncak,Papua Tengah
1091,98971,Lumakluk,94.05.14.2003,Bina,Kabupaten,Puncak,Papua Tengah
1092,98971,Mamaput,94.05.14.2007,Bina,Kabupaten,Puncak,Papua Tengah
1093,98971,Ogomegat,94.05.14.2006,Bina,Kabupaten,Puncak,Papua Tengah
1094,98971,Wogot,94.05.14.2004,Bina,Kabupaten,Puncak,Papua Tengah
1095,98741,Bibida,94.03.05.1001,Bibida,Kabupaten,Paniai,Papua Tengah
1096,98741,Dama Dama,94.03.05.2007,Bibida,Kabupaten,Paniai,Papua Tengah
1097,98741,Kolaitaga,94.03.05.2006,Bibida,Kabupaten,Paniai,Papua Tengah
1098,98741,Kugaisiga,94.03.05.2005,Bibida,Kabupaten,Paniai,Papua Tengah
1099,98741,Odiyai,94.03.05.2003,Bibida,Kabupaten,Paniai,Papua Tengah
1100,98741,Tuwaktu,94.03.05.2004,Bibida,Kabupaten,Paniai,Papua Tengah
1101,98741,Ugidimi,94.03.05.2002,Bibida,Kabupaten,Paniai,Papua Tengah
1102,98784,Aneya,94.07.04.2011,Biandoga,Kabupaten,Intan Jaya,Papua Tengah
1103,98784,Biandoga,94.07.04.2002,Biandoga,Kabupaten,Intan Jaya,Papua Tengah
1104,98784,Bugalaga,94.07.04.2003,Biandoga,Kabupaten,Intan Jaya,Papua Tengah
1105,98784,Danggatadi,94.07.04.2001,Biandoga,Kabupaten,Intan Jaya,Papua Tengah
1106,98784,Kalawa,94.07.04.2005,Biandoga,Kabupaten,Intan Jaya,Papua Tengah
1107,98784,Kigitadi,94.07.04.2012,Biandoga,Kabupaten,Intan Jaya,Papua Tengah
1108,98784,Maniuwo,94.07.04.2007,Biandoga,Kabupaten,Intan Jaya,Papua Tengah
1109,98784,Maolagi,94.07.04.2010,Biandoga,Kabupaten,Intan Jaya,Papua Tengah
1110,98784,Moyomataga,94.07.04.2014,Biandoga,Kabupaten,Intan Jaya,Papua Tengah
1111,98784,Ndabatadi,94.07.04.2013,Biandoga,Kabupaten,Intan Jaya,Papua Tengah
1112,98784,Pagamba,94.07.04.2009,Biandoga,Kabupaten,Intan Jaya,Papua Tengah
1113,98784,Pitadi,94.07.04.2015,Biandoga,Kabupaten,Intan Jaya,Papua Tengah
1114,98784,Tunggapo,94.07.04.2008,Biandoga,Kabupaten,Intan Jaya,Papua Tengah
1115,98784,Ular Merah,94.07.04.2016,Biandoga,Kabupaten,Intan Jaya,Papua Tengah
1116,98784,Yagaito,94.07.04.2004,Biandoga,Kabupaten,Intan Jaya,Papua Tengah
1117,98784,Yanei,94.07.04.2006,Biandoga,Kabupaten,Intan Jaya,Papua Tengah
1118,98953,Bungok,94.05.11.2008,Beoga Timur,Kabupaten,Puncak,Papua Tengah
1119,98953,Gimurik,94.05.11.2005,Beoga Timur,Kabupaten,Puncak,Papua Tengah
1120,98953,Kelandiruma,94.05.11.2002,Beoga Timur,Kabupaten,Puncak,Papua Tengah
1121,98953,Meningimte,94.05.11.2007,Beoga Timur,Kabupaten,Puncak,Papua Tengah
1122,98953,Pilokoma,94.05.11.2004,Beoga Timur,Kabupaten,Puncak,Papua Tengah
1123,98953,Puluk,94.05.11.2001,Beoga Timur,Kabupaten,Puncak,Papua Tengah
1124,98953,Pupet,94.05.11.2003,Beoga Timur,Kabupaten,Puncak,Papua Tengah
1125,98953,Wandibet,94.05.11.2006,Beoga Timur,Kabupaten,Puncak,Papua Tengah
1126,98952,Babe,94.05.10.2001,Beoga Barat,Kabupaten,Puncak,Papua Tengah
1127,98952,Jambul,94.05.10.2002,Beoga Barat,Kabupaten,Puncak,Papua Tengah
1128,98952,Jenggeren,94.05.10.2006,Beoga Barat,Kabupaten,Puncak,Papua Tengah
1129,98952,Kelmabet,94.05.10.2005,Beoga Barat,Kabupaten,Puncak,Papua Tengah
1130,98952,Mugulip,94.05.10.2004,Beoga Barat,Kabupaten,Puncak,Papua Tengah
1131,98952,Nungai,94.05.10.2003,Beoga Barat,Kabupaten,Puncak,Papua Tengah
1132,98951,Ambobera,94.05.03.2014,Beoga,Kabupaten,Puncak,Papua Tengah
1133,98951,Dambet,94.05.03.2012,Beoga,Kabupaten,Puncak,Papua Tengah
1134,98951,Dengkibuma,94.05.03.2010,Beoga,Kabupaten,Puncak,Papua Tengah
1135,98951,Milawak,94.05.03.2002,Beoga,Kabupaten,Puncak,Papua Tengah
1136,98951,Ogamki,94.05.03.2009,Beoga,Kabupaten,Puncak,Papua Tengah
1137,98951,Ondugi,94.05.03.2013,Beoga,Kabupaten,Puncak,Papua Tengah
1138,98951,Tinggilbet,94.05.03.2007,Beoga,Kabupaten,Puncak,Papua Tengah
1139,98951,Yulukoma,94.05.03.2001,Beoga,Kabupaten,Puncak,Papua Tengah
1140,98735,Baya Biru,94.03.19.2003,Baya Biru,Kabupaten,Paniai,Papua Tengah
1141,98735,Jigitopa Timur,94.03.19.2004,Baya Biru,Kabupaten,Paniai,Papua Tengah
1142,98735,Maatadi,94.03.19.2005,Baya Biru,Kabupaten,Paniai,Papua Tengah
1143,98735,Nomouwodide,94.03.19.2001,Baya Biru,Kabupaten,Paniai,Papua Tengah
1144,98735,Pikokebo,94.03.19.2002,Baya Biru,Kabupaten,Paniai,Papua Tengah
1145,98735,Pupekebo,94.03.19.2006,Baya Biru,Kabupaten,Paniai,Papua Tengah
1146,98732,Bumaida,94.03.22.2004,Aweida,Kabupaten,Paniai,Papua Tengah
1147,98732,Debaiye,94.03.22.2005,Aweida,Kabupaten,Paniai,Papua Tengah
1148,98732,Deta,94.03.22.2001,Aweida,Kabupaten,Paniai,Papua Tengah
1149,98732,Komopa,94.03.22.2007,Aweida,Kabupaten,Paniai,Papua Tengah
1150,98732,Tuguwai,94.03.22.2002,Aweida,Kabupaten,Paniai,Papua Tengah
1151,98732,Tuguwai Moma,94.03.22.2003,Aweida,Kabupaten,Paniai,Papua Tengah
1152,98731,Abatadi,94.03.03.2003,Aradide,Kabupaten,Paniai,Papua Tengah
1153,98731,Agapo,94.03.03.2002,Aradide,Kabupaten,Paniai,Papua Tengah
1154,98731,Baguwo,94.03.03.2005,Aradide,Kabupaten,Paniai,Papua Tengah
1155,98731,Dinubutu,94.03.03.2009,Aradide,Kabupaten,Paniai,Papua Tengah
1156,98731,Duwadide,94.03.03.2013,Aradide,Kabupaten,Paniai,Papua Tengah
1157,98731,Emai,94.03.03.2008,Aradide,Kabupaten,Paniai,Papua Tengah
1158,98731,Makidini,94.03.03.2006,Aradide,Kabupaten,Paniai,Papua Tengah
1159,98731,Tagiya,94.03.03.2007,Aradide,Kabupaten,Paniai,Papua Tengah
1160,98731,Toyaimoti,94.03.03.2001,Aradide,Kabupaten,Paniai,Papua Tengah
1161,98961,Alama,94.05.23.2004,Amungkalpia,Kabupaten,Puncak,Papua Tengah
1162,98961,Amungkalpia,94.05.23.2001,Amungkalpia,Kabupaten,Puncak,Papua Tengah
1163,98961,Bela,94.05.23.2002,Amungkalpia,Kabupaten,Puncak,Papua Tengah
1164,98961,Bemoki,94.05.23.2006,Amungkalpia,Kabupaten,Puncak,Papua Tengah
1165,98961,Ompliga,94.05.23.2003,Amungkalpia,Kabupaten,Puncak,Papua Tengah
1166,98961,Tagalarama,94.05.23.2005,Amungkalpia,Kabupaten,Puncak,Papua Tengah
1167,99973,Amar,94.04.17.2001,Amar,Kabupaten,Mimika,Papua Tengah
1168,99973,Ipiri,94.04.17.2004,Amar,Kabupaten,Mimika,Papua Tengah
1169,99973,Kawar,94.04.17.2002,Amar,Kabupaten,Mimika,Papua Tengah
1170,99973,Manuare,94.04.17.2003,Amar,Kabupaten,Mimika,Papua Tengah
1171,99973,Paripi,94.04.17.2005,Amar,Kabupaten,Mimika,Papua Tengah
1172,99973,Yaraya,94.04.17.2006,Amar,Kabupaten,Mimika,Papua Tengah
1173,99966,Alama,94.04.18.2002,Alama,Kabupaten,Mimika,Papua Tengah
1174,99966,Bemoki,94.04.18.2005,Alama,Kabupaten,Mimika,Papua Tengah
1175,99966,Enggin,94.04.18.2001,Alama,Kabupaten,Mimika,Papua Tengah
1176,99966,Geselema,94.04.18.2007,Alama,Kabupaten,Mimika,Papua Tengah
1177,99966,Jenggelo,94.04.18.2009,Alama,Kabupaten,Mimika,Papua Tengah
1178,99966,Kilmit,94.04.18.2011,Alama,Kabupaten,Mimika,Papua Tengah
1179,99966,Purua,94.04.18.2010,Alama,Kabupaten,Mimika,Papua Tengah
1180,99966,Senawak,94.04.18.2003,Alama,Kabupaten,Mimika,Papua Tengah
1181,99966,Tagaralma,94.04.18.2006,Alama,Kabupaten,Mimika,Papua Tengah
1182,99966,Unimogom,94.04.18.2004,Alama,Kabupaten,Mimika,Papua Tengah
1183,99966,Wuarem,94.04.18.2008,Alama,Kabupaten,Mimika,Papua Tengah
1184,98782,Agisiga,94.07.05.2001,Agisiga,Kabupaten,Intan Jaya,Papua Tengah
1185,98782,Danggoa,94.07.05.2009,Agisiga,Kabupaten,Intan Jaya,Papua Tengah
1186,98782,Jenetapa Najasiga,94.07.05.2005,Agisiga,Kabupaten,Intan Jaya,Papua Tengah
1187,98782,Kombogosiga,94.07.05.2010,Agisiga,Kabupaten,Intan Jaya,Papua Tengah
1188,98782,Mbamogo,94.07.05.2004,Agisiga,Kabupaten,Intan Jaya,Papua Tengah
1189,98782,Nabia,94.07.05.2008,Agisiga,Kabupaten,Intan Jaya,Papua Tengah
1190,98782,Soali,94.07.05.2006,Agisiga,Kabupaten,Intan Jaya,Papua Tengah
1191,98782,Tambage,94.07.05.2007,Agisiga,Kabupaten,Intan Jaya,Papua Tengah
1192,98782,Tousiga,94.07.05.2002,Agisiga,Kabupaten,Intan Jaya,Papua Tengah
1193,98782,Unabundoga,94.07.05.2003,Agisiga,Kabupaten,Intan Jaya,Papua Tengah
1194,99964,Amungun,94.04.02.2002,Agimuga,Kabupaten,Mimika,Papua Tengah
1195,99964,Aramsolki,94.04.02.2003,Agimuga,Kabupaten,Mimika,Papua Tengah
1196,99964,Emkoma Halama,94.04.02.2007,Agimuga,Kabupaten,Mimika,Papua Tengah
1197,99964,Emogoma,94.04.02.2006,Agimuga,Kabupaten,Mimika,Papua Tengah
1198,99964,Fakafuku,94.04.02.2004,Agimuga,Kabupaten,Mimika,Papua Tengah
1199,99964,Hinat Untung,94.04.02.2008,Agimuga,Kabupaten,Mimika,Papua Tengah
1200,99964,Kiliarma,94.04.02.2001,Agimuga,Kabupaten,Mimika,Papua Tengah
1201,99964,Masasimamo,94.04.02.2005,Agimuga,Kabupaten,Mimika,Papua Tengah
1202,98970,Agandugume,94.05.07.2001,Agandugume,Kabupaten,Puncak,Papua Tengah
1203,98970,Ayume,94.05.07.2008,Agandugume,Kabupaten,Puncak,Papua Tengah
1204,98970,Dolinggu,94.05.07.2007,Agandugume,Kabupaten,Puncak,Papua Tengah
1205,98970,Dugunale,94.05.07.2005,Agandugume,Kabupaten,Puncak,Papua Tengah
1206,98970,Gut'yenggenak,94.05.07.2004,Agandugume,Kabupaten,Puncak,Papua Tengah
1207,98970,Ogobak'pelenak,94.05.07.2006,Agandugume,Kabupaten,Puncak,Papua Tengah
1208,98970,Terowi,94.05.07.2009,Agandugume,Kabupaten,Puncak,Papua Tengah