no,postal_code,urban,area_code,sub_district,dt2,city,province
1,98122,Hairapara,92.08.07.2005,Yamor,Kabupaten,Kaimana,Papua Barat
2,98122,Omba Pamuku,92.08.07.2006,Yamor,Kabupaten,Kaimana,Papua Barat
3,98122,Ure (Mury/Uray),92.08.07.2001,Yamor,Kabupaten,Kaimana,Papua Barat
4,98122,Urubika,92.08.07.2003,Yamor,Kabupaten,Kaimana,Papua Barat
5,98122,Wagoha (Wagioha),92.08.07.2004,Yamor,Kabupaten,Kaimana,Papua Barat
6,98122,Wosokuno,92.08.07.2002,Yamor,Kabupaten,Kaimana,Papua Barat
7,98347,Issui,92.07.04.2010,Wondiboy,Kabupaten,Teluk Wondama,Papua Barat
8,98347,Kabouw,92.07.04.2009,Wondiboy,Kabupaten,Teluk Wondama,Papua Barat
9,98347,Kaibi,92.07.04.2015,Wondiboy,Kabupaten,Teluk Wondama,Papua Barat
10,98347,Wondiboy,92.07.04.2002,Wondiboy,Kabupaten,Teluk Wondama,Papua Barat
11,98336,Sandey,92.07.02.2010,Windesi,Kabupaten,Teluk Wondama,Papua Barat
12,98336,Sombokoro,92.07.02.2004,Windesi,Kabupaten,Teluk Wondama,Papua Barat
13,98336,Wamesa Tengah,92.07.02.2001,Windesi,Kabupaten,Teluk Wondama,Papua Barat
14,98336,Windesi,92.07.02.2007,Windesi,Kabupaten,Teluk Wondama,Papua Barat
15,98336,Yopmeos (Yopmios),92.07.02.2002,Windesi,Kabupaten,Teluk Wondama,Papua Barat
16,98157,Mogotira (Mogmesa),92.06.21.2002,Weriagar,Kabupaten,Teluk Bintuni,Papua Barat
17,98157,Tuanaikin,92.06.21.2005,Weriagar,Kabupaten,Teluk Bintuni,Papua Barat
18,98157,Weriagar,92.06.21.2001,Weriagar,Kabupaten,Teluk Bintuni,Papua Barat
19,98157,Weriagar Baru,92.06.21.2003,Weriagar,Kabupaten,Teluk Bintuni,Papua Barat
20,98157,Weriagar Utara,92.06.21.2004,Weriagar,Kabupaten,Teluk Bintuni,Papua Barat
21,98346,Dotir,92.07.01.2003,Wasior,Kabupaten,Teluk Wondama,Papua Barat
22,98346,Iriati,92.07.01.2011,Wasior,Kabupaten,Teluk Wondama,Papua Barat
23,98346,Maimare (Maimari),92.07.01.2006,Wasior,Kabupaten,Teluk Wondama,Papua Barat
24,98346,Maniwak,92.07.01.2004,Wasior,Kabupaten,Teluk Wondama,Papua Barat
25,98346,Manopi,92.07.01.2009,Wasior,Kabupaten,Teluk Wondama,Papua Barat
26,98346,Moru (Gayabaru),92.07.01.2007,Wasior,Kabupaten,Teluk Wondama,Papua Barat
27,98346,Rado,92.07.01.2002,Wasior,Kabupaten,Teluk Wondama,Papua Barat
28,98346,Ramiki,92.07.01.2010,Wasior,Kabupaten,Teluk Wondama,Papua Barat
29,98346,Wasior I,92.07.01.1001,Wasior,Kabupaten,Teluk Wondama,Papua Barat
30,98346,Wasior II,92.07.01.2005,Wasior,Kabupaten,Teluk Wondama,Papua Barat
31,98025,Kamandur Tetar,92.03.11.2006,Wartutin,Kabupaten,Fak Fak,Papua Barat
32,98025,Siboru,92.03.11.2004,Wartutin,Kabupaten,Fak Fak,Papua Barat
33,98025,Sipatnanam,92.03.11.2005,Wartutin,Kabupaten,Fak Fak,Papua Barat
34,98025,Wartutin,92.03.11.2003,Wartutin,Kabupaten,Fak Fak,Papua Barat
35,98025,Werabuan,92.03.11.2002,Wartutin,Kabupaten,Fak Fak,Papua Barat
36,98025,Werpigan,92.03.11.2001,Wartutin,Kabupaten,Fak Fak,Papua Barat
37,98317,Aiwou (Aywou),92.02.03.2025,Warmare,Kabupaten,Manokwari,Papua Barat
38,98317,Amber,92.02.03.2020,Warmare,Kabupaten,Manokwari,Papua Barat
39,98317,Asarbey (Asarbei),92.02.03.2026,Warmare,Kabupaten,Manokwari,Papua Barat
40,98317,Bahamyenti,92.02.03.2028,Warmare,Kabupaten,Manokwari,Papua Barat
41,98317,Dindey,92.02.03.2001,Warmare,Kabupaten,Manokwari,Papua Barat
42,98317,Duweibey (Dueibei),92.02.03.2031,Warmare,Kabupaten,Manokwari,Papua Barat
43,98317,Duwin,92.02.03.2015,Warmare,Kabupaten,Manokwari,Papua Barat
44,98317,Figoud,92.02.03.2029,Warmare,Kabupaten,Manokwari,Papua Barat
45,98317,Guentuy,92.02.03.2012,Warmare,Kabupaten,Manokwari,Papua Barat
46,98317,Hingk,92.02.03.2003,Warmare,Kabupaten,Manokwari,Papua Barat
47,98317,Iboisrati,92.02.03.2017,Warmare,Kabupaten,Manokwari,Papua Barat
48,98317,Ibuwau,92.02.03.2016,Warmare,Kabupaten,Manokwari,Papua Barat
49,98317,Indisey,92.02.03.2002,Warmare,Kabupaten,Manokwari,Papua Barat
50,98317,Indonbey (Indondey),92.02.03.2023,Warmare,Kabupaten,Manokwari,Papua Barat
51,98317,Kipuwau (Kibauw),92.02.03.2030,Warmare,Kabupaten,Manokwari,Papua Barat
52,98317,Kwau,92.02.03.2021,Warmare,Kabupaten,Manokwari,Papua Barat
53,98317,Madrat,92.02.03.2010,Warmare,Kabupaten,Manokwari,Papua Barat
54,98317,Meny,92.02.03.2006,Warmare,Kabupaten,Manokwari,Papua Barat
55,98317,Mingre,92.02.03.2024,Warmare,Kabupaten,Manokwari,Papua Barat
56,98317,Minoqbei (Minogbei),92.02.03.2027,Warmare,Kabupaten,Manokwari,Papua Barat
57,98317,Mokwam,92.02.03.2019,Warmare,Kabupaten,Manokwari,Papua Barat
58,98317,Ngungguen,92.02.03.2013,Warmare,Kabupaten,Manokwari,Papua Barat
59,98317,Nimbay,92.02.03.2005,Warmare,Kabupaten,Manokwari,Papua Barat
60,98317,Snaimboy,92.02.03.2011,Warmare,Kabupaten,Manokwari,Papua Barat
61,98317,Sotea,92.02.03.2014,Warmare,Kabupaten,Manokwari,Papua Barat
62,98317,Sraindabey,92.02.03.2018,Warmare,Kabupaten,Manokwari,Papua Barat
63,98317,Subsay,92.02.03.2009,Warmare,Kabupaten,Manokwari,Papua Barat
64,98317,Syou (Siyau),92.02.03.2022,Warmare,Kabupaten,Manokwari,Papua Barat
65,98317,Tanah Merah,92.02.03.2007,Warmare,Kabupaten,Manokwari,Papua Barat
66,98317,Umcen (Umcem),92.02.03.2008,Warmare,Kabupaten,Manokwari,Papua Barat
67,98317,Warmare,92.02.03.2004,Warmare,Kabupaten,Manokwari,Papua Barat
68,98146,Mamuranu,92.06.07.2004,Wamesa (Idoor),Kabupaten,Teluk Bintuni,Papua Barat
69,98146,Wamesa I - Idoor,92.06.07.2001,Wamesa (Idoor),Kabupaten,Teluk Bintuni,Papua Barat
70,98146,Wamesa II - Yakati,92.06.07.2002,Wamesa (Idoor),Kabupaten,Teluk Bintuni,Papua Barat
71,98146,Yansei (Yansey/Ensei/Yensei),92.06.07.2003,Wamesa (Idoor),Kabupaten,Teluk Bintuni,Papua Barat
72,98335,Ambuar,92.07.05.2002,Wamesa,Kabupaten,Teluk Wondama,Papua Barat
73,98335,Karuan,92.07.05.2003,Wamesa,Kabupaten,Teluk Wondama,Papua Barat
74,98335,Nordiwar,92.07.05.2009,Wamesa,Kabupaten,Teluk Wondama,Papua Barat
75,98335,Sabubar,92.07.05.2001,Wamesa,Kabupaten,Teluk Wondama,Papua Barat
76,98335,Yarpate,92.07.05.2007,Wamesa,Kabupaten,Teluk Wondama,Papua Barat
77,98145,Kucir,92.06.12.2003,Tuhiba,Kabupaten,Teluk Bintuni,Papua Barat
78,98145,Sibena Permai (II),92.06.12.2005,Tuhiba,Kabupaten,Teluk Bintuni,Papua Barat
79,98145,Sibena Raya (I),92.06.12.2004,Tuhiba,Kabupaten,Teluk Bintuni,Papua Barat
80,98145,Tisaida,92.06.12.2002,Tuhiba,Kabupaten,Teluk Bintuni,Papua Barat
81,98145,Tuhiba,92.06.12.2001,Tuhiba,Kabupaten,Teluk Bintuni,Papua Barat
82,98156,Ekam,92.06.19.2004,Tomu,Kabupaten,Teluk Bintuni,Papua Barat
83,98156,Sebyar Rejosasi/Rejosari,92.06.19.2001,Tomu,Kabupaten,Teluk Bintuni,Papua Barat
84,98156,Taroy (Toray/Taroi),92.06.19.2003,Tomu,Kabupaten,Teluk Bintuni,Papua Barat
85,98156,Tomu,92.06.19.2002,Tomu,Kabupaten,Teluk Bintuni,Papua Barat
86,98033,Mbima Jaya,92.03.17.2001,Tomage,Kabupaten,Fak Fak,Papua Barat
87,98033,Otoweri,92.03.17.2005,Tomage,Kabupaten,Fak Fak,Papua Barat
88,98033,Salawier,92.03.17.2007,Tomage,Kabupaten,Fak Fak,Papua Barat
89,98033,Tomage,92.03.17.2004,Tomage,Kabupaten,Fak Fak,Papua Barat
90,98033,Wammar,92.03.17.2009,Tomage,Kabupaten,Fak Fak,Papua Barat
91,98033,Wamosan,92.03.17.2006,Tomage,Kabupaten,Fak Fak,Papua Barat
92,98033,Warisa Mulya,92.03.17.2002,Tomage,Kabupaten,Fak Fak,Papua Barat
93,98033,Wasa Mulya,92.03.17.2008,Tomage,Kabupaten,Fak Fak,Papua Barat
94,98033,Wonodadi Mulya,92.03.17.2003,Tomage,Kabupaten,Fak Fak,Papua Barat
95,98350,Asai Dua,92.12.08.2015,Testega,Kabupaten,Pegunungan Arfak,Papua Barat
96,98350,Demuora,92.12.08.2004,Testega,Kabupaten,Pegunungan Arfak,Papua Barat
97,98350,Dumbrey,92.12.08.2013,Testega,Kabupaten,Pegunungan Arfak,Papua Barat
98,98350,Iba,92.12.08.2008,Testega,Kabupaten,Pegunungan Arfak,Papua Barat
99,98350,Jigja,92.12.08.2005,Testega,Kabupaten,Pegunungan Arfak,Papua Barat
100,98350,Meidogda,92.12.08.2002,Testega,Kabupaten,Pegunungan Arfak,Papua Barat
101,98350,Meifekeni,92.12.08.2003,Testega,Kabupaten,Pegunungan Arfak,Papua Barat
102,98350,Meifokeda,92.12.08.2012,Testega,Kabupaten,Pegunungan Arfak,Papua Barat
103,98350,Meifowoska,92.12.08.2010,Testega,Kabupaten,Pegunungan Arfak,Papua Barat
104,98350,Meigehenawu,92.12.08.2006,Testega,Kabupaten,Pegunungan Arfak,Papua Barat
105,98350,Meijugjijigja,92.12.08.2011,Testega,Kabupaten,Pegunungan Arfak,Papua Barat
106,98350,Meimersa,92.12.08.2009,Testega,Kabupaten,Pegunungan Arfak,Papua Barat
107,98350,Meksi,92.12.08.2014,Testega,Kabupaten,Pegunungan Arfak,Papua Barat
108,98350,Morumfeyi,92.12.08.2007,Testega,Kabupaten,Pegunungan Arfak,Papua Barat
109,98350,Testega,92.12.08.2001,Testega,Kabupaten,Pegunungan Arfak,Papua Barat
110,98144,Araisum,92.06.09.2003,Tembuni,Kabupaten,Teluk Bintuni,Papua Barat
111,98144,Bangun Mulya (Bangun Mulyo / Mulia),92.06.09.2004,Tembuni,Kabupaten,Teluk Bintuni,Papua Barat
112,98144,Mogoi Baru,92.06.09.2002,Tembuni,Kabupaten,Teluk Bintuni,Papua Barat
113,98144,Tembuni,92.06.09.2001,Tembuni,Kabupaten,Teluk Bintuni,Papua Barat
114,98024,Adora,92.03.09.2011,Teluk Patipi,Kabupaten,Fak Fak,Papua Barat
115,98024,Bisa,92.03.09.2022,Teluk Patipi,Kabupaten,Fak Fak,Papua Barat
116,98024,Degen,92.03.09.2002,Teluk Patipi,Kabupaten,Fak Fak,Papua Barat
117,98024,Mawar,92.03.09.2017,Teluk Patipi,Kabupaten,Fak Fak,Papua Barat
118,98024,Muhri,92.03.09.2021,Teluk Patipi,Kabupaten,Fak Fak,Papua Barat
119,98024,Offie,92.03.09.2020,Teluk Patipi,Kabupaten,Fak Fak,Papua Barat
120,98024,Patipi Pasir,92.03.09.2014,Teluk Patipi,Kabupaten,Fak Fak,Papua Barat
121,98024,Patipi Pulau,92.03.09.2015,Teluk Patipi,Kabupaten,Fak Fak,Papua Barat
122,98024,Puar,92.03.09.2001,Teluk Patipi,Kabupaten,Fak Fak,Papua Barat
123,98024,Sum,92.03.09.2005,Teluk Patipi,Kabupaten,Fak Fak,Papua Barat
124,98024,Tetar,92.03.09.2003,Teluk Patipi,Kabupaten,Fak Fak,Papua Barat
125,98024,Tibatibananam,92.03.09.2018,Teluk Patipi,Kabupaten,Fak Fak,Papua Barat
126,98024,Us,92.03.09.2012,Teluk Patipi,Kabupaten,Fak Fak,Papua Barat
127,98121,Bamana,92.08.04.2004,Teluk Etna,Kabupaten,Kaimana,Papua Barat
128,98121,Boiya,92.08.04.2002,Teluk Etna,Kabupaten,Kaimana,Papua Barat
129,98121,Nariki,92.08.04.2003,Teluk Etna,Kabupaten,Kaimana,Papua Barat
130,98121,Rurumo,92.08.04.2001,Teluk Etna,Kabupaten,Kaimana,Papua Barat
131,98121,Siawatan,92.08.04.2005,Teluk Etna,Kabupaten,Kaimana,Papua Barat
132,98345,Aisandami,92.07.03.2001,Teluk Duairi,Kabupaten,Teluk Wondama,Papua Barat
133,98345,Sobei (Sobey),92.07.03.2002,Teluk Duairi,Kabupaten,Teluk Wondama,Papua Barat
134,98345,Sobey Indah,92.07.03.2011,Teluk Duairi,Kabupaten,Teluk Wondama,Papua Barat
135,98345,Yopanggar (Yopengar),92.07.03.2006,Teluk Duairi,Kabupaten,Teluk Wondama,Papua Barat
136,98112,Egerwara,92.08.06.2004,Teluk Arguni Bawah (Yerusi),Kabupaten,Kaimana,Papua Barat
137,98112,Inari,92.08.06.2013,Teluk Arguni Bawah (Yerusi),Kabupaten,Kaimana,Papua Barat
138,98112,Jawera,92.08.06.2001,Teluk Arguni Bawah (Yerusi),Kabupaten,Kaimana,Papua Barat
139,98112,Kufuriyai,92.08.06.2005,Teluk Arguni Bawah (Yerusi),Kabupaten,Kaimana,Papua Barat
140,98112,Manggera,92.08.06.2006,Teluk Arguni Bawah (Yerusi),Kabupaten,Kaimana,Papua Barat
141,98112,Nagura,92.08.06.2012,Teluk Arguni Bawah (Yerusi),Kabupaten,Kaimana,Papua Barat
142,98112,Ruwara,92.08.06.2002,Teluk Arguni Bawah (Yerusi),Kabupaten,Kaimana,Papua Barat
143,98112,Seraran,92.08.06.2016,Teluk Arguni Bawah (Yerusi),Kabupaten,Kaimana,Papua Barat
144,98112,Sumun,92.08.06.2015,Teluk Arguni Bawah (Yerusi),Kabupaten,Kaimana,Papua Barat
145,98112,Tanusan,92.08.06.2007,Teluk Arguni Bawah (Yerusi),Kabupaten,Kaimana,Papua Barat
146,98112,Ukiara,92.08.06.2010,Teluk Arguni Bawah (Yerusi),Kabupaten,Kaimana,Papua Barat
147,98112,Urisa,92.08.06.2008,Teluk Arguni Bawah (Yerusi),Kabupaten,Kaimana,Papua Barat
148,98112,Wanoma,92.08.06.2014,Teluk Arguni Bawah (Yerusi),Kabupaten,Kaimana,Papua Barat
149,98112,Waromi,92.08.06.2009,Teluk Arguni Bawah (Yerusi),Kabupaten,Kaimana,Papua Barat
150,98112,Wermenu,92.08.06.2003,Teluk Arguni Bawah (Yerusi),Kabupaten,Kaimana,Papua Barat
151,98111,Afu Afu (Afuafu),92.08.03.2019,Teluk Arguni Atas,Kabupaten,Kaimana,Papua Barat
152,98111,Bayeda,92.08.03.2020,Teluk Arguni Atas,Kabupaten,Kaimana,Papua Barat
153,98111,Bofuwer,92.08.03.2012,Teluk Arguni Atas,Kabupaten,Kaimana,Papua Barat
154,98111,Borogerba,92.08.03.2018,Teluk Arguni Atas,Kabupaten,Kaimana,Papua Barat
155,98111,Erigara,92.08.03.2027,Teluk Arguni Atas,Kabupaten,Kaimana,Papua Barat
156,98111,Feternu (Fetermu),92.08.03.2002,Teluk Arguni Atas,Kabupaten,Kaimana,Papua Barat
157,98111,Fudima,92.08.03.2016,Teluk Arguni Atas,Kabupaten,Kaimana,Papua Barat
158,98111,Furnusu (Fumusu),92.08.03.2001,Teluk Arguni Atas,Kabupaten,Kaimana,Papua Barat
159,98111,Gusi,92.08.03.2031,Teluk Arguni Atas,Kabupaten,Kaimana,Papua Barat
160,98111,Kensi (Kasira),92.08.03.2025,Teluk Arguni Atas,Kabupaten,Kaimana,Papua Barat
161,98111,Kokoroba,92.08.03.2022,Teluk Arguni Atas,Kabupaten,Kaimana,Papua Barat
162,98111,Maskur,92.08.03.2024,Teluk Arguni Atas,Kabupaten,Kaimana,Papua Barat
163,98111,Moyana,92.08.03.2021,Teluk Arguni Atas,Kabupaten,Kaimana,Papua Barat
164,98111,Pigo,92.08.03.2028,Teluk Arguni Atas,Kabupaten,Kaimana,Papua Barat
165,98111,Sawatewera (Sawatawera),92.08.03.2010,Teluk Arguni Atas,Kabupaten,Kaimana,Papua Barat
166,98111,Sawi (Sawia),92.08.03.2003,Teluk Arguni Atas,Kabupaten,Kaimana,Papua Barat
167,98111,Tiwara,92.08.03.2030,Teluk Arguni Atas,Kabupaten,Kaimana,Papua Barat
168,98111,Tugumawa (Tuguwara),92.08.03.2029,Teluk Arguni Atas,Kabupaten,Kaimana,Papua Barat
169,98111,Turgani (Tugarni),92.08.03.2004,Teluk Arguni Atas,Kabupaten,Kaimana,Papua Barat
170,98111,Wainaga,92.08.03.2023,Teluk Arguni Atas,Kabupaten,Kaimana,Papua Barat
171,98111,Wanggita,92.08.03.2014,Teluk Arguni Atas,Kabupaten,Kaimana,Papua Barat
172,98111,Warua,92.08.03.2032,Teluk Arguni Atas,Kabupaten,Kaimana,Papua Barat
173,98111,Warwasi,92.08.03.2013,Teluk Arguni Atas,Kabupaten,Kaimana,Papua Barat
174,98111,Weswasa,92.08.03.2017,Teluk Arguni Atas,Kabupaten,Kaimana,Papua Barat
175,98315,Ayawi,92.02.17.2002,Tanah Rubuh,Kabupaten,Manokwari,Papua Barat
176,98315,Cuyehep,92.02.17.2012,Tanah Rubuh,Kabupaten,Manokwari,Papua Barat
177,98315,Hanghouw,92.02.17.2013,Tanah Rubuh,Kabupaten,Manokwari,Papua Barat
178,98315,Imbeisika I (Imbeisika),92.02.17.2007,Tanah Rubuh,Kabupaten,Manokwari,Papua Barat
179,98315,Imbeisika II (Imboisika),92.02.17.2008,Tanah Rubuh,Kabupaten,Manokwari,Papua Barat
180,98315,Imboiti,92.02.17.2016,Tanah Rubuh,Kabupaten,Manokwari,Papua Barat
181,98315,Imhasuma,92.02.17.2011,Tanah Rubuh,Kabupaten,Manokwari,Papua Barat
182,98315,Indibo,92.02.17.2018,Tanah Rubuh,Kabupaten,Manokwari,Papua Barat
183,98315,Mbatma,92.02.17.2005,Tanah Rubuh,Kabupaten,Manokwari,Papua Barat
184,98315,Menyumfoku,92.02.17.2021,Tanah Rubuh,Kabupaten,Manokwari,Papua Barat
185,98315,Mirowi (Mironi),92.02.17.2023,Tanah Rubuh,Kabupaten,Manokwari,Papua Barat
186,98315,Misabugoid,92.02.17.2004,Tanah Rubuh,Kabupaten,Manokwari,Papua Barat
187,98315,Ningdip,92.02.17.2014,Tanah Rubuh,Kabupaten,Manokwari,Papua Barat
188,98315,Rembuy,92.02.17.2010,Tanah Rubuh,Kabupaten,Manokwari,Papua Barat
189,98315,Ukemboisi,92.02.17.2020,Tanah Rubuh,Kabupaten,Manokwari,Papua Barat
190,98315,Ukopti,92.02.17.2003,Tanah Rubuh,Kabupaten,Manokwari,Papua Barat
191,98315,Umnum,92.02.17.2019,Tanah Rubuh,Kabupaten,Manokwari,Papua Barat
192,98315,Urwambei,92.02.17.2006,Tanah Rubuh,Kabupaten,Manokwari,Papua Barat
193,98315,Warami,92.02.17.2015,Tanah Rubuh,Kabupaten,Manokwari,Papua Barat
194,98315,Wariari,92.02.17.2017,Tanah Rubuh,Kabupaten,Manokwari,Papua Barat
195,98315,Warkapi,92.02.17.2001,Tanah Rubuh,Kabupaten,Manokwari,Papua Barat
196,98315,Warmawai,92.02.17.2009,Tanah Rubuh,Kabupaten,Manokwari,Papua Barat
197,98315,Warnyeti,92.02.17.2024,Tanah Rubuh,Kabupaten,Manokwari,Papua Barat
198,98315,Wedoni,92.02.17.2022,Tanah Rubuh,Kabupaten,Manokwari,Papua Barat
199,98357,Ansum,92.12.06.2002,Taige,Kabupaten,Pegunungan Arfak,Papua Barat
200,98357,Awigau,92.12.06.2009,Taige,Kabupaten,Pegunungan Arfak,Papua Barat
201,98357,Deurohu,92.12.06.2003,Taige,Kabupaten,Pegunungan Arfak,Papua Barat
202,98357,Disura,92.12.06.2008,Taige,Kabupaten,Pegunungan Arfak,Papua Barat
203,98357,Genyu,92.12.06.2001,Taige,Kabupaten,Pegunungan Arfak,Papua Barat
204,98357,Horeta,92.12.06.2004,Taige,Kabupaten,Pegunungan Arfak,Papua Barat
205,98357,Irbos,92.12.06.2011,Taige,Kabupaten,Pegunungan Arfak,Papua Barat
206,98357,Siskedowo,92.12.06.2010,Taige,Kabupaten,Pegunungan Arfak,Papua Barat
207,98357,Taige,92.12.06.2006,Taige,Kabupaten,Pegunungan Arfak,Papua Barat
208,98357,Tridaga,92.12.06.2007,Taige,Kabupaten,Pegunungan Arfak,Papua Barat
209,98357,Ubeisa,92.12.06.2005,Taige,Kabupaten,Pegunungan Arfak,Papua Barat
210,98325,Kaprus,92.11.06.2003,Tahota,Kabupaten,Manokwari Selatan,Papua Barat
211,98325,Reyob,92.11.06.2002,Tahota,Kabupaten,Manokwari Selatan,Papua Barat
212,98325,Seimeba,92.11.06.2004,Tahota,Kabupaten,Manokwari Selatan,Papua Barat
213,98325,Yarmatum (Yermatum),92.11.06.2001,Tahota,Kabupaten,Manokwari Selatan,Papua Barat
214,98358,Anuk,92.12.04.2011,Sururey,Kabupaten,Pegunungan Arfak,Papua Barat
215,98358,Dugahani,92.12.04.2008,Sururey,Kabupaten,Pegunungan Arfak,Papua Barat
216,98358,Inyaub,92.12.04.2004,Sururey,Kabupaten,Pegunungan Arfak,Papua Barat
217,98358,Kobrey,92.12.04.2006,Sururey,Kabupaten,Pegunungan Arfak,Papua Barat
218,98358,Kopo,92.12.04.2007,Sururey,Kabupaten,Pegunungan Arfak,Papua Barat
219,98358,Kostera,92.12.04.2010,Sururey,Kabupaten,Pegunungan Arfak,Papua Barat
220,98358,Menesrij,92.12.04.2012,Sururey,Kabupaten,Pegunungan Arfak,Papua Barat
221,98358,Saugemeba,92.12.04.2005,Sururey,Kabupaten,Pegunungan Arfak,Papua Barat
222,98358,Sungedes,92.12.04.2003,Sururey,Kabupaten,Pegunungan Arfak,Papua Barat
223,98358,Sururey,92.12.04.2001,Sururey,Kabupaten,Pegunungan Arfak,Papua Barat
224,98358,Tomstera,92.12.04.2009,Sururey,Kabupaten,Pegunungan Arfak,Papua Barat
225,98358,Tuhubea,92.12.04.2002,Sururey,Kabupaten,Pegunungan Arfak,Papua Barat
226,98136,Forada,92.06.14.2004,Sumuri (Simuri),Kabupaten,Teluk Bintuni,Papua Barat
227,98136,Materabu Jaya,92.06.14.2005,Sumuri (Simuri),Kabupaten,Teluk Bintuni,Papua Barat
228,98136,Saengga,92.06.14.2003,Sumuri (Simuri),Kabupaten,Teluk Bintuni,Papua Barat
229,98136,Tanah Merah,92.06.14.2002,Sumuri (Simuri),Kabupaten,Teluk Bintuni,Papua Barat
230,98136,Tofoi,92.06.14.2001,Sumuri (Simuri),Kabupaten,Teluk Bintuni,Papua Barat
231,98334,Kaprus,92.07.13.2001,Soug Jaya,Kabupaten,Teluk Wondama,Papua Barat
232,98334,Nuspairo,92.07.13.2005,Soug Jaya,Kabupaten,Teluk Wondama,Papua Barat
233,98334,Reyob (Rayob),92.07.13.2003,Soug Jaya,Kabupaten,Teluk Wondama,Papua Barat
234,98334,Siresi,92.07.13.2004,Soug Jaya,Kabupaten,Teluk Wondama,Papua Barat
235,98334,Yarmatum (Yermatum),92.07.13.2002,Soug Jaya,Kabupaten,Teluk Wondama,Papua Barat
236,98319,Kaironi,92.02.21.2001,Sidey,Kabupaten,Manokwari,Papua Barat
237,98319,Kasi (Kassi),92.02.21.2004,Sidey,Kabupaten,Manokwari,Papua Barat
238,98319,Manggupi,92.02.21.2011,Sidey,Kabupaten,Manokwari,Papua Barat
239,98319,Meyof I,92.02.21.2008,Sidey,Kabupaten,Manokwari,Papua Barat
240,98319,Saray,92.02.21.2005,Sidey,Kabupaten,Manokwari,Papua Barat
241,98319,Sidey,92.02.21.2002,Sidey,Kabupaten,Manokwari,Papua Barat
242,98319,Sidey Baru,92.02.21.2006,Sidey,Kabupaten,Manokwari,Papua Barat
243,98319,Sidey Jaya,92.02.21.2012,Sidey,Kabupaten,Manokwari,Papua Barat
244,98319,Sidey Makmur,92.02.21.2007,Sidey,Kabupaten,Manokwari,Papua Barat
245,98319,Wamnowi (Womnowi),92.02.21.2010,Sidey,Kabupaten,Manokwari,Papua Barat
246,98319,Waramui (Waramoi),92.02.21.2003,Sidey,Kabupaten,Manokwari,Papua Barat
247,98319,Wariki,92.02.21.2009,Sidey,Kabupaten,Manokwari,Papua Barat
248,98333,Isenebuay (Isenebuai / Senebuay / Senebuai),92.07.06.2002,Rumberpon,Kabupaten,Teluk Wondama,Papua Barat
249,98333,Iseren (Isren),92.07.06.2005,Rumberpon,Kabupaten,Teluk Wondama,Papua Barat
250,98333,Wetitindau,92.07.06.2011,Rumberpon,Kabupaten,Teluk Wondama,Papua Barat
251,98333,Yariari,92.07.06.2009,Rumberpon,Kabupaten,Teluk Wondama,Papua Barat
252,98333,Yembekiri II,92.07.06.2008,Rumberpon,Kabupaten,Teluk Wondama,Papua Barat
253,98333,Yomakan,92.07.06.2003,Rumberpon,Kabupaten,Teluk Wondama,Papua Barat
254,98333,Yombekiri I (Yembe Kiri),92.07.06.2001,Rumberpon,Kabupaten,Teluk Wondama,Papua Barat
255,98332,Syeiwar,92.07.11.2003,Roswar,Kabupaten,Teluk Wondama,Papua Barat
256,98332,Waprak,92.07.11.2001,Roswar,Kabupaten,Teluk Wondama,Papua Barat
257,98332,Yomber,92.07.11.2002,Roswar,Kabupaten,Teluk Wondama,Papua Barat
258,98344,Inday,92.07.10.2005,Roon,Kabupaten,Teluk Wondama,Papua Barat
259,98344,Mena,92.07.10.2007,Roon,Kabupaten,Teluk Wondama,Papua Barat
260,98344,Menarbu,92.07.10.2003,Roon,Kabupaten,Teluk Wondama,Papua Barat
261,98344,Niab,92.07.10.2004,Roon,Kabupaten,Teluk Wondama,Papua Barat
262,98344,Sariay,92.07.10.2006,Roon,Kabupaten,Teluk Wondama,Papua Barat
263,98344,Syabes,92.07.10.2002,Roon,Kabupaten,Teluk Wondama,Papua Barat
264,98344,Yende,92.07.10.2001,Roon,Kabupaten,Teluk Wondama,Papua Barat
265,98343,Isey (Isei),92.07.08.2003,Rasiei,Kabupaten,Teluk Wondama,Papua Barat
266,98343,Nggatum,92.07.08.2008,Rasiei,Kabupaten,Teluk Wondama,Papua Barat
267,98343,Rasiey (Rasiei),92.07.08.2001,Rasiei,Kabupaten,Teluk Wondama,Papua Barat
268,98343,Sasirey (Sasirei),92.07.08.2005,Rasiei,Kabupaten,Teluk Wondama,Papua Barat
269,98343,Senderawoy / Senderawoi (Sindrawoi),92.07.08.2009,Rasiei,Kabupaten,Teluk Wondama,Papua Barat
270,98343,Tandia,92.07.08.2006,Rasiei,Kabupaten,Teluk Wondama,Papua Barat
271,98343,Torey,92.07.08.2002,Rasiei,Kabupaten,Teluk Wondama,Papua Barat
272,98343,Uryemi (Uriyem/Uriemi),92.07.08.2004,Rasiei,Kabupaten,Teluk Wondama,Papua Barat
273,98343,Webi,92.07.08.2007,Rasiei,Kabupaten,Teluk Wondama,Papua Barat
274,98324,Abreso,92.11.01.2007,Ransiki,Kabupaten,Manokwari Selatan,Papua Barat
275,98324,Bamaha,92.11.01.2006,Ransiki,Kabupaten,Manokwari Selatan,Papua Barat
276,98324,Hamawi,92.11.01.2008,Ransiki,Kabupaten,Manokwari Selatan,Papua Barat
277,98324,Hamor,92.11.01.2011,Ransiki,Kabupaten,Manokwari Selatan,Papua Barat
278,98324,Kobrey,92.11.01.2009,Ransiki,Kabupaten,Manokwari Selatan,Papua Barat
279,98324,Mambrema,92.11.01.2013,Ransiki,Kabupaten,Manokwari Selatan,Papua Barat
280,98324,Nuhuwei,92.11.01.2002,Ransiki,Kabupaten,Manokwari Selatan,Papua Barat
281,98324,Ransiki,92.11.01.2001,Ransiki,Kabupaten,Manokwari Selatan,Papua Barat
282,98324,Sabri,92.11.01.2005,Ransiki,Kabupaten,Manokwari Selatan,Papua Barat
283,98324,Susmorof,92.11.01.2012,Ransiki,Kabupaten,Manokwari Selatan,Papua Barat
284,98324,Tobou,92.11.01.2004,Ransiki,Kabupaten,Manokwari Selatan,Papua Barat
285,98324,Wamcei,92.11.01.2010,Ransiki,Kabupaten,Manokwari Selatan,Papua Barat
286,98324,Yamboi,92.11.01.2003,Ransiki,Kabupaten,Manokwari Selatan,Papua Barat
287,98316,Aimasi,92.02.04.2004,Prafi,Kabupaten,Manokwari,Papua Barat
288,98316,Bedip Matoa (Debit Motoa),92.02.04.2011,Prafi,Kabupaten,Manokwari,Papua Barat
289,98316,Bogor,92.02.04.2009,Prafi,Kabupaten,Manokwari,Papua Barat
290,98316,Desay,92.02.04.2003,Prafi,Kabupaten,Manokwari,Papua Barat
291,98316,Ingkwoisi (Inguisi),92.02.04.2008,Prafi,Kabupaten,Manokwari,Papua Barat
292,98316,Kali Amin,92.02.04.2012,Prafi,Kabupaten,Manokwari,Papua Barat
293,98316,Kerenu,92.02.04.2015,Prafi,Kabupaten,Manokwari,Papua Barat
294,98316,Lismaungu (Lismanggu),92.02.04.2013,Prafi,Kabupaten,Manokwari,Papua Barat
295,98316,Mebji (Mebiji),92.02.04.2016,Prafi,Kabupaten,Manokwari,Papua Barat
296,98316,Prafi Mulya,92.02.04.2001,Prafi,Kabupaten,Manokwari,Papua Barat
297,98316,Somi (Semi),92.02.04.2010,Prafi,Kabupaten,Manokwari,Papua Barat
298,98316,Udapi Hilir (Udap Hilir),92.02.04.2005,Prafi,Kabupaten,Manokwari,Papua Barat
299,98316,Uhyehebrig (Ogyehek),92.02.04.2014,Prafi,Kabupaten,Manokwari,Papua Barat
300,98316,Umbuy,92.02.04.2002,Prafi,Kabupaten,Manokwari,Papua Barat
301,98316,Wasegi Indah,92.02.04.2007,Prafi,Kabupaten,Manokwari,Papua Barat
302,98316,Waseki Pop (Wasegi Pop),92.02.04.2006,Prafi,Kabupaten,Manokwari,Papua Barat
303,98013,Dulanpokpok,92.03.10.1003,Pariwari,Kabupaten,Fak Fak,Papua Barat
304,98013,Kapaurtutin,92.03.10.2005,Pariwari,Kabupaten,Fak Fak,Papua Barat
305,98013,Sekban,92.03.10.2006,Pariwari,Kabupaten,Fak Fak,Papua Barat
306,98013,Sekru,92.03.10.2008,Pariwari,Kabupaten,Fak Fak,Papua Barat
307,98013,Sukuru Tuare,92.03.10.2009,Pariwari,Kabupaten,Fak Fak,Papua Barat
308,98013,Tanama,92.03.10.2004,Pariwari,Kabupaten,Fak Fak,Papua Barat
309,98013,Torea,92.03.10.2007,Pariwari,Kabupaten,Fak Fak,Papua Barat
310,98013,Wagom,92.03.10.1001,Pariwari,Kabupaten,Fak Fak,Papua Barat
311,98013,Wagom Utara,92.03.10.1002,Pariwari,Kabupaten,Fak Fak,Papua Barat
312,98321,Akeju,92.11.02.2013,Oransbari,Kabupaten,Manokwari Selatan,Papua Barat
313,98321,Margo Rukun (Margorukun),92.11.02.2004,Oransbari,Kabupaten,Manokwari Selatan,Papua Barat
314,98321,Margomulyo,92.11.02.2009,Oransbari,Kabupaten,Manokwari Selatan,Papua Barat
315,98321,Masabui,92.11.02.2007,Oransbari,Kabupaten,Manokwari Selatan,Papua Barat
316,98321,Masabui II,92.11.02.2014,Oransbari,Kabupaten,Manokwari Selatan,Papua Barat
317,98321,Muari,92.11.02.2005,Oransbari,Kabupaten,Manokwari Selatan,Papua Barat
318,98321,Oransbari,92.11.02.2001,Oransbari,Kabupaten,Manokwari Selatan,Papua Barat
319,98321,Sidomulyo,92.11.02.2002,Oransbari,Kabupaten,Manokwari Selatan,Papua Barat
320,98321,Sindang Jaya,92.11.02.2011,Oransbari,Kabupaten,Manokwari Selatan,Papua Barat
321,98321,Wandoki,92.11.02.2012,Oransbari,Kabupaten,Manokwari Selatan,Papua Barat
322,98321,Warbiadi,92.11.02.2008,Oransbari,Kabupaten,Manokwari Selatan,Papua Barat
323,98321,Warkwandi,92.11.02.2010,Oransbari,Kabupaten,Manokwari Selatan,Papua Barat
324,98321,Waroser,92.11.02.2003,Oransbari,Kabupaten,Manokwari Selatan,Papua Barat
325,98321,Watariri,92.11.02.2006,Oransbari,Kabupaten,Manokwari Selatan,Papua Barat
326,98331,Kurei,92.07.12.2004,Nikiwar,Kabupaten,Teluk Wondama,Papua Barat
327,98331,Mamisi,92.07.12.2002,Nikiwar,Kabupaten,Teluk Wondama,Papua Barat
328,98331,Tamoge,92.07.12.2005,Nikiwar,Kabupaten,Teluk Wondama,Papua Barat
329,98331,Werabur,92.07.12.2001,Nikiwar,Kabupaten,Teluk Wondama,Papua Barat
330,98331,Werianggi,92.07.12.2003,Nikiwar,Kabupaten,Teluk Wondama,Papua Barat
331,98323,Aryawenmoho,92.11.03.2006,Neney,Kabupaten,Manokwari Selatan,Papua Barat
332,98323,Benyas,92.11.03.2005,Neney,Kabupaten,Manokwari Selatan,Papua Barat
333,98323,Disi,92.11.03.2002,Neney,Kabupaten,Manokwari Selatan,Papua Barat
334,98323,Hiyou,92.11.03.2003,Neney,Kabupaten,Manokwari Selatan,Papua Barat
335,98323,Neney,92.11.03.2007,Neney,Kabupaten,Manokwari Selatan,Papua Barat
336,98323,Sesum,92.11.03.2004,Neney,Kabupaten,Manokwari Selatan,Papua Barat
337,98323,Wama,92.11.03.2001,Neney,Kabupaten,Manokwari Selatan,Papua Barat
338,98342,Inyora,92.07.07.2005,Naikere,Kabupaten,Teluk Wondama,Papua Barat
339,98342,Oya (Oyaa),92.07.07.2004,Naikere,Kabupaten,Teluk Wondama,Papua Barat
340,98342,Sararti,92.07.07.2002,Naikere,Kabupaten,Teluk Wondama,Papua Barat
341,98342,Undurara,92.07.07.2006,Naikere,Kabupaten,Teluk Wondama,Papua Barat
342,98342,Wosimi (Wosimo),92.07.07.2001,Naikere,Kabupaten,Teluk Wondama,Papua Barat
343,98342,Yabore,92.07.07.2003,Naikere,Kabupaten,Teluk Wondama,Papua Barat
344,98165,Inofina,92.06.06.2005,Moskona Utara,Kabupaten,Teluk Bintuni,Papua Barat
345,98165,Merestim (Maristim),92.06.06.2004,Moskona Utara,Kabupaten,Teluk Bintuni,Papua Barat
346,98165,Mosum,92.06.06.2006,Moskona Utara,Kabupaten,Teluk Bintuni,Papua Barat
347,98165,Moyeba,92.06.06.2001,Moskona Utara,Kabupaten,Teluk Bintuni,Papua Barat
348,98164,Igomu,92.06.24.2001,Moskona Timur,Kabupaten,Teluk Bintuni,Papua Barat
349,98164,Mesna,92.06.24.2002,Moskona Timur,Kabupaten,Teluk Bintuni,Papua Barat
350,98164,Sumuy (Sumui),92.06.24.2003,Moskona Timur,Kabupaten,Teluk Bintuni,Papua Barat
351,98155,Barma Barat,92.06.05.2006,Moskona Selatan,Kabupaten,Teluk Bintuni,Papua Barat
352,98155,Inggof,92.06.05.2011,Moskona Selatan,Kabupaten,Teluk Bintuni,Papua Barat
353,98155,Jagiro,92.06.05.2001,Moskona Selatan,Kabupaten,Teluk Bintuni,Papua Barat
354,98155,Meyenda,92.06.05.2004,Moskona Selatan,Kabupaten,Teluk Bintuni,Papua Barat
355,98155,Rawara,92.06.05.2005,Moskona Selatan,Kabupaten,Teluk Bintuni,Papua Barat
356,98154,Istiwkem (Istikem),92.06.22.2003,Moskona Barat,Kabupaten,Teluk Bintuni,Papua Barat
357,98154,Macok,92.06.22.2002,Moskona Barat,Kabupaten,Teluk Bintuni,Papua Barat
358,98154,Mejnic (Majnic/Majnik),92.06.22.2004,Moskona Barat,Kabupaten,Teluk Bintuni,Papua Barat
359,98154,Meyerga (Mayerga),92.06.22.2001,Moskona Barat,Kabupaten,Teluk Bintuni,Papua Barat
360,98322,Dembek,92.11.05.2001,Momi Waren,Kabupaten,Manokwari Selatan,Papua Barat
361,98322,Demini,92.11.05.2006,Momi Waren,Kabupaten,Manokwari Selatan,Papua Barat
362,98322,Gaya Baru,92.11.05.2004,Momi Waren,Kabupaten,Manokwari Selatan,Papua Barat
363,98322,Nij (Neny Pantai / Nenei Pantai),92.11.05.2002,Momi Waren,Kabupaten,Manokwari Selatan,Papua Barat
364,98322,Siwi,92.11.05.2003,Momi Waren,Kabupaten,Manokwari Selatan,Papua Barat
365,98322,Waren,92.11.05.2005,Momi Waren,Kabupaten,Manokwari Selatan,Papua Barat
366,98322,Yekwandi,92.11.05.2007,Momi Waren,Kabupaten,Manokwari Selatan,Papua Barat
367,98351,Aduer,92.12.09.2009,Minyambaouw,Kabupaten,Pegunungan Arfak,Papua Barat
368,98351,Andang,92.12.09.2036,Minyambaouw,Kabupaten,Pegunungan Arfak,Papua Barat
369,98351,Anggra,92.12.09.2020,Minyambaouw,Kabupaten,Pegunungan Arfak,Papua Barat
370,98351,Apul,92.12.09.2024,Minyambaouw,Kabupaten,Pegunungan Arfak,Papua Barat
371,98351,Awaibehel,92.12.09.2003,Minyambaouw,Kabupaten,Pegunungan Arfak,Papua Barat
372,98351,Ayau,92.12.09.2035,Minyambaouw,Kabupaten,Pegunungan Arfak,Papua Barat
373,98351,Bingwoyut,92.12.09.2034,Minyambaouw,Kabupaten,Pegunungan Arfak,Papua Barat
374,98351,Coisi,92.12.09.2005,Minyambaouw,Kabupaten,Pegunungan Arfak,Papua Barat
375,98351,Demaisi,92.12.09.2002,Minyambaouw,Kabupaten,Pegunungan Arfak,Papua Barat
376,98351,Driye,92.12.09.2015,Minyambaouw,Kabupaten,Pegunungan Arfak,Papua Barat
377,98351,Handuk,92.12.09.2018,Minyambaouw,Kabupaten,Pegunungan Arfak,Papua Barat
378,98351,Imbenti,92.12.09.2006,Minyambaouw,Kabupaten,Pegunungan Arfak,Papua Barat
379,98351,Imbonggun,92.12.09.2008,Minyambaouw,Kabupaten,Pegunungan Arfak,Papua Barat
380,98351,Imbrekti,92.12.09.2027,Minyambaouw,Kabupaten,Pegunungan Arfak,Papua Barat
381,98351,Indabri,92.12.09.2004,Minyambaouw,Kabupaten,Pegunungan Arfak,Papua Barat
382,98351,Inggramhim,92.12.09.2021,Minyambaouw,Kabupaten,Pegunungan Arfak,Papua Barat
383,98351,Injuar,92.12.09.2023,Minyambaouw,Kabupaten,Pegunungan Arfak,Papua Barat
384,98351,Ipingosi,92.12.09.2028,Minyambaouw,Kabupaten,Pegunungan Arfak,Papua Barat
385,98351,Mainda,92.12.09.2026,Minyambaouw,Kabupaten,Pegunungan Arfak,Papua Barat
386,98351,Mbingma,92.12.09.2022,Minyambaouw,Kabupaten,Pegunungan Arfak,Papua Barat
387,98351,Memangker,92.12.09.2025,Minyambaouw,Kabupaten,Pegunungan Arfak,Papua Barat
388,98351,Micadiwor,92.12.09.2011,Minyambaouw,Kabupaten,Pegunungan Arfak,Papua Barat
389,98351,Miconti,92.12.09.2039,Minyambaouw,Kabupaten,Pegunungan Arfak,Papua Barat
390,98351,Minyambouw,92.12.09.2001,Minyambaouw,Kabupaten,Pegunungan Arfak,Papua Barat
391,98351,Misangoisi,92.12.09.2031,Minyambaouw,Kabupaten,Pegunungan Arfak,Papua Barat
392,98351,Mitiede,92.12.09.2013,Minyambaouw,Kabupaten,Pegunungan Arfak,Papua Barat
393,98351,Nimbiau,92.12.09.2033,Minyambaouw,Kabupaten,Pegunungan Arfak,Papua Barat
394,98351,Ninsimoi,92.12.09.2019,Minyambaouw,Kabupaten,Pegunungan Arfak,Papua Barat
395,98351,Pinyausi,92.12.09.2029,Minyambaouw,Kabupaten,Pegunungan Arfak,Papua Barat
396,98351,Sigim,92.12.09.2007,Minyambaouw,Kabupaten,Pegunungan Arfak,Papua Barat
397,98351,Simerbei,92.12.09.2014,Minyambaouw,Kabupaten,Pegunungan Arfak,Papua Barat
398,98351,Sinaltousi,92.12.09.2030,Minyambaouw,Kabupaten,Pegunungan Arfak,Papua Barat
399,98351,Smanggei,92.12.09.2032,Minyambaouw,Kabupaten,Pegunungan Arfak,Papua Barat
400,98351,Ugjeheg,92.12.09.2010,Minyambaouw,Kabupaten,Pegunungan Arfak,Papua Barat
401,98351,Umpug,92.12.09.2017,Minyambaouw,Kabupaten,Pegunungan Arfak,Papua Barat
402,98351,Ungga,92.12.09.2012,Minyambaouw,Kabupaten,Pegunungan Arfak,Papua Barat
403,98351,Wamminda,92.12.09.2016,Minyambaouw,Kabupaten,Pegunungan Arfak,Papua Barat
404,98153,Barma,92.06.23.2002,Meyado (Mayado),Kabupaten,Teluk Bintuni,Papua Barat
405,98153,Barma Baru (Stencool),92.06.23.2003,Meyado (Mayado),Kabupaten,Teluk Bintuni,Papua Barat
406,98153,Meyado (Mayado/Meyabo),92.06.23.2001,Meyado (Mayado),Kabupaten,Teluk Bintuni,Papua Barat
407,98153,Vasco Damneen (Vesco Damnem/Sten),92.06.23.2004,Meyado (Mayado),Kabupaten,Teluk Bintuni,Papua Barat
408,98163,Anajero,92.06.02.2008,Merdey,Kabupaten,Teluk Bintuni,Papua Barat
409,98163,Mekiesefeb,92.06.02.2014,Merdey,Kabupaten,Teluk Bintuni,Papua Barat
410,98163,Menggerba,92.06.02.2007,Merdey,Kabupaten,Teluk Bintuni,Papua Barat
411,98163,Merdey,92.06.02.2001,Merdey,Kabupaten,Teluk Bintuni,Papua Barat
412,98163,Meryeb,92.06.02.2002,Merdey,Kabupaten,Teluk Bintuni,Papua Barat
413,98163,Meyetga,92.06.02.2020,Merdey,Kabupaten,Teluk Bintuni,Papua Barat
414,98163,Meyom,92.06.02.2004,Merdey,Kabupaten,Teluk Bintuni,Papua Barat
415,98163,Mogromus,92.06.02.2010,Merdey,Kabupaten,Teluk Bintuni,Papua Barat
416,98163,Morombuy,92.06.02.2011,Merdey,Kabupaten,Teluk Bintuni,Papua Barat
417,98354,Imbeisba,92.12.03.2002,Membey,Kabupaten,Pegunungan Arfak,Papua Barat
418,98354,Inyebuow,92.12.03.2001,Membey,Kabupaten,Pegunungan Arfak,Papua Barat
419,98354,Koney,92.12.03.2005,Membey,Kabupaten,Pegunungan Arfak,Papua Barat
420,98354,Membey,92.12.03.2006,Membey,Kabupaten,Pegunungan Arfak,Papua Barat
421,98354,Memti,92.12.03.2004,Membey,Kabupaten,Pegunungan Arfak,Papua Barat
422,98354,Usti,92.12.03.2003,Membey,Kabupaten,Pegunungan Arfak,Papua Barat
423,98021,Darembang,92.03.14.2001,Mbahamdandara,Kabupaten,Fak Fak,Papua Barat
424,98021,Goras,92.03.14.2002,Mbahamdandara,Kabupaten,Fak Fak,Papua Barat
425,98021,Goras Selatan,92.03.14.2007,Mbahamdandara,Kabupaten,Fak Fak,Papua Barat
426,98021,Mbahamdandra,92.03.14.2006,Mbahamdandara,Kabupaten,Fak Fak,Papua Barat
427,98021,Mitimber,92.03.14.2003,Mbahamdandara,Kabupaten,Fak Fak,Papua Barat
428,98021,Waremu,92.03.14.2004,Mbahamdandara,Kabupaten,Fak Fak,Papua Barat
429,98021,Wos,92.03.14.2005,Mbahamdandara,Kabupaten,Fak Fak,Papua Barat
430,98162,Kalibiru,92.06.17.2003,Masyeta,Kabupaten,Teluk Bintuni,Papua Barat
431,98162,Maestofu (Mestofu),92.06.17.2002,Masyeta,Kabupaten,Teluk Bintuni,Papua Barat
432,98162,Masyeta,92.06.17.2001,Masyeta,Kabupaten,Teluk Bintuni,Papua Barat
433,98162,Mesomda,92.06.17.2004,Masyeta,Kabupaten,Teluk Bintuni,Papua Barat
434,98318,Aska,92.02.05.2039,Masni,Kabupaten,Manokwari,Papua Barat
435,98318,Aurmios,92.02.05.2018,Masni,Kabupaten,Manokwari,Papua Barat
436,98318,Bowi Subur,92.02.05.2009,Masni,Kabupaten,Manokwari,Papua Barat
437,98318,Igor,92.02.05.2016,Masni,Kabupaten,Manokwari,Papua Barat
438,98318,Inyei,92.02.05.2036,Masni,Kabupaten,Manokwari,Papua Barat
439,98318,Jowen,92.02.05.2038,Masni,Kabupaten,Manokwari,Papua Barat
440,98318,Kali Merah,92.02.05.2011,Masni,Kabupaten,Manokwari,Papua Barat
441,98318,Koyani (Koyami),92.02.05.2034,Masni,Kabupaten,Manokwari,Papua Barat
442,98318,Macuan,92.02.05.2006,Masni,Kabupaten,Manokwari,Papua Barat
443,98318,Makwan,92.02.05.2010,Masni,Kabupaten,Manokwari,Papua Barat
444,98318,Mansaburi,92.02.05.2015,Masni,Kabupaten,Manokwari,Papua Barat
445,98318,Mantedi,92.02.05.2040,Masni,Kabupaten,Manokwari,Papua Barat
446,98318,Masni,92.02.05.2001,Masni,Kabupaten,Manokwari,Papua Barat
447,98318,Meiforga,92.02.05.2012,Masni,Kabupaten,Manokwari,Papua Barat
448,98318,Membowi,92.02.05.2024,Masni,Kabupaten,Manokwari,Papua Barat
449,98318,Merejemeg,92.02.05.2017,Masni,Kabupaten,Manokwari,Papua Barat
450,98318,Meyeruk (Mereyuk),92.02.05.2035,Masni,Kabupaten,Manokwari,Papua Barat
451,98318,Meyof II,92.02.05.2028,Masni,Kabupaten,Manokwari,Papua Barat
452,98318,Moubja,92.02.05.2030,Masni,Kabupaten,Manokwari,Papua Barat
453,98318,Muara Prafi,92.02.05.2004,Masni,Kabupaten,Manokwari,Papua Barat
454,98318,Muara Wariori,92.02.05.2032,Masni,Kabupaten,Manokwari,Papua Barat
455,98318,Prafi Barat,92.02.05.2003,Masni,Kabupaten,Manokwari,Papua Barat
456,98318,Ririnfos,92.02.05.2031,Masni,Kabupaten,Manokwari,Papua Barat
457,98318,Sembab,92.02.05.2020,Masni,Kabupaten,Manokwari,Papua Barat
458,98318,Sibuni,92.02.05.2013,Masni,Kabupaten,Manokwari,Papua Barat
459,98318,Sumber Boga,92.02.05.2002,Masni,Kabupaten,Manokwari,Papua Barat
460,98318,Undi,92.02.05.2037,Masni,Kabupaten,Manokwari,Papua Barat
461,98318,Urey,92.02.05.2045,Masni,Kabupaten,Manokwari,Papua Barat
462,98318,Wamfoura (Wam Bola),92.02.05.2046,Masni,Kabupaten,Manokwari,Papua Barat
463,98318,Wariori,92.02.05.2008,Masni,Kabupaten,Manokwari,Papua Barat
464,98318,Wariori Indah,92.02.05.2042,Masni,Kabupaten,Manokwari,Papua Barat
465,98318,Yensum,92.02.05.2014,Masni,Kabupaten,Manokwari,Papua Barat
466,98318,Yonsoribo,92.02.05.2027,Masni,Kabupaten,Manokwari,Papua Barat
467,98314,Asai,92.02.14.2011,Manokwari Utara,Kabupaten,Manokwari,Papua Barat
468,98314,Bremi,92.02.14.2007,Manokwari Utara,Kabupaten,Manokwari,Papua Barat
469,98314,Cabang Dua (Caban Dua),92.02.14.2020,Manokwari Utara,Kabupaten,Manokwari,Papua Barat
470,98314,Indou Oufa (Indo Oufa),92.02.14.2022,Manokwari Utara,Kabupaten,Manokwari,Papua Barat
471,98314,Inoduas (Iroduas),92.02.14.2017,Manokwari Utara,Kabupaten,Manokwari,Papua Barat
472,98314,Inya,92.02.14.2012,Manokwari Utara,Kabupaten,Manokwari,Papua Barat
473,98314,Lebau,92.02.14.2018,Manokwari Utara,Kabupaten,Manokwari,Papua Barat
474,98314,Mandopi,92.02.14.2002,Manokwari Utara,Kabupaten,Manokwari,Papua Barat
475,98314,Meyes,92.02.14.2006,Manokwari Utara,Kabupaten,Manokwari,Papua Barat
476,98314,Meyunfoka,92.02.14.2013,Manokwari Utara,Kabupaten,Manokwari,Papua Barat
477,98314,Mubraidiba,92.02.14.2023,Manokwari Utara,Kabupaten,Manokwari,Papua Barat
478,98314,Mubri,92.02.14.2003,Manokwari Utara,Kabupaten,Manokwari,Papua Barat
479,98314,Pami,92.02.14.2009,Manokwari Utara,Kabupaten,Manokwari,Papua Barat
480,98314,Sairo (Sayro),92.02.14.2015,Manokwari Utara,Kabupaten,Manokwari,Papua Barat
481,98314,Saubeba,92.02.14.2008,Manokwari Utara,Kabupaten,Manokwari,Papua Barat
482,98314,Singgimeba,92.02.14.2016,Manokwari Utara,Kabupaten,Manokwari,Papua Barat
483,98314,Tanah Rubuh (Tanah Rubu),92.02.14.2014,Manokwari Utara,Kabupaten,Manokwari,Papua Barat
484,98314,Teluk Mubri,92.02.14.2005,Manokwari Utara,Kabupaten,Manokwari,Papua Barat
485,98314,Warbefor,92.02.14.2010,Manokwari Utara,Kabupaten,Manokwari,Papua Barat
486,98314,Yonggam,92.02.14.2021,Manokwari Utara,Kabupaten,Manokwari,Papua Barat
487,98314,Yoom I,92.02.14.2001,Manokwari Utara,Kabupaten,Manokwari,Papua Barat
488,98314,Yoom II,92.02.14.2004,Manokwari Utara,Kabupaten,Manokwari,Papua Barat
489,98311,Aipiri,92.02.13.2006,Manokwari Timur,Kabupaten,Manokwari,Papua Barat
490,98311,Arowi,92.02.13.2005,Manokwari Timur,Kabupaten,Manokwari,Papua Barat
491,98311,Ayambori,92.02.13.2003,Manokwari Timur,Kabupaten,Manokwari,Papua Barat
492,98311,Bakaro,92.02.13.2004,Manokwari Timur,Kabupaten,Manokwari,Papua Barat
493,98311,Mansinam,92.02.13.2002,Manokwari Timur,Kabupaten,Manokwari,Papua Barat
494,98311,Pasir Putih,92.02.13.1001,Manokwari Timur,Kabupaten,Manokwari,Papua Barat
495,98311,Susweni,92.02.13.2007,Manokwari Timur,Kabupaten,Manokwari,Papua Barat
496,98313,Acemo,92.02.15.2014,Manokwari Selatan,Kabupaten,Manokwari,Papua Barat
497,98313,Anday,92.02.15.1002,Manokwari Selatan,Kabupaten,Manokwari,Papua Barat
498,98313,Anggresi (Angrisi),92.02.15.2011,Manokwari Selatan,Kabupaten,Manokwari,Papua Barat
499,98313,Dihara,92.02.15.2006,Manokwari Selatan,Kabupaten,Manokwari,Papua Barat
500,98313,Dobut (Doopud/Doput),92.02.15.2016,Manokwari Selatan,Kabupaten,Manokwari,Papua Barat
501,98313,Katebu,92.02.15.2003,Manokwari Selatan,Kabupaten,Manokwari,Papua Barat
502,98313,Maruni,92.02.15.2008,Manokwari Selatan,Kabupaten,Manokwari,Papua Barat
503,98313,Masyepi (Masiepi),92.02.15.2004,Manokwari Selatan,Kabupaten,Manokwari,Papua Barat
504,98313,Misapmeysi,92.02.15.2009,Manokwari Selatan,Kabupaten,Manokwari,Papua Barat
505,98313,Mupi,92.02.15.2012,Manokwari Selatan,Kabupaten,Manokwari,Papua Barat
506,98313,Ngunimbouw (Ngunibouw),92.02.15.2018,Manokwari Selatan,Kabupaten,Manokwari,Papua Barat
507,98313,Sowi,92.02.15.1001,Manokwari Selatan,Kabupaten,Manokwari,Papua Barat
508,98313,Waluri (Waruri / Weluri),92.02.15.2007,Manokwari Selatan,Kabupaten,Manokwari,Papua Barat
509,98313,Wamesa,92.02.15.2015,Manokwari Selatan,Kabupaten,Manokwari,Papua Barat
510,98313,Warkomi,92.02.15.2017,Manokwari Selatan,Kabupaten,Manokwari,Papua Barat
511,98313,Warmomi (Warmumi),92.02.15.2005,Manokwari Selatan,Kabupaten,Manokwari,Papua Barat
512,98313,Warswami (Warsuami),92.02.15.2013,Manokwari Selatan,Kabupaten,Manokwari,Papua Barat
513,98313,Wasai (Wasay),92.02.15.2010,Manokwari Selatan,Kabupaten,Manokwari,Papua Barat
514,98312,Amban,92.02.12.1004,Manokwari Barat,Kabupaten,Manokwari,Papua Barat
515,98312,Ingramui (Inggramui),92.02.12.2008,Manokwari Barat,Kabupaten,Manokwari,Papua Barat
516,98312,Manokwari Barat,92.02.12.1001,Manokwari Barat,Kabupaten,Manokwari,Papua Barat
517,98312,Manokwari Timur,92.02.12.1006,Manokwari Barat,Kabupaten,Manokwari,Papua Barat
518,98312,Padarni,92.02.12.1005,Manokwari Barat,Kabupaten,Manokwari,Papua Barat
519,98312,Sanggeng,92.02.12.1002,Manokwari Barat,Kabupaten,Manokwari,Papua Barat
520,98312,Soribo,92.02.12.2009,Manokwari Barat,Kabupaten,Manokwari,Papua Barat
521,98312,Tanah Merah Indah,92.02.12.2010,Manokwari Barat,Kabupaten,Manokwari,Papua Barat
522,98312,Udopi,92.02.12.2007,Manokwari Barat,Kabupaten,Manokwari,Papua Barat
523,98312,Wosi,92.02.12.1003,Manokwari Barat,Kabupaten,Manokwari,Papua Barat
524,98143,Atibo Manimeri,92.06.11.2004,Manimeri,Kabupaten,Teluk Bintuni,Papua Barat
525,98143,Banjar Ausoy,92.06.11.2002,Manimeri,Kabupaten,Teluk Bintuni,Papua Barat
526,98143,Bumi Saniari,92.06.11.2001,Manimeri,Kabupaten,Teluk Bintuni,Papua Barat
527,98143,Korano Jaya,92.06.11.2006,Manimeri,Kabupaten,Teluk Bintuni,Papua Barat
528,98143,Pasamai,92.06.11.2005,Manimeri,Kabupaten,Teluk Bintuni,Papua Barat
529,98143,Waraitama,92.06.11.2003,Manimeri,Kabupaten,Teluk Bintuni,Papua Barat
530,98341,Ambumi,92.07.09.2001,Kuri Wamesa,Kabupaten,Teluk Wondama,Papua Barat
531,98341,Dusner,92.07.09.2003,Kuri Wamesa,Kabupaten,Teluk Wondama,Papua Barat
532,98341,Nanimori,92.07.09.2002,Kuri Wamesa,Kabupaten,Teluk Wondama,Papua Barat
533,98341,Simei (Simiei),92.07.09.2006,Kuri Wamesa,Kabupaten,Teluk Wondama,Papua Barat
534,98341,Sobiar,92.07.09.2005,Kuri Wamesa,Kabupaten,Teluk Wondama,Papua Barat
535,98341,Yerenusi,92.07.09.2004,Kuri Wamesa,Kabupaten,Teluk Wondama,Papua Barat
536,98135,Naramasa,92.06.10.2004,Kuri,Kabupaten,Teluk Bintuni,Papua Barat
537,98135,Obo,92.06.10.2005,Kuri,Kabupaten,Teluk Bintuni,Papua Barat
538,98135,Refideso,92.06.10.2003,Kuri,Kabupaten,Teluk Bintuni,Papua Barat
539,98135,Sarbe,92.06.10.2001,Kuri,Kabupaten,Teluk Bintuni,Papua Barat
540,98135,Wagura,92.06.10.2002,Kuri,Kabupaten,Teluk Bintuni,Papua Barat
541,98017,Bahbadan,92.03.08.2012,Kramongmongga,Kabupaten,Fak Fak,Papua Barat
542,98017,Gewab,92.03.08.2016,Kramongmongga,Kabupaten,Fak Fak,Papua Barat
543,98017,Kramongmongga,92.03.08.2001,Kramongmongga,Kabupaten,Fak Fak,Papua Barat
544,98017,Kwamkwamur,92.03.08.2011,Kramongmongga,Kabupaten,Fak Fak,Papua Barat
545,98017,Mamur,92.03.08.2008,Kramongmongga,Kabupaten,Fak Fak,Papua Barat
546,98017,Mbaham Ma Youn,92.03.08.2018,Kramongmongga,Kabupaten,Fak Fak,Papua Barat
547,98017,Nembukteb,92.03.08.2009,Kramongmongga,Kabupaten,Fak Fak,Papua Barat
548,98017,Pikpik,92.03.08.2010,Kramongmongga,Kabupaten,Fak Fak,Papua Barat
549,98017,Tentreda,92.03.08.2017,Kramongmongga,Kabupaten,Fak Fak,Papua Barat
550,98017,Wargep,92.03.08.2007,Kramongmongga,Kabupaten,Fak Fak,Papua Barat
551,98016,Batufiafas,92.03.04.2013,Kokas,Kabupaten,Fak Fak,Papua Barat
552,98016,Kampung Baru,92.03.04.2011,Kokas,Kabupaten,Fak Fak,Papua Barat
553,98016,Kimina Kra,92.03.04.2031,Kokas,Kabupaten,Fak Fak,Papua Barat
554,98016,Kinam,92.03.04.2014,Kokas,Kabupaten,Fak Fak,Papua Barat
555,98016,Kokas Kota,92.03.04.1001,Kokas,Kabupaten,Fak Fak,Papua Barat
556,98016,Kriawaswas,92.03.04.2024,Kokas,Kabupaten,Fak Fak,Papua Barat
557,98016,Mambunibuni,92.03.04.2021,Kokas,Kabupaten,Fak Fak,Papua Barat
558,98016,Mandoni,92.03.04.2003,Kokas,Kabupaten,Fak Fak,Papua Barat
559,98016,Masina,92.03.04.2030,Kokas,Kabupaten,Fak Fak,Papua Barat
560,98016,Pang Wadar,92.03.04.2029,Kokas,Kabupaten,Fak Fak,Papua Barat
561,98016,Patimburak,92.03.04.2012,Kokas,Kabupaten,Fak Fak,Papua Barat
562,98016,Sekar,92.03.04.2008,Kokas,Kabupaten,Fak Fak,Papua Barat
563,98016,Sisir,92.03.04.2010,Kokas,Kabupaten,Fak Fak,Papua Barat
564,98016,Sosar,92.03.04.2028,Kokas,Kabupaten,Fak Fak,Papua Barat
565,98016,Ugar,92.03.04.2009,Kokas,Kabupaten,Fak Fak,Papua Barat
566,98015,Homorkokma,92.03.15.2004,Kayauni,Kabupaten,Fak Fak,Papua Barat
567,98015,Kaburbur,92.03.15.2001,Kayauni,Kabupaten,Fak Fak,Papua Barat
568,98015,Kayuni,92.03.15.2006,Kayauni,Kabupaten,Fak Fak,Papua Barat
569,98015,Kuagas,92.03.15.2007,Kayauni,Kabupaten,Fak Fak,Papua Barat
570,98015,Mananmur,92.03.15.2009,Kayauni,Kabupaten,Fak Fak,Papua Barat
571,98015,Pattukar,92.03.15.2005,Kayauni,Kabupaten,Fak Fak,Papua Barat
572,98015,Rangkendak,92.03.15.2008,Kayauni,Kabupaten,Fak Fak,Papua Barat
573,98015,Ubadari,92.03.15.2002,Kayauni,Kabupaten,Fak Fak,Papua Barat
574,98015,Warpa,92.03.15.2010,Kayauni,Kabupaten,Fak Fak,Papua Barat
575,98032,Antalisa,92.03.06.2004,Karas,Kabupaten,Fak Fak,Papua Barat
576,98032,Faur,92.03.06.2002,Karas,Kabupaten,Fak Fak,Papua Barat
577,98032,Kiaba,92.03.06.2003,Karas,Kabupaten,Fak Fak,Papua Barat
578,98032,Malakuli,92.03.06.2001,Karas,Kabupaten,Fak Fak,Papua Barat
579,98032,Mas,92.03.06.2007,Karas,Kabupaten,Fak Fak,Papua Barat
580,98032,Tarak,92.03.06.2005,Karas,Kabupaten,Fak Fak,Papua Barat
581,98032,Tuberwasak,92.03.06.2006,Karas,Kabupaten,Fak Fak,Papua Barat
582,98152,Bibiram,92.06.20.2004,Kamundan,Kabupaten,Teluk Bintuni,Papua Barat
583,98152,Kalitama I (Kalitami I),92.06.20.2001,Kamundan,Kabupaten,Teluk Bintuni,Papua Barat
584,98152,Kalitama II (Kalitami II),92.06.20.2002,Kamundan,Kabupaten,Teluk Bintuni,Papua Barat
585,98152,Kenara,92.06.20.2003,Kamundan,Kabupaten,Teluk Bintuni,Papua Barat
586,98114,Bahumia,92.08.05.2004,Kambrau (Kambraw / Kamberau),Kabupaten,Kaimana,Papua Barat
587,98114,Kooy,92.08.05.2007,Kambrau (Kambraw / Kamberau),Kabupaten,Kaimana,Papua Barat
588,98114,Rauna,92.08.05.2001,Kambrau (Kambraw / Kamberau),Kabupaten,Kaimana,Papua Barat
589,98114,Sermuku (Ubia Sermuku),92.08.05.2003,Kambrau (Kambraw / Kamberau),Kabupaten,Kaimana,Papua Barat
590,98114,Waho,92.08.05.2005,Kambrau (Kambraw / Kamberau),Kabupaten,Kaimana,Papua Barat
591,98114,Wamesa,92.08.05.2006,Kambrau (Kambraw / Kamberau),Kabupaten,Kaimana,Papua Barat
592,98114,Werafuta,92.08.05.2002,Kambrau (Kambraw / Kamberau),Kabupaten,Kaimana,Papua Barat
593,98134,Sara,92.06.15.2001,Kaitaro,Kabupaten,Teluk Bintuni,Papua Barat
594,98134,Suga,92.06.15.2005,Kaitaro,Kabupaten,Teluk Bintuni,Papua Barat
595,98134,Tugarama (Tugerama),92.06.15.2004,Kaitaro,Kabupaten,Teluk Bintuni,Papua Barat
596,98134,Warga Nusa I (Warganusa I / Warbanusa I),92.06.15.2002,Kaitaro,Kabupaten,Teluk Bintuni,Papua Barat
597,98134,Warga Nusa II,92.06.15.2003,Kaitaro,Kabupaten,Teluk Bintuni,Papua Barat
598,98113,Coa,92.08.01.2013,Kaimana,Kabupaten,Kaimana,Papua Barat
599,98113,Foroma Jaya,92.08.01.2008,Kaimana,Kabupaten,Kaimana,Papua Barat
600,98113,Jarati,92.08.01.2016,Kaimana,Kabupaten,Kaimana,Papua Barat
601,98113,Kaimana Kota,92.08.01.1001,Kaimana,Kabupaten,Kaimana,Papua Barat
602,98113,Kamaka,92.08.01.2012,Kaimana,Kabupaten,Kaimana,Papua Barat
603,98113,Krooy,92.08.01.1014,Kaimana,Kabupaten,Kaimana,Papua Barat
604,98113,Lobo,92.08.01.2004,Kaimana,Kabupaten,Kaimana,Papua Barat
605,98113,Lumira,92.08.01.2011,Kaimana,Kabupaten,Kaimana,Papua Barat
606,98113,Mai Mai,92.08.01.2010,Kaimana,Kabupaten,Kaimana,Papua Barat
607,98113,Marsi,92.08.01.2002,Kaimana,Kabupaten,Kaimana,Papua Barat
608,98113,Murano,92.08.01.2009,Kaimana,Kabupaten,Kaimana,Papua Barat
609,98113,Namatota,92.08.01.2003,Kaimana,Kabupaten,Kaimana,Papua Barat
610,98113,Oray,92.08.01.2019,Kaimana,Kabupaten,Kaimana,Papua Barat
611,98113,Sara,92.08.01.2017,Kaimana,Kabupaten,Kaimana,Papua Barat
612,98113,Saria,92.08.01.2015,Kaimana,Kabupaten,Kaimana,Papua Barat
613,98113,Sisir,92.08.01.2007,Kaimana,Kabupaten,Kaimana,Papua Barat
614,98113,Tanggaromi,92.08.01.2006,Kaimana,Kabupaten,Kaimana,Papua Barat
615,98113,Trikora,92.08.01.2005,Kaimana,Kabupaten,Kaimana,Papua Barat
616,98113,Werua,92.08.01.2018,Kaimana,Kabupaten,Kaimana,Papua Barat
617,98353,Aryon,92.12.10.2013,Hingk,Kabupaten,Pegunungan Arfak,Papua Barat
618,98353,Cangoisi,92.12.10.2006,Hingk,Kabupaten,Pegunungan Arfak,Papua Barat
619,98353,Demunti,92.12.10.2009,Hingk,Kabupaten,Pegunungan Arfak,Papua Barat
620,98353,Gueipimbai,92.12.10.2010,Hingk,Kabupaten,Pegunungan Arfak,Papua Barat
621,98353,Guwei Uti,92.12.10.2026,Hingk,Kabupaten,Pegunungan Arfak,Papua Barat
622,98353,Haktiebou,92.12.10.2016,Hingk,Kabupaten,Pegunungan Arfak,Papua Barat
623,98353,Humeisi,92.12.10.2015,Hingk,Kabupaten,Pegunungan Arfak,Papua Barat
624,98353,Ikimabou,92.12.10.2002,Hingk,Kabupaten,Pegunungan Arfak,Papua Barat
625,98353,Kisap,92.12.10.2004,Hingk,Kabupaten,Pegunungan Arfak,Papua Barat
626,98353,Kwaiyehep,92.12.10.2019,Hingk,Kabupaten,Pegunungan Arfak,Papua Barat
627,98353,Kwok Dua,92.12.10.2018,Hingk,Kabupaten,Pegunungan Arfak,Papua Barat
628,98353,Kwok Satu,92.12.10.2017,Hingk,Kabupaten,Pegunungan Arfak,Papua Barat
629,98353,Liehak,92.12.10.2022,Hingk,Kabupaten,Pegunungan Arfak,Papua Barat
630,98353,Manggot,92.12.10.2003,Hingk,Kabupaten,Pegunungan Arfak,Papua Barat
631,98353,Mbegau,92.12.10.2020,Hingk,Kabupaten,Pegunungan Arfak,Papua Barat
632,98353,Mbrande,92.12.10.2029,Hingk,Kabupaten,Pegunungan Arfak,Papua Barat
633,98353,Minyeimemud,92.12.10.2007,Hingk,Kabupaten,Pegunungan Arfak,Papua Barat
634,98353,Monut,92.12.10.2028,Hingk,Kabupaten,Pegunungan Arfak,Papua Barat
635,98353,Ngimoubri,92.12.10.2021,Hingk,Kabupaten,Pegunungan Arfak,Papua Barat
636,98353,Ntap,92.12.10.2027,Hingk,Kabupaten,Pegunungan Arfak,Papua Barat
637,98353,Nungkimor,92.12.10.2005,Hingk,Kabupaten,Pegunungan Arfak,Papua Barat
638,98353,Penibut,92.12.10.2008,Hingk,Kabupaten,Pegunungan Arfak,Papua Barat
639,98353,Punggung,92.12.10.2014,Hingk,Kabupaten,Pegunungan Arfak,Papua Barat
640,98353,Sopnyai,92.12.10.2001,Hingk,Kabupaten,Pegunungan Arfak,Papua Barat
641,98353,Tigaucomti,92.12.10.2011,Hingk,Kabupaten,Pegunungan Arfak,Papua Barat
642,98353,Tingwoikiou,92.12.10.2025,Hingk,Kabupaten,Pegunungan Arfak,Papua Barat
643,98353,Tumbeibehei,92.12.10.2024,Hingk,Kabupaten,Pegunungan Arfak,Papua Barat
644,98353,Umcep,92.12.10.2023,Hingk,Kabupaten,Pegunungan Arfak,Papua Barat
645,98353,Urwong,92.12.10.2012,Hingk,Kabupaten,Pegunungan Arfak,Papua Barat
646,98023,Gar,92.03.16.2003,Furwagi,Kabupaten,Fak Fak,Papua Barat
647,98023,Rumbati,92.03.16.2004,Furwagi,Kabupaten,Fak Fak,Papua Barat
648,98023,Salakiti,92.03.16.2001,Furwagi,Kabupaten,Fak Fak,Papua Barat
649,98023,Sengkiti,92.03.16.2007,Furwagi,Kabupaten,Fak Fak,Papua Barat
650,98023,Tanehamur,92.03.16.2006,Furwagi,Kabupaten,Fak Fak,Papua Barat
651,98023,Tawar,92.03.16.2002,Furwagi,Kabupaten,Fak Fak,Papua Barat
652,98023,Twootkindik,92.03.16.2008,Furwagi,Kabupaten,Fak Fak,Papua Barat
653,98023,Werfra,92.03.16.2005,Furwagi,Kabupaten,Fak Fak,Papua Barat
654,98031,Kalamanuk,92.03.12.2005,Fakfak Timur Tengah,Kabupaten,Fak Fak,Papua Barat
655,98031,Kotam,92.03.12.2003,Fakfak Timur Tengah,Kabupaten,Fak Fak,Papua Barat
656,98031,Krabelang,92.03.12.2009,Fakfak Timur Tengah,Kabupaten,Fak Fak,Papua Barat
657,98031,Kwama,92.03.12.2004,Fakfak Timur Tengah,Kabupaten,Fak Fak,Papua Barat
658,98031,Wambar,92.03.12.2002,Fakfak Timur Tengah,Kabupaten,Fak Fak,Papua Barat
659,98031,Wambar Timur,92.03.12.2010,Fakfak Timur Tengah,Kabupaten,Fak Fak,Papua Barat
660,98031,Waserat,92.03.12.2001,Fakfak Timur Tengah,Kabupaten,Fak Fak,Papua Barat
661,98031,Wayati,92.03.12.2007,Fakfak Timur Tengah,Kabupaten,Fak Fak,Papua Barat
662,98031,Wayati Barat,92.03.12.2008,Fakfak Timur Tengah,Kabupaten,Fak Fak,Papua Barat
663,98031,Wayati Timur,92.03.12.2006,Fakfak Timur Tengah,Kabupaten,Fak Fak,Papua Barat
664,98027,Kiria Bisa,92.03.03.2012,Fak-Fak Timur (Fakfak Timur),Kabupaten,Fak Fak,Papua Barat
665,98027,Saharei,92.03.03.2013,Fak-Fak Timur (Fakfak Timur),Kabupaten,Fak Fak,Papua Barat
666,98027,Sanggram,92.03.03.2004,Fak-Fak Timur (Fakfak Timur),Kabupaten,Fak Fak,Papua Barat
667,98027,Tunas Gain,92.03.03.2001,Fak-Fak Timur (Fakfak Timur),Kabupaten,Fak Fak,Papua Barat
668,98027,Urat,92.03.03.2003,Fak-Fak Timur (Fakfak Timur),Kabupaten,Fak Fak,Papua Barat
669,98027,Weri,92.03.03.2010,Fak-Fak Timur (Fakfak Timur),Kabupaten,Fak Fak,Papua Barat
670,98012,Air Besar,92.03.05.2007,Fak-Fak Tengah (Fakfak Tengah),Kabupaten,Fak Fak,Papua Barat
671,98012,Brongkendik,92.03.05.2006,Fak-Fak Tengah (Fakfak Tengah),Kabupaten,Fak Fak,Papua Barat
672,98012,Danaweria,92.03.05.1001,Fak-Fak Tengah (Fakfak Tengah),Kabupaten,Fak Fak,Papua Barat
673,98012,Hambrangkendik,92.03.05.2013,Fak-Fak Tengah (Fakfak Tengah),Kabupaten,Fak Fak,Papua Barat
674,98012,Kanantare,92.03.05.2009,Fak-Fak Tengah (Fakfak Tengah),Kabupaten,Fak Fak,Papua Barat
675,98012,Katemba,92.03.05.2003,Fak-Fak Tengah (Fakfak Tengah),Kabupaten,Fak Fak,Papua Barat
676,98012,Kayu Merah,92.03.05.2002,Fak-Fak Tengah (Fakfak Tengah),Kabupaten,Fak Fak,Papua Barat
677,98012,Mandopma,92.03.05.2008,Fak-Fak Tengah (Fakfak Tengah),Kabupaten,Fak Fak,Papua Barat
678,98012,Nemewikarya,92.03.05.2004,Fak-Fak Tengah (Fakfak Tengah),Kabupaten,Fak Fak,Papua Barat
679,98012,Pasir Putih,92.03.05.2010,Fak-Fak Tengah (Fakfak Tengah),Kabupaten,Fak Fak,Papua Barat
680,98012,Pirma,92.03.05.2011,Fak-Fak Tengah (Fakfak Tengah),Kabupaten,Fak Fak,Papua Barat
681,98012,Raduria,92.03.05.2005,Fak-Fak Tengah (Fakfak Tengah),Kabupaten,Fak Fak,Papua Barat
682,98012,Sakartemin,92.03.05.2012,Fak-Fak Tengah (Fakfak Tengah),Kabupaten,Fak Fak,Papua Barat
683,98012,Unipokpok,92.03.05.2014,Fak-Fak Tengah (Fakfak Tengah),Kabupaten,Fak Fak,Papua Barat
684,98022,Kiat,92.03.02.2002,Fak-Fak Barat (Fakfak Barat),Kabupaten,Fak Fak,Papua Barat
685,98022,Kwuhkendak,92.03.02.2010,Fak-Fak Barat (Fakfak Barat),Kabupaten,Fak Fak,Papua Barat
686,98022,Pahger Nkindik,92.03.02.2012,Fak-Fak Barat (Fakfak Barat),Kabupaten,Fak Fak,Papua Barat
687,98022,Porum,92.03.02.2014,Fak-Fak Barat (Fakfak Barat),Kabupaten,Fak Fak,Papua Barat
688,98022,Purwahab Tonggo,92.03.02.2011,Fak-Fak Barat (Fakfak Barat),Kabupaten,Fak Fak,Papua Barat
689,98022,Purwasak,92.03.02.2003,Fak-Fak Barat (Fakfak Barat),Kabupaten,Fak Fak,Papua Barat
690,98022,Werba,92.03.02.2001,Fak-Fak Barat (Fakfak Barat),Kabupaten,Fak Fak,Papua Barat
691,98022,Werba Utara,92.03.02.2013,Fak-Fak Barat (Fakfak Barat),Kabupaten,Fak Fak,Papua Barat
692,98022,Wurkendik,92.03.02.2008,Fak-Fak Barat (Fakfak Barat),Kabupaten,Fak Fak,Papua Barat
693,98011,Fak Fak Selatan,92.03.01.1001,Fak-Fak (Fakfak),Kabupaten,Fak Fak,Papua Barat
694,98011,Fak Fak Utara,92.03.01.1002,Fak-Fak (Fakfak),Kabupaten,Fak Fak,Papua Barat
695,98011,Gewerpe,92.03.01.2007,Fak-Fak (Fakfak),Kabupaten,Fak Fak,Papua Barat
696,98011,Lusi Peri,92.03.01.2011,Fak-Fak (Fakfak),Kabupaten,Fak Fak,Papua Barat
697,98011,Wrikapal,92.03.01.2012,Fak-Fak (Fakfak),Kabupaten,Fak Fak,Papua Barat
698,98133,Fruata (Fuata/Irorutu II),92.06.08.2001,Fafurwar (Irorutu),Kabupaten,Teluk Bintuni,Papua Barat
699,98133,Meryedi (Maryedi),92.06.08.2002,Fafurwar (Irorutu),Kabupaten,Teluk Bintuni,Papua Barat
700,98133,Riendo,92.06.08.2003,Fafurwar (Irorutu),Kabupaten,Teluk Bintuni,Papua Barat
701,98359,Cigera,92.12.05.2009,Didohu,Kabupaten,Pegunungan Arfak,Papua Barat
702,98359,Cirnohu,92.12.05.2002,Didohu,Kabupaten,Pegunungan Arfak,Papua Barat
703,98359,Danmou,92.12.05.2004,Didohu,Kabupaten,Pegunungan Arfak,Papua Barat
704,98359,Demdamei,92.12.05.2012,Didohu,Kabupaten,Pegunungan Arfak,Papua Barat
705,98359,Dibetik,92.12.05.2003,Didohu,Kabupaten,Pegunungan Arfak,Papua Barat
706,98359,Disra,92.12.05.2014,Didohu,Kabupaten,Pegunungan Arfak,Papua Barat
707,98359,Dugrimog,92.12.05.2013,Didohu,Kabupaten,Pegunungan Arfak,Papua Barat
708,98359,Gedeira,92.12.05.2011,Didohu,Kabupaten,Pegunungan Arfak,Papua Barat
709,98359,Iranmeba,92.12.05.2001,Didohu,Kabupaten,Pegunungan Arfak,Papua Barat
710,98359,Kusmenau,92.12.05.2008,Didohu,Kabupaten,Pegunungan Arfak,Papua Barat
711,98359,Miseda,92.12.05.2005,Didohu,Kabupaten,Pegunungan Arfak,Papua Barat
712,98359,Sirgemeh,92.12.05.2006,Didohu,Kabupaten,Pegunungan Arfak,Papua Barat
713,98359,Sneremer,92.12.05.2007,Didohu,Kabupaten,Pegunungan Arfak,Papua Barat
714,98359,Tomstir,92.12.05.2010,Didohu,Kabupaten,Pegunungan Arfak,Papua Barat
715,98326,Dibera,92.11.04.2012,Dataran Isim,Kabupaten,Manokwari Selatan,Papua Barat
716,98326,Disihu (Dihisu),92.11.04.2007,Dataran Isim,Kabupaten,Manokwari Selatan,Papua Barat
717,98326,Disra (Desra),92.11.04.2009,Dataran Isim,Kabupaten,Manokwari Selatan,Papua Barat
718,98326,Duhugesa,92.11.04.2002,Dataran Isim,Kabupaten,Manokwari Selatan,Papua Barat
719,98326,Hugamod (Hugomot),92.11.04.2006,Dataran Isim,Kabupaten,Manokwari Selatan,Papua Barat
720,98326,Inyuara,92.11.04.2008,Dataran Isim,Kabupaten,Manokwari Selatan,Papua Barat
721,98326,Isim,92.11.04.2001,Dataran Isim,Kabupaten,Manokwari Selatan,Papua Barat
722,98326,Mindermes,92.11.04.2010,Dataran Isim,Kabupaten,Manokwari Selatan,Papua Barat
723,98326,Sibjo,92.11.04.2011,Dataran Isim,Kabupaten,Manokwari Selatan,Papua Barat
724,98326,Tahosta (Tohosta),92.11.04.2005,Dataran Isim,Kabupaten,Manokwari Selatan,Papua Barat
725,98326,Tubes,92.11.04.2003,Dataran Isim,Kabupaten,Manokwari Selatan,Papua Barat
726,98326,Umuhousi (Umousi),92.11.04.2004,Dataran Isim,Kabupaten,Manokwari Selatan,Papua Barat
727,98142,Cumnaji,92.06.13.2002,Dataran Beimes,Kabupaten,Teluk Bintuni,Papua Barat
728,98142,Horna (Homa),92.06.13.2001,Dataran Beimes,Kabupaten,Teluk Bintuni,Papua Barat
729,98142,Huss,92.06.13.2005,Dataran Beimes,Kabupaten,Teluk Bintuni,Papua Barat
730,98142,Menci,92.06.13.2003,Dataran Beimes,Kabupaten,Teluk Bintuni,Papua Barat
731,98142,Sir,92.06.13.2004,Dataran Beimes,Kabupaten,Teluk Bintuni,Papua Barat
732,98142,Ugdohop,92.06.13.2006,Dataran Beimes,Kabupaten,Teluk Bintuni,Papua Barat
733,98352,Aiga,92.12.07.2005,Catubouw,Kabupaten,Pegunungan Arfak,Papua Barat
734,98352,Bigwaimud,92.12.07.2002,Catubouw,Kabupaten,Pegunungan Arfak,Papua Barat
735,98352,Binggrayud,92.12.07.2014,Catubouw,Kabupaten,Pegunungan Arfak,Papua Barat
736,98352,Catubouw,92.12.07.2001,Catubouw,Kabupaten,Pegunungan Arfak,Papua Barat
737,98352,Coijut,92.12.07.2021,Catubouw,Kabupaten,Pegunungan Arfak,Papua Barat
738,98352,Idemai,92.12.07.2019,Catubouw,Kabupaten,Pegunungan Arfak,Papua Barat
739,98352,Ijigreg,92.12.07.2011,Catubouw,Kabupaten,Pegunungan Arfak,Papua Barat
740,98352,Imandrigo,92.12.07.2006,Catubouw,Kabupaten,Pegunungan Arfak,Papua Barat
741,98352,Jim,92.12.07.2012,Catubouw,Kabupaten,Pegunungan Arfak,Papua Barat
742,98352,Kaungwam,92.12.07.2004,Catubouw,Kabupaten,Pegunungan Arfak,Papua Barat
743,98352,Manggesuk,92.12.07.2010,Catubouw,Kabupaten,Pegunungan Arfak,Papua Barat
744,98352,Mieycomti,92.12.07.2020,Catubouw,Kabupaten,Pegunungan Arfak,Papua Barat
745,98352,Mihij,92.12.07.2016,Catubouw,Kabupaten,Pegunungan Arfak,Papua Barat
746,98352,Mihou,92.12.07.2003,Catubouw,Kabupaten,Pegunungan Arfak,Papua Barat
747,98352,Minmo,92.12.07.2015,Catubouw,Kabupaten,Pegunungan Arfak,Papua Barat
748,98352,Ndabouw,92.12.07.2008,Catubouw,Kabupaten,Pegunungan Arfak,Papua Barat
749,98352,Slomiou,92.12.07.2013,Catubouw,Kabupaten,Pegunungan Arfak,Papua Barat
750,98352,Soudin,92.12.07.2017,Catubouw,Kabupaten,Pegunungan Arfak,Papua Barat
751,98352,Sugemeh,92.12.07.2009,Catubouw,Kabupaten,Pegunungan Arfak,Papua Barat
752,98352,Timtouw,92.12.07.2018,Catubouw,Kabupaten,Pegunungan Arfak,Papua Barat
753,98352,Unti,92.12.07.2007,Catubouw,Kabupaten,Pegunungan Arfak,Papua Barat
754,98123,Adi Jaya (Adijaya),92.08.02.2007,Buruway,Kabupaten,Kaimana,Papua Barat
755,98123,Edor,92.08.02.2003,Buruway,Kabupaten,Kaimana,Papua Barat
756,98123,Esania,92.08.02.2009,Buruway,Kabupaten,Kaimana,Papua Barat
757,98123,Gaka,92.08.02.2005,Buruway,Kabupaten,Kaimana,Papua Barat
758,98123,Guriasa,92.08.02.2006,Buruway,Kabupaten,Kaimana,Papua Barat
759,98123,Hia,92.08.02.2010,Buruway,Kabupaten,Kaimana,Papua Barat
760,98123,Kambala,92.08.02.2001,Buruway,Kabupaten,Kaimana,Papua Barat
761,98123,Nusaulan (Nusaulan Jaya),92.08.02.2008,Buruway,Kabupaten,Kaimana,Papua Barat
762,98123,Tairi,92.08.02.2004,Buruway,Kabupaten,Kaimana,Papua Barat
763,98123,Yarona,92.08.02.2002,Buruway,Kabupaten,Kaimana,Papua Barat
764,98026,Bumi Moroh Indah,92.03.07.2010,Bomberay,Kabupaten,Fak Fak,Papua Barat
765,98026,Mekarsari,92.03.07.2008,Bomberay,Kabupaten,Fak Fak,Papua Barat
766,98026,Onim Jaya,92.03.07.2014,Bomberay,Kabupaten,Fak Fak,Papua Barat
767,98026,Onimsari,92.03.07.2007,Bomberay,Kabupaten,Fak Fak,Papua Barat
768,98026,Pinang Agung,92.03.07.2009,Bomberay,Kabupaten,Fak Fak,Papua Barat
769,98026,Tesha (Tesha Perda),92.03.07.2012,Bomberay,Kabupaten,Fak Fak,Papua Barat
770,98026,Wono Rejo,92.03.07.2015,Bomberay,Kabupaten,Fak Fak,Papua Barat
771,98161,Eniba,92.06.18.2006,Biscoop,Kabupaten,Teluk Bintuni,Papua Barat
772,98161,Ibori,92.06.18.2002,Biscoop,Kabupaten,Teluk Bintuni,Papua Barat
773,98161,Jahabra,92.06.18.2001,Biscoop,Kabupaten,Teluk Bintuni,Papua Barat
774,98161,Laudoho,92.06.18.2005,Biscoop,Kabupaten,Teluk Bintuni,Papua Barat
775,98161,Menyembrui (Menyembru),92.06.18.2003,Biscoop,Kabupaten,Teluk Bintuni,Papua Barat
776,98161,Meyorga,92.06.18.2004,Biscoop,Kabupaten,Teluk Bintuni,Papua Barat
777,98161,Mowitka,92.06.18.2007,Biscoop,Kabupaten,Teluk Bintuni,Papua Barat
778,98141,Argosigemerai,92.06.01.2005,Bintuni,Kabupaten,Teluk Bintuni,Papua Barat
779,98141,Beimes,92.06.01.2009,Bintuni,Kabupaten,Teluk Bintuni,Papua Barat
780,98141,Bintuni Barat,92.06.01.1002,Bintuni,Kabupaten,Teluk Bintuni,Papua Barat
781,98141,Bintuni Timur,92.06.01.1001,Bintuni,Kabupaten,Teluk Bintuni,Papua Barat
782,98141,Iguriji,92.06.01.2010,Bintuni,Kabupaten,Teluk Bintuni,Papua Barat
783,98141,Masina,92.06.01.2022,Bintuni,Kabupaten,Teluk Bintuni,Papua Barat
784,98141,Tuasai,92.06.01.2004,Bintuni,Kabupaten,Teluk Bintuni,Papua Barat
785,98141,Wesiri,92.06.01.2026,Bintuni,Kabupaten,Teluk Bintuni,Papua Barat
786,98132,Amutu,92.06.03.2021,Babo,Kabupaten,Teluk Bintuni,Papua Barat
787,98132,Irarutu III,92.06.03.2020,Babo,Kabupaten,Teluk Bintuni,Papua Barat
788,98132,Kasira,92.06.03.2023,Babo,Kabupaten,Teluk Bintuni,Papua Barat
789,98132,Nusei,92.06.03.2022,Babo,Kabupaten,Teluk Bintuni,Papua Barat
790,98131,Aroba,92.06.16.2001,Aroba,Kabupaten,Teluk Bintuni,Papua Barat
791,98131,Sangguar,92.06.16.2005,Aroba,Kabupaten,Teluk Bintuni,Papua Barat
792,98131,Sido Makmur,92.06.16.2003,Aroba,Kabupaten,Teluk Bintuni,Papua Barat
793,98131,Wimbro (Nelayan Wimbro),92.06.16.2004,Aroba,Kabupaten,Teluk Bintuni,Papua Barat
794,98131,Yaru,92.06.16.2002,Aroba,Kabupaten,Teluk Bintuni,Papua Barat
795,98014,Andamata,92.03.13.2001,Arguni,Kabupaten,Fak Fak,Papua Barat
796,98014,Arguni,92.03.13.2003,Arguni,Kabupaten,Fak Fak,Papua Barat
797,98014,Fior,92.03.13.2004,Arguni,Kabupaten,Fak Fak,Papua Barat
798,98014,Furir,92.03.13.2005,Arguni,Kabupaten,Fak Fak,Papua Barat
799,98014,Taver,92.03.13.2002,Arguni,Kabupaten,Fak Fak,Papua Barat
800,98151,Aranday (Arandai),92.06.04.2001,Aranday,Kabupaten,Teluk Bintuni,Papua Barat
801,98151,Baru (Kampung Baru),92.06.04.2007,Aranday,Kabupaten,Teluk Bintuni,Papua Barat
802,98151,Kecap,92.06.04.2008,Aranday,Kabupaten,Teluk Bintuni,Papua Barat
803,98151,Manunggal Karya/Jaya,92.06.04.2009,Aranday,Kabupaten,Teluk Bintuni,Papua Barat
804,98356,Itkau,92.12.02.2008,Anggi Gida,Kabupaten,Pegunungan Arfak,Papua Barat
805,98356,Krobut,92.12.02.2002,Anggi Gida,Kabupaten,Pegunungan Arfak,Papua Barat
806,98356,Ngisrow,92.12.02.2007,Anggi Gida,Kabupaten,Pegunungan Arfak,Papua Barat
807,98356,Sakumi,92.12.02.2004,Anggi Gida,Kabupaten,Pegunungan Arfak,Papua Barat
808,98356,Sibiogud,92.12.02.2001,Anggi Gida,Kabupaten,Pegunungan Arfak,Papua Barat
809,98356,Sisrang,92.12.02.2006,Anggi Gida,Kabupaten,Pegunungan Arfak,Papua Barat
810,98356,Tombrok,92.12.02.2005,Anggi Gida,Kabupaten,Pegunungan Arfak,Papua Barat
811,98356,Tubyam,92.12.02.2003,Anggi Gida,Kabupaten,Pegunungan Arfak,Papua Barat
812,98355,Ayaubey,92.12.01.2008,Anggi,Kabupaten,Pegunungan Arfak,Papua Barat
813,98355,Hungku,92.12.01.2012,Anggi,Kabupaten,Pegunungan Arfak,Papua Barat
814,98355,Igembai,92.12.01.2002,Anggi,Kabupaten,Pegunungan Arfak,Papua Barat
815,98355,Imbai,92.12.01.2003,Anggi,Kabupaten,Pegunungan Arfak,Papua Barat
816,98355,Iraiweri,92.12.01.2001,Anggi,Kabupaten,Pegunungan Arfak,Papua Barat
817,98355,Mentubey,92.12.01.2007,Anggi,Kabupaten,Pegunungan Arfak,Papua Barat
818,98355,Pamaha,92.12.01.2010,Anggi,Kabupaten,Pegunungan Arfak,Papua Barat
819,98355,Srubey,92.12.01.2013,Anggi,Kabupaten,Pegunungan Arfak,Papua Barat
820,98355,Susi,92.12.01.2005,Anggi,Kabupaten,Pegunungan Arfak,Papua Barat
821,98355,Suteibey,92.12.01.2004,Anggi,Kabupaten,Pegunungan Arfak,Papua Barat
822,98355,Testega Pamaha,92.12.01.2009,Anggi,Kabupaten,Pegunungan Arfak,Papua Barat
823,98355,Ullong,92.12.01.2006,Anggi,Kabupaten,Pegunungan Arfak,Papua Barat
824,98355,Uper,92.12.01.2011,Anggi,Kabupaten,Pegunungan Arfak,Papua Barat