no,postal_code,urban,area_code,sub_district,dt2,city,province
1,98379,Baun,92.09.03.2001,Yembun,Kabupaten,Tambrauw,Papua Barat Daya
2,98379,Metbelum,92.09.03.2007,Yembun,Kabupaten,Tambrauw,Papua Barat Daya
3,98378,Metbesa,92.09.03.2013,Yembun,Kabupaten,Tambrauw,Papua Barat Daya
4,98379,Metnayam,92.09.03.2003,Yembun,Kabupaten,Tambrauw,Papua Barat Daya
5,98379,Salem,92.09.03.2012,Yembun,Kabupaten,Tambrauw,Papua Barat Daya
6,98379,Sumbekas,92.09.03.2002,Yembun,Kabupaten,Tambrauw,Papua Barat Daya
7,98377,Araf Mafat,92.09.19.2003,Wilhem Roumbouts,Kabupaten,Tambrauw,Papua Barat Daya
8,98377,Esyuom,92.09.19.2004,Wilhem Roumbouts,Kabupaten,Tambrauw,Papua Barat Daya
9,98377,Sayam,92.09.19.2002,Wilhem Roumbouts,Kabupaten,Tambrauw,Papua Barat Daya
10,98377,Tabamsere,92.09.19.2001,Wilhem Roumbouts,Kabupaten,Tambrauw,Papua Barat Daya
11,98455,Kamlin,92.01.45.2006,Wemak,Kabupaten,Sorong,Papua Barat Daya
12,98455,Klalin Mos,92.01.45.2004,Wemak,Kabupaten,Sorong,Papua Barat Daya
13,98455,Klawaren (Klawren),92.01.45.2002,Wemak,Kabupaten,Sorong,Papua Barat Daya
14,98455,Kwari,92.01.45.2005,Wemak,Kabupaten,Sorong,Papua Barat Daya
15,98455,Saluk,92.01.45.2001,Wemak,Kabupaten,Sorong,Papua Barat Daya
16,98455,Woloin,92.01.45.2003,Wemak,Kabupaten,Sorong,Papua Barat Daya
17,98215,Bagraga (Bagaraga),92.04.12.2006,Wayer,Kabupaten,Sorong Selatan,Papua Barat Daya
18,98215,Baldon (Boldon),92.04.12.2003,Wayer,Kabupaten,Sorong Selatan,Papua Barat Daya
19,98215,Sesor,92.04.12.2004,Wayer,Kabupaten,Sorong Selatan,Papua Barat Daya
20,98215,Sungguer,92.04.12.2001,Wayer,Kabupaten,Sorong Selatan,Papua Barat Daya
21,98215,Unggi (Ungi),92.04.12.2002,Wayer,Kabupaten,Sorong Selatan,Papua Barat Daya
22,98215,Waigo,92.04.12.2005,Wayer,Kabupaten,Sorong Selatan,Papua Barat Daya
23,98215,Wardik,92.04.12.2007,Wayer,Kabupaten,Sorong Selatan,Papua Barat Daya
24,98215,Wayer,92.04.12.2008,Wayer,Kabupaten,Sorong Selatan,Papua Barat Daya
25,98467,Boni,92.05.14.2003,Warwarbomi,Kabupaten,Raja Ampat,Papua Barat Daya
26,98467,Mnier,92.05.14.2002,Warwarbomi,Kabupaten,Raja Ampat,Papua Barat Daya
27,98467,Warkori,92.05.14.2004,Warwarbomi,Kabupaten,Raja Ampat,Papua Barat Daya
28,98467,Warmanai,92.05.14.2001,Warwarbomi,Kabupaten,Raja Ampat,Papua Barat Daya
29,98466,Andey,92.05.02.2010,Waigeo Utara,Kabupaten,Raja Ampat,Papua Barat Daya
30,98466,Asukweri,92.05.02.2011,Waigeo Utara,Kabupaten,Raja Ampat,Papua Barat Daya
31,98466,Bonsayor,92.05.02.2013,Waigeo Utara,Kabupaten,Raja Ampat,Papua Barat Daya
32,98466,Darumbab,92.05.02.2014,Waigeo Utara,Kabupaten,Raja Ampat,Papua Barat Daya
33,98466,Kabare,92.05.02.2003,Waigeo Utara,Kabupaten,Raja Ampat,Papua Barat Daya
34,98466,Kalisade,92.05.02.2015,Waigeo Utara,Kabupaten,Raja Ampat,Papua Barat Daya
35,98476,Puper,92.05.08.2001,Waigeo Timur,Kabupaten,Raja Ampat,Papua Barat Daya
36,98476,Urbinasopen,92.05.08.2003,Waigeo Timur,Kabupaten,Raja Ampat,Papua Barat Daya
37,98476,Yenbekaki (Yembekaki),92.05.08.2002,Waigeo Timur,Kabupaten,Raja Ampat,Papua Barat Daya
38,98476,Yensener (Yesner),92.05.08.2004,Waigeo Timur,Kabupaten,Raja Ampat,Papua Barat Daya
39,98475,Friwen,92.05.03.2016,Waigeo Selatan,Kabupaten,Raja Ampat,Papua Barat Daya
40,98475,Saonek,92.05.03.2004,Waigeo Selatan,Kabupaten,Raja Ampat,Papua Barat Daya
41,98475,Saporkren,92.05.03.2014,Waigeo Selatan,Kabupaten,Raja Ampat,Papua Barat Daya
42,98475,Wawiyai,92.05.03.2017,Waigeo Selatan,Kabupaten,Raja Ampat,Papua Barat Daya
43,98475,Yenbeser,92.05.03.2015,Waigeo Selatan,Kabupaten,Raja Ampat,Papua Barat Daya
44,98465,Gag,92.05.15.2005,Waigeo Barat Kepulauan,Kabupaten,Raja Ampat,Papua Barat Daya
45,98465,Manyaifun,92.05.15.2001,Waigeo Barat Kepulauan,Kabupaten,Raja Ampat,Papua Barat Daya
46,98465,Meosmanggara,92.05.15.2002,Waigeo Barat Kepulauan,Kabupaten,Raja Ampat,Papua Barat Daya
47,98465,Pam,92.05.15.2003,Waigeo Barat Kepulauan,Kabupaten,Raja Ampat,Papua Barat Daya
48,98465,Saukabu,92.05.15.2004,Waigeo Barat Kepulauan,Kabupaten,Raja Ampat,Papua Barat Daya
49,98465,Saupapir,92.05.15.2006,Waigeo Barat Kepulauan,Kabupaten,Raja Ampat,Papua Barat Daya
50,98464,Bianci,92.05.07.2007,Waigeo Barat,Kabupaten,Raja Ampat,Papua Barat Daya
51,98464,Mutus,92.05.07.2005,Waigeo Barat,Kabupaten,Raja Ampat,Papua Barat Daya
52,98464,Saleo,92.05.07.2011,Waigeo Barat,Kabupaten,Raja Ampat,Papua Barat Daya
53,98464,Selpele,92.05.07.2001,Waigeo Barat,Kabupaten,Raja Ampat,Papua Barat Daya
54,98464,Waisilip,92.05.07.2012,Waigeo Barat,Kabupaten,Raja Ampat,Papua Barat Daya
55,98376,Krisnos,92.09.18.2002,Tobouw,Kabupaten,Tambrauw,Papua Barat Daya
56,98363,Resye,92.09.18.2008,Tobouw,Kabupaten,Tambrauw,Papua Barat Daya
57,98369,Sunggak,92.09.18.2006,Tobouw,Kabupaten,Tambrauw,Papua Barat Daya
58,98376,Syukwes,92.09.18.2003,Tobouw,Kabupaten,Tambrauw,Papua Barat Daya
59,98376,Syumbab,92.09.18.2001,Tobouw,Kabupaten,Tambrauw,Papua Barat Daya
60,98363,Wowom,92.09.18.2007,Tobouw,Kabupaten,Tambrauw,Papua Barat Daya
61,98474,Arway,92.05.19.2003,Tiplol Mayalibit,Kabupaten,Raja Ampat,Papua Barat Daya
62,98474,Beo,92.05.19.2004,Tiplol Mayalibit,Kabupaten,Raja Ampat,Papua Barat Daya
63,98474,Go,92.05.19.2001,Tiplol Mayalibit,Kabupaten,Raja Ampat,Papua Barat Daya
64,98474,Kabilol,92.05.19.2002,Tiplol Mayalibit,Kabupaten,Raja Ampat,Papua Barat Daya
65,98474,Waifoi,92.05.19.2005,Tiplol Mayalibit,Kabupaten,Raja Ampat,Papua Barat Daya
66,98474,Warimak,92.05.19.2006,Tiplol Mayalibit,Kabupaten,Raja Ampat,Papua Barat Daya
67,98375,Hohair,92.09.20.2002,Tinggouw,Kabupaten,Tambrauw,Papua Barat Daya
68,98375,Ifatkan (fatkan),92.09.20.2005,Tinggouw,Kabupaten,Tambrauw,Papua Barat Daya
69,98375,Ruriai,92.09.20.2003,Tinggouw,Kabupaten,Tambrauw,Papua Barat Daya
70,98375,Soon,92.09.20.2004,Tinggouw,Kabupaten,Tambrauw,Papua Barat Daya
71,98375,Tinggouw,92.09.20.2001,Tinggouw,Kabupaten,Tambrauw,Papua Barat Daya
72,98216,Aibobor,92.04.01.2010,Teminabuan,Kabupaten,Sorong Selatan,Papua Barat Daya
73,98216,Ani Sesna,92.04.01.2045,Teminabuan,Kabupaten,Sorong Selatan,Papua Barat Daya
74,98216,Gorolo,92.04.01.2040,Teminabuan,Kabupaten,Sorong Selatan,Papua Barat Daya
75,98216,Kaibus,92.04.01.1005,Teminabuan,Kabupaten,Sorong Selatan,Papua Barat Daya
76,98216,Keyen,92.04.01.2018,Teminabuan,Kabupaten,Sorong Selatan,Papua Barat Daya
77,98216,Kohoin,92.04.01.1006,Teminabuan,Kabupaten,Sorong Selatan,Papua Barat Daya
78,98216,Magis,92.04.01.2025,Teminabuan,Kabupaten,Sorong Selatan,Papua Barat Daya
79,98216,Nambro,92.04.01.2041,Teminabuan,Kabupaten,Sorong Selatan,Papua Barat Daya
80,98216,Seyolo,92.04.01.2044,Teminabuan,Kabupaten,Sorong Selatan,Papua Barat Daya
81,98216,Siribau,92.04.01.2021,Teminabuan,Kabupaten,Sorong Selatan,Papua Barat Daya
82,98216,Tapiri,92.04.01.2035,Teminabuan,Kabupaten,Sorong Selatan,Papua Barat Daya
83,98216,Tegirolo,92.04.01.2026,Teminabuan,Kabupaten,Sorong Selatan,Papua Barat Daya
84,98216,Wehali,92.04.01.2009,Teminabuan,Kabupaten,Sorong Selatan,Papua Barat Daya
85,98216,Wermit,92.04.01.2017,Teminabuan,Kabupaten,Sorong Selatan,Papua Barat Daya
86,98216,Wernas,92.04.01.2034,Teminabuan,Kabupaten,Sorong Selatan,Papua Barat Daya
87,98216,Wersar,92.04.01.2004,Teminabuan,Kabupaten,Sorong Selatan,Papua Barat Daya
88,98473,Kalitoko,92.05.09.2010,Teluk Mayalibit,Kabupaten,Raja Ampat,Papua Barat Daya
89,98473,Lopintol,92.05.09.2001,Teluk Mayalibit,Kabupaten,Raja Ampat,Papua Barat Daya
90,98473,Mumes,92.05.09.2009,Teluk Mayalibit,Kabupaten,Raja Ampat,Papua Barat Daya
91,98473,Warsamdin,92.05.09.2007,Teluk Mayalibit,Kabupaten,Raja Ampat,Papua Barat Daya
92,98374,Banso,92.09.07.2002,Syujak,Kabupaten,Tambrauw,Papua Barat Daya
93,98374,Frafane,92.09.07.2005,Syujak,Kabupaten,Tambrauw,Papua Barat Daya
94,98374,Iof,92.09.07.2004,Syujak,Kabupaten,Tambrauw,Papua Barat Daya
95,98374,Syujak,92.09.07.2001,Syujak,Kabupaten,Tambrauw,Papua Barat Daya
96,98463,Duber,92.05.23.2003,Supnin,Kabupaten,Raja Ampat,Papua Barat Daya
97,98463,Kapadiri,92.05.23.2004,Supnin,Kabupaten,Raja Ampat,Papua Barat Daya
98,98463,Rauki,92.05.23.2001,Supnin,Kabupaten,Raja Ampat,Papua Barat Daya
99,98463,Urai,92.05.23.2002,Supnin,Kabupaten,Raja Ampat,Papua Barat Daya
100,98459,Bouwoi (Bolwi),92.01.46.2007,Sunook,Kabupaten,Sorong,Papua Barat Daya
101,98459,Dasri,92.01.46.2001,Sunook,Kabupaten,Sorong,Papua Barat Daya
102,98459,Ketawas,92.01.46.2003,Sunook,Kabupaten,Sorong,Papua Barat Daya
103,98459,Masos,92.01.46.2002,Sunook,Kabupaten,Sorong,Papua Barat Daya
104,98459,Sulya,92.01.46.2006,Sunook,Kabupaten,Sorong,Papua Barat Daya
105,98459,Suus,92.01.46.2005,Sunook,Kabupaten,Sorong,Papua Barat Daya
106,98459,Warbo,92.01.46.2004,Sunook,Kabupaten,Sorong,Papua Barat Daya
107,98410,Malanu,92.71.05.1002,Sorong Utara,Kota,Sorong,Papua Barat Daya
108,98410,Malasilen,92.71.05.1007,Sorong Utara,Kota,Sorong,Papua Barat Daya
109,98410,Matalamagi,92.71.05.1010,Sorong Utara,Kota,Sorong,Papua Barat Daya
110,98410,Sawagumu,92.71.05.1011,Sorong Utara,Kota,Sorong,Papua Barat Daya
111,98418,Kladufu,92.71.02.1013,Sorong Timur,Kota,Sorong,Papua Barat Daya
112,98418,Klamana,92.71.02.1010,Sorong Timur,Kota,Sorong,Papua Barat Daya
113,98418,Klawalu,92.71.02.1008,Sorong Timur,Kota,Sorong,Papua Barat Daya
114,98418,Klawuyuk,92.71.02.1011,Sorong Timur,Kota,Sorong,Papua Barat Daya
115,98415,Klaligi,92.71.06.1001,Sorong Manoi,Kota,Sorong,Papua Barat Daya
116,98415,Klasabi,92.71.06.1005,Sorong Manoi,Kota,Sorong,Papua Barat Daya
117,98415,Malabutor,92.71.06.1003,Sorong Manoi,Kota,Sorong,Papua Barat Daya
118,98415,Malawei,92.71.06.1002,Sorong Manoi,Kota,Sorong,Papua Barat Daya
119,98415,Remu Selatan,92.71.06.1004,Sorong Manoi,Kota,Sorong,Papua Barat Daya
120,98414,Kampung Baru,92.71.07.1001,Sorong Kota,Kota,Sorong,Papua Barat Daya
121,98414,Klabala,92.71.07.1002,Sorong Kota,Kota,Sorong,Papua Barat Daya
122,98414,Klakublik,92.71.07.1004,Sorong Kota,Kota,Sorong,Papua Barat Daya
123,98414,Klasuur,92.71.07.1003,Sorong Kota,Kota,Sorong,Papua Barat Daya
124,98413,Dum Barat,92.71.04.1001,Sorong Kepulauan,Kota,Sorong,Papua Barat Daya
125,98413,Dum Timur,92.71.04.1002,Sorong Kepulauan,Kota,Sorong,Papua Barat Daya
126,98413,Raam,92.71.04.1004,Sorong Kepulauan,Kota,Sorong,Papua Barat Daya
127,98413,Soop,92.71.04.1003,Sorong Kepulauan,Kota,Sorong,Papua Barat Daya
128,98412,Klawasi,92.71.03.1005,Sorong Barat,Kota,Sorong,Papua Barat Daya
129,98412,Pal Putih,92.71.03.1007,Sorong Barat,Kota,Sorong,Papua Barat Daya
130,98412,Puncak Cendrawasih,92.71.03.1006,Sorong Barat,Kota,Sorong,Papua Barat Daya
131,98412,Rufei,92.71.03.1002,Sorong Barat,Kota,Sorong,Papua Barat Daya
132,98446,Kabanmolo,92.01.43.2003,Sorong,Kabupaten,Sorong,Papua Barat Daya
133,98446,Kagiwala (Klatok),92.01.43.2004,Sorong,Kabupaten,Sorong,Papua Barat Daya
134,98416,Klademak,92.71.01.1002,Sorong,Kota,Sorong,Papua Barat Daya
135,98416,Kofkerbu,92.71.01.1007,Sorong,Kota,Sorong,Papua Barat Daya
136,98446,Maibo,92.01.43.2001,Sorong,Kabupaten,Sorong,Papua Barat Daya
137,98446,Malaflon,92.01.43.2002,Sorong,Kabupaten,Sorong,Papua Barat Daya
138,98416,Remu,92.71.01.1008,Sorong,Kota,Sorong,Papua Barat Daya
139,98416,Remu Utara,92.71.01.1001,Sorong,Kota,Sorong,Papua Barat Daya
140,98214,Haha,92.04.11.2001,Seremuk,Kabupaten,Sorong Selatan,Papua Barat Daya
141,98214,Kakas,92.04.11.2009,Seremuk,Kabupaten,Sorong Selatan,Papua Barat Daya
142,98214,Kamaro,92.04.11.2008,Seremuk,Kabupaten,Sorong Selatan,Papua Barat Daya
143,98214,Klaogin,92.04.11.2003,Seremuk,Kabupaten,Sorong Selatan,Papua Barat Daya
144,98214,Sbir,92.04.11.2005,Seremuk,Kabupaten,Sorong Selatan,Papua Barat Daya
145,98214,Srer,92.04.11.2006,Seremuk,Kabupaten,Sorong Selatan,Papua Barat Daya
146,98214,Tofot,92.04.11.2004,Seremuk,Kabupaten,Sorong Selatan,Papua Barat Daya
147,98214,Woloin,92.04.11.2007,Seremuk,Kabupaten,Sorong Selatan,Papua Barat Daya
148,98396,Arapi,92.09.11.2004,Senopi,Kabupaten,Tambrauw,Papua Barat Daya
149,98371,Hobiah,92.09.11.2016,Senopi,Kabupaten,Tambrauw,Papua Barat Daya
150,98396,Ifat Mitu,92.09.11.2007,Senopi,Kabupaten,Tambrauw,Papua Barat Daya
151,98396,Povokek Ania,92.09.11.2008,Senopi,Kabupaten,Tambrauw,Papua Barat Daya
152,98396,Senopi,92.09.11.2003,Senopi,Kabupaten,Tambrauw,Papua Barat Daya
153,98396,Srurem,92.09.11.2005,Senopi,Kabupaten,Tambrauw,Papua Barat Daya
154,98396,Sumo,92.09.11.2006,Senopi,Kabupaten,Tambrauw,Papua Barat Daya
155,98396,Thomas,92.09.11.2012,Senopi,Kabupaten,Tambrauw,Papua Barat Daya
156,98396,Tintum Araw,92.09.11.2015,Senopi,Kabupaten,Tambrauw,Papua Barat Daya
157,98362,Della (Dela),92.09.29.2001,Selemkai,Kabupaten,Tambrauw,Papua Barat Daya
158,98362,Klabili,92.09.29.2005,Selemkai,Kabupaten,Tambrauw,Papua Barat Daya
159,98362,Klasbon (Kaladum),92.09.29.2003,Selemkai,Kabupaten,Tambrauw,Papua Barat Daya
160,98362,Klasei,92.09.29.2004,Selemkai,Kabupaten,Tambrauw,Papua Barat Daya
161,98362,Malayauw (Megame),92.09.29.2002,Selemkai,Kabupaten,Tambrauw,Papua Barat Daya
162,98427,Gisim,92.01.12.2002,Segun,Kabupaten,Sorong,Papua Barat Daya
163,98427,Klajaring,92.01.12.2009,Segun,Kabupaten,Sorong,Papua Barat Daya
164,98427,Klasegun,92.01.12.2004,Segun,Kabupaten,Sorong,Papua Barat Daya
165,98427,Klasin,92.01.12.2008,Segun,Kabupaten,Sorong,Papua Barat Daya
166,98427,Majemau,92.01.12.2006,Segun,Kabupaten,Sorong,Papua Barat Daya
167,98427,Malamas,92.01.12.2010,Segun,Kabupaten,Sorong,Papua Barat Daya
168,98427,Segun,92.01.12.2001,Segun,Kabupaten,Sorong,Papua Barat Daya
169,98427,Waimlabat,92.01.12.2005,Segun,Kabupaten,Sorong,Papua Barat Daya
170,98427,Waimon,92.01.12.2003,Segun,Kabupaten,Sorong,Papua Barat Daya
171,98426,Kasimle,92.01.06.2010,Seget,Kabupaten,Sorong,Papua Barat Daya
172,98426,Klayas,92.01.06.2013,Seget,Kabupaten,Sorong,Papua Barat Daya
173,98426,Malabam (Malaban),92.01.06.2004,Seget,Kabupaten,Sorong,Papua Barat Daya
174,98426,Mobi,92.01.06.2015,Seget,Kabupaten,Sorong,Papua Barat Daya
175,98426,Pulau Kasim,92.01.06.2005,Seget,Kabupaten,Sorong,Papua Barat Daya
176,98426,Seget,92.01.06.2001,Seget,Kabupaten,Sorong,Papua Barat Daya
177,98426,Wasingsan,92.01.06.2012,Seget,Kabupaten,Sorong,Papua Barat Daya
178,98426,Wayenkede,92.01.06.2014,Seget,Kabupaten,Sorong,Papua Barat Daya
179,98426,Wewenagu,92.01.06.2011,Seget,Kabupaten,Sorong,Papua Barat Daya
180,98454,Kladuk,92.01.55.2003,Sayosa Timur,Kabupaten,Sorong,Papua Barat Daya
181,98454,Klakak,92.01.55.2005,Sayosa Timur,Kabupaten,Sorong,Papua Barat Daya
182,98454,Klalwok,92.01.55.2006,Sayosa Timur,Kabupaten,Sorong,Papua Barat Daya
183,98454,Klawana,92.01.55.2002,Sayosa Timur,Kabupaten,Sorong,Papua Barat Daya
184,98454,Klawon,92.01.55.2004,Sayosa Timur,Kabupaten,Sorong,Papua Barat Daya
185,98454,Sailala,92.01.55.2001,Sayosa Timur,Kabupaten,Sorong,Papua Barat Daya
186,98453,Klain,92.01.10.2014,Sayosa,Kabupaten,Sorong,Papua Barat Daya
187,98453,Klamintu,92.01.10.2012,Sayosa,Kabupaten,Sorong,Papua Barat Daya
188,98453,Maladofok,92.01.10.2004,Sayosa,Kabupaten,Sorong,Papua Barat Daya
189,98453,Samusa,92.01.10.2011,Sayosa,Kabupaten,Sorong,Papua Barat Daya
190,98453,Sayosa,92.01.10.2001,Sayosa,Kabupaten,Sorong,Papua Barat Daya
191,98453,Yorbes,92.01.10.2006,Sayosa,Kabupaten,Sorong,Papua Barat Daya
192,98232,Elles,92.04.06.2009,Sawiat,Kabupaten,Sorong Selatan,Papua Barat Daya
193,98232,Sasnek,92.04.06.2008,Sawiat,Kabupaten,Sorong Selatan,Papua Barat Daya
194,98232,Sawiat,92.04.06.2001,Sawiat,Kabupaten,Sorong Selatan,Papua Barat Daya
195,98232,Sfakyo,92.04.06.2012,Sawiat,Kabupaten,Sorong Selatan,Papua Barat Daya
196,98232,Sodrofoyo,92.04.06.2011,Sawiat,Kabupaten,Sorong Selatan,Papua Barat Daya
197,98232,Ween,92.04.06.2014,Sawiat,Kabupaten,Sorong Selatan,Papua Barat Daya
198,98232,Wendi,92.04.06.2015,Sawiat,Kabupaten,Sorong Selatan,Papua Barat Daya
199,98232,Wensough,92.04.06.2013,Sawiat,Kabupaten,Sorong Selatan,Papua Barat Daya
200,98373,Bondek,92.09.05.2013,Sausapor,Kabupaten,Tambrauw,Papua Barat Daya
201,98373,Bondonggwan,92.09.05.2018,Sausapor,Kabupaten,Tambrauw,Papua Barat Daya
202,98373,Emaos,92.09.05.2007,Sausapor,Kabupaten,Tambrauw,Papua Barat Daya
203,98373,Jokte,92.09.05.2008,Sausapor,Kabupaten,Tambrauw,Papua Barat Daya
204,98373,Nanggou,92.09.05.2012,Sausapor,Kabupaten,Tambrauw,Papua Barat Daya
205,98373,Sau Uram,92.09.05.2011,Sausapor,Kabupaten,Tambrauw,Papua Barat Daya
206,98373,Sausapor,92.09.05.2001,Sausapor,Kabupaten,Tambrauw,Papua Barat Daya
207,98373,Sungguwan,92.09.05.2010,Sausapor,Kabupaten,Tambrauw,Papua Barat Daya
208,98373,Syurauw,92.09.05.2019,Sausapor,Kabupaten,Tambrauw,Papua Barat Daya
209,98373,Uigwem,92.09.05.2009,Sausapor,Kabupaten,Tambrauw,Papua Barat Daya
210,98233,Alma,92.04.25.2005,Salkma,Kabupaten,Sorong Selatan,Papua Barat Daya
211,98233,Klamit,92.04.25.2002,Salkma,Kabupaten,Sorong Selatan,Papua Barat Daya
212,98233,Kofalit,92.04.25.2004,Salkma,Kabupaten,Sorong Selatan,Papua Barat Daya
213,98233,Mlabolo,92.04.25.2003,Salkma,Kabupaten,Sorong Selatan,Papua Barat Daya
214,98233,Wenslolo,92.04.25.2001,Salkma,Kabupaten,Sorong Selatan,Papua Barat Daya
215,98495,Jefman Barat,92.05.04.2003,Salawati Utara,Kabupaten,Raja Ampat,Papua Barat Daya
216,98495,Jefman Timur,92.05.04.2016,Salawati Utara,Kabupaten,Raja Ampat,Papua Barat Daya
217,98495,Kapatlap,92.05.04.2002,Salawati Utara,Kabupaten,Raja Ampat,Papua Barat Daya
218,98495,Samate,92.05.04.2001,Salawati Utara,Kabupaten,Raja Ampat,Papua Barat Daya
219,98495,Waidim,92.05.04.2017,Salawati Utara,Kabupaten,Raja Ampat,Papua Barat Daya
220,98495,Wamega,92.05.04.2015,Salawati Utara,Kabupaten,Raja Ampat,Papua Barat Daya
221,98425,Batbiro,92.01.53.2007,Salawati Tengah,Kabupaten,Sorong,Papua Barat Daya
222,98425,Duriankari (Durian Kari),92.01.53.2008,Salawati Tengah,Kabupaten,Sorong,Papua Barat Daya
223,98494,Kalobo,92.05.22.2001,Salawati Tengah,Kabupaten,Raja Ampat,Papua Barat Daya
224,98425,Manfanim,92.01.53.2002,Salawati Tengah,Kabupaten,Sorong,Papua Barat Daya
225,98425,Maralol,92.01.53.2006,Salawati Tengah,Kabupaten,Sorong,Papua Barat Daya
226,98425,Meyaup,92.01.53.2009,Salawati Tengah,Kabupaten,Sorong,Papua Barat Daya
227,98425,Sailen,92.01.53.2010,Salawati Tengah,Kabupaten,Sorong,Papua Barat Daya
228,98494,Sakabu,92.05.22.2002,Salawati Tengah,Kabupaten,Raja Ampat,Papua Barat Daya
229,98425,Sakapul,92.01.53.2005,Salawati Tengah,Kabupaten,Sorong,Papua Barat Daya
230,98425,Waibin,92.01.53.2003,Salawati Tengah,Kabupaten,Sorong,Papua Barat Daya
231,98494,Waibu,92.05.22.2003,Salawati Tengah,Kabupaten,Raja Ampat,Papua Barat Daya
232,98494,Waijan,92.05.22.2004,Salawati Tengah,Kabupaten,Raja Ampat,Papua Barat Daya
233,98494,Wailabu,92.05.22.2006,Salawati Tengah,Kabupaten,Raja Ampat,Papua Barat Daya
234,98494,Wailen,92.05.22.2007,Salawati Tengah,Kabupaten,Raja Ampat,Papua Barat Daya
235,98425,Waiman,92.01.53.2004,Salawati Tengah,Kabupaten,Sorong,Papua Barat Daya
236,98494,Waimeci,92.05.22.2005,Salawati Tengah,Kabupaten,Raja Ampat,Papua Barat Daya
237,98425,Waliam,92.01.53.2001,Salawati Tengah,Kabupaten,Sorong,Papua Barat Daya
238,98424,Dulbatan,92.01.14.2007,Salawati Selatan,Kabupaten,Sorong,Papua Barat Daya
239,98424,Kotlol (Klotlol),92.01.14.2002,Salawati Selatan,Kabupaten,Sorong,Papua Barat Daya
240,98424,Manoket,92.01.14.2008,Salawati Selatan,Kabupaten,Sorong,Papua Barat Daya
241,98424,Masmapop (Masmaspop),92.01.14.2012,Salawati Selatan,Kabupaten,Sorong,Papua Barat Daya
242,98424,Payapop,92.01.14.2011,Salawati Selatan,Kabupaten,Sorong,Papua Barat Daya
243,98424,Sailolof,92.01.14.2001,Salawati Selatan,Kabupaten,Sorong,Papua Barat Daya
244,98493,Kaliam,92.05.21.2003,Salawati Barat,Kabupaten,Raja Ampat,Papua Barat Daya
245,98493,Kalwal,92.05.21.2004,Salawati Barat,Kabupaten,Raja Ampat,Papua Barat Daya
246,98493,Solol,92.05.21.2002,Salawati Barat,Kabupaten,Raja Ampat,Papua Barat Daya
247,98493,Waibon,92.05.21.2001,Salawati Barat,Kabupaten,Raja Ampat,Papua Barat Daya
248,98423,Katinim,92.01.05.1001,Salawati,Kabupaten,Sorong,Papua Barat Daya
249,98423,Majaran,92.01.05.1007,Salawati,Kabupaten,Sorong,Papua Barat Daya
250,98423,Majener,92.01.05.1006,Salawati,Kabupaten,Sorong,Papua Barat Daya
251,98423,Malaus,92.01.05.2012,Salawati,Kabupaten,Sorong,Papua Barat Daya
252,98423,Matawolot,92.01.05.1009,Salawati,Kabupaten,Sorong,Papua Barat Daya
253,98423,Rawa Sugi,92.01.05.2018,Salawati,Kabupaten,Sorong,Papua Barat Daya
254,98423,Walal,92.01.05.2011,Salawati,Kabupaten,Sorong,Papua Barat Daya
255,98213,Kayabo,92.04.22.2004,Saifi,Kabupaten,Sorong Selatan,Papua Barat Daya
256,98213,Kenaya,92.04.22.2009,Saifi,Kabupaten,Sorong Selatan,Papua Barat Daya
257,98213,Komanggaret,92.04.22.2002,Saifi,Kabupaten,Sorong Selatan,Papua Barat Daya
258,98213,Kwowok,92.04.22.2007,Saifi,Kabupaten,Sorong Selatan,Papua Barat Daya
259,98213,Manggroholo,92.04.22.2001,Saifi,Kabupaten,Sorong Selatan,Papua Barat Daya
260,98213,Mlaswat,92.04.22.2006,Saifi,Kabupaten,Sorong Selatan,Papua Barat Daya
261,98213,Sayal,92.04.22.2003,Saifi,Kabupaten,Sorong Selatan,Papua Barat Daya
262,98213,Sira,92.04.22.2008,Saifi,Kabupaten,Sorong Selatan,Papua Barat Daya
263,98213,Sisir,92.04.22.2005,Saifi,Kabupaten,Sorong Selatan,Papua Barat Daya
264,98458,Klagele,92.01.48.2006,Saengkeduk,Kabupaten,Sorong,Papua Barat Daya
265,98458,Klamede,92.01.48.2004,Saengkeduk,Kabupaten,Sorong,Papua Barat Daya
266,98458,Saengkeduk,92.01.48.2001,Saengkeduk,Kabupaten,Sorong,Papua Barat Daya
267,98458,Sambatie,92.01.48.2005,Saengkeduk,Kabupaten,Sorong,Papua Barat Daya
268,98458,Selekobo,92.01.48.2002,Saengkeduk,Kabupaten,Sorong,Papua Barat Daya
269,98458,Suye,92.01.48.2003,Saengkeduk,Kabupaten,Sorong,Papua Barat Daya
270,98385,Arekon,92.09.12.2016,Mubrani,Kabupaten,Tambrauw,Papua Barat Daya
271,98385,Arfu,92.09.12.2001,Mubrani,Kabupaten,Tambrauw,Papua Barat Daya
272,98385,Atori,92.09.12.2005,Mubrani,Kabupaten,Tambrauw,Papua Barat Daya
273,98385,Bawey,92.09.12.2002,Mubrani,Kabupaten,Tambrauw,Papua Barat Daya
274,98385,Bonpaya,92.09.12.2017,Mubrani,Kabupaten,Tambrauw,Papua Barat Daya
275,98385,Marbuan,92.09.12.2018,Mubrani,Kabupaten,Tambrauw,Papua Barat Daya
276,98385,Meriambeker,92.09.12.2006,Mubrani,Kabupaten,Tambrauw,Papua Barat Daya
277,98385,Warokon,92.09.12.2015,Mubrani,Kabupaten,Tambrauw,Papua Barat Daya
278,98385,Waru,92.09.12.2004,Mubrani,Kabupaten,Tambrauw,Papua Barat Daya
279,98385,Wasnembri,92.09.12.2003,Mubrani,Kabupaten,Tambrauw,Papua Barat Daya
280,98384,Araro,92.09.26.2006,Mpur,Kabupaten,Tambrauw,Papua Barat Daya
281,98384,Arupi,92.09.26.2001,Mpur,Kabupaten,Tambrauw,Papua Barat Daya
282,98384,Kali An,92.09.26.2005,Mpur,Kabupaten,Tambrauw,Papua Barat Daya
283,98384,Mangganek,92.09.26.2003,Mpur,Kabupaten,Tambrauw,Papua Barat Daya
284,98381,Serayo,92.09.26.2008,Mpur,Kabupaten,Tambrauw,Papua Barat Daya
285,98384,Wajarek,92.09.26.2004,Mpur,Kabupaten,Tambrauw,Papua Barat Daya
286,98381,Wekari,92.09.26.2007,Mpur,Kabupaten,Tambrauw,Papua Barat Daya
287,98212,Bumi Ajo,92.04.10.2004,Moswaren,Kabupaten,Sorong Selatan,Papua Barat Daya
288,98212,Hararo,92.04.10.2003,Moswaren,Kabupaten,Sorong Selatan,Papua Barat Daya
289,98212,Hasik Jaya,92.04.10.2005,Moswaren,Kabupaten,Sorong Selatan,Papua Barat Daya
290,98212,Johsiro (Joshiro),92.04.10.2002,Moswaren,Kabupaten,Sorong Selatan,Papua Barat Daya
291,98212,Kamisabe,92.04.10.2006,Moswaren,Kabupaten,Sorong Selatan,Papua Barat Daya
292,98212,Moswaren,92.04.10.2001,Moswaren,Kabupaten,Sorong Selatan,Papua Barat Daya
293,98212,Tokass,92.04.10.2007,Moswaren,Kabupaten,Sorong Selatan,Papua Barat Daya
294,98361,Bonem,92.09.08.2008,Moraid,Kabupaten,Tambrauw,Papua Barat Daya
295,98361,Kwade,92.09.08.2007,Moraid,Kabupaten,Tambrauw,Papua Barat Daya
296,98361,Malaworsai,92.09.08.2004,Moraid,Kabupaten,Tambrauw,Papua Barat Daya
297,98361,Mega,92.09.08.2001,Moraid,Kabupaten,Tambrauw,Papua Barat Daya
298,98361,Namuas,92.09.08.2012,Moraid,Kabupaten,Tambrauw,Papua Barat Daya
299,98361,Selewok,92.09.08.2003,Moraid,Kabupaten,Tambrauw,Papua Barat Daya
300,98361,Warafor,92.09.08.2009,Moraid,Kabupaten,Tambrauw,Papua Barat Daya
301,98361,Warmanen,92.09.08.2011,Moraid,Kabupaten,Tambrauw,Papua Barat Daya
302,98361,Warmasi,92.09.08.2010,Moraid,Kabupaten,Tambrauw,Papua Barat Daya
303,98422,Klafdalim,92.01.42.2001,Moisegen,Kabupaten,Sorong,Papua Barat Daya
304,98422,Klaforo,92.01.42.2002,Moisegen,Kabupaten,Sorong,Papua Barat Daya
305,98422,Klasari (Klasarin),92.01.42.2005,Moisegen,Kabupaten,Sorong,Papua Barat Daya
306,98422,Klasof,92.01.42.2003,Moisegen,Kabupaten,Sorong,Papua Barat Daya
307,98422,Klawoton,92.01.42.2006,Moisegen,Kabupaten,Sorong,Papua Barat Daya
308,98422,Masmili,92.01.42.2009,Moisegen,Kabupaten,Sorong,Papua Barat Daya
309,98422,Ninjimur (Ninjemur),92.01.42.2004,Moisegen,Kabupaten,Sorong,Papua Barat Daya
310,98422,Sakamerin,92.01.42.2008,Moisegen,Kabupaten,Sorong,Papua Barat Daya
311,98422,Wonosobo,92.01.42.2007,Moisegen,Kabupaten,Sorong,Papua Barat Daya
312,98372,Ayamane,92.09.16.2003,Miyah Selatan,Kabupaten,Tambrauw,Papua Barat Daya
313,98372,Hewi,92.09.16.2006,Miyah Selatan,Kabupaten,Tambrauw,Papua Barat Daya
314,98372,Mawor,92.09.16.2001,Miyah Selatan,Kabupaten,Tambrauw,Papua Barat Daya
315,98372,Ruf,92.09.16.2002,Miyah Selatan,Kabupaten,Tambrauw,Papua Barat Daya
316,98371,Ruvewes,92.09.16.2008,Miyah Selatan,Kabupaten,Tambrauw,Papua Barat Daya
317,98372,Sahae,92.09.16.2005,Miyah Selatan,Kabupaten,Tambrauw,Papua Barat Daya
318,98372,Sisu,92.09.16.2007,Miyah Selatan,Kabupaten,Tambrauw,Papua Barat Daya
319,98372,Whismer,92.09.16.2004,Miyah Selatan,Kabupaten,Tambrauw,Papua Barat Daya
320,98371,Yabuow,92.09.16.2009,Miyah Selatan,Kabupaten,Tambrauw,Papua Barat Daya
321,98371,Aibogia,92.09.02.2006,Miyah,Kabupaten,Tambrauw,Papua Barat Daya
322,98371,Aifair,92.09.02.2014,Miyah,Kabupaten,Tambrauw,Papua Barat Daya
323,98371,Ayae,92.09.02.2008,Miyah,Kabupaten,Tambrauw,Papua Barat Daya
324,98371,Ayawit,92.09.02.2013,Miyah,Kabupaten,Tambrauw,Papua Barat Daya
325,98371,Siakwa,92.09.02.2001,Miyah,Kabupaten,Tambrauw,Papua Barat Daya
326,98486,Audam,92.05.06.2016,Misool Timur,Kabupaten,Raja Ampat,Papua Barat Daya
327,98486,Folley,92.05.06.2001,Misool Timur,Kabupaten,Raja Ampat,Papua Barat Daya
328,98486,Limalas Barat,92.05.06.2017,Misool Timur,Kabupaten,Raja Ampat,Papua Barat Daya
329,98486,Limalas Timur,92.05.06.2012,Misool Timur,Kabupaten,Raja Ampat,Papua Barat Daya
330,98486,Tomolol,92.05.06.2003,Misool Timur,Kabupaten,Raja Ampat,Papua Barat Daya
331,98486,Usaha Jaya,92.05.06.2011,Misool Timur,Kabupaten,Raja Ampat,Papua Barat Daya
332,98485,Dabatan,92.05.13.2010,Misool Selatan,Kabupaten,Raja Ampat,Papua Barat Daya
333,98485,Fafanlap,92.05.13.2002,Misool Selatan,Kabupaten,Raja Ampat,Papua Barat Daya
334,98485,Harapan Jaya,92.05.13.2007,Misool Selatan,Kabupaten,Raja Ampat,Papua Barat Daya
335,98485,Usaha Jaya,92.05.13.2009,Misool Selatan,Kabupaten,Raja Ampat,Papua Barat Daya
336,98485,Yellu,92.05.13.2006,Misool Selatan,Kabupaten,Raja Ampat,Papua Barat Daya
337,98484,Biga,92.05.16.2003,Misool Barat,Kabupaten,Raja Ampat,Papua Barat Daya
338,98484,Gamta,92.05.16.2002,Misool Barat,Kabupaten,Raja Ampat,Papua Barat Daya
339,98484,Kapatcol,92.05.16.2004,Misool Barat,Kabupaten,Raja Ampat,Papua Barat Daya
340,98484,Lilinta,92.05.16.2001,Misool Barat,Kabupaten,Raja Ampat,Papua Barat Daya
341,98484,Magey,92.05.16.2005,Misool Barat,Kabupaten,Raja Ampat,Papua Barat Daya
342,98483,Aduwei,92.05.01.2006,Misool (Misool Utara),Kabupaten,Raja Ampat,Papua Barat Daya
343,98483,Atkari,92.05.01.2007,Misool (Misool Utara),Kabupaten,Raja Ampat,Papua Barat Daya
344,98483,Salafen,92.05.01.2005,Misool (Misool Utara),Kabupaten,Raja Ampat,Papua Barat Daya
345,98483,Solal,92.05.01.2014,Misool (Misool Utara),Kabupaten,Raja Ampat,Papua Barat Daya
346,98483,Waigama,92.05.01.2001,Misool (Misool Utara),Kabupaten,Raja Ampat,Papua Barat Daya
347,98472,Arborek,92.05.11.2005,Meos Mansar,Kabupaten,Raja Ampat,Papua Barat Daya
348,98472,Kabuy (Kabui),92.05.11.2007,Meos Mansar,Kabupaten,Raja Ampat,Papua Barat Daya
349,98472,Kapisawar,92.05.11.2002,Meos Mansar,Kabupaten,Raja Ampat,Papua Barat Daya
350,98472,Kurkapa,92.05.11.2008,Meos Mansar,Kabupaten,Raja Ampat,Papua Barat Daya
351,98472,Sawandarek,92.05.11.2009,Meos Mansar,Kabupaten,Raja Ampat,Papua Barat Daya
352,98472,Sawinggrai,92.05.11.2003,Meos Mansar,Kabupaten,Raja Ampat,Papua Barat Daya
353,98472,Yenbekwan (Yembekwan),92.05.11.2001,Meos Mansar,Kabupaten,Raja Ampat,Papua Barat Daya
354,98472,Yenbuba,92.05.11.2006,Meos Mansar,Kabupaten,Raja Ampat,Papua Barat Daya
355,98472,Yenwaupnoor (Yenwaupnor),92.05.11.2004,Meos Mansar,Kabupaten,Raja Ampat,Papua Barat Daya
356,98421,Arar,92.01.13.2005,Mayamuk,Kabupaten,Sorong,Papua Barat Daya
357,98421,Asjidba,92.01.13.2010,Mayamuk,Kabupaten,Sorong,Papua Barat Daya
358,98421,Jeflio,92.01.13.2004,Mayamuk,Kabupaten,Sorong,Papua Barat Daya
359,98421,Klain (Klalin),92.01.13.2006,Mayamuk,Kabupaten,Sorong,Papua Barat Daya
360,98421,Klasmelek,92.01.13.2007,Mayamuk,Kabupaten,Sorong,Papua Barat Daya
361,98421,Makbalim,92.01.13.1002,Mayamuk,Kabupaten,Sorong,Papua Barat Daya
362,98421,Makbusun (Makbusum),92.01.13.1001,Mayamuk,Kabupaten,Sorong,Papua Barat Daya
363,98421,Makotyamsa,92.01.13.1003,Mayamuk,Kabupaten,Sorong,Papua Barat Daya
364,98421,Malamay,92.01.13.2011,Mayamuk,Kabupaten,Sorong,Papua Barat Daya
365,98421,Warmon Kokoda,92.01.13.2009,Mayamuk,Kabupaten,Sorong,Papua Barat Daya
366,98421,Wen,92.01.13.2008,Mayamuk,Kabupaten,Sorong,Papua Barat Daya
367,98395,Afrawi,92.09.22.2006,Mawabuan,Kabupaten,Tambrauw,Papua Barat Daya
368,98395,Ajokwapi,92.09.22.2007,Mawabuan,Kabupaten,Tambrauw,Papua Barat Daya
369,98395,Asiti,92.09.22.2002,Mawabuan,Kabupaten,Tambrauw,Papua Barat Daya
370,98395,Bisaud,92.09.22.2003,Mawabuan,Kabupaten,Tambrauw,Papua Barat Daya
371,98395,Nisandauw,92.09.22.2005,Mawabuan,Kabupaten,Tambrauw,Papua Barat Daya
372,98395,Wausin,92.09.22.2001,Mawabuan,Kabupaten,Tambrauw,Papua Barat Daya
373,98457,Bousui (Bosi),92.01.20.2009,Maudus,Kabupaten,Sorong,Papua Barat Daya
374,98457,Kamuyar,92.01.20.2010,Maudus,Kabupaten,Sorong,Papua Barat Daya
375,98457,Klagen,92.01.20.2015,Maudus,Kabupaten,Sorong,Papua Barat Daya
376,98457,Klaka,92.01.20.2011,Maudus,Kabupaten,Sorong,Papua Barat Daya
377,98457,Klaos,92.01.20.2004,Maudus,Kabupaten,Sorong,Papua Barat Daya
378,98457,Klatim,92.01.20.2003,Maudus,Kabupaten,Sorong,Papua Barat Daya
379,98457,Luwelala,92.01.20.2001,Maudus,Kabupaten,Sorong,Papua Barat Daya
380,98457,Safdesa,92.01.20.2012,Maudus,Kabupaten,Sorong,Papua Barat Daya
381,98457,Suluh,92.01.20.2006,Maudus,Kabupaten,Sorong,Papua Barat Daya
382,98225,Bedare,92.04.20.2006,Matemani,Kabupaten,Sorong Selatan,Papua Barat Daya
383,98225,Mugim,92.04.20.2001,Matemani,Kabupaten,Sorong Selatan,Papua Barat Daya
384,98225,Nusa,92.04.20.2002,Matemani,Kabupaten,Sorong Selatan,Papua Barat Daya
385,98225,Puragi,92.04.20.2004,Matemani,Kabupaten,Sorong Selatan,Papua Barat Daya
386,98225,Saga,92.04.20.2003,Matemani,Kabupaten,Sorong Selatan,Papua Barat Daya
387,98225,Tawanggire,92.04.20.2005,Matemani,Kabupaten,Sorong Selatan,Papua Barat Daya
388,98445,Fafi,92.01.39.2008,Mariat,Kabupaten,Sorong,Papua Barat Daya
389,98445,Jamaimo,92.01.39.1011,Mariat,Kabupaten,Sorong,Papua Barat Daya
390,98445,Kasih,92.01.39.2012,Mariat,Kabupaten,Sorong,Papua Barat Daya
391,98445,Klaben,92.01.39.2005,Mariat,Kabupaten,Sorong,Papua Barat Daya
392,98445,Klamalu,92.01.39.1001,Mariat,Kabupaten,Sorong,Papua Barat Daya
393,98445,Klamasen,92.01.39.1004,Mariat,Kabupaten,Sorong,Papua Barat Daya
394,98445,Klaru,92.01.39.1010,Mariat,Kabupaten,Sorong,Papua Barat Daya
395,98445,Klasan,92.01.39.2007,Mariat,Kabupaten,Sorong,Papua Barat Daya
396,98445,Klasuluk (Klasukuk),92.01.39.1003,Mariat,Kabupaten,Sorong,Papua Barat Daya
397,98445,Maklalut,92.01.39.1009,Mariat,Kabupaten,Sorong,Papua Barat Daya
398,98445,Mariyai,92.01.39.1002,Mariat,Kabupaten,Sorong,Papua Barat Daya
399,98252,Fase,92.10.24.2004,Mare Selatan,Kabupaten,Maybrat,Papua Barat Daya
400,98252,Kuraso,92.10.24.2006,Mare Selatan,Kabupaten,Maybrat,Papua Barat Daya
401,98252,Osom,92.10.24.2008,Mare Selatan,Kabupaten,Maybrat,Papua Barat Daya
402,98252,Renis,92.10.24.2002,Mare Selatan,Kabupaten,Maybrat,Papua Barat Daya
403,98252,Sabes,92.10.24.2005,Mare Selatan,Kabupaten,Maybrat,Papua Barat Daya
404,98252,Seni,92.10.24.2001,Mare Selatan,Kabupaten,Maybrat,Papua Barat Daya
405,98252,Sidi,92.10.24.2007,Mare Selatan,Kabupaten,Maybrat,Papua Barat Daya
406,98252,Sire,92.10.24.2003,Mare Selatan,Kabupaten,Maybrat,Papua Barat Daya
407,98252,Sire Timur,92.10.24.2009,Mare Selatan,Kabupaten,Maybrat,Papua Barat Daya
408,98251,Bakrabi,92.10.11.2009,Mare,Kabupaten,Maybrat,Papua Barat Daya
409,98251,Kombif,92.10.11.2006,Mare,Kabupaten,Maybrat,Papua Barat Daya
410,98251,Mahos,92.10.11.2011,Mare,Kabupaten,Maybrat,Papua Barat Daya
411,98251,Nafasi,92.10.11.2010,Mare,Kabupaten,Maybrat,Papua Barat Daya
412,98251,Rufases,92.10.11.2008,Mare,Kabupaten,Maybrat,Papua Barat Daya
413,98251,Sawo,92.10.11.2012,Mare,Kabupaten,Maybrat,Papua Barat Daya
414,98251,Seya,92.10.11.2002,Mare,Kabupaten,Maybrat,Papua Barat Daya
415,98251,Suswa,92.10.11.2001,Mare,Kabupaten,Maybrat,Papua Barat Daya
416,98251,Waban (Wabam),92.10.11.2005,Mare,Kabupaten,Maybrat,Papua Barat Daya
417,98394,Ajami Waripi,92.09.25.2006,Manekar,Kabupaten,Tambrauw,Papua Barat Daya
418,98394,Akmuri,92.09.25.2002,Manekar,Kabupaten,Tambrauw,Papua Barat Daya
419,98394,Aneti,92.09.25.2010,Manekar,Kabupaten,Tambrauw,Papua Barat Daya
420,98394,Aranari,92.09.25.2008,Manekar,Kabupaten,Tambrauw,Papua Barat Daya
421,98394,Atai (Ata),92.09.25.2001,Manekar,Kabupaten,Tambrauw,Papua Barat Daya
422,98394,Atunari,92.09.25.2005,Manekar,Kabupaten,Tambrauw,Papua Barat Daya
423,98394,Awori,92.09.25.2003,Manekar,Kabupaten,Tambrauw,Papua Barat Daya
424,98394,Itafiti,92.09.25.2004,Manekar,Kabupaten,Tambrauw,Papua Barat Daya
425,98394,Narai,92.09.25.2007,Manekar,Kabupaten,Tambrauw,Papua Barat Daya
426,98394,Waumi,92.09.25.2009,Manekar,Kabupaten,Tambrauw,Papua Barat Daya
427,98419,Klabulu,92.71.09.1006,Malaimsimsa,Kota,Sorong,Papua Barat Daya
428,98419,Klagete,92.71.09.1001,Malaimsimsa,Kota,Sorong,Papua Barat Daya
429,98419,Malaingkedi,92.71.09.1004,Malaimsimsa,Kota,Sorong,Papua Barat Daya
430,98419,Malamso,92.71.09.1005,Malaimsimsa,Kota,Sorong,Papua Barat Daya
431,98411,Saoka,92.71.10.1003,Maladum Mes,Kota,Sorong,Papua Barat Daya
432,98411,Suprau,92.71.10.1001,Maladum Mes,Kota,Sorong,Papua Barat Daya
433,98411,Tampa Garam,92.71.10.1002,Maladum Mes,Kota,Sorong,Papua Barat Daya
434,98411,Tanjung Kasuari,92.71.10.1004,Maladum Mes,Kota,Sorong,Papua Barat Daya
435,98443,Klagulu,92.01.49.2002,Malabotom,Kabupaten,Sorong,Papua Barat Daya
436,98443,Klamugun,92.01.49.2003,Malabotom,Kabupaten,Sorong,Papua Barat Daya
437,98443,Klasman,92.01.49.2005,Malabotom,Kabupaten,Sorong,Papua Barat Daya
438,98443,Magatarum,92.01.49.2007,Malabotom,Kabupaten,Sorong,Papua Barat Daya
439,98443,Malajapa,92.01.49.2004,Malabotom,Kabupaten,Sorong,Papua Barat Daya
440,98443,Malamoja,92.01.49.2006,Malabotom,Kabupaten,Sorong,Papua Barat Daya
441,98443,Malasigit,92.01.49.2001,Malabotom,Kabupaten,Sorong,Papua Barat Daya
442,98443,Marik May,92.01.49.2009,Malabotom,Kabupaten,Sorong,Papua Barat Daya
443,98443,Tanah Tinggi,92.01.49.2008,Malabotom,Kabupaten,Sorong,Papua Barat Daya
444,98452,Asbaken,92.01.01.2002,Makbon,Kabupaten,Sorong,Papua Barat Daya
445,98452,Bainkete,92.01.01.2009,Makbon,Kabupaten,Sorong,Papua Barat Daya
446,98452,Batu Lubang,92.01.01.2005,Makbon,Kabupaten,Sorong,Papua Barat Daya
447,98452,Batu Lubang Pantai,92.01.01.2007,Makbon,Kabupaten,Sorong,Papua Barat Daya
448,98452,Klagulus,92.01.01.2015,Makbon,Kabupaten,Sorong,Papua Barat Daya
449,98452,Klasigi,92.01.01.2014,Makbon,Kabupaten,Sorong,Papua Barat Daya
450,98452,Klasimigik,92.01.01.2013,Makbon,Kabupaten,Sorong,Papua Barat Daya
451,98452,Kwadas,92.01.01.2008,Makbon,Kabupaten,Sorong,Papua Barat Daya
452,98452,Makbon,92.01.01.1001,Makbon,Kabupaten,Sorong,Papua Barat Daya
453,98452,Malagasih,92.01.01.2012,Makbon,Kabupaten,Sorong,Papua Barat Daya
454,98452,Malaumkarta,92.01.01.2004,Makbon,Kabupaten,Sorong,Papua Barat Daya
455,98452,Mibi,92.01.01.2017,Makbon,Kabupaten,Sorong,Papua Barat Daya
456,98452,Sawatuk,92.01.01.2011,Makbon,Kabupaten,Sorong,Papua Barat Daya
457,98452,Suatolo,92.01.01.2016,Makbon,Kabupaten,Sorong,Papua Barat Daya
458,98452,Teluk Dore,92.01.01.2010,Makbon,Kabupaten,Sorong,Papua Barat Daya
459,98369,Barar,92.09.04.2012,Kwoor,Kabupaten,Tambrauw,Papua Barat Daya
460,98369,Esmambo,92.09.04.2013,Kwoor,Kabupaten,Tambrauw,Papua Barat Daya
461,98369,Hopmare,92.09.04.2002,Kwoor,Kabupaten,Tambrauw,Papua Barat Daya
462,98369,Kwoor,92.09.04.2001,Kwoor,Kabupaten,Tambrauw,Papua Barat Daya
463,98369,Orwen,92.09.04.2011,Kwoor,Kabupaten,Tambrauw,Papua Barat Daya
464,98368,Bao,92.09.21.2007,Kwesefo,Kabupaten,Tambrauw,Papua Barat Daya
465,98368,Batdey,92.09.21.2005,Kwesefo,Kabupaten,Tambrauw,Papua Barat Daya
466,98376,Dombron,92.09.21.2009,Kwesefo,Kabupaten,Tambrauw,Papua Barat Daya
467,98376,Donan,92.09.21.2008,Kwesefo,Kabupaten,Tambrauw,Papua Barat Daya
468,98368,Jokbujoker,92.09.21.2001,Kwesefo,Kabupaten,Tambrauw,Papua Barat Daya
469,98368,Kranfotsu,92.09.21.2002,Kwesefo,Kabupaten,Tambrauw,Papua Barat Daya
470,98368,Kwesefo,92.09.21.2004,Kwesefo,Kabupaten,Tambrauw,Papua Barat Daya
471,98368,Syuau,92.09.21.2003,Kwesefo,Kabupaten,Tambrauw,Papua Barat Daya
472,98368,Syumbi,92.09.21.2006,Kwesefo,Kabupaten,Tambrauw,Papua Barat Daya
473,98471,Bonwakir,92.05.18.1003,Kota Waisai,Kabupaten,Raja Ampat,Papua Barat Daya
474,98471,Sapordanco,92.05.18.1002,Kota Waisai,Kabupaten,Raja Ampat,Papua Barat Daya
475,98471,Waisai,92.05.18.1001,Kota Waisai,Kabupaten,Raja Ampat,Papua Barat Daya
476,98471,Warmasen,92.05.18.1004,Kota Waisai,Kabupaten,Raja Ampat,Papua Barat Daya
477,98438,Klafelem,92.01.50.2006,Konhir,Kabupaten,Sorong,Papua Barat Daya
478,98438,Klaflum,92.01.50.2007,Konhir,Kabupaten,Sorong,Papua Barat Daya
479,98438,Klafyo,92.01.50.2004,Konhir,Kabupaten,Sorong,Papua Barat Daya
480,98438,Klamne,92.01.50.2002,Konhir,Kabupaten,Sorong,Papua Barat Daya
481,98438,Klarin,92.01.50.2008,Konhir,Kabupaten,Sorong,Papua Barat Daya
482,98437,Mlaron,92.01.50.2009,Konhir,Kabupaten,Sorong,Papua Barat Daya
483,98438,Mlasiwor,92.01.50.2005,Konhir,Kabupaten,Sorong,Papua Barat Daya
484,98438,Tarsa,92.01.50.2001,Konhir,Kabupaten,Sorong,Papua Barat Daya
485,98438,Wisbiak,92.01.50.2003,Konhir,Kabupaten,Sorong,Papua Barat Daya
486,98211,Bariat,92.04.15.2003,Konda,Kabupaten,Sorong Selatan,Papua Barat Daya
487,98211,Konda,92.04.15.2001,Konda,Kabupaten,Sorong Selatan,Papua Barat Daya
488,98211,Manelek,92.04.15.2004,Konda,Kabupaten,Sorong Selatan,Papua Barat Daya
489,98211,Nagna,92.04.15.2005,Konda,Kabupaten,Sorong Selatan,Papua Barat Daya
490,98211,Wamargege,92.04.15.2002,Konda,Kabupaten,Sorong Selatan,Papua Barat Daya
491,98224,Adona,92.04.21.2003,Kokoda Utara,Kabupaten,Sorong Selatan,Papua Barat Daya
492,98224,Atori,92.04.21.2005,Kokoda Utara,Kabupaten,Sorong Selatan,Papua Barat Daya
493,98224,Benawa II,92.04.21.2004,Kokoda Utara,Kabupaten,Sorong Selatan,Papua Barat Daya
494,98224,Bubuko,92.04.21.2008,Kokoda Utara,Kabupaten,Sorong Selatan,Papua Barat Daya
495,98224,Kamundan Dua,92.04.21.2009,Kokoda Utara,Kabupaten,Sorong Selatan,Papua Barat Daya
496,98224,Kamundan Satu,92.04.21.2006,Kokoda Utara,Kabupaten,Sorong Selatan,Papua Barat Daya
497,98224,Karirif,92.04.21.2007,Kokoda Utara,Kabupaten,Sorong Selatan,Papua Barat Daya
498,98224,Kayubiro,92.04.21.2002,Kokoda Utara,Kabupaten,Sorong Selatan,Papua Barat Daya
499,98224,Udagaga,92.04.21.2001,Kokoda Utara,Kabupaten,Sorong Selatan,Papua Barat Daya
500,98221,Arbasina,92.04.09.2014,Kokoda,Kabupaten,Sorong Selatan,Papua Barat Daya
501,98221,Birawaku,92.04.09.2015,Kokoda,Kabupaten,Sorong Selatan,Papua Barat Daya
502,98221,Daimar,92.04.09.2021,Kokoda,Kabupaten,Sorong Selatan,Papua Barat Daya
503,98221,Daubak,92.04.09.2010,Kokoda,Kabupaten,Sorong Selatan,Papua Barat Daya
504,98221,Kasuweri,92.04.09.2004,Kokoda,Kabupaten,Sorong Selatan,Papua Barat Daya
505,98221,Korewatara,92.04.09.2016,Kokoda,Kabupaten,Sorong Selatan,Papua Barat Daya
506,98221,Migori,92.04.09.2005,Kokoda,Kabupaten,Sorong Selatan,Papua Barat Daya
507,98221,Migrito,92.04.09.2020,Kokoda,Kabupaten,Sorong Selatan,Papua Barat Daya
508,98221,Nayakore,92.04.09.2012,Kokoda,Kabupaten,Sorong Selatan,Papua Barat Daya
509,98221,Negeri Besar,92.04.09.2002,Kokoda,Kabupaten,Sorong Selatan,Papua Barat Daya
510,98221,Siwatori,92.04.09.2003,Kokoda,Kabupaten,Sorong Selatan,Papua Barat Daya
511,98221,Tambani,92.04.09.2006,Kokoda,Kabupaten,Sorong Selatan,Papua Barat Daya
512,98221,Tapas,92.04.09.2017,Kokoda,Kabupaten,Sorong Selatan,Papua Barat Daya
513,98221,Tarof,92.04.09.2001,Kokoda,Kabupaten,Sorong Selatan,Papua Barat Daya
514,98221,Topdan,92.04.09.2018,Kokoda,Kabupaten,Sorong Selatan,Papua Barat Daya
515,98221,Totona,92.04.09.2011,Kokoda,Kabupaten,Sorong Selatan,Papua Barat Daya
516,98482,Awat,92.05.10.2005,Kofiau,Kabupaten,Raja Ampat,Papua Barat Daya
517,98482,Deer,92.05.10.2003,Kofiau,Kabupaten,Raja Ampat,Papua Barat Daya
518,98482,DibalaI (Dibalal),92.05.10.2001,Kofiau,Kabupaten,Raja Ampat,Papua Barat Daya
519,98482,Mikiran,92.05.10.2004,Kofiau,Kabupaten,Raja Ampat,Papua Barat Daya
520,98482,Tolabi (Tolobi),92.05.10.2002,Kofiau,Kabupaten,Raja Ampat,Papua Barat Daya
521,98451,Klasowoh,92.01.40.2005,Klayili,Kabupaten,Sorong,Papua Barat Daya
522,98451,Klatomok,92.01.40.2008,Klayili,Kabupaten,Sorong,Papua Barat Daya
523,98451,Klawuluh,92.01.40.2002,Klayili,Kabupaten,Sorong,Papua Barat Daya
524,98451,Klayili,92.01.40.2001,Klayili,Kabupaten,Sorong,Papua Barat Daya
525,98451,Kwakeik,92.01.40.2004,Klayili,Kabupaten,Sorong,Papua Barat Daya
526,98451,Malakobutu,92.01.40.2003,Klayili,Kabupaten,Sorong,Papua Barat Daya
527,98451,Malalilis,92.01.40.2006,Klayili,Kabupaten,Sorong,Papua Barat Daya
528,98451,Mlawer,92.01.40.2007,Klayili,Kabupaten,Sorong,Papua Barat Daya
529,98437,Betwaf (Betwaft),92.01.18.2019,Klawak,Kabupaten,Sorong,Papua Barat Daya
530,98437,Byoklokfle (Byaklokfle),92.01.18.2008,Klawak,Kabupaten,Sorong,Papua Barat Daya
531,98437,Cokhif (Cokif),92.01.18.2025,Klawak,Kabupaten,Sorong,Papua Barat Daya
532,98437,Klasawon,92.01.18.2013,Klawak,Kabupaten,Sorong,Papua Barat Daya
533,98437,Kmasen,92.01.18.2012,Klawak,Kabupaten,Sorong,Papua Barat Daya
534,98437,Mlawen,92.01.18.2004,Klawak,Kabupaten,Sorong,Papua Barat Daya
535,98437,Samolslo,92.01.18.2011,Klawak,Kabupaten,Sorong,Papua Barat Daya
536,98437,Sas,92.01.18.2010,Klawak,Kabupaten,Sorong,Papua Barat Daya
537,98437,Tbotjin (Totjin),92.01.18.2009,Klawak,Kabupaten,Sorong,Papua Barat Daya
538,98437,Wilty,92.01.18.2001,Klawak,Kabupaten,Sorong,Papua Barat Daya
539,98437,Yurkaden,92.01.18.2014,Klawak,Kabupaten,Sorong,Papua Barat Daya
540,98417,Giwu,92.71.08.1004,Klaurung,Kota,Sorong,Papua Barat Daya
541,98417,Klablim,92.71.08.1002,Klaurung,Kota,Sorong,Papua Barat Daya
542,98417,Klasaman,92.71.08.1003,Klaurung,Kota,Sorong,Papua Barat Daya
543,98417,Klasuat,92.71.08.1001,Klaurung,Kota,Sorong,Papua Barat Daya
544,98456,Klalik,92.01.41.2007,Klaso,Kabupaten,Sorong,Papua Barat Daya
545,98456,Klamugun,92.01.41.2004,Klaso,Kabupaten,Sorong,Papua Barat Daya
546,98456,Klasou,92.01.41.2013,Klaso,Kabupaten,Sorong,Papua Barat Daya
547,98456,Malawhili,92.01.41.2008,Klaso,Kabupaten,Sorong,Papua Barat Daya
548,98456,Miskum,92.01.41.2003,Klaso,Kabupaten,Sorong,Papua Barat Daya
549,98456,Sbaga,92.01.41.2006,Klaso,Kabupaten,Sorong,Papua Barat Daya
550,98456,Siwis,92.01.41.2002,Klaso,Kabupaten,Sorong,Papua Barat Daya
551,98442,Barros (Bar Ros),92.01.51.2003,Klasafet,Kabupaten,Sorong,Papua Barat Daya
552,98442,Keladum/Maladuk,92.01.51.2001,Klasafet,Kabupaten,Sorong,Papua Barat Daya
553,98442,Klamono Olie (Klamono Oil),92.01.51.2002,Klasafet,Kabupaten,Sorong,Papua Barat Daya
554,98442,Klawilibe (Klawili Be),92.01.51.2005,Klasafet,Kabupaten,Sorong,Papua Barat Daya
555,98442,Pusu Tiligum,92.01.51.2004,Klasafet,Kabupaten,Sorong,Papua Barat Daya
556,98441,Gisim Darat,92.01.08.2010,Klamono,Kabupaten,Sorong,Papua Barat Daya
557,98441,Klalomon (Klamono),92.01.08.2008,Klamono,Kabupaten,Sorong,Papua Barat Daya
558,98441,Klamono (Klamano),92.01.08.2002,Klamono,Kabupaten,Sorong,Papua Barat Daya
559,98441,Klasafet,92.01.08.2021,Klamono,Kabupaten,Sorong,Papua Barat Daya
560,98441,Klawana,92.01.08.2001,Klamono,Kabupaten,Sorong,Papua Barat Daya
561,98441,Malasmiliy (Mlasmily),92.01.08.2020,Klamono,Kabupaten,Sorong,Papua Barat Daya
562,98441,Mlais,92.01.08.2013,Klamono,Kabupaten,Sorong,Papua Barat Daya
563,98441,Posa,92.01.08.2022,Klamono,Kabupaten,Sorong,Papua Barat Daya
564,98441,Wariayau,92.01.08.2003,Klamono,Kabupaten,Sorong,Papua Barat Daya
565,98441,Wonosari,92.01.08.2009,Klamono,Kabupaten,Sorong,Papua Barat Daya
566,98436,Indiwi,92.01.17.2003,Klabot,Kabupaten,Sorong,Papua Barat Daya
567,98436,Kanolo,92.01.17.2010,Klabot,Kabupaten,Sorong,Papua Barat Daya
568,98436,Klabot,92.01.17.2004,Klabot,Kabupaten,Sorong,Papua Barat Daya
569,98436,Mlasfa,92.01.17.2009,Klabot,Kabupaten,Sorong,Papua Barat Daya
570,98436,Mlat,92.01.17.2005,Klabot,Kabupaten,Sorong,Papua Barat Daya
571,98436,Mlawes,92.01.17.2008,Klabot,Kabupaten,Sorong,Papua Barat Daya
572,98436,Somir,92.01.17.2014,Klabot,Kabupaten,Sorong,Papua Barat Daya
573,98436,Warkti,92.01.17.2015,Klabot,Kabupaten,Sorong,Papua Barat Daya
574,98481,Pulau Tikus,92.05.17.2004,Kepulauan Sembilan,Kabupaten,Raja Ampat,Papua Barat Daya
575,98481,Satukurano,92.05.17.2003,Kepulauan Sembilan,Kabupaten,Raja Ampat,Papua Barat Daya
576,98481,Wejim Barat,92.05.17.2001,Kepulauan Sembilan,Kabupaten,Raja Ampat,Papua Barat Daya
577,98481,Wejim Timur,92.05.17.2002,Kepulauan Sembilan,Kabupaten,Raja Ampat,Papua Barat Daya
578,98462,Boiseran,92.05.05.2006,Kepulauan Ayau,Kabupaten,Raja Ampat,Papua Barat Daya
579,98462,Dorehkar (Doreker / Dorekar),92.05.05.2001,Kepulauan Ayau,Kabupaten,Raja Ampat,Papua Barat Daya
580,98462,Runi (Reni),92.05.05.2007,Kepulauan Ayau,Kabupaten,Raja Ampat,Papua Barat Daya
581,98462,Yenkanfan,92.05.05.2008,Kepulauan Ayau,Kabupaten,Raja Ampat,Papua Barat Daya
582,98462,Yenkawir,92.05.05.2003,Kepulauan Ayau,Kabupaten,Raja Ampat,Papua Barat Daya
583,98393,Arampak,92.09.23.2009,Kebar Timur,Kabupaten,Tambrauw,Papua Barat Daya
584,98393,Arumi,92.09.23.2007,Kebar Timur,Kabupaten,Tambrauw,Papua Barat Daya
585,98393,Barona (Wasabiti),92.09.23.2013,Kebar Timur,Kabupaten,Tambrauw,Papua Barat Daya
586,98393,Inam,92.09.23.2001,Kebar Timur,Kabupaten,Tambrauw,Papua Barat Daya
587,98393,Inambuari,92.09.23.2003,Kebar Timur,Kabupaten,Tambrauw,Papua Barat Daya
588,98393,Jandurauw,92.09.23.2002,Kebar Timur,Kabupaten,Tambrauw,Papua Barat Daya
589,98393,Karawi,92.09.23.2008,Kebar Timur,Kabupaten,Tambrauw,Papua Barat Daya
590,98393,Nabisai,92.09.23.2006,Kebar Timur,Kabupaten,Tambrauw,Papua Barat Daya
591,98393,Sitori,92.09.23.2004,Kebar Timur,Kabupaten,Tambrauw,Papua Barat Daya
592,98393,Untorey,92.09.23.2005,Kebar Timur,Kabupaten,Tambrauw,Papua Barat Daya
593,98392,Ajami,92.09.24.2002,Kebar Selatan,Kabupaten,Tambrauw,Papua Barat Daya
594,98392,Akari,92.09.24.2004,Kebar Selatan,Kabupaten,Tambrauw,Papua Barat Daya
595,98392,Amnan,92.09.24.2005,Kebar Selatan,Kabupaten,Tambrauw,Papua Barat Daya
596,98392,Aniti,92.09.24.2003,Kebar Selatan,Kabupaten,Tambrauw,Papua Barat Daya
597,98392,Aritowi,92.09.24.2008,Kebar Selatan,Kabupaten,Tambrauw,Papua Barat Daya
598,98392,Arwani,92.09.24.2007,Kebar Selatan,Kabupaten,Tambrauw,Papua Barat Daya
599,98392,Atiki,92.09.24.2006,Kebar Selatan,Kabupaten,Tambrauw,Papua Barat Daya
600,98392,Meiwar,92.09.24.2010,Kebar Selatan,Kabupaten,Tambrauw,Papua Barat Daya
601,98392,Nekori,92.09.24.2001,Kebar Selatan,Kabupaten,Tambrauw,Papua Barat Daya
602,98392,Umpay,92.09.24.2009,Kebar Selatan,Kabupaten,Tambrauw,Papua Barat Daya
603,98391,Anarum,92.09.09.2022,Kebar,Kabupaten,Tambrauw,Papua Barat Daya
604,98391,Apoki,92.09.09.2015,Kebar,Kabupaten,Tambrauw,Papua Barat Daya
605,98391,Injai,92.09.09.2007,Kebar,Kabupaten,Tambrauw,Papua Barat Daya
606,98391,Jafai,92.09.09.2017,Kebar,Kabupaten,Tambrauw,Papua Barat Daya
607,98391,Jambuani,92.09.09.2018,Kebar,Kabupaten,Tambrauw,Papua Barat Daya
608,98391,Manaria,92.09.09.2019,Kebar,Kabupaten,Tambrauw,Papua Barat Daya
609,98391,Matatun,92.09.09.2016,Kebar,Kabupaten,Tambrauw,Papua Barat Daya
610,98391,Wabanek,92.09.09.2028,Kebar,Kabupaten,Tambrauw,Papua Barat Daya
611,98391,Wasanggon,92.09.09.2027,Kebar,Kabupaten,Tambrauw,Papua Barat Daya
612,98393,Ireji,92.09.28.2009,Kasi,Kabupaten,Tambrauw,Papua Barat Daya
613,98383,Irumfei,92.09.28.2007,Kasi,Kabupaten,Tambrauw,Papua Barat Daya
614,98383,Kasi Baru,92.09.28.2002,Kasi,Kabupaten,Tambrauw,Papua Barat Daya
615,98383,Kasi Indah,92.09.28.2005,Kasi,Kabupaten,Tambrauw,Papua Barat Daya
616,98393,Kasi Inom,92.09.28.2010,Kasi,Kabupaten,Tambrauw,Papua Barat Daya
617,98383,Kasi Jaya,92.09.28.2003,Kasi,Kabupaten,Tambrauw,Papua Barat Daya
618,98383,Meimorufof,92.09.28.2004,Kasi,Kabupaten,Tambrauw,Papua Barat Daya
619,98383,Meserikweda,92.09.28.2001,Kasi,Kabupaten,Tambrauw,Papua Barat Daya
620,98393,Meycocforga,92.09.28.2011,Kasi,Kabupaten,Tambrauw,Papua Barat Daya
621,98385,Meyomnar,92.09.28.2012,Kasi,Kabupaten,Tambrauw,Papua Barat Daya
622,98391,Pubuan,92.09.28.2008,Kasi,Kabupaten,Tambrauw,Papua Barat Daya
623,98383,Wacam,92.09.28.2006,Kasi,Kabupaten,Tambrauw,Papua Barat Daya
624,98226,Haemaran,92.04.26.2003,Kais Darat,Kabupaten,Sorong Selatan,Papua Barat Daya
625,98226,Ikana,92.04.26.2002,Kais Darat,Kabupaten,Sorong Selatan,Papua Barat Daya
626,98226,Makaroro,92.04.26.2007,Kais Darat,Kabupaten,Sorong Selatan,Papua Barat Daya
627,98226,Mogatemin,92.04.26.2005,Kais Darat,Kabupaten,Sorong Selatan,Papua Barat Daya
628,98226,Mukamat,92.04.26.2001,Kais Darat,Kabupaten,Sorong Selatan,Papua Barat Daya
629,98226,Onimsefa,92.04.26.2006,Kais Darat,Kabupaten,Sorong Selatan,Papua Barat Daya
630,98226,Siranggo,92.04.26.2004,Kais Darat,Kabupaten,Sorong Selatan,Papua Barat Daya
631,98222,Benawa I,92.04.14.2004,Kais,Kabupaten,Sorong Selatan,Papua Barat Daya
632,98222,Kais,92.04.14.2001,Kais,Kabupaten,Sorong Selatan,Papua Barat Daya
633,98222,Sumano,92.04.14.2006,Kais,Kabupaten,Sorong Selatan,Papua Barat Daya
634,98222,Tapuri,92.04.14.2002,Kais,Kabupaten,Sorong Selatan,Papua Barat Daya
635,98222,Yahadian,92.04.14.2003,Kais,Kabupaten,Sorong Selatan,Papua Barat Daya
636,98367,Aifamas,92.09.17.2003,Ireres,Kabupaten,Tambrauw,Papua Barat Daya
637,98367,Atafrumek,92.09.17.2005,Ireres,Kabupaten,Tambrauw,Papua Barat Daya
638,98367,Ifiam,92.09.17.2006,Ireres,Kabupaten,Tambrauw,Papua Barat Daya
639,98367,Meinad,92.09.17.2004,Ireres,Kabupaten,Tambrauw,Papua Barat Daya
640,98367,Meis,92.09.17.2002,Ireres,Kabupaten,Tambrauw,Papua Barat Daya
641,98367,Miri,92.09.17.2001,Ireres,Kabupaten,Tambrauw,Papua Barat Daya
642,98395,Wufmana,92.09.17.2007,Ireres,Kabupaten,Tambrauw,Papua Barat Daya
643,98223,Isogo,92.04.04.2009,Inanwatan,Kabupaten,Sorong Selatan,Papua Barat Daya
644,98223,Mate,92.04.04.2001,Inanwatan,Kabupaten,Sorong Selatan,Papua Barat Daya
645,98223,Mogibi,92.04.04.2020,Inanwatan,Kabupaten,Sorong Selatan,Papua Barat Daya
646,98223,Odeare,92.04.04.2026,Inanwatan,Kabupaten,Sorong Selatan,Papua Barat Daya
647,98223,Serkos,92.04.04.2004,Inanwatan,Kabupaten,Sorong Selatan,Papua Barat Daya
648,98223,Sibae,92.04.04.2013,Inanwatan,Kabupaten,Sorong Selatan,Papua Barat Daya
649,98223,Siri-siri,92.04.04.2027,Inanwatan,Kabupaten,Sorong Selatan,Papua Barat Daya
650,98223,Solta Baru,92.04.04.2006,Inanwatan,Kabupaten,Sorong Selatan,Papua Barat Daya
651,98223,Wadoi,92.04.04.2008,Inanwatan,Kabupaten,Sorong Selatan,Papua Barat Daya
652,98435,Brianlo,92.01.52.2002,Hobard,Kabupaten,Sorong,Papua Barat Daya
653,98435,Dais,92.01.52.2007,Hobard,Kabupaten,Sorong,Papua Barat Daya
654,98435,Floyi,92.01.52.2003,Hobard,Kabupaten,Sorong,Papua Barat Daya
655,98435,Hobard,92.01.52.2001,Hobard,Kabupaten,Sorong,Papua Barat Daya
656,98435,Klazelt (Klazelth),92.01.52.2004,Hobard,Kabupaten,Sorong,Papua Barat Daya
657,98435,Selol,92.01.52.2006,Hobard,Kabupaten,Sorong,Papua Barat Daya
658,98435,Sfadon,92.01.52.2005,Hobard,Kabupaten,Sorong,Papua Barat Daya
659,98231,Bemus,92.04.24.2003,Fokour,Kabupaten,Sorong Selatan,Papua Barat Daya
660,98231,Pasir Putih,92.04.24.2001,Fokour,Kabupaten,Sorong Selatan,Papua Barat Daya
661,98231,Wandum,92.04.24.2002,Fokour,Kabupaten,Sorong Selatan,Papua Barat Daya
662,98231,Welek,92.04.24.2004,Fokour,Kabupaten,Sorong Selatan,Papua Barat Daya
663,98366,Banfot,92.09.01.2012,Fef,Kabupaten,Tambrauw,Papua Barat Daya
664,98366,Esyum,92.09.01.2014,Fef,Kabupaten,Tambrauw,Papua Barat Daya
665,98366,Fef,92.09.01.2001,Fef,Kabupaten,Tambrauw,Papua Barat Daya
666,98366,Ibe,92.09.01.2010,Fef,Kabupaten,Tambrauw,Papua Barat Daya
667,98366,Imor,92.09.01.2015,Fef,Kabupaten,Tambrauw,Papua Barat Daya
668,98366,Iwin,92.09.01.2013,Fef,Kabupaten,Tambrauw,Papua Barat Daya
669,98366,Sikor,92.09.01.2006,Fef,Kabupaten,Tambrauw,Papua Barat Daya
670,98366,Syubun,92.09.01.2004,Fef,Kabupaten,Tambrauw,Papua Barat Daya
671,98366,Syunam,92.09.01.2011,Fef,Kabupaten,Tambrauw,Papua Barat Daya
672,98366,Wayo,92.09.01.2003,Fef,Kabupaten,Tambrauw,Papua Barat Daya
673,98434,Buk,92.01.47.2001,Buk,Kabupaten,Sorong,Papua Barat Daya
674,98434,Klahen,92.01.47.2006,Buk,Kabupaten,Sorong,Papua Barat Daya
675,98434,Klais,92.01.47.2003,Buk,Kabupaten,Sorong,Papua Barat Daya
676,98434,Mimpe,92.01.47.2004,Buk,Kabupaten,Sorong,Papua Barat Daya
677,98434,Mlakhan,92.01.47.2002,Buk,Kabupaten,Sorong,Papua Barat Daya
678,98434,Moos,92.01.47.2007,Buk,Kabupaten,Sorong,Papua Barat Daya
679,98434,Tiklen,92.01.47.2005,Buk,Kabupaten,Sorong,Papua Barat Daya
680,98213,Botain,92.01.54.2005,Botain,Kabupaten,Sorong,Papua Barat Daya
681,98433,Klafluk,92.01.54.2001,Botain,Kabupaten,Sorong,Papua Barat Daya
682,98433,Klayastani,92.01.54.2004,Botain,Kabupaten,Sorong,Papua Barat Daya
683,98433,Mamsit,92.01.54.2002,Botain,Kabupaten,Sorong,Papua Barat Daya
684,98433,Sabake,92.01.54.2003,Botain,Kabupaten,Sorong,Papua Barat Daya
685,98365,Bikar,92.09.13.2007,Bikar,Kabupaten,Tambrauw,Papua Barat Daya
686,98365,Bukit,92.09.13.2002,Bikar,Kabupaten,Tambrauw,Papua Barat Daya
687,98365,Nombrak,92.09.13.2006,Bikar,Kabupaten,Tambrauw,Papua Barat Daya
688,98365,Suyam,92.09.13.2009,Bikar,Kabupaten,Tambrauw,Papua Barat Daya
689,98365,Syunai,92.09.13.2008,Bikar,Kabupaten,Tambrauw,Papua Barat Daya
690,98365,Werbes,92.09.13.2005,Bikar,Kabupaten,Tambrauw,Papua Barat Daya
691,98365,Wertam,92.09.13.2003,Bikar,Kabupaten,Tambrauw,Papua Barat Daya
692,98365,Wertim,92.09.13.2010,Bikar,Kabupaten,Tambrauw,Papua Barat Daya
693,98365,Werur,92.09.13.2001,Bikar,Kabupaten,Tambrauw,Papua Barat Daya
694,98365,Werwaf,92.09.13.2004,Bikar,Kabupaten,Tambrauw,Papua Barat Daya
695,98432,Armoin,92.01.04.2033,Beraur,Kabupaten,Sorong,Papua Barat Daya
696,98432,Kaas,92.01.04.2011,Beraur,Kabupaten,Sorong,Papua Barat Daya
697,98432,Klabra,92.01.04.2001,Beraur,Kabupaten,Sorong,Papua Barat Daya
698,98432,Klamak,92.01.04.2019,Beraur,Kabupaten,Sorong,Papua Barat Daya
699,98432,Klarion,92.01.04.2009,Beraur,Kabupaten,Sorong,Papua Barat Daya
700,98432,Kmafo,92.01.04.2022,Beraur,Kabupaten,Sorong,Papua Barat Daya
701,98432,Midlal,92.01.04.2027,Beraur,Kabupaten,Sorong,Papua Barat Daya
702,98432,Mumpi,92.01.04.2016,Beraur,Kabupaten,Sorong,Papua Barat Daya
703,98432,Serselion,92.01.04.2020,Beraur,Kabupaten,Sorong,Papua Barat Daya
704,98432,Serselion Baru,92.01.04.2034,Beraur,Kabupaten,Sorong,Papua Barat Daya
705,98432,Sorain,92.01.04.2028,Beraur,Kabupaten,Sorong,Papua Barat Daya
706,98432,Wanurian,92.01.04.2002,Beraur,Kabupaten,Sorong,Papua Barat Daya
707,98432,Wensi,92.01.04.2015,Beraur,Kabupaten,Sorong,Papua Barat Daya
708,98492,Arefi Selatan,92.05.20.2004,Batanta Utara,Kabupaten,Raja Ampat,Papua Barat Daya
709,98492,Arefi Timur,92.05.20.2003,Batanta Utara,Kabupaten,Raja Ampat,Papua Barat Daya
710,98492,Yensawai Barat,92.05.20.2002,Batanta Utara,Kabupaten,Raja Ampat,Papua Barat Daya
711,98492,Yensawai Timur,92.05.20.2001,Batanta Utara,Kabupaten,Raja Ampat,Papua Barat Daya
712,98491,Amdui,92.05.25.2002,Batanta Selatan,Kabupaten,Raja Ampat,Papua Barat Daya
713,98491,Wailebet,92.05.25.2003,Batanta Selatan,Kabupaten,Raja Ampat,Papua Barat Daya
714,98491,Waiman,92.05.25.2004,Batanta Selatan,Kabupaten,Raja Ampat,Papua Barat Daya
715,98491,Yenanas,92.05.25.2001,Batanta Selatan,Kabupaten,Raja Ampat,Papua Barat Daya
716,98378,Babak,92.09.14.2005,Bamusbama,Kabupaten,Tambrauw,Papua Barat Daya
717,98378,Bamusbama,92.09.14.2001,Bamusbama,Kabupaten,Tambrauw,Papua Barat Daya
718,98378,Bamuswaiman,92.09.14.2002,Bamusbama,Kabupaten,Tambrauw,Papua Barat Daya
719,98378,Bano,92.09.14.2006,Bamusbama,Kabupaten,Tambrauw,Papua Barat Daya
720,98378,Syarwom,92.09.14.2003,Bamusbama,Kabupaten,Tambrauw,Papua Barat Daya
721,98379,Wormon,92.09.14.2007,Bamusbama,Kabupaten,Tambrauw,Papua Barat Daya
722,98431,Bagun,92.01.44.2002,Bagun,Kabupaten,Sorong,Papua Barat Daya
723,98431,Bratmawe,92.01.44.2007,Bagun,Kabupaten,Sorong,Papua Barat Daya
724,98431,Disfra,92.01.44.2001,Bagun,Kabupaten,Sorong,Papua Barat Daya
725,98431,Klakwonrit,92.01.44.2005,Bagun,Kabupaten,Sorong,Papua Barat Daya
726,98431,Klamomis,92.01.44.2004,Bagun,Kabupaten,Sorong,Papua Barat Daya
727,98431,Klawom,92.01.44.2003,Bagun,Kabupaten,Sorong,Papua Barat Daya
728,98431,Klawon,92.01.44.2008,Bagun,Kabupaten,Sorong,Papua Barat Daya
729,98431,Mlamli,92.01.44.2009,Bagun,Kabupaten,Sorong,Papua Barat Daya
730,98431,Mode,92.01.44.2006,Bagun,Kabupaten,Sorong,Papua Barat Daya
731,98461,Abidon,92.05.24.2001,Ayau,Kabupaten,Raja Ampat,Papua Barat Daya
732,98461,Meosbekwan,92.05.24.2004,Ayau,Kabupaten,Raja Ampat,Papua Barat Daya
733,98461,Reni,92.05.24.2003,Ayau,Kabupaten,Raja Ampat,Papua Barat Daya
734,98461,Rutum,92.05.24.2002,Ayau,Kabupaten,Raja Ampat,Papua Barat Daya
735,98249,Frabo,92.10.19.2004,Ayamaru Utara Timur,Kabupaten,Maybrat,Papua Barat Daya
736,98249,Karfa,92.10.19.2005,Ayamaru Utara Timur,Kabupaten,Maybrat,Papua Barat Daya
737,98249,Kona,92.10.19.2006,Ayamaru Utara Timur,Kabupaten,Maybrat,Papua Barat Daya
738,98249,Kosah,92.10.19.2007,Ayamaru Utara Timur,Kabupaten,Maybrat,Papua Barat Daya
739,98249,Mapura,92.10.19.2001,Ayamaru Utara Timur,Kabupaten,Maybrat,Papua Barat Daya
740,98249,Suwiam,92.10.19.2002,Ayamaru Utara Timur,Kabupaten,Maybrat,Papua Barat Daya
741,98249,Tomase,92.10.19.2003,Ayamaru Utara Timur,Kabupaten,Maybrat,Papua Barat Daya
742,98248,Arne,92.10.09.2007,Ayamaru Utara,Kabupaten,Maybrat,Papua Barat Daya
743,98248,Arne Timur,92.10.09.2014,Ayamaru Utara,Kabupaten,Maybrat,Papua Barat Daya
744,98248,Aus Tiwit,92.10.09.2009,Ayamaru Utara,Kabupaten,Maybrat,Papua Barat Daya
745,98248,Hohoyor,92.10.09.2006,Ayamaru Utara,Kabupaten,Maybrat,Papua Barat Daya
746,98248,Johafah,92.10.09.2010,Ayamaru Utara,Kabupaten,Maybrat,Papua Barat Daya
747,98248,Karetubun,92.10.09.2003,Ayamaru Utara,Kabupaten,Maybrat,Papua Barat Daya
748,98248,Kfaa,92.10.09.2013,Ayamaru Utara,Kabupaten,Maybrat,Papua Barat Daya
749,98248,Nauwita,92.10.09.2020,Ayamaru Utara,Kabupaten,Maybrat,Papua Barat Daya
750,98248,Serma,92.10.09.2012,Ayamaru Utara,Kabupaten,Maybrat,Papua Barat Daya
751,98248,Setta,92.10.09.2004,Ayamaru Utara,Kabupaten,Maybrat,Papua Barat Daya
752,98248,Yubiah,92.10.09.2001,Ayamaru Utara,Kabupaten,Maybrat,Papua Barat Daya
753,98248,Yukase,92.10.09.2011,Ayamaru Utara,Kabupaten,Maybrat,Papua Barat Daya
754,98247,Faitwosur/Angkasa Pura,92.10.18.2007,Ayamaru Timur Selatan,Kabupaten,Maybrat,Papua Barat Daya
755,98247,Isusu,92.10.18.2004,Ayamaru Timur Selatan,Kabupaten,Maybrat,Papua Barat Daya
756,98247,Kambuifa,92.10.18.2003,Ayamaru Timur Selatan,Kabupaten,Maybrat,Papua Barat Daya
757,98247,Kambuskato,92.10.18.2001,Ayamaru Timur Selatan,Kabupaten,Maybrat,Papua Barat Daya
758,98247,Kambuskato Utara,92.10.18.2002,Ayamaru Timur Selatan,Kabupaten,Maybrat,Papua Barat Daya
759,98247,Mano,92.10.18.2005,Ayamaru Timur Selatan,Kabupaten,Maybrat,Papua Barat Daya
760,98247,Sipat,92.10.18.2006,Ayamaru Timur Selatan,Kabupaten,Maybrat,Papua Barat Daya
761,98246,Faitmajin,92.10.10.2003,Ayamaru Timur,Kabupaten,Maybrat,Papua Barat Daya
762,98246,Faitsiur,92.10.10.2009,Ayamaru Timur,Kabupaten,Maybrat,Papua Barat Daya
763,98246,Huberita,92.10.10.2002,Ayamaru Timur,Kabupaten,Maybrat,Papua Barat Daya
764,98246,Insas,92.10.10.2008,Ayamaru Timur,Kabupaten,Maybrat,Papua Barat Daya
765,98246,Ismayo (Ismayu),92.10.10.2006,Ayamaru Timur,Kabupaten,Maybrat,Papua Barat Daya
766,98246,Kambuaya,92.10.10.2001,Ayamaru Timur,Kabupaten,Maybrat,Papua Barat Daya
767,98246,Keyum,92.10.10.2010,Ayamaru Timur,Kabupaten,Maybrat,Papua Barat Daya
768,98246,Sefayit,92.10.10.2007,Ayamaru Timur,Kabupaten,Maybrat,Papua Barat Daya
769,98245,Bawy,92.10.20.2010,Ayamaru Tengah,Kabupaten,Maybrat,Papua Barat Daya
770,98245,Fiane,92.10.20.2001,Ayamaru Tengah,Kabupaten,Maybrat,Papua Barat Daya
771,98245,Hufioh,92.10.20.2009,Ayamaru Tengah,Kabupaten,Maybrat,Papua Barat Daya
772,98245,Isme,92.10.20.2005,Ayamaru Tengah,Kabupaten,Maybrat,Papua Barat Daya
773,98245,Kartapura,92.10.20.2002,Ayamaru Tengah,Kabupaten,Maybrat,Papua Barat Daya
774,98245,Men,92.10.20.2003,Ayamaru Tengah,Kabupaten,Maybrat,Papua Barat Daya
775,98245,Rindu,92.10.20.2006,Ayamaru Tengah,Kabupaten,Maybrat,Papua Barat Daya
776,98245,Semu,92.10.20.2004,Ayamaru Tengah,Kabupaten,Maybrat,Papua Barat Daya
777,98245,Tut,92.10.20.2007,Ayamaru Tengah,Kabupaten,Maybrat,Papua Barat Daya
778,98245,Yohwer,92.10.20.2008,Ayamaru Tengah,Kabupaten,Maybrat,Papua Barat Daya
779,98244,Arus,92.10.17.2005,Ayamaru Selatan Jaya,Kabupaten,Maybrat,Papua Barat Daya
780,98244,Asses,92.10.17.2002,Ayamaru Selatan Jaya,Kabupaten,Maybrat,Papua Barat Daya
781,98244,Fait Nigre (Fait Nggre),92.10.17.2003,Ayamaru Selatan Jaya,Kabupaten,Maybrat,Papua Barat Daya
782,98244,Faitsimar,92.10.17.2001,Ayamaru Selatan Jaya,Kabupaten,Maybrat,Papua Barat Daya
783,98244,Isnum,92.10.17.2007,Ayamaru Selatan Jaya,Kabupaten,Maybrat,Papua Barat Daya
784,98244,Kofait,92.10.17.2006,Ayamaru Selatan Jaya,Kabupaten,Maybrat,Papua Barat Daya
785,98244,Sufu,92.10.17.2004,Ayamaru Selatan Jaya,Kabupaten,Maybrat,Papua Barat Daya
786,98243,Hawioh,92.10.15.2008,Ayamaru Selatan,Kabupaten,Maybrat,Papua Barat Daya
787,98243,Kanisabar,92.10.15.2004,Ayamaru Selatan,Kabupaten,Maybrat,Papua Barat Daya
788,98243,Koma Koma,92.10.15.2003,Ayamaru Selatan,Kabupaten,Maybrat,Papua Barat Daya
789,98243,Lemauk Klit,92.10.15.2007,Ayamaru Selatan,Kabupaten,Maybrat,Papua Barat Daya
790,98243,Sagrim,92.10.15.2010,Ayamaru Selatan,Kabupaten,Maybrat,Papua Barat Daya
791,98243,Saneh (Seneh),92.10.15.2006,Ayamaru Selatan,Kabupaten,Maybrat,Papua Barat Daya
792,98243,Sauf,92.10.15.2001,Ayamaru Selatan,Kabupaten,Maybrat,Papua Barat Daya
793,98243,Sembaro,92.10.15.2002,Ayamaru Selatan,Kabupaten,Maybrat,Papua Barat Daya
794,98243,Sfarare,92.10.15.2005,Ayamaru Selatan,Kabupaten,Maybrat,Papua Barat Daya
795,98243,Simiyah,92.10.15.2009,Ayamaru Selatan,Kabupaten,Maybrat,Papua Barat Daya
796,98242,Adoh,92.10.16.2001,Ayamaru Jaya,Kabupaten,Maybrat,Papua Barat Daya
797,98242,Orain,92.10.16.2005,Ayamaru Jaya,Kabupaten,Maybrat,Papua Barat Daya
798,98242,Orsu,92.10.16.2007,Ayamaru Jaya,Kabupaten,Maybrat,Papua Barat Daya
799,98242,Rawas,92.10.16.2006,Ayamaru Jaya,Kabupaten,Maybrat,Papua Barat Daya
800,98242,Segior,92.10.16.2004,Ayamaru Jaya,Kabupaten,Maybrat,Papua Barat Daya
801,98242,Soan,92.10.16.2008,Ayamaru Jaya,Kabupaten,Maybrat,Papua Barat Daya
802,98242,Sosian,92.10.16.2003,Ayamaru Jaya,Kabupaten,Maybrat,Papua Barat Daya
803,98242,Temel,92.10.16.2002,Ayamaru Jaya,Kabupaten,Maybrat,Papua Barat Daya
804,98242,Warbo,92.10.16.2009,Ayamaru Jaya,Kabupaten,Maybrat,Papua Barat Daya
805,98242,Woman,92.10.16.2010,Ayamaru Jaya,Kabupaten,Maybrat,Papua Barat Daya
806,98241,Chaliat,92.10.21.2003,Ayamaru Barat,Kabupaten,Maybrat,Papua Barat Daya
807,98241,Fanse,92.10.21.2002,Ayamaru Barat,Kabupaten,Maybrat,Papua Barat Daya
808,98241,Sehu,92.10.21.2005,Ayamaru Barat,Kabupaten,Maybrat,Papua Barat Daya
809,98241,Sfacko,92.10.21.2004,Ayamaru Barat,Kabupaten,Maybrat,Papua Barat Daya
810,98241,Sfaraka (Sfakraka),92.10.21.2008,Ayamaru Barat,Kabupaten,Maybrat,Papua Barat Daya
811,98241,Sien,92.10.21.2007,Ayamaru Barat,Kabupaten,Maybrat,Papua Barat Daya
812,98241,Soroan (Sorowan),92.10.21.2001,Ayamaru Barat,Kabupaten,Maybrat,Papua Barat Daya
813,98241,Tbo,92.10.21.2006,Ayamaru Barat,Kabupaten,Maybrat,Papua Barat Daya
814,98240,Afes,92.10.08.2020,Ayamaru,Kabupaten,Maybrat,Papua Barat Daya
815,98240,Ayamaru,92.10.08.1001,Ayamaru,Kabupaten,Maybrat,Papua Barat Daya
816,98240,Fraharo,92.10.08.2017,Ayamaru,Kabupaten,Maybrat,Papua Barat Daya
817,98240,Framu,92.10.08.2010,Ayamaru,Kabupaten,Maybrat,Papua Barat Daya
818,98240,Mefkajim II,92.10.08.2011,Ayamaru,Kabupaten,Maybrat,Papua Barat Daya
819,98240,Smusswioh (Smusuwioh),92.10.08.2018,Ayamaru,Kabupaten,Maybrat,Papua Barat Daya
820,98240,Tuso,92.10.08.2021,Ayamaru,Kabupaten,Maybrat,Papua Barat Daya
821,98240,Twer,92.10.08.2019,Ayamaru,Kabupaten,Maybrat,Papua Barat Daya
822,98364,Ases,92.09.15.2001,Ases,Kabupaten,Tambrauw,Papua Barat Daya
823,98364,Asuon,92.09.15.2002,Ases,Kabupaten,Tambrauw,Papua Barat Daya
824,98364,Frasayoah,92.09.15.2004,Ases,Kabupaten,Tambrauw,Papua Barat Daya
825,98364,Safotiek (Safoetiek),92.09.15.2003,Ases,Kabupaten,Tambrauw,Papua Barat Daya
826,98382,Imbuan (Bondopi),92.09.27.2002,Amberbaken Barat,Kabupaten,Tambrauw,Papua Barat Daya
827,98382,Manggaew,92.09.27.2003,Amberbaken Barat,Kabupaten,Tambrauw,Papua Barat Daya
828,98382,Sasui,92.09.27.2001,Amberbaken Barat,Kabupaten,Tambrauw,Papua Barat Daya
829,98382,Saurabon,92.09.27.2004,Amberbaken Barat,Kabupaten,Tambrauw,Papua Barat Daya
830,98382,Wasawmontem,92.09.27.2005,Amberbaken Barat,Kabupaten,Tambrauw,Papua Barat Daya
831,98381,Binasi,92.09.10.2012,Amberbaken,Kabupaten,Tambrauw,Papua Barat Daya
832,98381,Binmaks,92.09.10.2014,Amberbaken,Kabupaten,Tambrauw,Papua Barat Daya
833,98381,Kabibwan,92.09.10.2013,Amberbaken,Kabupaten,Tambrauw,Papua Barat Daya
834,98381,Manggapnut,92.09.10.2016,Amberbaken,Kabupaten,Tambrauw,Papua Barat Daya
835,98381,Saukorem,92.09.10.2002,Amberbaken,Kabupaten,Tambrauw,Papua Barat Daya
836,98381,Waramui,92.09.10.2017,Amberbaken,Kabupaten,Tambrauw,Papua Barat Daya
837,98384,Warpaperi,92.09.10.2021,Amberbaken,Kabupaten,Tambrauw,Papua Barat Daya
838,98381,Wasarak,92.09.10.2006,Amberbaken,Kabupaten,Tambrauw,Papua Barat Daya
839,98381,Wefiani (Wefani),92.09.10.2004,Amberbaken,Kabupaten,Tambrauw,Papua Barat Daya
840,98265,Asmuruf Tee,92.10.07.2011,Aitinyo Utara,Kabupaten,Maybrat,Papua Barat Daya
841,98265,Asmuruf U,92.10.07.2005,Aitinyo Utara,Kabupaten,Maybrat,Papua Barat Daya
842,98265,Bahwat (Bohwat),92.10.07.2016,Aitinyo Utara,Kabupaten,Maybrat,Papua Barat Daya
843,98265,Fan,92.10.07.2003,Aitinyo Utara,Kabupaten,Maybrat,Papua Barat Daya
844,98265,Fategomi,92.10.07.2001,Aitinyo Utara,Kabupaten,Maybrat,Papua Barat Daya
845,98265,Framafir,92.10.07.2013,Aitinyo Utara,Kabupaten,Maybrat,Papua Barat Daya
846,98265,Gohsames,92.10.07.2004,Aitinyo Utara,Kabupaten,Maybrat,Papua Barat Daya
847,98265,Inta,92.10.07.2015,Aitinyo Utara,Kabupaten,Maybrat,Papua Barat Daya
848,98265,Mirafaan (Mirafan),92.10.07.2006,Aitinyo Utara,Kabupaten,Maybrat,Papua Barat Daya
849,98265,Subrit,92.10.07.2014,Aitinyo Utara,Kabupaten,Maybrat,Papua Barat Daya
850,98265,Tehak Besar,92.10.07.2002,Aitinyo Utara,Kabupaten,Maybrat,Papua Barat Daya
851,98265,Tehak Tee,92.10.07.2012,Aitinyo Utara,Kabupaten,Maybrat,Papua Barat Daya
852,98264,Asnaif,92.10.22.2011,Aitinyo Tengah,Kabupaten,Maybrat,Papua Barat Daya
853,98264,Awit,92.10.22.2002,Aitinyo Tengah,Kabupaten,Maybrat,Papua Barat Daya
854,98264,Erokwero,92.10.22.2005,Aitinyo Tengah,Kabupaten,Maybrat,Papua Barat Daya
855,98264,Eway,92.10.22.2004,Aitinyo Tengah,Kabupaten,Maybrat,Papua Barat Daya
856,98264,Framboh,92.10.22.2013,Aitinyo Tengah,Kabupaten,Maybrat,Papua Barat Daya
857,98264,Iroh Sohser,92.10.22.2012,Aitinyo Tengah,Kabupaten,Maybrat,Papua Barat Daya
858,98264,Itigah,92.10.22.2007,Aitinyo Tengah,Kabupaten,Maybrat,Papua Barat Daya
859,98264,Sabun,92.10.22.2006,Aitinyo Tengah,Kabupaten,Maybrat,Papua Barat Daya
860,98264,Sira,92.10.22.2003,Aitinyo Tengah,Kabupaten,Maybrat,Papua Barat Daya
861,98264,Sira Tee,92.10.22.2008,Aitinyo Tengah,Kabupaten,Maybrat,Papua Barat Daya
862,98264,Tohmri,92.10.22.2014,Aitinyo Tengah,Kabupaten,Maybrat,Papua Barat Daya
863,98264,Way 'U' (Way U),92.10.22.2010,Aitinyo Tengah,Kabupaten,Maybrat,Papua Barat Daya
864,98264,Wrait 'U' (Wrait U),92.10.22.2009,Aitinyo Tengah,Kabupaten,Maybrat,Papua Barat Daya
865,98264,Yaksoro,92.10.22.2001,Aitinyo Tengah,Kabupaten,Maybrat,Papua Barat Daya
866,98263,Faithowes,92.10.23.2009,Aitinyo Raya,Kabupaten,Maybrat,Papua Barat Daya
867,98263,Ikuf,92.10.23.2002,Aitinyo Raya,Kabupaten,Maybrat,Papua Barat Daya
868,98263,Ikuf Utara,92.10.23.2005,Aitinyo Raya,Kabupaten,Maybrat,Papua Barat Daya
869,98263,Isir,92.10.23.2003,Aitinyo Raya,Kabupaten,Maybrat,Papua Barat Daya
870,98263,Jitmau,92.10.23.2001,Aitinyo Raya,Kabupaten,Maybrat,Papua Barat Daya
871,98263,Jitmau Timur,92.10.23.2004,Aitinyo Raya,Kabupaten,Maybrat,Papua Barat Daya
872,98263,Kambusabo,92.10.23.2007,Aitinyo Raya,Kabupaten,Maybrat,Papua Barat Daya
873,98263,Sarimo,92.10.23.2006,Aitinyo Raya,Kabupaten,Maybrat,Papua Barat Daya
874,98263,Srirtabam,92.10.23.2008,Aitinyo Raya,Kabupaten,Maybrat,Papua Barat Daya
875,98263,Yumame,92.10.23.2010,Aitinyo Raya,Kabupaten,Maybrat,Papua Barat Daya
876,98262,Fatase,92.10.05.2003,Aitinyo Barat,Kabupaten,Maybrat,Papua Barat Daya
877,98262,Fatem,92.10.05.2012,Aitinyo Barat,Kabupaten,Maybrat,Papua Barat Daya
878,98262,Hasweh,92.10.05.2011,Aitinyo Barat,Kabupaten,Maybrat,Papua Barat Daya
879,98262,Hosyo Ata,92.10.05.2008,Aitinyo Barat,Kabupaten,Maybrat,Papua Barat Daya
880,98262,Hosyo Banah (Hosiobanah),92.10.05.2013,Aitinyo Barat,Kabupaten,Maybrat,Papua Barat Daya
881,98262,Kambufatem,92.10.05.2001,Aitinyo Barat,Kabupaten,Maybrat,Papua Barat Daya
882,98262,Kambufatem Utara,92.10.05.2002,Aitinyo Barat,Kabupaten,Maybrat,Papua Barat Daya
883,98262,Siyo,92.10.05.2010,Aitinyo Barat,Kabupaten,Maybrat,Papua Barat Daya
884,98262,Waybomatah,92.10.05.2009,Aitinyo Barat,Kabupaten,Maybrat,Papua Barat Daya
885,98261,Afkrem,92.10.06.2018,Aitinyo,Kabupaten,Maybrat,Papua Barat Daya
886,98261,Aitinyo,92.10.06.2001,Aitinyo,Kabupaten,Maybrat,Papua Barat Daya
887,98261,Bofait,92.10.06.2017,Aitinyo,Kabupaten,Maybrat,Papua Barat Daya
888,98261,Ibasuf,92.10.06.2013,Aitinyo,Kabupaten,Maybrat,Papua Barat Daya
889,98261,Irohe (Ihore),92.10.06.2002,Aitinyo,Kabupaten,Maybrat,Papua Barat Daya
890,98261,Irohmrar,92.10.06.2016,Aitinyo,Kabupaten,Maybrat,Papua Barat Daya
891,98261,Kamro,92.10.06.2005,Aitinyo,Kabupaten,Maybrat,Papua Barat Daya
892,98261,Kamro Selatan,92.10.06.2020,Aitinyo,Kabupaten,Maybrat,Papua Barat Daya
893,98261,Karsu,92.10.06.2007,Aitinyo,Kabupaten,Maybrat,Papua Barat Daya
894,98261,Korom,92.10.06.2010,Aitinyo,Kabupaten,Maybrat,Papua Barat Daya
895,98261,Sira Aya,92.10.06.2009,Aitinyo,Kabupaten,Maybrat,Papua Barat Daya
896,98261,Sowai Sau,92.10.06.2014,Aitinyo,Kabupaten,Maybrat,Papua Barat Daya
897,98261,Sris,92.10.06.2003,Aitinyo,Kabupaten,Maybrat,Papua Barat Daya
898,98261,Subin,92.10.06.2015,Aitinyo,Kabupaten,Maybrat,Papua Barat Daya
899,98261,Sumanis,92.10.06.2011,Aitinyo,Kabupaten,Maybrat,Papua Barat Daya
900,98261,Tehak Kecil,92.10.06.2008,Aitinyo,Kabupaten,Maybrat,Papua Barat Daya
901,98261,Wiho,92.10.06.2019,Aitinyo,Kabupaten,Maybrat,Papua Barat Daya
902,98444,Aimas,92.01.07.1001,Aimas,Kabupaten,Sorong,Papua Barat Daya
903,98444,Aimo,92.01.07.2033,Aimas,Kabupaten,Sorong,Papua Barat Daya
904,98444,Klabinain,92.01.07.1030,Aimas,Kabupaten,Sorong,Papua Barat Daya
905,98444,Klafma,92.01.07.1035,Aimas,Kabupaten,Sorong,Papua Barat Daya
906,98444,Klaigit,92.01.07.1032,Aimas,Kabupaten,Sorong,Papua Barat Daya
907,98444,Maibo,92.01.07.2028,Aimas,Kabupaten,Sorong,Papua Barat Daya
908,98444,Malagusa,92.01.07.1034,Aimas,Kabupaten,Sorong,Papua Barat Daya
909,98444,Malasaum,92.01.07.2038,Aimas,Kabupaten,Sorong,Papua Barat Daya
910,98444,Malasom,92.01.07.1031,Aimas,Kabupaten,Sorong,Papua Barat Daya
911,98444,Malawele,92.01.07.1003,Aimas,Kabupaten,Sorong,Papua Barat Daya
912,98444,Malawili,92.01.07.1002,Aimas,Kabupaten,Sorong,Papua Barat Daya
913,98444,Mariat Gunung,92.01.07.1026,Aimas,Kabupaten,Sorong,Papua Barat Daya
914,98444,Mariat Pantai,92.01.07.1006,Aimas,Kabupaten,Sorong,Papua Barat Daya
915,98444,Warmon,92.01.07.1029,Aimas,Kabupaten,Sorong,Papua Barat Daya
916,98277,Ayawasi,92.10.02.2001,Aifat Utara,Kabupaten,Maybrat,Papua Barat Daya
917,98277,Ayawasi Selatan,92.10.02.2002,Aifat Utara,Kabupaten,Maybrat,Papua Barat Daya
918,98277,Ayawasi Timur,92.10.02.2003,Aifat Utara,Kabupaten,Maybrat,Papua Barat Daya
919,98277,Fonatu,92.10.02.2005,Aifat Utara,Kabupaten,Maybrat,Papua Barat Daya
920,98277,Haenkanes,92.10.02.2012,Aifat Utara,Kabupaten,Maybrat,Papua Barat Daya
921,98277,Howait,92.10.02.2011,Aifat Utara,Kabupaten,Maybrat,Papua Barat Daya
922,98277,Irata,92.10.02.2017,Aifat Utara,Kabupaten,Maybrat,Papua Barat Daya
923,98277,Konja,92.10.02.2008,Aifat Utara,Kabupaten,Maybrat,Papua Barat Daya
924,98277,Konja Barat,92.10.02.2013,Aifat Utara,Kabupaten,Maybrat,Papua Barat Daya
925,98277,Man,92.10.02.2010,Aifat Utara,Kabupaten,Maybrat,Papua Barat Daya
926,98277,Mosun,92.10.02.2006,Aifat Utara,Kabupaten,Maybrat,Papua Barat Daya
927,98277,Mosun Timur,92.10.02.2019,Aifat Utara,Kabupaten,Maybrat,Papua Barat Daya
928,98277,Mosun Utara,92.10.02.2020,Aifat Utara,Kabupaten,Maybrat,Papua Barat Daya
929,98277,Mowes,92.10.02.2016,Aifat Utara,Kabupaten,Maybrat,Papua Barat Daya
930,98277,Neset,92.10.02.2018,Aifat Utara,Kabupaten,Maybrat,Papua Barat Daya
931,98277,Raha,92.10.02.2015,Aifat Utara,Kabupaten,Maybrat,Papua Barat Daya
932,98277,Susai,92.10.02.2004,Aifat Utara,Kabupaten,Maybrat,Papua Barat Daya
933,98277,Wayane,92.10.02.2007,Aifat Utara,Kabupaten,Maybrat,Papua Barat Daya
934,98277,Yarat,92.10.02.2009,Aifat Utara,Kabupaten,Maybrat,Papua Barat Daya
935,98277,Yarat Timur,92.10.02.2014,Aifat Utara,Kabupaten,Maybrat,Papua Barat Daya
936,98276,Aifam,92.10.12.2008,Aifat Timur Tengah,Kabupaten,Maybrat,Papua Barat Daya
937,98276,Aikus,92.10.12.2005,Aifat Timur Tengah,Kabupaten,Maybrat,Papua Barat Daya
938,98276,Aiwesa,92.10.12.2006,Aifat Timur Tengah,Kabupaten,Maybrat,Papua Barat Daya
939,98276,Assem,92.10.12.2012,Aifat Timur Tengah,Kabupaten,Maybrat,Papua Barat Daya
940,98276,Ayata,92.10.12.2004,Aifat Timur Tengah,Kabupaten,Maybrat,Papua Barat Daya
941,98276,Faan Kahrio (Faan),92.10.12.2011,Aifat Timur Tengah,Kabupaten,Maybrat,Papua Barat Daya
942,98276,Frambu,92.10.12.2003,Aifat Timur Tengah,Kabupaten,Maybrat,Papua Barat Daya
943,98276,Kamat,92.10.12.2002,Aifat Timur Tengah,Kabupaten,Maybrat,Papua Barat Daya
944,98276,Mupas,92.10.12.2001,Aifat Timur Tengah,Kabupaten,Maybrat,Papua Barat Daya
945,98276,Pitor,92.10.12.2007,Aifat Timur Tengah,Kabupaten,Maybrat,Papua Barat Daya
946,98276,Saud,92.10.12.2009,Aifat Timur Tengah,Kabupaten,Maybrat,Papua Barat Daya
947,98276,Tiam,92.10.12.2010,Aifat Timur Tengah,Kabupaten,Maybrat,Papua Barat Daya
948,98275,Makiri,92.10.14.2002,Aifat Timur Selatan,Kabupaten,Maybrat,Papua Barat Daya
949,98275,Srumate,92.10.14.2005,Aifat Timur Selatan,Kabupaten,Maybrat,Papua Barat Daya
950,98275,Warba,92.10.14.2003,Aifat Timur Selatan,Kabupaten,Maybrat,Papua Barat Daya
951,98275,Winuni,92.10.14.2004,Aifat Timur Selatan,Kabupaten,Maybrat,Papua Barat Daya
952,98275,Womba,92.10.14.2006,Aifat Timur Selatan,Kabupaten,Maybrat,Papua Barat Daya
953,98275,Wormu,92.10.14.2001,Aifat Timur Selatan,Kabupaten,Maybrat,Papua Barat Daya
954,98274,Aikingging (Akingging),92.10.13.2006,Aifat Timur Jauh,Kabupaten,Maybrat,Papua Barat Daya
955,98274,Aimau,92.10.13.2002,Aifat Timur Jauh,Kabupaten,Maybrat,Papua Barat Daya
956,98274,Ainesra,92.10.13.2001,Aifat Timur Jauh,Kabupaten,Maybrat,Papua Barat Daya
957,98274,Aisasior (Sasior Nafe),92.10.13.2004,Aifat Timur Jauh,Kabupaten,Maybrat,Papua Barat Daya
958,98274,Franeway (Framneway),92.10.13.2005,Aifat Timur Jauh,Kabupaten,Maybrat,Papua Barat Daya
959,98274,Mesyam,92.10.13.2003,Aifat Timur Jauh,Kabupaten,Maybrat,Papua Barat Daya
960,98274,Tiefromen,92.10.13.2007,Aifat Timur Jauh,Kabupaten,Maybrat,Papua Barat Daya
961,98273,Aikrer,92.10.03.2004,Aifat Timur,Kabupaten,Maybrat,Papua Barat Daya
962,98273,Aisa,92.10.03.2001,Aifat Timur,Kabupaten,Maybrat,Papua Barat Daya
963,98273,Aitrem,92.10.03.2005,Aifat Timur,Kabupaten,Maybrat,Papua Barat Daya
964,98273,Buoh Sa,92.10.03.2033,Aifat Timur,Kabupaten,Maybrat,Papua Barat Daya
965,98273,Sahbuku,92.10.03.2008,Aifat Timur,Kabupaten,Maybrat,Papua Barat Daya
966,98273,Sanem,92.10.03.2027,Aifat Timur,Kabupaten,Maybrat,Papua Barat Daya
967,98273,Sasior Frabuku,92.10.03.2009,Aifat Timur,Kabupaten,Maybrat,Papua Barat Daya
968,98273,Sawin,92.10.03.2006,Aifat Timur,Kabupaten,Maybrat,Papua Barat Daya
969,98273,Wakom,92.10.03.2026,Aifat Timur,Kabupaten,Maybrat,Papua Barat Daya
970,98272,Asiaf Saman (Asiaf Zaman),92.10.04.2008,Aifat Selatan,Kabupaten,Maybrat,Papua Barat Daya
971,98272,Awet Main,92.10.04.2014,Aifat Selatan,Kabupaten,Maybrat,Papua Barat Daya
972,98272,Fuog,92.10.04.2006,Aifat Selatan,Kabupaten,Maybrat,Papua Barat Daya
973,98272,Fuog Selatan,92.10.04.2010,Aifat Selatan,Kabupaten,Maybrat,Papua Barat Daya
974,98272,Hora Iek,92.10.04.2009,Aifat Selatan,Kabupaten,Maybrat,Papua Barat Daya
975,98272,Imsun,92.10.04.2003,Aifat Selatan,Kabupaten,Maybrat,Papua Barat Daya
976,98272,Kaitana,92.10.04.2016,Aifat Selatan,Kabupaten,Maybrat,Papua Barat Daya
977,98272,Kisor,92.10.04.2001,Aifat Selatan,Kabupaten,Maybrat,Papua Barat Daya
978,98272,Krus,92.10.04.2013,Aifat Selatan,Kabupaten,Maybrat,Papua Barat Daya
979,98272,Roma,92.10.04.2012,Aifat Selatan,Kabupaten,Maybrat,Papua Barat Daya
980,98272,Sabah,92.10.04.2004,Aifat Selatan,Kabupaten,Maybrat,Papua Barat Daya
981,98272,Same Rakator,92.10.04.2011,Aifat Selatan,Kabupaten,Maybrat,Papua Barat Daya
982,98272,Sorry,92.10.04.2002,Aifat Selatan,Kabupaten,Maybrat,Papua Barat Daya
983,98272,Tahsimara,92.10.04.2005,Aifat Selatan,Kabupaten,Maybrat,Papua Barat Daya
984,98272,Tolak,92.10.04.2017,Aifat Selatan,Kabupaten,Maybrat,Papua Barat Daya
985,98272,Yeek,92.10.04.2015,Aifat Selatan,Kabupaten,Maybrat,Papua Barat Daya
986,98271,Ainod,92.10.01.2021,Aifat,Kabupaten,Maybrat,Papua Barat Daya
987,98271,Aisyo,92.10.01.2010,Aifat,Kabupaten,Maybrat,Papua Barat Daya
988,98271,Bori,92.10.01.2006,Aifat,Kabupaten,Maybrat,Papua Barat Daya
989,98271,Bori Timur,92.10.01.2019,Aifat,Kabupaten,Maybrat,Papua Barat Daya
990,98271,Faitmayaf,92.10.01.2009,Aifat,Kabupaten,Maybrat,Papua Barat Daya
991,98271,Faitmayaf Barat (Faitmayat Barat),92.10.01.2017,Aifat,Kabupaten,Maybrat,Papua Barat Daya
992,98271,Faitsawe,92.10.01.2015,Aifat,Kabupaten,Maybrat,Papua Barat Daya
993,98271,Frawebo,92.10.01.2014,Aifat,Kabupaten,Maybrat,Papua Barat Daya
994,98271,Futon,92.10.01.2011,Aifat,Kabupaten,Maybrat,Papua Barat Daya
995,98271,Kocuas,92.10.01.2004,Aifat,Kabupaten,Maybrat,Papua Barat Daya
996,98271,Kocuas Utara,92.10.01.2022,Aifat,Kabupaten,Maybrat,Papua Barat Daya
997,98271,Kocuwer,92.10.01.2005,Aifat,Kabupaten,Maybrat,Papua Barat Daya
998,98271,Kocuwer Selatan,92.10.01.2016,Aifat,Kabupaten,Maybrat,Papua Barat Daya
999,98271,Kokas,92.10.01.2003,Aifat,Kabupaten,Maybrat,Papua Barat Daya
1000,98271,Kumurkek,92.10.01.2001,Aifat,Kabupaten,Maybrat,Papua Barat Daya
1001,98271,Kumurkek Barat,92.10.01.2020,Aifat,Kabupaten,Maybrat,Papua Barat Daya
1002,98271,Martaim,92.10.01.2013,Aifat,Kabupaten,Maybrat,Papua Barat Daya
1003,98271,Sampika,92.10.01.2012,Aifat,Kabupaten,Maybrat,Papua Barat Daya
1004,98271,Sikof,92.10.01.2018,Aifat,Kabupaten,Maybrat,Papua Barat Daya
1005,98271,Sunei,92.10.01.2023,Aifat,Kabupaten,Maybrat,Papua Barat Daya
1006,98271,Susumuk,92.10.01.2002,Aifat,Kabupaten,Maybrat,Papua Barat Daya
1007,98271,Tehahite (Tahahite),92.10.01.2008,Aifat,Kabupaten,Maybrat,Papua Barat Daya
1008,98271,Werjaya,92.10.01.2007,Aifat,Kabupaten,Maybrat,Papua Barat Daya
1009,98363,Syukwo (Warmandi),92.09.06.2002,Abun,Kabupaten,Tambrauw,Papua Barat Daya
1010,98363,Waibem,92.09.06.2003,Abun,Kabupaten,Tambrauw,Papua Barat Daya
1011,98363,Wau,92.09.06.2001,Abun,Kabupaten,Tambrauw,Papua Barat Daya
1012,98363,Weprari,92.09.06.2006,Abun,Kabupaten,Tambrauw,Papua Barat Daya
1013,98363,Weyaf,92.09.06.2005,Abun,Kabupaten,Tambrauw,Papua Barat Daya