no,postal_code,urban,area_code,sub_district,dt2,city,province
1,28454,Balung,14.01.04.2006,XIII Koto Kampar,Kabupaten,Kampar,Riau
2,28454,Batu Bersurat,14.01.04.1018,XIII Koto Kampar,Kabupaten,Kampar,Riau
3,28454,Binamang,14.01.04.2017,XIII Koto Kampar,Kabupaten,Kampar,Riau
4,28454,Gunung Bungsu,14.01.04.2004,XIII Koto Kampar,Kabupaten,Kampar,Riau
5,28454,Koto Mesjid,14.01.04.2014,XIII Koto Kampar,Kabupaten,Kampar,Riau
6,28454,Koto Tuo,14.01.04.2005,XIII Koto Kampar,Kabupaten,Kampar,Riau
7,28454,Koto Tuo Barat,14.01.04.2019,XIII Koto Kampar,Kabupaten,Kampar,Riau
8,28454,Lubuk Agung,14.01.04.2013,XIII Koto Kampar,Kabupaten,Kampar,Riau
9,28454,Muara Takus,14.01.04.2007,XIII Koto Kampar,Kabupaten,Kampar,Riau
10,28454,Pongkai Istiqomah,14.01.04.2016,XIII Koto Kampar,Kabupaten,Kampar,Riau
11,28454,Pulau Gadang,14.01.04.2010,XIII Koto Kampar,Kabupaten,Kampar,Riau
12,28454,Ranah Sungkai,14.01.04.2012,XIII Koto Kampar,Kabupaten,Kampar,Riau
13,28454,Tanjung Alai,14.01.04.2011,XIII Koto Kampar,Kabupaten,Kampar,Riau
14,28388,Air Emas,14.05.01.2002,Ukui,Kabupaten,Pelalawan,Riau
15,28388,Air Hitam,14.05.01.2001,Ukui,Kabupaten,Pelalawan,Riau
16,28388,Bagan Limau,14.05.01.2012,Ukui,Kabupaten,Pelalawan,Riau
17,28388,Bukit Gajah,14.05.01.2003,Ukui,Kabupaten,Pelalawan,Riau
18,28388,Bukit Jaya,14.05.01.2004,Ukui,Kabupaten,Pelalawan,Riau
19,28388,Kampung Baru,14.05.01.2005,Ukui,Kabupaten,Pelalawan,Riau
20,28388,Lubuk Kembang Bunga,14.05.01.2006,Ukui,Kabupaten,Pelalawan,Riau
21,28388,Lubuk Kembang Sari,14.05.01.2007,Ukui,Kabupaten,Pelalawan,Riau
22,28388,Silikuan Hulu,14.05.01.2008,Ukui,Kabupaten,Pelalawan,Riau
23,28388,Tri Mulya Jaya,14.05.01.2009,Ukui,Kabupaten,Pelalawan,Riau
24,28388,Ukui I (Satu),14.05.01.1010,Ukui,Kabupaten,Pelalawan,Riau
25,28388,Ukui II (Dua),14.05.01.2011,Ukui,Kabupaten,Pelalawan,Riau
26,28553,Ngaso,14.06.01.2003,Ujung Batu,Kabupaten,Rokan Hulu,Riau
27,28553,Pematang Tebih,14.06.01.2005,Ujung Batu,Kabupaten,Rokan Hulu,Riau
28,28553,Suka Damai,14.06.01.2002,Ujung Batu,Kabupaten,Rokan Hulu,Riau
29,28553,Ujung Batu,14.06.01.1001,Ujung Batu,Kabupaten,Rokan Hulu,Riau
30,28553,Ujung Batu Timur,14.06.01.2004,Ujung Batu,Kabupaten,Rokan Hulu,Riau
31,28772,Meredan,14.08.04.2004,Tualang,Kabupaten,Siak,Riau
32,28772,Meredan Barat,14.08.04.2007,Tualang,Kabupaten,Siak,Riau
33,28772,Perawang,14.08.04.1001,Tualang,Kabupaten,Siak,Riau
34,28772,Perawang Barat,14.08.04.2008,Tualang,Kabupaten,Siak,Riau
35,28772,Pinang Sebatang,14.08.04.2003,Tualang,Kabupaten,Siak,Riau
36,28772,Pinang Sebatang Barat,14.08.04.2006,Tualang,Kabupaten,Siak,Riau
37,28772,Pinang Sebatang Timur,14.08.04.2005,Tualang,Kabupaten,Siak,Riau
38,28772,Tualang,14.08.04.2002,Tualang,Kabupaten,Siak,Riau
39,28772,Tualang Timur,14.08.04.2009,Tualang,Kabupaten,Siak,Riau
40,28296,Airputih,14.71.13.1005,Tuahmadani,Kota,Pekanbaru,Riau
41,28299,Sialangmunggu,14.71.13.1002,Tuahmadani,Kota,Pekanbaru,Riau
42,28294,Sidomulyo Barat,14.71.13.1001,Tuahmadani,Kota,Pekanbaru,Riau
43,28291,Tuahkarya (Tuah Karya),14.71.13.1003,Tuahmadani,Kota,Pekanbaru,Riau
44,28298,Tuahmadani,14.71.13.1004,Tuahmadani,Kota,Pekanbaru,Riau
45,28281,Bambukuning,14.71.10.1005,Tenayan Raya,Kota,Pekanbaru,Riau
46,28285,Bencahlesung,14.71.10.1002,Tenayan Raya,Kota,Pekanbaru,Riau
47,28285,Industritenayan,14.71.10.1011,Tenayan Raya,Kota,Pekanbaru,Riau
48,28285,Melebung,14.71.10.1010,Tenayan Raya,Kota,Pekanbaru,Riau
49,28281,Rejosari,14.71.10.1004,Tenayan Raya,Kota,Pekanbaru,Riau
50,28285,Sialangsakti,14.71.10.1012,Tenayan Raya,Kota,Pekanbaru,Riau
51,28289,Tangkerang Timur,14.71.10.1003,Tenayan Raya,Kota,Pekanbaru,Riau
52,28285,Tuahnegeri,14.71.10.1013,Tenayan Raya,Kota,Pekanbaru,Riau
53,29262,Harapan Jaya,14.04.05.2011,Tempuling,Kabupaten,Indragiri Hilir,Riau
54,29262,Karya Tunas Jaya,14.04.05.2009,Tempuling,Kabupaten,Indragiri Hilir,Riau
55,29262,Mumpa,14.04.05.2003,Tempuling,Kabupaten,Indragiri Hilir,Riau
56,29262,Pangkalan Tujuh,14.04.05.1017,Tempuling,Kabupaten,Indragiri Hilir,Riau
57,29262,Sungaisalak (Sungai Salak),14.04.05.1004,Tempuling,Kabupaten,Indragiri Hilir,Riau
58,29262,Tanjungpidada (Tanjung Pidada),14.04.05.1016,Tempuling,Kabupaten,Indragiri Hilir,Riau
59,29262,Telukjira (Teluk Jira),14.04.05.2007,Tempuling,Kabupaten,Indragiri Hilir,Riau
60,29262,Telukkiambang (Teluk Kiambang),14.04.05.2002,Tempuling,Kabupaten,Indragiri Hilir,Riau
61,29262,Tempuling Jaya (Tempuling),14.04.05.1005,Tempuling,Kabupaten,Indragiri Hilir,Riau
62,29213,Pekan Kamis,14.04.13.2002,Tembilahan Hulu,Kabupaten,Indragiri Hilir,Riau
63,29213,Pulaupalas (Pulau Palas),14.04.13.2003,Tembilahan Hulu,Kabupaten,Indragiri Hilir,Riau
64,29213,Sialang Panjang,14.04.13.2004,Tembilahan Hulu,Kabupaten,Indragiri Hilir,Riau
65,29213,Sungaiintan (Sungai Intan),14.04.13.2006,Tembilahan Hulu,Kabupaten,Indragiri Hilir,Riau
66,29213,Tembilahan Barat,14.04.13.1005,Tembilahan Hulu,Kabupaten,Indragiri Hilir,Riau
67,29213,Tembilahan Hulu,14.04.13.1001,Tembilahan Hulu,Kabupaten,Indragiri Hilir,Riau
68,29212,Pekan Arba,14.04.04.1006,Tembilahan,Kabupaten,Indragiri Hilir,Riau
69,29212,Seberang Tembilahan,14.04.04.1003,Tembilahan,Kabupaten,Indragiri Hilir,Riau
70,29212,Seberang Tembilahan Barat,14.04.04.1007,Tembilahan,Kabupaten,Indragiri Hilir,Riau
71,29212,Seberang Tembilahan Selatan,14.04.04.1008,Tembilahan,Kabupaten,Indragiri Hilir,Riau
72,29214,Sungaiberingin (Sungai Beringin),14.04.04.1005,Tembilahan,Kabupaten,Indragiri Hilir,Riau
73,29212,Sungaiperak (Sungai Perak),14.04.04.1004,Tembilahan,Kabupaten,Indragiri Hilir,Riau
74,29211,Tembilahan Hilir,14.04.04.1002,Tembilahan,Kabupaten,Indragiri Hilir,Riau
75,29212,Tembilahan Kota,14.04.04.1001,Tembilahan,Kabupaten,Indragiri Hilir,Riau
76,28354,Gambut Mutiara,14.05.09.2006,Teluk Meranti,Kabupaten,Pelalawan,Riau
77,28354,Kuala Panduk,14.05.09.2002,Teluk Meranti,Kabupaten,Pelalawan,Riau
78,28354,Labuhan Bilik,14.05.09.2007,Teluk Meranti,Kabupaten,Pelalawan,Riau
79,28354,Pangkalan Terap,14.05.09.2008,Teluk Meranti,Kabupaten,Pelalawan,Riau
80,28354,Petodaan,14.05.09.2003,Teluk Meranti,Kabupaten,Pelalawan,Riau
81,28354,Pulau Muda,14.05.09.2005,Teluk Meranti,Kabupaten,Pelalawan,Riau
82,28354,Segamai,14.05.09.2009,Teluk Meranti,Kabupaten,Pelalawan,Riau
83,28354,Teluk Binjai,14.05.09.2004,Teluk Meranti,Kabupaten,Pelalawan,Riau
84,28354,Teluk Meranti,14.05.09.1001,Teluk Meranti,Kabupaten,Pelalawan,Riau
85,29258,Beringin Mulia (Beringin Mulya),14.04.16.2005,Teluk Belengkong,Kabupaten,Indragiri Hilir,Riau
86,29258,Gembaran,14.04.16.2013,Teluk Belengkong,Kabupaten,Indragiri Hilir,Riau
87,29258,Griya Mukti Jaya,14.04.16.2004,Teluk Belengkong,Kabupaten,Indragiri Hilir,Riau
88,29258,Hibrida Jaya,14.04.16.2006,Teluk Belengkong,Kabupaten,Indragiri Hilir,Riau
89,29258,Hibrida Mulia (Hibrida Mulya),14.04.16.2001,Teluk Belengkong,Kabupaten,Indragiri Hilir,Riau
90,29258,Indra Sari Jaya,14.04.16.2002,Teluk Belengkong,Kabupaten,Indragiri Hilir,Riau
91,29258,Kelapa Patih Jaya,14.04.16.2010,Teluk Belengkong,Kabupaten,Indragiri Hilir,Riau
92,29258,Saka Rotan,14.04.16.2012,Teluk Belengkong,Kabupaten,Indragiri Hilir,Riau
93,29258,Sapta Mulia Jaya (Sapta Mulya Jaya),14.04.16.2011,Teluk Belengkong,Kabupaten,Indragiri Hilir,Riau
94,29258,Sumber Jaya,14.04.16.2007,Teluk Belengkong,Kabupaten,Indragiri Hilir,Riau
95,29258,Sumber Makmur Jaya,14.04.16.2008,Teluk Belengkong,Kabupaten,Indragiri Hilir,Riau
96,29258,Sumber Sari Jaya,14.04.16.2009,Teluk Belengkong,Kabupaten,Indragiri Hilir,Riau
97,29258,Tunggal Rahayu Jaya,14.04.16.2003,Teluk Belengkong,Kabupaten,Indragiri Hilir,Riau
98,28754,Batin Suir,14.10.07.2010,Tebing Tinggi Timur,Kabupaten,Kepulauan Meranti,Riau
99,28754,Kepau Baru,14.10.07.2007,Tebing Tinggi Timur,Kabupaten,Kepulauan Meranti,Riau
100,28754,Lukun,14.10.07.2001,Tebing Tinggi Timur,Kabupaten,Kepulauan Meranti,Riau
101,28754,Nipah Sendanu,14.10.07.2003,Tebing Tinggi Timur,Kabupaten,Kepulauan Meranti,Riau
102,28754,Sendanu Darul Ihsan,14.10.07.2009,Tebing Tinggi Timur,Kabupaten,Kepulauan Meranti,Riau
103,28754,Sungai Tohor,14.10.07.2002,Tebing Tinggi Timur,Kabupaten,Kepulauan Meranti,Riau
104,28754,Sungai Tohor Barat,14.10.07.2008,Tebing Tinggi Timur,Kabupaten,Kepulauan Meranti,Riau
105,28754,Tanjung Gadai,14.10.07.2005,Tebing Tinggi Timur,Kabupaten,Kepulauan Meranti,Riau
106,28754,Tanjung Sari,14.10.07.2004,Tebing Tinggi Timur,Kabupaten,Kepulauan Meranti,Riau
107,28754,Teluk Buntal,14.10.07.2006,Tebing Tinggi Timur,Kabupaten,Kepulauan Meranti,Riau
108,28758,Alai,14.10.04.2001,Tebing Tinggi Barat,Kabupaten,Kepulauan Meranti,Riau
109,28758,Alai Selatan,14.10.04.2013,Tebing Tinggi Barat,Kabupaten,Kepulauan Meranti,Riau
110,28758,Batang Malas,14.10.04.2008,Tebing Tinggi Barat,Kabupaten,Kepulauan Meranti,Riau
111,28758,Gogok Darussalam,14.10.04.2010,Tebing Tinggi Barat,Kabupaten,Kepulauan Meranti,Riau
112,28758,Insit,14.10.04.2003,Tebing Tinggi Barat,Kabupaten,Kepulauan Meranti,Riau
113,28758,Kundur,14.10.04.2006,Tebing Tinggi Barat,Kabupaten,Kepulauan Meranti,Riau
114,28758,Maini Darul Aman,14.10.04.2011,Tebing Tinggi Barat,Kabupaten,Kepulauan Meranti,Riau
115,28758,Mantiasa,14.10.04.2009,Tebing Tinggi Barat,Kabupaten,Kepulauan Meranti,Riau
116,28758,Mekong,14.10.04.2007,Tebing Tinggi Barat,Kabupaten,Kepulauan Meranti,Riau
117,28758,Mengkikip,14.10.04.2012,Tebing Tinggi Barat,Kabupaten,Kepulauan Meranti,Riau
118,28758,Tanjung,14.10.04.2004,Tebing Tinggi Barat,Kabupaten,Kepulauan Meranti,Riau
119,28758,Tanjung Darul Takzim,14.10.04.2014,Tebing Tinggi Barat,Kabupaten,Kepulauan Meranti,Riau
120,28758,Tanjung Peranap,14.10.04.2005,Tebing Tinggi Barat,Kabupaten,Kepulauan Meranti,Riau
121,28758,Tenan,14.10.04.2002,Tebing Tinggi Barat,Kabupaten,Kepulauan Meranti,Riau
122,28753,Alah Air,14.10.01.2006,Tebing Tinggi,Kabupaten,Kepulauan Meranti,Riau
123,28753,Alah Air Timur,14.10.01.2007,Tebing Tinggi,Kabupaten,Kepulauan Meranti,Riau
124,28753,Banglas,14.10.01.2005,Tebing Tinggi,Kabupaten,Kepulauan Meranti,Riau
125,28753,Banglas Barat,14.10.01.2016,Tebing Tinggi,Kabupaten,Kepulauan Meranti,Riau
126,28753,Selatpanjang Barat,14.10.01.1002,Tebing Tinggi,Kabupaten,Kepulauan Meranti,Riau
127,28753,Selatpanjang Kota,14.10.01.1001,Tebing Tinggi,Kabupaten,Kepulauan Meranti,Riau
128,28753,Selatpanjang Selatan,14.10.01.1003,Tebing Tinggi,Kabupaten,Kepulauan Meranti,Riau
129,28753,Selatpanjang Timur,14.10.01.1004,Tebing Tinggi,Kabupaten,Kepulauan Meranti,Riau
130,28753,Sesap,14.10.01.2008,Tebing Tinggi,Kabupaten,Kepulauan Meranti,Riau
131,28751,Bandul,14.10.08.2006,Tasik Putri Puyu,Kabupaten,Kepulauan Meranti,Riau
132,28751,Dedap,14.10.08.2004,Tasik Putri Puyu,Kabupaten,Kepulauan Meranti,Riau
133,28751,Kudap,14.10.08.2005,Tasik Putri Puyu,Kabupaten,Kepulauan Meranti,Riau
134,28751,Mekar Delima,14.10.08.2003,Tasik Putri Puyu,Kabupaten,Kepulauan Meranti,Riau
135,28751,Mengkirau,14.10.08.2010,Tasik Putri Puyu,Kabupaten,Kepulauan Meranti,Riau
136,28751,Mengkopot,14.10.08.2009,Tasik Putri Puyu,Kabupaten,Kepulauan Meranti,Riau
137,28751,Putri Puyu,14.10.08.2002,Tasik Putri Puyu,Kabupaten,Kepulauan Meranti,Riau
138,28751,Selat Akar,14.10.08.2007,Tasik Putri Puyu,Kabupaten,Kepulauan Meranti,Riau
139,28751,Tanjung Padang,14.10.08.2001,Tasik Putri Puyu,Kabupaten,Kepulauan Meranti,Riau
140,28751,Tanjung Pisang,14.10.08.2008,Tasik Putri Puyu,Kabupaten,Kepulauan Meranti,Riau
141,28466,Bukit Kemuning,14.01.12.2003,Tapung Hulu,Kabupaten,Kampar,Riau
142,28466,Danau Lancang,14.01.12.2004,Tapung Hulu,Kabupaten,Kampar,Riau
143,28466,Intan Jaya,14.01.12.2006,Tapung Hulu,Kabupaten,Kampar,Riau
144,28466,Kasikan,14.01.12.2002,Tapung Hulu,Kabupaten,Kampar,Riau
145,28466,Kusau Makmur,14.01.12.2013,Tapung Hulu,Kabupaten,Kampar,Riau
146,28466,Muara Intan,14.01.12.2005,Tapung Hulu,Kabupaten,Kampar,Riau
147,28466,Rimba Beringin,14.01.12.2010,Tapung Hulu,Kabupaten,Kampar,Riau
148,28466,Rimba Jaya,14.01.12.2008,Tapung Hulu,Kabupaten,Kampar,Riau
149,28466,Rimba Makmur,14.01.12.2009,Tapung Hulu,Kabupaten,Kampar,Riau
150,28466,Senama Nenek (Sinama Nenek),14.01.12.2001,Tapung Hulu,Kabupaten,Kampar,Riau
151,28466,Sukaramai,14.01.12.2011,Tapung Hulu,Kabupaten,Kampar,Riau
152,28466,Sumber Sari,14.01.12.2012,Tapung Hulu,Kabupaten,Kampar,Riau
153,28466,Talang Danto,14.01.12.2014,Tapung Hulu,Kabupaten,Kampar,Riau
154,28466,Tanah Datar,14.01.12.2007,Tapung Hulu,Kabupaten,Kampar,Riau
155,28465,Beringin Lestari,14.01.11.2003,Tapung Hilir,Kabupaten,Kampar,Riau
156,28465,Cinta Damai,14.01.11.2005,Tapung Hilir,Kabupaten,Kampar,Riau
157,28465,Gerbang Sari,14.01.11.2014,Tapung Hilir,Kabupaten,Kampar,Riau
158,28465,Kijang Jaya,14.01.11.2015,Tapung Hilir,Kabupaten,Kampar,Riau
159,28465,Kijang Makmur,14.01.11.2016,Tapung Hilir,Kabupaten,Kampar,Riau
160,28465,Kota Baru,14.01.11.2007,Tapung Hilir,Kabupaten,Kampar,Riau
161,28465,Kota/Koto Bangun,14.01.11.2004,Tapung Hilir,Kabupaten,Kampar,Riau
162,28465,Koto Aman,14.01.11.2010,Tapung Hilir,Kabupaten,Kampar,Riau
163,28465,Koto Garo (Kota Garo),14.01.11.2001,Tapung Hilir,Kabupaten,Kampar,Riau
164,28465,Sikijang/Sekijang,14.01.11.2002,Tapung Hilir,Kabupaten,Kampar,Riau
165,28465,Suka Maju,14.01.11.2006,Tapung Hilir,Kabupaten,Kampar,Riau
166,28465,Tanah Tinggi,14.01.11.2009,Tapung Hilir,Kabupaten,Kampar,Riau
167,28465,Tandan Sari,14.01.11.2013,Tapung Hilir,Kabupaten,Kampar,Riau
168,28465,Tapung Lestari,14.01.11.2011,Tapung Hilir,Kabupaten,Kampar,Riau
169,28465,Tapung Makmur,14.01.11.2012,Tapung Hilir,Kabupaten,Kampar,Riau
170,28465,Tebing Lestari,14.01.11.2008,Tapung Hilir,Kabupaten,Kampar,Riau
171,28464,Air Terbit,14.01.10.2012,Tapung,Kabupaten,Kampar,Riau
172,28464,Batugajah (Batu Gajah),14.01.10.2025,Tapung,Kabupaten,Kampar,Riau
173,28464,Bencah Kelubi,14.01.10.2024,Tapung,Kabupaten,Kampar,Riau
174,28464,Gading Sari,14.01.10.2007,Tapung,Kabupaten,Kampar,Riau
175,28464,Indra Sakti,14.01.10.2006,Tapung,Kabupaten,Kampar,Riau
176,28464,Indrapuri,14.01.10.2018,Tapung,Kabupaten,Kampar,Riau
177,28464,Karya Indah,14.01.10.2021,Tapung,Kabupaten,Kampar,Riau
178,28464,Kijang Rejo,14.01.10.2022,Tapung,Kabupaten,Kampar,Riau
179,28464,Kinantan/Kenantan,14.01.10.2017,Tapung,Kabupaten,Kampar,Riau
180,28464,Muara Mahat Baru,14.01.10.2020,Tapung,Kabupaten,Kampar,Riau
181,28464,Mukti Sari,14.01.10.2004,Tapung,Kabupaten,Kampar,Riau
182,28464,Pagaruyung,14.01.10.2014,Tapung,Kabupaten,Kampar,Riau
183,28464,Pancuran Gading,14.01.10.2009,Tapung,Kabupaten,Kampar,Riau
184,28464,Pantai Cermin,14.01.10.2002,Tapung,Kabupaten,Kampar,Riau
185,28464,Patahapan Jaya (Petapahan Jaya),14.01.10.2003,Tapung,Kabupaten,Kampar,Riau
186,28464,Pelambayan (Pelambaian),14.01.10.2016,Tapung,Kabupaten,Kampar,Riau
187,28464,Petapahan,14.01.10.2001,Tapung,Kabupaten,Kampar,Riau
188,28464,Sari Galuh,14.01.10.2010,Tapung,Kabupaten,Kampar,Riau
189,28464,Sei/Sungai Agung,14.01.10.2023,Tapung,Kabupaten,Kampar,Riau
190,28464,Sei/Sungai Lembu Makmur,14.01.10.2019,Tapung,Kabupaten,Kampar,Riau
191,28464,Sei/Sungai Putih,14.01.10.2005,Tapung,Kabupaten,Kampar,Riau
192,28464,Sibuak,14.01.10.2015,Tapung,Kabupaten,Kampar,Riau
193,28464,Sumber Makmur,14.01.10.2008,Tapung,Kabupaten,Kampar,Riau
194,28464,Tanjung Sawit,14.01.10.2013,Tapung,Kabupaten,Kampar,Riau
195,28464,Tri Manunggal,14.01.10.2011,Tapung,Kabupaten,Kampar,Riau
196,28983,Akar Belingkar,14.07.16.2006,Tanjung Medan,Kabupaten,Rokan Hilir,Riau
197,28983,Perkebunan Tanjung Medan,14.07.16.2008,Tanjung Medan,Kabupaten,Rokan Hilir,Riau
198,28983,Pondok Kresek,14.07.16.2010,Tanjung Medan,Kabupaten,Rokan Hilir,Riau
199,28983,Sei Meranti,14.07.16.2004,Tanjung Medan,Kabupaten,Rokan Hilir,Riau
200,28983,Sei Meranti Darussalam,14.07.16.2005,Tanjung Medan,Kabupaten,Rokan Hilir,Riau
201,28983,Sri Kayangan,14.07.16.2009,Tanjung Medan,Kabupaten,Rokan Hilir,Riau
202,28983,Sungai Tapah,14.07.16.2011,Tanjung Medan,Kabupaten,Rokan Hilir,Riau
203,28983,Tangga Batu,14.07.16.2007,Tanjung Medan,Kabupaten,Rokan Hilir,Riau
204,28983,Tanjung Medan,14.07.16.2001,Tanjung Medan,Kabupaten,Rokan Hilir,Riau
205,28983,Tanjung Medan Barat,14.07.16.2003,Tanjung Medan,Kabupaten,Rokan Hilir,Riau
206,28983,Tanjung Medan Utara,14.07.16.2002,Tanjung Medan,Kabupaten,Rokan Hilir,Riau
207,28983,Tanjung Sari,14.07.16.2012,Tanjung Medan,Kabupaten,Rokan Hilir,Riau
208,28552,Bona Tapung (Bono Tapung),14.06.11.2003,Tandun,Kabupaten,Rokan Hulu,Riau
209,28552,Dayo,14.06.11.2004,Tandun,Kabupaten,Rokan Hulu,Riau
210,28552,Koto Tandun,14.06.11.2008,Tandun,Kabupaten,Rokan Hulu,Riau
211,28552,Kumain,14.06.11.2002,Tandun,Kabupaten,Rokan Hulu,Riau
212,28552,Puo Raya,14.06.11.2006,Tandun,Kabupaten,Rokan Hulu,Riau
213,28552,Sei/Sungai Kuning,14.06.11.2007,Tandun,Kabupaten,Rokan Hulu,Riau
214,28552,Tandun,14.06.11.2001,Tandun,Kabupaten,Rokan Hulu,Riau
215,28552,Tandun Barat,14.06.11.2009,Tandun,Kabupaten,Rokan Hulu,Riau
216,28552,Tapung Jaya,14.06.11.2005,Tandun,Kabupaten,Rokan Hulu,Riau
217,28986,Batu Hampar,14.07.09.2003,Tanah Putih Tanjung Melawan,Kabupaten,Rokan Hilir,Riau
218,28986,Labuhan papan,14.07.09.2006,Tanah Putih Tanjung Melawan,Kabupaten,Rokan Hilir,Riau
219,28986,Melayu Besar,14.07.09.2001,Tanah Putih Tanjung Melawan,Kabupaten,Rokan Hilir,Riau
220,28986,Melayu Besar Kota,14.07.09.1005,Tanah Putih Tanjung Melawan,Kabupaten,Rokan Hilir,Riau
221,28986,Melayu Tengah,14.07.09.2002,Tanah Putih Tanjung Melawan,Kabupaten,Rokan Hilir,Riau
222,28986,Mesah,14.07.09.2004,Tanah Putih Tanjung Melawan,Kabupaten,Rokan Hilir,Riau
223,28985,Banjar XII,14.07.03.1010,Tanah Putih,Kabupaten,Rokan Hilir,Riau
224,28985,Cempedak Rahuk,14.07.03.1019,Tanah Putih,Kabupaten,Rokan Hilir,Riau
225,28985,Menggala Sakti,14.07.03.2013,Tanah Putih,Kabupaten,Rokan Hilir,Riau
226,28985,Menggala Sempurna,14.07.03.2015,Tanah Putih,Kabupaten,Rokan Hilir,Riau
227,28985,Mumugo,14.07.03.2011,Tanah Putih,Kabupaten,Rokan Hilir,Riau
228,28985,Putat,14.07.03.2008,Tanah Putih,Kabupaten,Rokan Hilir,Riau
229,28985,Rantau Bais,14.07.03.2002,Tanah Putih,Kabupaten,Rokan Hilir,Riau
230,28985,Sedinginan,14.07.03.1007,Tanah Putih,Kabupaten,Rokan Hilir,Riau
231,28985,Sekeladi,14.07.03.2005,Tanah Putih,Kabupaten,Rokan Hilir,Riau
232,28985,Sekeladi Hilir,14.07.03.2014,Tanah Putih,Kabupaten,Rokan Hilir,Riau
233,28985,Sintong,14.07.03.2009,Tanah Putih,Kabupaten,Rokan Hilir,Riau
234,28985,Sintong Bakti,14.07.03.2017,Tanah Putih,Kabupaten,Rokan Hilir,Riau
235,28985,Sintong Makmur,14.07.03.2018,Tanah Putih,Kabupaten,Rokan Hilir,Riau
236,28985,Sintong Pusaka,14.07.03.2016,Tanah Putih,Kabupaten,Rokan Hilir,Riau
237,28985,Teluk Berembun,14.07.03.2012,Tanah Putih,Kabupaten,Rokan Hilir,Riau
238,28985,Teluk Mega,14.07.03.2006,Tanah Putih,Kabupaten,Rokan Hilir,Riau
239,28985,Ujung Tanjung,14.07.03.2001,Tanah Putih,Kabupaten,Rokan Hilir,Riau
240,29271,Kuala Enok,14.04.10.1001,Tanah Merah,Kabupaten,Indragiri Hilir,Riau
241,29271,Selatnama (Selat Nama),14.04.10.2002,Tanah Merah,Kabupaten,Indragiri Hilir,Riau
242,29271,Sungailaut (Sungai Laut),14.04.10.2010,Tanah Merah,Kabupaten,Indragiri Hilir,Riau
243,29271,Sungainyiur (Sungai Nyiur),14.04.10.2003,Tanah Merah,Kabupaten,Indragiri Hilir,Riau
244,29271,Tanah Merah,14.04.10.2009,Tanah Merah,Kabupaten,Indragiri Hilir,Riau
245,29271,Tanjungbaru (Tanjung Baru),14.04.10.2004,Tanah Merah,Kabupaten,Indragiri Hilir,Riau
246,29271,Tanjungpasir (Tanjung Pasir),14.04.10.2008,Tanah Merah,Kabupaten,Indragiri Hilir,Riau
247,29271,Tekulai Bugis,14.04.10.2007,Tanah Merah,Kabupaten,Indragiri Hilir,Riau
248,29271,Tekulai Hilir,14.04.10.2005,Tanah Merah,Kabupaten,Indragiri Hilir,Riau
249,29271,Tekulai Hulu,14.04.10.2006,Tanah Merah,Kabupaten,Indragiri Hilir,Riau
250,28562,Bangun Jaya,14.06.09.2003,Tambusai Utara,Kabupaten,Rokan Hulu,Riau
251,28562,Mahato,14.06.09.2002,Tambusai Utara,Kabupaten,Rokan Hulu,Riau
252,28562,Mahato Sakti,14.06.09.2011,Tambusai Utara,Kabupaten,Rokan Hulu,Riau
253,28562,Mekar Jaya,14.06.09.2007,Tambusai Utara,Kabupaten,Rokan Hulu,Riau
254,28562,Pagar Mayang,14.06.09.2005,Tambusai Utara,Kabupaten,Rokan Hulu,Riau
255,28562,Payung Sekaki,14.06.09.2006,Tambusai Utara,Kabupaten,Rokan Hulu,Riau
256,28562,Rantau Sakti,14.06.09.2010,Tambusai Utara,Kabupaten,Rokan Hulu,Riau
257,28562,Simpang Harapan,14.06.09.2004,Tambusai Utara,Kabupaten,Rokan Hulu,Riau
258,28562,Suka Damai,14.06.09.2009,Tambusai Utara,Kabupaten,Rokan Hulu,Riau
259,28562,Tambusai Utara,14.06.09.2001,Tambusai Utara,Kabupaten,Rokan Hulu,Riau
260,28562,Tanjung Medan,14.06.09.2008,Tambusai Utara,Kabupaten,Rokan Hulu,Riau
261,28558,Batang Kumu,14.06.04.2008,Tambusai,Kabupaten,Rokan Hulu,Riau
262,28558,Batas,14.06.04.2004,Tambusai,Kabupaten,Rokan Hulu,Riau
263,28558,Lubuk Soting,14.06.04.2011,Tambusai,Kabupaten,Rokan Hulu,Riau
264,28558,Rantau Panjang,14.06.04.2006,Tambusai,Kabupaten,Rokan Hulu,Riau
265,28558,Sialang Rindang,14.06.04.2009,Tambusai,Kabupaten,Rokan Hulu,Riau
266,28558,Suka Maju,14.06.04.2010,Tambusai,Kabupaten,Rokan Hulu,Riau
267,28558,Sungai Komango (Sungai Kumango),14.06.04.2007,Tambusai,Kabupaten,Rokan Hulu,Riau
268,28558,Talikumain (Tali Kumain),14.06.04.2005,Tambusai,Kabupaten,Rokan Hulu,Riau
269,28558,Tambusai Barat,14.06.04.2002,Tambusai,Kabupaten,Rokan Hulu,Riau
270,28558,Tambusai Tengah,14.06.04.1001,Tambusai,Kabupaten,Rokan Hulu,Riau
271,28558,Tambusai Timur,14.06.04.2003,Tambusai,Kabupaten,Rokan Hulu,Riau
272,28558,Tingkok,14.06.04.2012,Tambusai,Kabupaten,Rokan Hulu,Riau
273,28468,Aursati,14.01.03.2005,Tambang,Kabupaten,Kampar,Riau
274,28468,Balam Jaya,14.01.03.2015,Tambang,Kabupaten,Kampar,Riau
275,28468,Gobah,14.01.03.2003,Tambang,Kabupaten,Kampar,Riau
276,28468,Kemang Indah,14.01.03.2011,Tambang,Kabupaten,Kampar,Riau
277,28468,Kualu,14.01.03.2008,Tambang,Kabupaten,Kampar,Riau
278,28468,Kualu Nenas,14.01.03.2012,Tambang,Kabupaten,Kampar,Riau
279,28468,Kuapan,14.01.03.2002,Tambang,Kabupaten,Kampar,Riau
280,28468,Padang Luas,14.01.03.2006,Tambang,Kabupaten,Kampar,Riau
281,28468,Palungraya (Palung Raya),14.01.03.2017,Tambang,Kabupaten,Kampar,Riau
282,28468,Parit Baru,14.01.03.2010,Tambang,Kabupaten,Kampar,Riau
283,28468,Pulaupermai (Pulau Permai),14.01.03.2016,Tambang,Kabupaten,Kampar,Riau
284,28468,Rimba/Rimbo Panjang,14.01.03.2009,Tambang,Kabupaten,Kampar,Riau
285,28468,Sei/Sungai Pinang,14.01.03.2014,Tambang,Kabupaten,Kampar,Riau
286,28468,Tambang,14.01.03.2001,Tambang,Kabupaten,Kampar,Riau
287,28468,Tarai Bangun,14.01.03.2013,Tambang,Kabupaten,Kampar,Riau
288,28468,Teluk Kenidai,14.01.03.2004,Tambang,Kabupaten,Kampar,Riau
289,28468,Terantang,14.01.03.2007,Tambang,Kabupaten,Kampar,Riau
290,28786,Beringin,14.03.15.2004,Talang Muandau,Kabupaten,Bengkalis,Riau
291,28786,Kotopaitberingin (Koto Pait Beringin),14.03.15.2005,Talang Muandau,Kabupaten,Bengkalis,Riau
292,28786,Kualapenaso (Kuala Penaso),14.03.15.2003,Talang Muandau,Kabupaten,Bengkalis,Riau
293,28786,Melibur,14.03.15.2006,Talang Muandau,Kabupaten,Bengkalis,Riau
294,28786,Seraiwangi (Serai Wangi),14.03.15.2009,Talang Muandau,Kabupaten,Bengkalis,Riau
295,28786,Tasikserai (Tasik Serai),14.03.15.2001,Talang Muandau,Kabupaten,Bengkalis,Riau
296,28786,Tasikserai Barat (Tasik Serai Barat),14.03.15.2002,Talang Muandau,Kabupaten,Bengkalis,Riau
297,28786,Tasikserai Timur (Tasik Serai Timur),14.03.15.2007,Talang Muandau,Kabupaten,Bengkalis,Riau
298,28786,Tasiktebingserai (Tasik Tebing Serai),14.03.15.2008,Talang Muandau,Kabupaten,Bengkalis,Riau
299,28826,Bangsal Aceh,14.72.04.1003,Sungai Sembilan,Kota,Dumai,Riau
300,28826,Basilam Baru,14.72.04.1004,Sungai Sembilan,Kota,Dumai,Riau
301,28826,Batu Teritip,14.72.04.1005,Sungai Sembilan,Kota,Dumai,Riau
302,28826,Lubuk Gaung,14.72.04.1001,Sungai Sembilan,Kota,Dumai,Riau
303,28826,Sungai Geniot,14.72.04.1006,Sungai Sembilan,Kota,Dumai,Riau
304,28826,Tanjung Penyebal (Tanjung Penyembal),14.72.04.1002,Sungai Sembilan,Kota,Dumai,Riau
305,28674,Bencah Umbai,14.08.05.2008,Sungai Mandau,Kabupaten,Siak,Riau
306,28674,Lubuk Jering,14.08.05.2005,Sungai Mandau,Kabupaten,Siak,Riau
307,28674,Lubuk Umbut,14.08.05.2007,Sungai Mandau,Kabupaten,Siak,Riau
308,28674,Muara Bungkal,14.08.05.2006,Sungai Mandau,Kabupaten,Siak,Riau
309,28674,Muara Kelantan,14.08.05.2001,Sungai Mandau,Kabupaten,Siak,Riau
310,28674,Olak,14.08.05.2004,Sungai Mandau,Kabupaten,Siak,Riau
311,28674,Sungai Selodang (Sungai Lodang),14.08.05.2003,Sungai Mandau,Kabupaten,Siak,Riau
312,28674,Tasik Betung,14.08.05.2009,Sungai Mandau,Kabupaten,Siak,Riau
313,28674,Teluk Lancang,14.08.05.2002,Sungai Mandau,Kabupaten,Siak,Riau
314,29363,Kelawat,14.02.11.2008,Sungai Lala,Kabupaten,Indragiri Hulu,Riau
315,29363,Kuala Lala,14.02.11.2006,Sungai Lala,Kabupaten,Indragiri Hulu,Riau
316,29363,Morong,14.02.11.2001,Sungai Lala,Kabupaten,Indragiri Hulu,Riau
317,29363,Pasir Batu Mandi,14.02.11.2004,Sungai Lala,Kabupaten,Indragiri Hulu,Riau
318,29363,Pasir Bongkal,14.02.11.2002,Sungai Lala,Kabupaten,Indragiri Hulu,Riau
319,29363,Pasir Kelampaian,14.02.11.2005,Sungai Lala,Kabupaten,Indragiri Hulu,Riau
320,29363,Pasir Selabu (Pasir Selabau),14.02.11.2003,Sungai Lala,Kabupaten,Indragiri Hulu,Riau
321,29363,Perkebunan Sei/Sungai Lala,14.02.11.2010,Sungai Lala,Kabupaten,Indragiri Hulu,Riau
322,29363,Perkebunan Sei/Sungai Parit,14.02.11.2009,Sungai Lala,Kabupaten,Indragiri Hulu,Riau
323,29363,Sungai Air Putih,14.02.11.2012,Sungai Lala,Kabupaten,Indragiri Hulu,Riau
324,29363,Sungai Lala,14.02.11.2007,Sungai Lala,Kabupaten,Indragiri Hulu,Riau
325,29363,Tanjung Danau,14.02.11.2011,Sungai Lala,Kabupaten,Indragiri Hulu,Riau
326,29270,Benteng,14.04.20.1001,Sungai Batang,Kabupaten,Indragiri Hilir,Riau
327,29270,Benteng Barat,14.04.20.2006,Sungai Batang,Kabupaten,Indragiri Hilir,Riau
328,29270,Benteng Utara,14.04.20.2002,Sungai Batang,Kabupaten,Indragiri Hilir,Riau
329,29270,Kuala Patah Parang,14.04.20.2005,Sungai Batang,Kabupaten,Indragiri Hilir,Riau
330,29270,Kuala Sungai Batang,14.04.20.2004,Sungai Batang,Kabupaten,Indragiri Hilir,Riau
331,29270,Mugo Mulyo,14.04.20.2008,Sungai Batang,Kabupaten,Indragiri Hilir,Riau
332,29270,Pandan Sari,14.04.20.2007,Sungai Batang,Kabupaten,Indragiri Hilir,Riau
333,29270,Pasenggerahan (Pesanggerahan / Pasenggarahan),14.04.20.2003,Sungai Batang,Kabupaten,Indragiri Hilir,Riau
334,28662,Bungsur (Bunsur),14.08.02.2016,Sungai Apit,Kabupaten,Siak,Riau
335,28662,Harapan,14.08.02.2017,Sungai Apit,Kabupaten,Siak,Riau
336,28662,Kayu Ara Permai,14.08.02.2019,Sungai Apit,Kabupaten,Siak,Riau
337,28662,Lalang,14.08.02.2009,Sungai Apit,Kabupaten,Siak,Riau
338,28662,Mengkapan,14.08.02.2010,Sungai Apit,Kabupaten,Siak,Riau
339,28662,Parit I/II,14.08.02.2004,Sungai Apit,Kabupaten,Siak,Riau
340,28662,Penyengat,14.08.02.2012,Sungai Apit,Kabupaten,Siak,Riau
341,28662,Rawa Mekar Jaya,14.08.02.2020,Sungai Apit,Kabupaten,Siak,Riau
342,28662,Sungai Apit,14.08.02.1001,Sungai Apit,Kabupaten,Siak,Riau
343,28662,Sungai Kayu Ara,14.08.02.2008,Sungai Apit,Kabupaten,Siak,Riau
344,28662,Sungai Rawa,14.08.02.2011,Sungai Apit,Kabupaten,Siak,Riau
345,28662,Tanjung Kuras,14.08.02.2003,Sungai Apit,Kabupaten,Siak,Riau
346,28662,Teluk Batil,14.08.02.2014,Sungai Apit,Kabupaten,Siak,Riau
347,28662,Teluk Lanus,14.08.02.2002,Sungai Apit,Kabupaten,Siak,Riau
348,28662,Teluk Mesjid,14.08.02.2005,Sungai Apit,Kabupaten,Siak,Riau
349,28122,Harjosari,14.71.01.1006,Sukajadi,Kota,Pekanbaru,Riau
350,28126,Jadirejo,14.71.01.1002,Sukajadi,Kota,Pekanbaru,Riau
351,28124,Kampung Melayu,14.71.01.1004,Sukajadi,Kota,Pekanbaru,Riau
352,28128,Kampung Tengah,14.71.01.1003,Sukajadi,Kota,Pekanbaru,Riau
353,28123,Kedung Sari (Kedungsari),14.71.01.1005,Sukajadi,Kota,Pekanbaru,Riau
354,28127,Pulau Karomah,14.71.01.1008,Sukajadi,Kota,Pekanbaru,Riau
355,28121,Sukajadi,14.71.01.1007,Sukajadi,Kota,Pekanbaru,Riau
356,29560,Beringin Jaya,14.09.08.2011,Singingi Hilir,Kabupaten,Kuantan Singingi,Riau
357,29560,Bukitraya (Bukit Raya),14.09.08.2010,Singingi Hilir,Kabupaten,Kuantan Singingi,Riau
358,29560,Koto Baru,14.09.08.2001,Singingi Hilir,Kabupaten,Kuantan Singingi,Riau
359,29560,Muara Bahan,14.09.08.2009,Singingi Hilir,Kabupaten,Kuantan Singingi,Riau
360,29560,Petai,14.09.08.2002,Singingi Hilir,Kabupaten,Kuantan Singingi,Riau
361,29560,Simpang Raya,14.09.08.2005,Singingi Hilir,Kabupaten,Kuantan Singingi,Riau
362,29560,Suka Damai,14.09.08.2007,Singingi Hilir,Kabupaten,Kuantan Singingi,Riau
363,29560,Suka Maju (Sukamaju),14.09.08.2012,Singingi Hilir,Kabupaten,Kuantan Singingi,Riau
364,29560,Sumber Jaya,14.09.08.2008,Singingi Hilir,Kabupaten,Kuantan Singingi,Riau
365,29560,Sungaibuluh (Sungai Buluh),14.09.08.2006,Singingi Hilir,Kabupaten,Kuantan Singingi,Riau
366,29560,Sungaipaku (Sungai Paku),14.09.08.2003,Singingi Hilir,Kabupaten,Kuantan Singingi,Riau
367,29560,Tanjungpauh (Tanjung Pauh),14.09.08.2004,Singingi Hilir,Kabupaten,Kuantan Singingi,Riau
368,29563,Air Mas/Emas,14.09.03.2009,Singingi,Kabupaten,Kuantan Singingi,Riau
369,29563,Kebun Lado,14.09.03.2005,Singingi,Kabupaten,Kuantan Singingi,Riau
370,29563,Logas,14.09.03.2004,Singingi,Kabupaten,Kuantan Singingi,Riau
371,29563,Logas Hilir,14.09.03.2014,Singingi,Kabupaten,Kuantan Singingi,Riau
372,29563,Muara Lembu,14.09.03.1003,Singingi,Kabupaten,Kuantan Singingi,Riau
373,29563,Pangkalan Indarung,14.09.03.2001,Singingi,Kabupaten,Kuantan Singingi,Riau
374,29563,Pasir Emas,14.09.03.2010,Singingi,Kabupaten,Kuantan Singingi,Riau
375,29563,Petai Baru,14.09.03.2011,Singingi,Kabupaten,Kuantan Singingi,Riau
376,29563,Pulaupadang (Pulau Padang),14.09.03.2002,Singingi,Kabupaten,Kuantan Singingi,Riau
377,29563,Sumber Datar,14.09.03.2013,Singingi,Kabupaten,Kuantan Singingi,Riau
378,29563,Sungaibawang (Sungai Bawang),14.09.03.2008,Singingi,Kabupaten,Kuantan Singingi,Riau
379,29563,Sungaikeranji (Sungai Keranji),14.09.03.2012,Singingi,Kabupaten,Kuantan Singingi,Riau
380,29563,Sungaikuning (Sungai Kuning),14.09.03.2006,Singingi,Kabupaten,Kuantan Singingi,Riau
381,29563,Sungaisirih (Sungai Sirih),14.09.03.2007,Singingi,Kabupaten,Kuantan Singingi,Riau
382,28914,Darussalam,14.07.07.2006,Sinaboi (Senaboi),Kabupaten,Rokan Hilir,Riau
383,28914,Raja Bejamu,14.07.07.2003,Sinaboi (Senaboi),Kabupaten,Rokan Hilir,Riau
384,28914,Sei/Sungai Bakau,14.07.07.2002,Sinaboi (Senaboi),Kabupaten,Rokan Hilir,Riau
385,28914,Senaboi/Sinaboi,14.07.07.2001,Sinaboi (Senaboi),Kabupaten,Rokan Hilir,Riau
386,28914,Sinaboi Kota,14.07.07.1005,Sinaboi (Senaboi),Kabupaten,Rokan Hilir,Riau
387,28914,Sungai Nyamuk,14.07.07.2004,Sinaboi (Senaboi),Kabupaten,Rokan Hilir,Riau
388,28994,Bagan Nibung,14.07.11.2003,Simpang Kanan,Kabupaten,Rokan Hilir,Riau
389,28994,Bukit Damar,14.07.11.2004,Simpang Kanan,Kabupaten,Rokan Hilir,Riau
390,28994,Bukit Mas,14.07.11.2005,Simpang Kanan,Kabupaten,Rokan Hilir,Riau
391,28994,Bukit Selamat (Tanjung Selamat),14.07.11.2006,Simpang Kanan,Kabupaten,Rokan Hilir,Riau
392,28994,Kota Paret/Parit,14.07.11.2002,Simpang Kanan,Kabupaten,Rokan Hilir,Riau
393,28994,Simpang Kanan,14.07.11.1001,Simpang Kanan,Kabupaten,Rokan Hilir,Riau
394,29371,Bandar Padang,14.02.06.2011,Siberida (Seberida),Kabupaten,Indragiri Hulu,Riau
395,29371,Beligan,14.02.06.2003,Siberida (Seberida),Kabupaten,Indragiri Hulu,Riau
396,29371,Bukit Meranti,14.02.06.2006,Siberida (Seberida),Kabupaten,Indragiri Hulu,Riau
397,29371,Buluh Rampai,14.02.06.2007,Siberida (Seberida),Kabupaten,Indragiri Hulu,Riau
398,29371,Kelesa,14.02.06.2002,Siberida (Seberida),Kabupaten,Indragiri Hulu,Riau
399,29371,Pangkalan Kasai,14.02.06.1001,Siberida (Seberida),Kabupaten,Indragiri Hulu,Riau
400,29371,Paya Rumbai (Payarumbai),14.02.06.2005,Siberida (Seberida),Kabupaten,Indragiri Hulu,Riau
401,29371,Petala Bumi,14.02.06.2009,Siberida (Seberida),Kabupaten,Indragiri Hulu,Riau
402,29371,Seresam (Serasam),14.02.06.2004,Siberida (Seberida),Kabupaten,Indragiri Hulu,Riau
403,29371,Sibabat,14.02.06.2010,Siberida (Seberida),Kabupaten,Indragiri Hulu,Riau
404,29371,Titian Resak,14.02.06.2008,Siberida (Seberida),Kabupaten,Indragiri Hulu,Riau
405,28771,Bandar Jaya,14.03.12.2009,Siak Kecil,Kabupaten,Bengkalis,Riau
406,28771,Koto Raja,14.03.12.2016,Siak Kecil,Kabupaten,Bengkalis,Riau
407,28771,Langkat,14.03.12.2006,Siak Kecil,Kabupaten,Bengkalis,Riau
408,28771,Liang Banir,14.03.12.2014,Siak Kecil,Kabupaten,Bengkalis,Riau
409,28771,Lubuk Garam,14.03.12.2013,Siak Kecil,Kabupaten,Bengkalis,Riau
410,28771,Lubuk Gaung,14.03.12.2005,Siak Kecil,Kabupaten,Bengkalis,Riau
411,28771,Lubuk Muda,14.03.12.2001,Siak Kecil,Kabupaten,Bengkalis,Riau
412,28771,Muara Dua,14.03.12.2010,Siak Kecil,Kabupaten,Bengkalis,Riau
413,28771,Sadar Jaya,14.03.12.2007,Siak Kecil,Kabupaten,Bengkalis,Riau
414,28771,Sepotong,14.03.12.2004,Siak Kecil,Kabupaten,Bengkalis,Riau
415,28771,Sumber Jaya,14.03.12.2012,Siak Kecil,Kabupaten,Bengkalis,Riau
416,28771,Sungai Linau,14.03.12.2008,Siak Kecil,Kabupaten,Bengkalis,Riau
417,28771,Sungainibung (Sungai Nibung),14.03.12.2017,Siak Kecil,Kabupaten,Bengkalis,Riau
418,28771,Sungaisiput (Sungai Siput),14.03.12.2003,Siak Kecil,Kabupaten,Bengkalis,Riau
419,28771,Tanjungbelit (Tanjung Belit),14.03.12.2002,Siak Kecil,Kabupaten,Bengkalis,Riau
420,28771,Tanjungdamai (Tanjung Damai),14.03.12.2011,Siak Kecil,Kabupaten,Bengkalis,Riau
421,28771,Tanjungdatuk (Tanjung Datuk),14.03.12.2015,Siak Kecil,Kabupaten,Bengkalis,Riau
422,28452,Buluh Cina,14.01.06.2006,Siak Hulu,Kabupaten,Kampar,Riau
423,28452,Buluh Nipis,14.01.06.2007,Siak Hulu,Kabupaten,Kampar,Riau
424,28452,Desa Baru,14.01.06.2002,Siak Hulu,Kabupaten,Kampar,Riau
425,28452,Kepau Jaya,14.01.06.2014,Siak Hulu,Kabupaten,Kampar,Riau
426,28452,Kubang Jaya,14.01.06.2016,Siak Hulu,Kabupaten,Kampar,Riau
427,28452,Lubuk Siam,14.01.06.2005,Siak Hulu,Kabupaten,Kampar,Riau
428,28452,Pandau Jaya,14.01.06.2012,Siak Hulu,Kabupaten,Kampar,Riau
429,28452,Pangkalan Baru,14.01.06.2001,Siak Hulu,Kabupaten,Kampar,Riau
430,28452,Pangkalan Serik,14.01.06.2015,Siak Hulu,Kabupaten,Kampar,Riau
431,28452,Tanah Merah,14.01.06.2011,Siak Hulu,Kabupaten,Kampar,Riau
432,28452,Tanjung Balam,14.01.06.2013,Siak Hulu,Kabupaten,Kampar,Riau
433,28452,Teratak Buluh,14.01.06.2003,Siak Hulu,Kabupaten,Kampar,Riau
434,28673,Buantan Besar,14.08.01.2015,Siak,Kabupaten,Siak,Riau
435,28673,Kampung Dalam,14.08.01.1001,Siak,Kabupaten,Siak,Riau
436,28673,Kampung Rempak,14.08.01.1002,Siak,Kabupaten,Siak,Riau
437,28673,Langkai,14.08.01.2003,Siak,Kabupaten,Siak,Riau
438,28673,Merempan Hulu,14.08.01.2012,Siak,Kabupaten,Siak,Riau
439,28673,Rawang Air Putih,14.08.01.2013,Siak,Kabupaten,Siak,Riau
440,28673,Suak Lanjut,14.08.01.2014,Siak,Kabupaten,Siak,Riau
441,28673,Tumang,14.08.01.2011,Siak,Kabupaten,Siak,Riau
442,29567,Beringin Jaya,14.09.14.1015,Sentajo Raya,Kabupaten,Kuantan Singingi,Riau
443,29567,Geringging Jaya,14.09.14.2014,Sentajo Raya,Kabupaten,Kuantan Singingi,Riau
444,29567,Geringing Baru,14.09.14.2010,Sentajo Raya,Kabupaten,Kuantan Singingi,Riau
445,29567,Jalur Patah,14.09.14.2009,Sentajo Raya,Kabupaten,Kuantan Singingi,Riau
446,29567,Kampungbaru Sentajo (Kampung Baru Sentajo),14.09.14.2004,Sentajo Raya,Kabupaten,Kuantan Singingi,Riau
447,29567,Koto Sentajo,14.09.14.2003,Sentajo Raya,Kabupaten,Kuantan Singingi,Riau
448,29567,Langsat Hulu,14.09.14.2012,Sentajo Raya,Kabupaten,Kuantan Singingi,Riau
449,29567,Marsawa,14.09.14.2011,Sentajo Raya,Kabupaten,Kuantan Singingi,Riau
450,29567,Muara Langsat,14.09.14.2013,Sentajo Raya,Kabupaten,Kuantan Singingi,Riau
451,29567,Muaro Sentajo,14.09.14.2002,Sentajo Raya,Kabupaten,Kuantan Singingi,Riau
452,29567,Parit Teratak Air Hitam,14.09.14.2008,Sentajo Raya,Kabupaten,Kuantan Singingi,Riau
453,29567,Pulaukomang Sentajo,14.09.14.2001,Sentajo Raya,Kabupaten,Kuantan Singingi,Riau
454,29567,Pulaukopung Sentajo,14.09.14.2005,Sentajo Raya,Kabupaten,Kuantan Singingi,Riau
455,29567,Seberang Teratak Air Hitam,14.09.14.2007,Sentajo Raya,Kabupaten,Kuantan Singingi,Riau
456,29567,Teratak Air Hitam,14.09.14.2006,Sentajo Raya,Kabupaten,Kuantan Singingi,Riau
457,28153,Kampung Bandar,14.71.05.1005,Senapelan,Kota,Pekanbaru,Riau
458,28154,Kampung Baru,14.71.05.1003,Senapelan,Kota,Pekanbaru,Riau
459,28152,Kampung Dalam,14.71.05.1004,Senapelan,Kota,Pekanbaru,Riau
460,28156,Padang Bulan,14.71.05.1001,Senapelan,Kota,Pekanbaru,Riau
461,28155,Padang Terubuk,14.71.05.1006,Senapelan,Kota,Pekanbaru,Riau
462,28151,Sago,14.71.05.1002,Senapelan,Kota,Pekanbaru,Riau
463,28451,Ganting,14.01.13.2006,Salo,Kabupaten,Kampar,Riau
464,28451,Ganting Damai,14.01.13.2005,Salo,Kabupaten,Kampar,Riau
465,28451,Salo,14.01.13.2001,Salo,Kabupaten,Kampar,Riau
466,28451,Salo Timur,14.01.13.2003,Salo,Kabupaten,Kampar,Riau
467,28451,Siabu,14.01.13.2002,Salo,Kabupaten,Kampar,Riau
468,28451,Sipungguk/Sepungguk,14.01.13.2004,Salo,Kabupaten,Kampar,Riau
469,28131,Cinta Raja,14.71.03.1001,Sail,Kota,Pekanbaru,Riau
470,28133,Suka Mulia (Sukamulya),14.71.03.1002,Sail,Kota,Pekanbaru,Riau
471,28132,Sukamaju (Suka Maju),14.71.03.1003,Sail,Kota,Pekanbaru,Riau
472,28684,Bandar Pedada,14.08.12.2007,Sabak Auh,Kabupaten,Siak,Riau
473,28684,Bandar Sungai,14.08.12.2001,Sabak Auh,Kabupaten,Siak,Riau
474,28684,Belading,14.08.12.2003,Sabak Auh,Kabupaten,Siak,Riau
475,28684,Laksamana,14.08.12.2005,Sabak Auh,Kabupaten,Siak,Riau
476,28684,Rempak,14.08.12.2002,Sabak Auh,Kabupaten,Siak,Riau
477,28684,Sabak Permai,14.08.12.2006,Sabak Auh,Kabupaten,Siak,Riau
478,28684,Selat Guntung,14.08.12.2008,Sabak Auh,Kabupaten,Siak,Riau
479,28684,Sungai Tengah,14.08.12.2004,Sabak Auh,Kabupaten,Siak,Riau
480,28782,Hutan Ayu,14.03.11.2006,Rupat Utara,Kabupaten,Bengkalis,Riau
481,28782,Kador,14.03.11.2004,Rupat Utara,Kabupaten,Bengkalis,Riau
482,28782,Puteri Sembilan,14.03.11.2008,Rupat Utara,Kabupaten,Bengkalis,Riau
483,28782,Suka Damai,14.03.11.2007,Rupat Utara,Kabupaten,Bengkalis,Riau
484,28782,Tanjungmedang (Tanjung Medang),14.03.11.2001,Rupat Utara,Kabupaten,Bengkalis,Riau
485,28782,Tanjungpunak (Tanjung Punak),14.03.11.2003,Rupat Utara,Kabupaten,Bengkalis,Riau
486,28782,Telukrhu (Teluk Rhu),14.03.11.2002,Rupat Utara,Kabupaten,Bengkalis,Riau
487,28782,Titi Akar,14.03.11.2005,Rupat Utara,Kabupaten,Bengkalis,Riau
488,28781,Batu Panjang,14.03.10.1001,Rupat,Kabupaten,Bengkalis,Riau
489,28781,Darul Aman,14.03.10.2011,Rupat,Kabupaten,Bengkalis,Riau
490,28781,Dungun Baru,14.03.10.2016,Rupat,Kabupaten,Bengkalis,Riau
491,28781,Hutan Panjang,14.03.10.2008,Rupat,Kabupaten,Bengkalis,Riau
492,28781,Makeruh,14.03.10.2007,Rupat,Kabupaten,Bengkalis,Riau
493,28781,Pancur Jaya,14.03.10.2014,Rupat,Kabupaten,Bengkalis,Riau
494,28781,Pangkalan Nyirih,14.03.10.2009,Rupat,Kabupaten,Bengkalis,Riau
495,28781,Pangkalan Pinang,14.03.10.2015,Rupat,Kabupaten,Bengkalis,Riau
496,28781,Parit Kebumen,14.03.10.2012,Rupat,Kabupaten,Bengkalis,Riau
497,28781,Pergam,14.03.10.1002,Rupat,Kabupaten,Bengkalis,Riau
498,28781,Sri Tanjung,14.03.10.2013,Rupat,Kabupaten,Bengkalis,Riau
499,28781,Sukarjo Mesin,14.03.10.2010,Rupat,Kabupaten,Bengkalis,Riau
500,28781,Sungaicingam (Sei / Sungai Cingam),14.03.10.2005,Rupat,Kabupaten,Bengkalis,Riau
501,28781,Tanjungkapal (Tanjung Kapal),14.03.10.1004,Rupat,Kabupaten,Bengkalis,Riau
502,28781,Teluklecah (Teluk Lecah),14.03.10.2006,Rupat,Kabupaten,Bengkalis,Riau
503,28781,Terkul,14.03.10.1003,Rupat,Kabupaten,Bengkalis,Riau
504,28458,Alam Panjang,14.01.14.2003,Rumbio Jaya,Kabupaten,Kampar,Riau
505,28458,Batang Betindah (Batang Batindih),14.01.14.2005,Rumbio Jaya,Kabupaten,Kampar,Riau
506,28458,Bukit Keratai (Bukit Kratai),14.01.14.2004,Rumbio Jaya,Kabupaten,Kampar,Riau
507,28458,Pulau Payung,14.01.14.2001,Rumbio Jaya,Kabupaten,Kampar,Riau
508,28458,Simpang Petai,14.01.14.2007,Rumbio Jaya,Kabupaten,Kampar,Riau
509,28458,Tambusai,14.01.14.2006,Rumbio Jaya,Kabupaten,Kampar,Riau
510,28458,Teratak,14.01.14.2002,Rumbio Jaya,Kabupaten,Kampar,Riau
511,28262,Lembah Sari,14.71.15.1004,Rumbai Timur,Kota,Pekanbaru,Riau
512,28261,Limbungan,14.71.15.1005,Rumbai Timur,Kota,Pekanbaru,Riau
513,28262,Sungaiambang,14.71.15.1003,Rumbai Timur,Kota,Pekanbaru,Riau
514,28287,Sungaiukai,14.71.15.1002,Rumbai Timur,Kota,Pekanbaru,Riau
515,28287,Tebing Tinggi Okura,14.71.15.1001,Rumbai Timur,Kota,Pekanbaru,Riau
516,28264,Agrowisata,14.71.06.1013,Rumbai Barat,Kota,Pekanbaru,Riau
517,28264,Maharani,14.71.06.1012,Rumbai Barat,Kota,Pekanbaru,Riau
518,28267,Muarafajar Barat,14.71.06.1010,Rumbai Barat,Kota,Pekanbaru,Riau
519,28267,Muarafajar Timur,14.71.06.1005,Rumbai Barat,Kota,Pekanbaru,Riau
520,28264,Rantaupanjang,14.71.06.1011,Rumbai Barat,Kota,Pekanbaru,Riau
521,28264,Rumbai Bukit,14.71.06.1003,Rumbai Barat,Kota,Pekanbaru,Riau
522,28263,Lembah Damai,14.71.12.1004,Rumbai (Rumbai Pesisir),Kota,Pekanbaru,Riau
523,28261,Limbungan Baru,14.71.12.1006,Rumbai (Rumbai Pesisir),Kota,Pekanbaru,Riau
524,28266,Meranti Pandak,14.71.12.1001,Rumbai (Rumbai Pesisir),Kota,Pekanbaru,Riau
525,28264,Palas,14.71.12.1010,Rumbai (Rumbai Pesisir),Kota,Pekanbaru,Riau
526,28261,Sri Meranti,14.71.12.1009,Rumbai (Rumbai Pesisir),Kota,Pekanbaru,Riau
527,28265,Umban Sari,14.71.12.1011,Rumbai (Rumbai Pesisir),Kota,Pekanbaru,Riau
528,28551,Alahan,14.06.02.2018,Rokan IV Koto,Kabupaten,Rokan Hulu,Riau
529,28551,Cipang Kanan,14.06.02.2002,Rokan IV Koto,Kabupaten,Rokan Hulu,Riau
530,28551,Cipang Kiri Hilir,14.06.02.2004,Rokan IV Koto,Kabupaten,Rokan Hulu,Riau
531,28551,Cipang Kiri Hulu,14.06.02.2003,Rokan IV Koto,Kabupaten,Rokan Hulu,Riau
532,28551,Lubuk Bendahara,14.06.02.2008,Rokan IV Koto,Kabupaten,Rokan Hulu,Riau
533,28551,Lubuk Bendahara Timur,14.06.02.2007,Rokan IV Koto,Kabupaten,Rokan Hulu,Riau
534,28551,Lubuk Betung,14.06.02.2016,Rokan IV Koto,Kabupaten,Rokan Hulu,Riau
535,28551,Pemandang,14.06.02.2017,Rokan IV Koto,Kabupaten,Rokan Hulu,Riau
536,28551,Rokan,14.06.02.1001,Rokan IV Koto,Kabupaten,Rokan Hulu,Riau
537,28551,Rokan Koto Ruang,14.06.02.2013,Rokan IV Koto,Kabupaten,Rokan Hulu,Riau
538,28551,Rokan Timur,14.06.02.2014,Rokan IV Koto,Kabupaten,Rokan Hulu,Riau
539,28551,Sikebau Jaya,14.06.02.2010,Rokan IV Koto,Kabupaten,Rokan Hulu,Riau
540,28551,Tanjung Medan,14.06.02.2006,Rokan IV Koto,Kabupaten,Rokan Hulu,Riau
541,28551,Tibawan,14.06.02.2019,Rokan IV Koto,Kabupaten,Rokan Hulu,Riau
542,28953,Harapan Jaya,14.07.04.2009,Rimba Melintang,Kabupaten,Rokan Hilir,Riau
543,28953,Jumrah,14.07.04.2002,Rimba Melintang,Kabupaten,Rokan Hilir,Riau
544,28953,Karya Mukti,14.07.04.2008,Rimba Melintang,Kabupaten,Rokan Hilir,Riau
545,28953,Lenggadai/Langgadai Hilir,14.07.04.2006,Rimba Melintang,Kabupaten,Rokan Hilir,Riau
546,28953,Lenggadai/Langgadai Hulu,14.07.04.2005,Rimba Melintang,Kabupaten,Rokan Hilir,Riau
547,28953,Mukti Jaya,14.07.04.2007,Rimba Melintang,Kabupaten,Rokan Hilir,Riau
548,28953,Pematang Botam,14.07.04.2011,Rimba Melintang,Kabupaten,Rokan Hilir,Riau
549,28953,Pematang Sikek,14.07.04.2012,Rimba Melintang,Kabupaten,Rokan Hilir,Riau
550,28953,Rimba Melintang,14.07.04.1001,Rimba Melintang,Kabupaten,Rokan Hilir,Riau
551,28953,Seremban Jaya,14.07.04.2010,Rimba Melintang,Kabupaten,Rokan Hilir,Riau
552,28953,Telukpulau Hilir (Teluk Pulau Hilir),14.07.04.2003,Rimba Melintang,Kabupaten,Rokan Hilir,Riau
553,28953,Telukpulau Hulu (Teluk Pulau Hulu),14.07.04.2004,Rimba Melintang,Kabupaten,Rokan Hilir,Riau
554,29273,Madani,14.04.01.1018,Reteh,Kabupaten,Indragiri Hilir,Riau
555,29273,Mekar Sari,14.04.01.2011,Reteh,Kabupaten,Indragiri Hilir,Riau
556,29273,Metro,14.04.01.1017,Reteh,Kabupaten,Indragiri Hilir,Riau
557,29273,Pulaukecil (Pulau Kecil),14.04.01.2003,Reteh,Kabupaten,Indragiri Hilir,Riau
558,29273,Pulaukijang (Pulau Kijang),14.04.01.1001,Reteh,Kabupaten,Indragiri Hilir,Riau
559,29273,Pulauruku (Pulau Ruku),14.04.01.2014,Reteh,Kabupaten,Indragiri Hilir,Riau
560,29273,Sanglar,14.04.01.2002,Reteh,Kabupaten,Indragiri Hilir,Riau
561,29273,Seberang Pulau Kijang,14.04.01.2012,Reteh,Kabupaten,Indragiri Hilir,Riau
562,29273,Seberang Sanglar,14.04.01.2010,Reteh,Kabupaten,Indragiri Hilir,Riau
563,29273,Sungaiasam (Sungai Asam),14.04.01.2013,Reteh,Kabupaten,Indragiri Hilir,Riau
564,29273,Sungaimahang (Sungai Mahang),14.04.01.2020,Reteh,Kabupaten,Indragiri Hilir,Riau
565,29273,Sungaiterap (Sungai Terab / Terap),14.04.01.2004,Reteh,Kabupaten,Indragiri Hilir,Riau
566,29273,Sungaiundan (Sungai Undan),14.04.01.2009,Reteh,Kabupaten,Indragiri Hilir,Riau
567,29273,Tanjunglabuh (Tanjung Labuh),14.04.01.2019,Reteh,Kabupaten,Indragiri Hilir,Riau
568,29351,Air Jernih,14.02.02.2018,Rengat Barat,Kabupaten,Indragiri Hulu,Riau
569,29351,Alang Kepayang,14.02.02.2002,Rengat Barat,Kabupaten,Indragiri Hulu,Riau
570,29351,Barangan,14.02.02.2001,Rengat Barat,Kabupaten,Indragiri Hulu,Riau
571,29351,Bukit Petaling,14.02.02.2011,Rengat Barat,Kabupaten,Indragiri Hulu,Riau
572,29351,Danau Baru,14.02.02.2013,Rengat Barat,Kabupaten,Indragiri Hulu,Riau
573,29351,Danau Tiga,14.02.02.2017,Rengat Barat,Kabupaten,Indragiri Hulu,Riau
574,29351,Kota Lama,14.02.02.2003,Rengat Barat,Kabupaten,Indragiri Hulu,Riau
575,29351,Pekan Heran,14.02.02.2005,Rengat Barat,Kabupaten,Indragiri Hulu,Riau
576,29351,Pematang Jaya,14.02.02.2012,Rengat Barat,Kabupaten,Indragiri Hulu,Riau
577,29351,Pematang Reba,14.02.02.1009,Rengat Barat,Kabupaten,Indragiri Hulu,Riau
578,29345,Rantau Bakung,14.02.02.2006,Rengat Barat,Kabupaten,Indragiri Hulu,Riau
579,29351,Redang,14.02.02.2004,Rengat Barat,Kabupaten,Indragiri Hulu,Riau
580,29344,Sialang Dua Dahan,14.02.02.2008,Rengat Barat,Kabupaten,Indragiri Hulu,Riau
581,29351,Sungai Baung,14.02.02.2016,Rengat Barat,Kabupaten,Indragiri Hulu,Riau
582,29351,Sungai Dawu,14.02.02.2010,Rengat Barat,Kabupaten,Indragiri Hulu,Riau
583,29351,Talang Jerinjing,14.02.02.2007,Rengat Barat,Kabupaten,Indragiri Hulu,Riau
584,29351,Tanah Datar,14.02.02.2014,Rengat Barat,Kabupaten,Indragiri Hulu,Riau
585,29351,Tani Makmur (Tanah Makmur),14.02.02.2015,Rengat Barat,Kabupaten,Indragiri Hulu,Riau
586,29312,Kampung Besar Kota,14.02.01.1007,Rengat,Kabupaten,Indragiri Hulu,Riau
587,29312,Kampung Besar Seberang,14.02.01.1011,Rengat,Kabupaten,Indragiri Hulu,Riau
588,29313,Kampung Dagang,14.02.01.1004,Rengat,Kabupaten,Indragiri Hulu,Riau
589,29314,Kampung Pulau,14.02.01.2005,Rengat,Kabupaten,Indragiri Hulu,Riau
590,29314,Kuantan Baru,14.02.01.2003,Rengat,Kabupaten,Indragiri Hulu,Riau
591,29311,Pasar Kota (Pasar Kota Rengat),14.02.01.1006,Rengat,Kabupaten,Indragiri Hulu,Riau
592,29316,Pasir Kemilu,14.02.01.2010,Rengat,Kabupaten,Indragiri Hulu,Riau
593,29313,Pulau Gajah,14.02.01.2013,Rengat,Kabupaten,Indragiri Hulu,Riau
594,29319,Rantau Mapesai,14.02.01.2012,Rengat,Kabupaten,Indragiri Hulu,Riau
595,29319,Rawa Bangun,14.02.01.2023,Rengat,Kabupaten,Indragiri Hulu,Riau
596,29319,Sei/Sungai Guntung Hilir,14.02.01.2002,Rengat,Kabupaten,Indragiri Hulu,Riau
597,29319,Sei/Sungai Guntung Tengah,14.02.01.2001,Rengat,Kabupaten,Indragiri Hulu,Riau
598,29318,Sekip Hilir Jumat (Sekip Hilir),14.02.01.1018,Rengat,Kabupaten,Indragiri Hulu,Riau
599,29319,Sekip Hulu,14.02.01.1008,Rengat,Kabupaten,Indragiri Hulu,Riau
600,29317,Sungai Beringin,14.02.01.2009,Rengat,Kabupaten,Indragiri Hulu,Riau
601,29319,Sungai Raya,14.02.01.2014,Rengat,Kabupaten,Indragiri Hulu,Riau
602,28984,Bagan Cempedak,14.07.13.2004,Rantau Kopar,Kabupaten,Rokan Hilir,Riau
603,28984,Rantau Kopar,14.07.13.1002,Rantau Kopar,Kabupaten,Rokan Hilir,Riau
604,28984,Sekapas,14.07.13.2001,Rantau Kopar,Kabupaten,Rokan Hilir,Riau
605,28984,Sungai Rangau (Sei Rangau),14.07.13.1003,Rantau Kopar,Kabupaten,Rokan Hilir,Riau
606,28757,Beting,14.10.09.2002,Rangsang Pesisir,Kabupaten,Kepulauan Meranti,Riau
607,28757,Bungur,14.10.09.2005,Rangsang Pesisir,Kabupaten,Kepulauan Meranti,Riau
608,28757,Kayu Ara,14.10.09.2008,Rangsang Pesisir,Kabupaten,Kepulauan Meranti,Riau
609,28757,Kedabu Rapat,14.10.09.2010,Rangsang Pesisir,Kabupaten,Kepulauan Meranti,Riau
610,28757,Sendaur,14.10.09.2007,Rangsang Pesisir,Kabupaten,Kepulauan Meranti,Riau
611,28757,Sokop,14.10.09.2003,Rangsang Pesisir,Kabupaten,Kepulauan Meranti,Riau
612,28757,Sonde,14.10.09.2009,Rangsang Pesisir,Kabupaten,Kepulauan Meranti,Riau
613,28757,Tanah Merah,14.10.09.2011,Rangsang Pesisir,Kabupaten,Kepulauan Meranti,Riau
614,28757,Tanjung Kedabu,14.10.09.2001,Rangsang Pesisir,Kabupaten,Kepulauan Meranti,Riau
615,28757,Telesung,14.10.09.2004,Rangsang Pesisir,Kabupaten,Kepulauan Meranti,Riau
616,28757,Tenggayun Raya,14.10.09.2006,Rangsang Pesisir,Kabupaten,Kepulauan Meranti,Riau
617,28756,Anak Setatah,14.10.02.2003,Rangsang Barat,Kabupaten,Kepulauan Meranti,Riau
618,28756,Bantar,14.10.02.2002,Rangsang Barat,Kabupaten,Kepulauan Meranti,Riau
619,28756,Bina Maju,14.10.02.2012,Rangsang Barat,Kabupaten,Kepulauan Meranti,Riau
620,28756,Bokor,14.10.02.2005,Rangsang Barat,Kabupaten,Kepulauan Meranti,Riau
621,28756,Lemang,14.10.02.2004,Rangsang Barat,Kabupaten,Kepulauan Meranti,Riau
622,28756,Mekar Baru,14.10.02.2017,Rangsang Barat,Kabupaten,Kepulauan Meranti,Riau
623,28756,Melai,14.10.02.2007,Rangsang Barat,Kabupaten,Kepulauan Meranti,Riau
624,28756,Permai,14.10.02.2016,Rangsang Barat,Kabupaten,Kepulauan Meranti,Riau
625,28756,Segomeng,14.10.02.2001,Rangsang Barat,Kabupaten,Kepulauan Meranti,Riau
626,28756,Sialang Pasung,14.10.02.2015,Rangsang Barat,Kabupaten,Kepulauan Meranti,Riau
627,28756,Sungai Cina,14.10.02.2006,Rangsang Barat,Kabupaten,Kepulauan Meranti,Riau
628,28756,Telaga Baru,14.10.02.2011,Rangsang Barat,Kabupaten,Kepulauan Meranti,Riau
629,28755,Citra Damai,14.10.03.2014,Rangsang,Kabupaten,Kepulauan Meranti,Riau
630,28755,Dwi Tunggal,14.10.03.2016,Rangsang,Kabupaten,Kepulauan Meranti,Riau
631,28755,Gemala Sari,14.10.03.2004,Rangsang,Kabupaten,Kepulauan Meranti,Riau
632,28755,Penyagun,14.10.03.2008,Rangsang,Kabupaten,Kepulauan Meranti,Riau
633,28755,Repan,14.10.03.2010,Rangsang,Kabupaten,Kepulauan Meranti,Riau
634,28755,Sungai Gayung Kiri,14.10.03.2013,Rangsang,Kabupaten,Kepulauan Meranti,Riau
635,28755,Tanjung Bakau,14.10.03.2011,Rangsang,Kabupaten,Kepulauan Meranti,Riau
636,28755,Tanjung Gemuk,14.10.03.2020,Rangsang,Kabupaten,Kepulauan Meranti,Riau
637,28755,Tanjung Medang,14.10.03.2002,Rangsang,Kabupaten,Kepulauan Meranti,Riau
638,28755,Tanjung Samak,14.10.03.2001,Rangsang,Kabupaten,Kepulauan Meranti,Riau
639,28755,Tebun,14.10.03.2018,Rangsang,Kabupaten,Kepulauan Meranti,Riau
640,28755,Teluk Samak,14.10.03.2012,Rangsang,Kabupaten,Kepulauan Meranti,Riau
641,28755,Topang,14.10.03.2007,Rangsang,Kabupaten,Kepulauan Meranti,Riau
642,28755,Wonosari,14.10.03.2017,Rangsang,Kabupaten,Kepulauan Meranti,Riau
643,28565,Karya Mulya,14.06.07.2006,Rambah Samo,Kabupaten,Rokan Hulu,Riau
644,28565,Langkitan (Langkitin),14.06.07.2008,Rambah Samo,Kabupaten,Rokan Hulu,Riau
645,28565,Lubuk Bilang,14.06.07.2014,Rambah Samo,Kabupaten,Rokan Hulu,Riau
646,28565,Lubuk Napai (Lubuk Napal),14.06.07.2010,Rambah Samo,Kabupaten,Rokan Hulu,Riau
647,28565,Marga Mulya,14.06.07.2007,Rambah Samo,Kabupaten,Rokan Hulu,Riau
648,28565,Masda Makmur,14.06.07.2009,Rambah Samo,Kabupaten,Rokan Hulu,Riau
649,28565,Pasir Makmur,14.06.07.2005,Rambah Samo,Kabupaten,Rokan Hulu,Riau
650,28565,Rambah Baru,14.06.07.2003,Rambah Samo,Kabupaten,Rokan Hulu,Riau
651,28565,Rambah Samo,14.06.07.2001,Rambah Samo,Kabupaten,Rokan Hulu,Riau
652,28565,Rambah Samo Barat,14.06.07.2002,Rambah Samo,Kabupaten,Rokan Hulu,Riau
653,28565,Rambah Utama,14.06.07.2004,Rambah Samo,Kabupaten,Rokan Hulu,Riau
654,28565,Sei Kuning,14.06.07.2013,Rambah Samo,Kabupaten,Rokan Hulu,Riau
655,28565,Sei Salak,14.06.07.2012,Rambah Samo,Kabupaten,Rokan Hulu,Riau
656,28565,Teluk Aur,14.06.07.2011,Rambah Samo,Kabupaten,Rokan Hulu,Riau
657,28561,Lubuk Krapat/Kerapat,14.06.08.2008,Rambah Hilir,Kabupaten,Rokan Hulu,Riau
658,28561,Muara Musu,14.06.08.2012,Rambah Hilir,Kabupaten,Rokan Hulu,Riau
659,28561,Pasir Jaya,14.06.08.2005,Rambah Hilir,Kabupaten,Rokan Hulu,Riau
660,28561,Pasir Utama,14.06.08.2004,Rambah Hilir,Kabupaten,Rokan Hulu,Riau
661,28561,Rambah,14.06.08.2009,Rambah Hilir,Kabupaten,Rokan Hulu,Riau
662,28561,Rambah Hilir,14.06.08.2001,Rambah Hilir,Kabupaten,Rokan Hulu,Riau
663,28561,Rambah Hilir Tengah,14.06.08.2002,Rambah Hilir,Kabupaten,Rokan Hulu,Riau
664,28561,Rambah Hilir Timur,14.06.08.2003,Rambah Hilir,Kabupaten,Rokan Hulu,Riau
665,28561,Rambah Muda,14.06.08.2006,Rambah Hilir,Kabupaten,Rokan Hulu,Riau
666,28561,Sejati,14.06.08.2013,Rambah Hilir,Kabupaten,Rokan Hulu,Riau
667,28561,Serambau/Serombau Indah,14.06.08.2010,Rambah Hilir,Kabupaten,Rokan Hulu,Riau
668,28561,Sungai Dua Indah,14.06.08.2011,Rambah Hilir,Kabupaten,Rokan Hulu,Riau
669,28561,Sungai Sitolang,14.06.08.2007,Rambah Hilir,Kabupaten,Rokan Hulu,Riau
670,28560,Babussalam,14.06.03.2013,Rambah,Kabupaten,Rokan Hulu,Riau
671,28560,Koto Tinggi,14.06.03.2010,Rambah,Kabupaten,Rokan Hulu,Riau
672,28560,Menaming,14.06.03.2006,Rambah,Kabupaten,Rokan Hulu,Riau
673,28560,Pasir Baru,14.06.03.2007,Rambah,Kabupaten,Rokan Hulu,Riau
674,28560,Pasir Maju,14.06.03.2014,Rambah,Kabupaten,Rokan Hulu,Riau
675,28560,Pasir Pengarayan,14.06.03.1001,Rambah,Kabupaten,Rokan Hulu,Riau
676,28560,Pemalang Berangan (Pematang Berangan),14.06.03.2012,Rambah,Kabupaten,Rokan Hulu,Riau
677,28560,Rambah Tengah Barat,14.06.03.2005,Rambah,Kabupaten,Rokan Hulu,Riau
678,28560,Rambah Tengah Hilir,14.06.03.2003,Rambah,Kabupaten,Rokan Hulu,Riau
679,28560,Rambah Tengah Hulu,14.06.03.2004,Rambah,Kabupaten,Rokan Hulu,Riau
680,28560,Rambah Tengah Utara,14.06.03.2002,Rambah,Kabupaten,Rokan Hulu,Riau
681,28560,Sialang Jaya,14.06.03.2008,Rambah,Kabupaten,Rokan Hulu,Riau
682,28560,Suka Maju,14.06.03.2011,Rambah,Kabupaten,Rokan Hulu,Riau
683,28560,Tanjung Belit,14.06.03.2009,Rambah,Kabupaten,Rokan Hulu,Riau
684,29359,Batu Sawar,14.02.13.2012,Rakit Kulim,Kabupaten,Indragiri Hulu,Riau
685,29359,Bukit Indah,14.02.13.2015,Rakit Kulim,Kabupaten,Indragiri Hulu,Riau
686,29359,Kampung Bunga (Kampung Bungo),14.02.13.2018,Rakit Kulim,Kabupaten,Indragiri Hulu,Riau
687,29359,Kelayang,14.02.13.2008,Rakit Kulim,Kabupaten,Indragiri Hulu,Riau
688,29359,Kota Baru,14.02.13.2006,Rakit Kulim,Kabupaten,Indragiri Hulu,Riau
689,29359,Kuantan Tenang,14.02.13.2005,Rakit Kulim,Kabupaten,Indragiri Hulu,Riau
690,29359,Lubuk Sitarak,14.02.13.2014,Rakit Kulim,Kabupaten,Indragiri Hulu,Riau
691,29359,Petonggan,14.02.13.2013,Rakit Kulim,Kabupaten,Indragiri Hulu,Riau
692,29359,Rimba Seminai,14.02.13.2007,Rakit Kulim,Kabupaten,Indragiri Hulu,Riau
693,29359,Talang 7 Buah Tangga (Talang Tujuh Buah Tangga),14.02.13.2001,Rakit Kulim,Kabupaten,Indragiri Hulu,Riau
694,29359,Talang Durian Cacar,14.02.13.2002,Rakit Kulim,Kabupaten,Indragiri Hulu,Riau
695,29359,Talang Gedabu,14.02.13.2009,Rakit Kulim,Kabupaten,Indragiri Hulu,Riau
696,29359,Talang Perigi (Talang Parigi),14.02.13.2004,Rakit Kulim,Kabupaten,Indragiri Hulu,Riau
697,29359,Talang Pring Jaya,14.02.13.2019,Rakit Kulim,Kabupaten,Indragiri Hulu,Riau
698,29359,Talang Sei/Sungai Elok,14.02.13.2016,Rakit Kulim,Kabupaten,Indragiri Hulu,Riau
699,29359,Talang Sei/Sungai Limau,14.02.13.2010,Rakit Kulim,Kabupaten,Indragiri Hulu,Riau
700,29359,Talang Sei/Sungai Maju,14.02.13.2017,Rakit Kulim,Kabupaten,Indragiri Hulu,Riau
701,29359,Talang Sei/Sungai Parit,14.02.13.2011,Rakit Kulim,Kabupaten,Indragiri Hulu,Riau
702,29359,Talang Selantai,14.02.13.2003,Rakit Kulim,Kabupaten,Indragiri Hulu,Riau
703,28765,Benayah,14.08.14.2004,Pusako,Kabupaten,Siak,Riau
704,28765,Dosan,14.08.14.2003,Pusako,Kabupaten,Siak,Riau
705,28765,Dusun Pusaka,14.08.14.2006,Pusako,Kabupaten,Siak,Riau
706,28765,Pebadaran,14.08.14.2005,Pusako,Kabupaten,Siak,Riau
707,28765,Perincit,14.08.14.2007,Pusako,Kabupaten,Siak,Riau
708,28765,Sungai Berbari,14.08.14.2001,Pusako,Kabupaten,Siak,Riau
709,28765,Sungai Limau,14.08.14.2002,Pusako,Kabupaten,Siak,Riau
710,28750,Baran Melintang,14.10.06.2003,Pulaumerbau,Kabupaten,Kepulauan Meranti,Riau
711,28750,Batang Meranti,14.10.06.2008,Pulaumerbau,Kabupaten,Kepulauan Meranti,Riau
712,28750,Centai,14.10.06.2006,Pulaumerbau,Kabupaten,Kepulauan Meranti,Riau
713,28750,Ketapang Permai,14.10.06.2011,Pulaumerbau,Kabupaten,Kepulauan Meranti,Riau
714,28750,Kuala Merbau,14.10.06.2001,Pulaumerbau,Kabupaten,Kepulauan Meranti,Riau
715,28750,Padang Kamal,14.10.06.2010,Pulaumerbau,Kabupaten,Kepulauan Meranti,Riau
716,28750,Pangkalan Balai,14.10.06.2009,Pulaumerbau,Kabupaten,Kepulauan Meranti,Riau
717,28750,Renak Dungun,14.10.06.2002,Pulaumerbau,Kabupaten,Kepulauan Meranti,Riau
718,28750,Semukut,14.10.06.2005,Pulaumerbau,Kabupaten,Kepulauan Meranti,Riau
719,28750,Tanjungbunga,14.10.06.2007,Pulaumerbau,Kabupaten,Kepulauan Meranti,Riau
720,28750,Teluk Ketapang,14.10.06.2004,Pulaumerbau,Kabupaten,Kepulauan Meranti,Riau
721,29256,Bangun Harjo Jaya,14.04.17.2007,Pulau Burung,Kabupaten,Indragiri Hilir,Riau
722,29256,Binagun Jaya,14.04.17.2012,Pulau Burung,Kabupaten,Indragiri Hilir,Riau
723,29256,Bukit Sari Intan Jaya,14.04.17.2005,Pulau Burung,Kabupaten,Indragiri Hilir,Riau
724,29256,Keramat Jaya,14.04.17.2011,Pulau Burung,Kabupaten,Indragiri Hilir,Riau
725,29256,Manunggal Jaya,14.04.17.2006,Pulau Burung,Kabupaten,Indragiri Hilir,Riau
726,29256,Mayang Sari Jaya,14.04.17.2004,Pulau Burung,Kabupaten,Indragiri Hilir,Riau
727,29256,Pulauburung (Pulau Burung),14.04.17.2001,Pulau Burung,Kabupaten,Indragiri Hilir,Riau
728,29256,Ringin Jaya (Beringin Jaya),14.04.17.2008,Pulau Burung,Kabupaten,Indragiri Hilir,Riau
729,29256,Sapta Jaya,14.04.17.2010,Pulau Burung,Kabupaten,Indragiri Hilir,Riau
730,29256,Sri Damai,14.04.17.2009,Pulau Burung,Kabupaten,Indragiri Hilir,Riau
731,29256,Suka Jaya,14.04.17.2013,Pulau Burung,Kabupaten,Indragiri Hilir,Riau
732,29256,Sukaharjo Jaya (Suko Harjo Jaya),14.04.17.2014,Pulau Burung,Kabupaten,Indragiri Hilir,Riau
733,29256,Sungaidanai (Sungai Danai),14.04.17.2003,Pulau Burung,Kabupaten,Indragiri Hilir,Riau
734,29256,Teluknibung (Teluk Nibung),14.04.17.2002,Pulau Burung,Kabupaten,Indragiri Hilir,Riau
735,28983,Air Hitam,14.07.08.2003,Pujud,Kabupaten,Rokan Hilir,Riau
736,28983,Babussalam Rokan,14.07.08.2016,Pujud,Kabupaten,Rokan Hilir,Riau
737,28983,Kasang Bangsawan,14.07.08.2004,Pujud,Kabupaten,Rokan Hilir,Riau
738,28983,Perkebunan Siarang-arang,14.07.08.2017,Pujud,Kabupaten,Rokan Hilir,Riau
739,28983,Pujud,14.07.08.2002,Pujud,Kabupaten,Rokan Hilir,Riau
740,28983,Pujud Selatan,14.07.08.1010,Pujud,Kabupaten,Rokan Hilir,Riau
741,28983,Pujud Utara,14.07.08.2015,Pujud,Kabupaten,Rokan Hilir,Riau
742,28983,Siarang-arang,14.07.08.2008,Pujud,Kabupaten,Rokan Hilir,Riau
743,28983,Suka Jadi,14.07.08.2011,Pujud,Kabupaten,Rokan Hilir,Riau
744,28983,Sungaipinang,14.07.08.2005,Pujud,Kabupaten,Rokan Hilir,Riau
745,28983,Teluk Nayang (Teluknayang),14.07.08.2001,Pujud,Kabupaten,Rokan Hilir,Riau
746,29557,Ibul,14.09.15.2002,Pucuk Rantau,Kabupaten,Kuantan Singingi,Riau
747,29557,Kampung Baru Ibul,14.09.15.2010,Pucuk Rantau,Kabupaten,Kuantan Singingi,Riau
748,29557,Muarapetai,14.09.15.2003,Pucuk Rantau,Kabupaten,Kuantan Singingi,Riau
749,29557,Muaratobek,14.09.15.2008,Pucuk Rantau,Kabupaten,Kuantan Singingi,Riau
750,29557,Muaro Tiu Makmur,14.09.15.2007,Pucuk Rantau,Kabupaten,Kuantan Singingi,Riau
751,29557,Pangkalan,14.09.15.2004,Pucuk Rantau,Kabupaten,Kuantan Singingi,Riau
752,29557,Perhentian Sungkai,14.09.15.2001,Pucuk Rantau,Kabupaten,Kuantan Singingi,Riau
753,29557,Setiang,14.09.15.2006,Pucuk Rantau,Kabupaten,Kuantan Singingi,Riau
754,29557,Sungaibesar,14.09.15.2005,Pucuk Rantau,Kabupaten,Kuantan Singingi,Riau
755,29557,Sungaibesar Hilir,14.09.15.2009,Pucuk Rantau,Kabupaten,Kuantan Singingi,Riau
756,28784,Balai Pungut,14.03.13.2003,Pinggir,Kabupaten,Bengkalis,Riau
757,28784,Balai Raja,14.03.13.1012,Pinggir,Kabupaten,Bengkalis,Riau
758,28784,Buluh Apo,14.03.13.2016,Pinggir,Kabupaten,Bengkalis,Riau
759,28784,Muara Basung,14.03.13.2005,Pinggir,Kabupaten,Bengkalis,Riau
760,28784,Pangkalan Libut,14.03.13.2015,Pinggir,Kabupaten,Bengkalis,Riau
761,28784,Pinggir,14.03.13.2007,Pinggir,Kabupaten,Bengkalis,Riau
762,28784,Semunai,14.03.13.2008,Pinggir,Kabupaten,Bengkalis,Riau
763,28784,Sungai Meranti,14.03.13.2014,Pinggir,Kabupaten,Bengkalis,Riau
764,28784,Tengganau,14.03.13.2011,Pinggir,Kabupaten,Bengkalis,Riau
765,28784,Titian Antui,14.03.13.1001,Pinggir,Kabupaten,Bengkalis,Riau
766,28462,Hangtuah,14.01.16.2003,Perhentian Raja,Kabupaten,Kampar,Riau
767,28462,Kampung Pinang,14.01.16.2001,Perhentian Raja,Kabupaten,Kampar,Riau
768,28462,Lubuk Sakat,14.01.16.2005,Perhentian Raja,Kabupaten,Kampar,Riau
769,28462,Pantai Raja,14.01.16.2002,Perhentian Raja,Kabupaten,Kampar,Riau
770,28462,Sialang Kubang,14.01.16.2004,Perhentian Raja,Kabupaten,Kampar,Riau
771,29357,Batu Rijal Barat,14.02.05.2019,Peranap,Kabupaten,Indragiri Hulu,Riau
772,29357,Baturijal Hilir,14.02.05.1008,Peranap,Kabupaten,Indragiri Hulu,Riau
773,29357,Baturijal Hulu,14.02.05.2007,Peranap,Kabupaten,Indragiri Hulu,Riau
774,29357,Gumanti,14.02.05.2004,Peranap,Kabupaten,Indragiri Hulu,Riau
775,29357,Katipo Pura (Ketipopura),14.02.05.2017,Peranap,Kabupaten,Indragiri Hulu,Riau
776,29357,Pandan Wangi,14.02.05.2013,Peranap,Kabupaten,Indragiri Hulu,Riau
777,29357,Pauh Ranap (Pauh Peranap),14.02.05.2010,Peranap,Kabupaten,Indragiri Hulu,Riau
778,29357,Peranap,14.02.05.1005,Peranap,Kabupaten,Indragiri Hulu,Riau
779,29357,Semelinang Darat (Semilinang Darat),14.02.05.2009,Peranap,Kabupaten,Indragiri Hulu,Riau
780,29357,Semelinang Tebing,14.02.05.2003,Peranap,Kabupaten,Indragiri Hulu,Riau
781,29357,Serai Wangi,14.02.05.2012,Peranap,Kabupaten,Indragiri Hulu,Riau
782,29357,Setako Jaya (Raya),14.02.05.2020,Peranap,Kabupaten,Indragiri Hulu,Riau
783,28555,Air Panas,14.06.16.2004,Pendalian IV Koto,Kabupaten,Rokan Hulu,Riau
784,28555,Bengkolan Salak,14.06.16.2002,Pendalian IV Koto,Kabupaten,Rokan Hulu,Riau
785,28555,Pendalian,14.06.16.2001,Pendalian IV Koto,Kabupaten,Rokan Hulu,Riau
786,28555,Sei Kandis,14.06.16.2005,Pendalian IV Koto,Kabupaten,Rokan Hulu,Riau
787,28555,Suligi,14.06.16.2003,Pendalian IV Koto,Kabupaten,Rokan Hulu,Riau
788,29257,Bagan Jaya,14.04.15.2013,Pelangiran,Kabupaten,Indragiri Hilir,Riau
789,29257,Catur Karya,14.04.15.2012,Pelangiran,Kabupaten,Indragiri Hilir,Riau
790,29257,Gaung/Baung Rejo Jaya,14.04.15.2005,Pelangiran,Kabupaten,Indragiri Hilir,Riau
791,29257,Hidayah,14.04.15.2016,Pelangiran,Kabupaten,Indragiri Hilir,Riau
792,29257,Intan Mulia/Mulya Jaya,14.04.15.2010,Pelangiran,Kabupaten,Indragiri Hilir,Riau
793,29257,Pelangiran,14.04.15.1002,Pelangiran,Kabupaten,Indragiri Hilir,Riau
794,29257,Pinang Jaya,14.04.15.2007,Pelangiran,Kabupaten,Indragiri Hilir,Riau
795,29257,Rotan Semelur,14.04.15.2001,Pelangiran,Kabupaten,Indragiri Hilir,Riau
796,29257,Saka Palas Jaya,14.04.15.2011,Pelangiran,Kabupaten,Indragiri Hilir,Riau
797,29257,Simpang Kateman,14.04.15.2003,Pelangiran,Kabupaten,Indragiri Hilir,Riau
798,29257,Tagagiri Tama Jaya,14.04.15.2006,Pelangiran,Kabupaten,Indragiri Hilir,Riau
799,29257,Tanjungsimpang (Tanjung Simpang),14.04.15.2004,Pelangiran,Kabupaten,Indragiri Hilir,Riau
800,29257,Tegal Rejo,14.04.15.2009,Pelangiran,Kabupaten,Indragiri Hilir,Riau
801,29257,Telukbunian (Teluk Bunian),14.04.15.2014,Pelangiran,Kabupaten,Indragiri Hilir,Riau
802,29257,Terusan Beringin Jaya,14.04.15.2015,Pelangiran,Kabupaten,Indragiri Hilir,Riau
803,29257,Wonosari,14.04.15.2008,Pelangiran,Kabupaten,Indragiri Hilir,Riau
804,28353,Batang Nilo Kecil,14.05.06.2007,Pelalawan,Kabupaten,Pelalawan,Riau
805,28353,Delik,14.05.06.2008,Pelalawan,Kabupaten,Pelalawan,Riau
806,28353,Kuala Tolam,14.05.06.2004,Pelalawan,Kabupaten,Pelalawan,Riau
807,28353,Lalang Kabung,14.05.06.2010,Pelalawan,Kabupaten,Pelalawan,Riau
808,28353,Pelalawan,14.05.06.1001,Pelalawan,Kabupaten,Pelalawan,Riau
809,28353,Ransang,14.05.06.2003,Pelalawan,Kabupaten,Pelalawan,Riau
810,28353,Sering,14.05.06.2005,Pelalawan,Kabupaten,Pelalawan,Riau
811,28353,Sungai Ara,14.05.06.2002,Pelalawan,Kabupaten,Pelalawan,Riau
812,28353,Telayap,14.05.06.2006,Pelalawan,Kabupaten,Pelalawan,Riau
813,28114,Kota Baru,14.71.02.1004,Pekanbaru Kota,Kota,Pekanbaru,Riau
814,28112,Kota Tinggi,14.71.02.1006,Pekanbaru Kota,Kota,Pekanbaru,Riau
815,28116,Simpang Empat,14.71.02.1001,Pekanbaru Kota,Kota,Pekanbaru,Riau
816,28113,Sukaramai (Suka Ramai),14.71.02.1005,Pekanbaru Kota,Kota,Pekanbaru,Riau
817,28111,Sumahilang (Suma Hilang),14.71.02.1002,Pekanbaru Kota,Kota,Pekanbaru,Riau
818,28115,Tanah Datar,14.71.02.1003,Pekanbaru Kota,Kota,Pekanbaru,Riau
819,28913,Karyo Mulyo Sari,14.07.14.2009,Pekaitan,Kabupaten,Rokan Hilir,Riau
820,28913,Kubu I,14.07.14.2008,Pekaitan,Kabupaten,Rokan Hilir,Riau
821,28913,Pedamaran,14.07.14.2001,Pekaitan,Kabupaten,Rokan Hilir,Riau
822,28913,Pekaitan,14.07.14.2006,Pekaitan,Kabupaten,Rokan Hilir,Riau
823,28913,Rokan Baru,14.07.14.2002,Pekaitan,Kabupaten,Rokan Hilir,Riau
824,28913,Rokan Baru Pesisir,14.07.14.2010,Pekaitan,Kabupaten,Rokan Hilir,Riau
825,28913,Sei Besar,14.07.14.2003,Pekaitan,Kabupaten,Rokan Hilir,Riau
826,28913,Suak Air Hitam,14.07.14.2007,Pekaitan,Kabupaten,Rokan Hilir,Riau
827,28913,Suak Temenggung,14.07.14.2004,Pekaitan,Kabupaten,Rokan Hilir,Riau
828,28913,Teluk Bano II (Telukbano II),14.07.14.2005,Pekaitan,Kabupaten,Rokan Hilir,Riau
829,28292,Air Hitam,14.71.11.1004,Payung Sekaki,Kota,Pekanbaru,Riau
830,28292,Bandarraya,14.71.11.1005,Payung Sekaki,Kota,Pekanbaru,Riau
831,28292,Labuh Baru Barat,14.71.11.1003,Payung Sekaki,Kota,Pekanbaru,Riau
832,28292,Labuh Baru Timur,14.71.11.1002,Payung Sekaki,Kota,Pekanbaru,Riau
833,28292,Tampan,14.71.11.1001,Payung Sekaki,Kota,Pekanbaru,Riau
834,28292,Tirtasiak,14.71.11.1007,Payung Sekaki,Kota,Pekanbaru,Riau
835,29358,Air Molek (Air Molek I),14.02.04.1007,Pasir Penyu,Kabupaten,Indragiri Hulu,Riau
836,29358,Air Molek II,14.02.04.2008,Pasir Penyu,Kabupaten,Indragiri Hulu,Riau
837,29358,Batu Gajah,14.02.04.2017,Pasir Penyu,Kabupaten,Indragiri Hulu,Riau
838,29358,Candi Rejo,14.02.04.2018,Pasir Penyu,Kabupaten,Indragiri Hulu,Riau
839,29358,Jati Rejo (Jatirejo),14.02.04.2016,Pasir Penyu,Kabupaten,Indragiri Hulu,Riau
840,29358,Kembang Harum Beras Hilir (Kembang Harum),14.02.04.1020,Pasir Penyu,Kabupaten,Indragiri Hulu,Riau
841,29358,Lembah Dusun Gading,14.02.04.2019,Pasir Penyu,Kabupaten,Indragiri Hulu,Riau
842,29358,Pasir Keranji,14.02.04.2009,Pasir Penyu,Kabupaten,Indragiri Hulu,Riau
843,29358,Petalongan,14.02.04.2006,Pasir Penyu,Kabupaten,Indragiri Hulu,Riau
844,29358,Sekar Mawar,14.02.04.1032,Pasir Penyu,Kabupaten,Indragiri Hulu,Riau
845,29358,Serumpun Jaya,14.02.04.2030,Pasir Penyu,Kabupaten,Indragiri Hulu,Riau
846,29358,Tanah Merah,14.02.04.1033,Pasir Penyu,Kabupaten,Indragiri Hulu,Riau
847,29358,Tanjung Gading,14.02.04.1031,Pasir Penyu,Kabupaten,Indragiri Hulu,Riau
848,28995,Panipahan,14.07.06.2001,Pasir Limau Kapas,Kabupaten,Rokan Hilir,Riau
849,28995,Panipahan (Kelurahan Panipahan),14.07.06.1007,Pasir Limau Kapas,Kabupaten,Rokan Hilir,Riau
850,28995,Panipahan Darat,14.07.06.2005,Pasir Limau Kapas,Kabupaten,Rokan Hilir,Riau
851,28995,Panipahan Laut,14.07.06.2006,Pasir Limau Kapas,Kabupaten,Rokan Hilir,Riau
852,28995,Pasir Limau Kapas,14.07.06.2003,Pasir Limau Kapas,Kabupaten,Rokan Hilir,Riau
853,28995,Pulaujemur,14.07.06.2008,Pasir Limau Kapas,Kabupaten,Rokan Hilir,Riau
854,28995,Sungai Daun,14.07.06.2004,Pasir Limau Kapas,Kabupaten,Rokan Hilir,Riau
855,28995,Telukpulai (Teluk Pulai),14.07.06.2002,Pasir Limau Kapas,Kabupaten,Rokan Hilir,Riau
856,28387,Dusun Tua,14.05.04.2002,Pangkalan Lesung,Kabupaten,Pelalawan,Riau
857,28387,Genduang,14.05.04.2003,Pangkalan Lesung,Kabupaten,Pelalawan,Riau
858,28387,Mayang Sari,14.05.04.2004,Pangkalan Lesung,Kabupaten,Pelalawan,Riau
859,28387,Mulya Subur (Mulia Subur / Mulyasubur),14.05.04.2006,Pangkalan Lesung,Kabupaten,Pelalawan,Riau
860,28387,Pangkalan Lesung,14.05.04.1001,Pangkalan Lesung,Kabupaten,Pelalawan,Riau
861,28387,Pesaguan,14.05.04.2010,Pangkalan Lesung,Kabupaten,Pelalawan,Riau
862,28387,Rawang Sari,14.05.04.2005,Pangkalan Lesung,Kabupaten,Pelalawan,Riau
863,28387,Sari Makmur,14.05.04.2008,Pangkalan Lesung,Kabupaten,Pelalawan,Riau
864,28387,Sari Mulya (Sari Mulia / Sarimulya),14.05.04.2007,Pangkalan Lesung,Kabupaten,Pelalawan,Riau
865,28387,Tanjung Kuyo,14.05.04.2009,Pangkalan Lesung,Kabupaten,Pelalawan,Riau
866,28382,Batang Kulim,14.05.03.2016,Pangkalan Kuras,Kabupaten,Pelalawan,Riau
867,28382,Beringin Indah,14.05.03.2013,Pangkalan Kuras,Kabupaten,Pelalawan,Riau
868,28382,Betung,14.05.03.2009,Pangkalan Kuras,Kabupaten,Pelalawan,Riau
869,28382,Dundangan,14.05.03.2003,Pangkalan Kuras,Kabupaten,Pelalawan,Riau
870,28382,Harapan Jaya,14.05.03.2015,Pangkalan Kuras,Kabupaten,Pelalawan,Riau
871,28382,Kemang,14.05.03.2006,Pangkalan Kuras,Kabupaten,Pelalawan,Riau
872,28382,Kesuma,14.05.03.2010,Pangkalan Kuras,Kabupaten,Pelalawan,Riau
873,28382,Meranti,14.05.03.2014,Pangkalan Kuras,Kabupaten,Pelalawan,Riau
874,28382,Palas,14.05.03.2004,Pangkalan Kuras,Kabupaten,Pelalawan,Riau
875,28382,Sialang Indah,14.05.03.2012,Pangkalan Kuras,Kabupaten,Pelalawan,Riau
876,28382,Sidomukti,14.05.03.2017,Pangkalan Kuras,Kabupaten,Pelalawan,Riau
877,28382,Sorek I (Sorek Satu),14.05.03.1001,Pangkalan Kuras,Kabupaten,Pelalawan,Riau
878,28382,Sorek II (Sorek Dua),14.05.03.2002,Pangkalan Kuras,Kabupaten,Pelalawan,Riau
879,28382,Surya Indah,14.05.03.2011,Pangkalan Kuras,Kabupaten,Pelalawan,Riau
880,28382,Talau,14.05.03.2007,Pangkalan Kuras,Kabupaten,Pelalawan,Riau
881,28382,Tanjung Beringin,14.05.03.2008,Pangkalan Kuras,Kabupaten,Pelalawan,Riau
882,28382,Terantang Manuk,14.05.03.2005,Pangkalan Kuras,Kabupaten,Pelalawan,Riau
883,28381,Kuala Terusan,14.05.02.2002,Pangkalan Kerinci,Kabupaten,Pelalawan,Riau
884,28381,Makmur,14.05.02.2003,Pangkalan Kerinci,Kabupaten,Pelalawan,Riau
885,28381,Mekar Jaya,14.05.02.2001,Pangkalan Kerinci,Kabupaten,Pelalawan,Riau
886,28381,Pangkalan Kerinci Barat,14.05.02.1007,Pangkalan Kerinci,Kabupaten,Pelalawan,Riau
887,28381,Pangkalan Kerinci Kota,14.05.02.1008,Pangkalan Kerinci,Kabupaten,Pelalawan,Riau
888,28381,Pangkalan Kerinci Timur Agung,14.05.02.1009,Pangkalan Kerinci,Kabupaten,Pelalawan,Riau
889,28381,Rantau Baru,14.05.02.2005,Pangkalan Kerinci,Kabupaten,Pelalawan,Riau
890,29553,Koto Pangian/Pangean,14.09.09.2002,Pangean,Kabupaten,Kuantan Singingi,Riau
891,29553,Padang Kunik,14.09.09.2009,Pangean,Kabupaten,Kuantan Singingi,Riau
892,29553,Padang Tanggung,14.09.09.2008,Pangean,Kabupaten,Kuantan Singingi,Riau
893,29553,Pasar Baru Pangean,14.09.09.2001,Pangean,Kabupaten,Kuantan Singingi,Riau
894,29553,Pauh Angit,14.09.09.2011,Pangean,Kabupaten,Kuantan Singingi,Riau
895,29553,Pauh Angit Hulu,14.09.09.2017,Pangean,Kabupaten,Kuantan Singingi,Riau
896,29553,Pembatang,14.09.09.2010,Pangean,Kabupaten,Kuantan Singingi,Riau
897,29553,Pulauderas (Pulau Deras),14.09.09.2005,Pangean,Kabupaten,Kuantan Singingi,Riau
898,29553,Pulaukumpai (Pulau Kumpai),14.09.09.2003,Pangean,Kabupaten,Kuantan Singingi,Riau
899,29553,Pulaurengas (Pulau Rengas),14.09.09.2013,Pangean,Kabupaten,Kuantan Singingi,Riau
900,29553,Pulautongah (Pulau Tengah / Tongah),14.09.09.2004,Pangean,Kabupaten,Kuantan Singingi,Riau
901,29553,Rawang Binjai,14.09.09.2014,Pangean,Kabupaten,Kuantan Singingi,Riau
902,29553,Sako,14.09.09.2015,Pangean,Kabupaten,Kuantan Singingi,Riau
903,29553,Sukaping,14.09.09.2012,Pangean,Kabupaten,Kuantan Singingi,Riau
904,29553,Sungailangsat (Sungai Langsat),14.09.09.2016,Pangean,Kabupaten,Kuantan Singingi,Riau
905,29553,Tanah Bekali,14.09.09.2007,Pangean,Kabupaten,Kuantan Singingi,Riau
906,29553,Telukpauh (Teluk Pauh),14.09.09.2006,Pangean,Kabupaten,Kuantan Singingi,Riau
907,28550,Kembang Damai,14.06.14.2002,Pagaran Tapah Darussalam,Kabupaten,Rokan Hulu,Riau
908,28550,Pagaran Tapah,14.06.14.2001,Pagaran Tapah Darussalam,Kabupaten,Rokan Hulu,Riau
909,28550,Sangkir Indah,14.06.14.2005,Pagaran Tapah Darussalam,Kabupaten,Rokan Hulu,Riau
910,28685,Mandi Angin,14.08.03.2004,Minas,Kabupaten,Siak,Riau
911,28685,Minas Barat,14.08.03.2003,Minas,Kabupaten,Siak,Riau
912,28685,Minas Jaya,14.08.03.1001,Minas,Kabupaten,Siak,Riau
913,28685,Minas Timur,14.08.03.2002,Minas,Kabupaten,Siak,Riau
914,28685,Rantau Bertuah,14.08.03.2005,Minas,Kabupaten,Siak,Riau
915,28752,Bagan Melibur,14.10.05.2004,Merbau,Kabupaten,Kepulauan Meranti,Riau
916,28752,Lukit,14.10.05.2003,Merbau,Kabupaten,Kepulauan Meranti,Riau
917,28752,Mayang Sari,14.10.05.2023,Merbau,Kabupaten,Kepulauan Meranti,Riau
918,28752,Mekar Sari,14.10.05.2021,Merbau,Kabupaten,Kepulauan Meranti,Riau
919,28752,Meranti Bunting,14.10.05.2002,Merbau,Kabupaten,Kepulauan Meranti,Riau
920,28752,Pelantai,14.10.05.2018,Merbau,Kabupaten,Kepulauan Meranti,Riau
921,28752,Sungai Anak Kamal,14.10.05.2026,Merbau,Kabupaten,Kepulauan Meranti,Riau
922,28752,Sungai Tengah,14.10.05.2027,Merbau,Kabupaten,Kepulauan Meranti,Riau
923,28752,Tanjung Kulim,14.10.05.2019,Merbau,Kabupaten,Kepulauan Meranti,Riau
924,28752,Teluk Belitung,14.10.05.1001,Merbau,Kabupaten,Kepulauan Meranti,Riau
925,28773,Benteng Hilir,14.08.13.2003,Mempura,Kabupaten,Siak,Riau
926,28773,Benteng Hulu,14.08.13.2004,Mempura,Kabupaten,Siak,Riau
927,28773,Kampung Tengah,14.08.13.2005,Mempura,Kabupaten,Siak,Riau
928,28773,Kota Ringin,14.08.13.2001,Mempura,Kabupaten,Siak,Riau
929,28773,Merempan Hilir,14.08.13.2007,Mempura,Kabupaten,Siak,Riau
930,28773,Paluh,14.08.13.2002,Mempura,Kabupaten,Siak,Riau
931,28773,Sungaimempura (Sungai Mempura),14.08.13.1006,Mempura,Kabupaten,Siak,Riau
932,28773,Telukmerempan (Teluk Merempan),14.08.13.2008,Mempura,Kabupaten,Siak,Riau
933,28825,Guntung,14.72.05.1003,Medang Kampai,Kota,Dumai,Riau
934,28825,Mundam,14.72.05.1002,Medang Kampai,Kota,Dumai,Riau
935,28825,Pelintung,14.72.05.1004,Medang Kampai,Kota,Dumai,Riau
936,28825,Teluk Makmur,14.72.05.1001,Medang Kampai,Kota,Dumai,Riau
937,28125,Maharatu,14.71.09.1005,Marpoyan Damai,Kota,Pekanbaru,Riau
938,28125,Perhentianmarpoyan,14.71.09.1006,Marpoyan Damai,Kota,Pekanbaru,Riau
939,28125,Sidomulyo Timur,14.71.09.1003,Marpoyan Damai,Kota,Pekanbaru,Riau
940,28282,Tangkerang Barat,14.71.09.1001,Marpoyan Damai,Kota,Pekanbaru,Riau
941,28282,Tangkerang Tengah,14.71.09.1002,Marpoyan Damai,Kota,Pekanbaru,Riau
942,28125,Wonorejo,14.71.09.1004,Marpoyan Damai,Kota,Pekanbaru,Riau
943,28783,Air Jamban,14.03.09.1001,Mandau,Kabupaten,Bengkalis,Riau
944,28783,Babussalam,14.03.09.1002,Mandau,Kabupaten,Bengkalis,Riau
945,28783,Balik Alam,14.03.09.1004,Mandau,Kabupaten,Bengkalis,Riau
946,28783,Batang Serosa,14.03.09.1003,Mandau,Kabupaten,Bengkalis,Riau
947,28783,Bathin Betuah,14.03.09.2021,Mandau,Kabupaten,Bengkalis,Riau
948,28783,Duri Barat,14.03.09.1006,Mandau,Kabupaten,Bengkalis,Riau
949,28783,Duri Timur,14.03.09.1007,Mandau,Kabupaten,Bengkalis,Riau
950,28783,Gajah Sakti,14.03.09.1008,Mandau,Kabupaten,Bengkalis,Riau
951,28783,Harapan Baru,14.03.09.2011,Mandau,Kabupaten,Bengkalis,Riau
952,28783,Pematang Pudu,14.03.09.1010,Mandau,Kabupaten,Bengkalis,Riau
953,28783,Talang Mandi,14.03.09.1009,Mandau,Kabupaten,Bengkalis,Riau
954,29254,Bakau Aceh,14.04.07.2007,Mandah,Kabupaten,Indragiri Hilir,Riau
955,29254,Bantaian (Bantayan),14.04.07.2010,Mandah,Kabupaten,Indragiri Hilir,Riau
956,29254,Batang Sari,14.04.07.2011,Mandah,Kabupaten,Indragiri Hilir,Riau
957,29254,Batang Tumu,14.04.07.2008,Mandah,Kabupaten,Indragiri Hilir,Riau
958,29254,Bekawan,14.04.07.2009,Mandah,Kabupaten,Indragiri Hilir,Riau
959,29254,Belaras,14.04.07.2002,Mandah,Kabupaten,Indragiri Hilir,Riau
960,29254,Belaras Barat,14.04.07.2014,Mandah,Kabupaten,Indragiri Hilir,Riau
961,29254,Bente,14.04.07.2003,Mandah,Kabupaten,Indragiri Hilir,Riau
962,29254,Bidari Tanjung Datuk,14.04.07.2017,Mandah,Kabupaten,Indragiri Hilir,Riau
963,29254,Bolak Raya,14.04.07.2012,Mandah,Kabupaten,Indragiri Hilir,Riau
964,29254,Cahaya Baru,14.04.07.2013,Mandah,Kabupaten,Indragiri Hilir,Riau
965,29254,Igal,14.04.07.2005,Mandah,Kabupaten,Indragiri Hilir,Riau
966,29254,Khairiah Mandah,14.04.07.1004,Mandah,Kabupaten,Indragiri Hilir,Riau
967,29254,Pelanduk,14.04.07.2006,Mandah,Kabupaten,Indragiri Hilir,Riau
968,29254,Pulaucawan (Pulau Cawan),14.04.07.2001,Mandah,Kabupaten,Indragiri Hilir,Riau
969,29254,Sepakat Jaya,14.04.07.2015,Mandah,Kabupaten,Indragiri Hilir,Riau
970,29254,Suraya Mandiri,14.04.07.2016,Mandah,Kabupaten,Indragiri Hilir,Riau
971,28655,Empang Baru,14.08.11.2006,Lubuk Dalam,Kabupaten,Siak,Riau
972,28655,Lubuk Dalam,14.08.11.2001,Lubuk Dalam,Kabupaten,Siak,Riau
973,28655,Rawang Kao,14.08.11.2002,Lubuk Dalam,Kabupaten,Siak,Riau
974,28655,Rawang Kao Barat,14.08.11.2007,Lubuk Dalam,Kabupaten,Siak,Riau
975,28655,Sialang Baru,14.08.11.2004,Lubuk Dalam,Kabupaten,Siak,Riau
976,28655,Sialang Palas,14.08.11.2005,Lubuk Dalam,Kabupaten,Siak,Riau
977,28655,Sri Gading,14.08.11.2003,Lubuk Dalam,Kabupaten,Siak,Riau
978,29350,Air Putih,14.02.12.2009,Lubuk Batu Jaya,Kabupaten,Indragiri Hulu,Riau
979,29350,Kulim Jaya,14.02.12.2005,Lubuk Batu Jaya,Kabupaten,Indragiri Hulu,Riau
980,29350,Lubuk Batu Tinggal,14.02.12.2003,Lubuk Batu Jaya,Kabupaten,Indragiri Hulu,Riau
981,29350,Pondok Gelugur,14.02.12.2002,Lubuk Batu Jaya,Kabupaten,Indragiri Hulu,Riau
982,29350,Pontian Mekar,14.02.12.2008,Lubuk Batu Jaya,Kabupaten,Indragiri Hulu,Riau
983,29350,Rimpian,14.02.12.2001,Lubuk Batu Jaya,Kabupaten,Indragiri Hulu,Riau
984,29350,Sei Beberas Hilir (Sei Beras Hilir),14.02.12.2004,Lubuk Batu Jaya,Kabupaten,Indragiri Hulu,Riau
985,29350,Sei Beras-Beras,14.02.12.2006,Lubuk Batu Jaya,Kabupaten,Indragiri Hulu,Riau
986,29350,Tasik Juang,14.02.12.2007,Lubuk Batu Jaya,Kabupaten,Indragiri Hulu,Riau
987,29556,Bumi Mulya,14.09.10.2014,Logas Tanah Darat,Kabupaten,Kuantan Singingi,Riau
988,29556,Giri Sako,14.09.10.2013,Logas Tanah Darat,Kabupaten,Kuantan Singingi,Riau
989,29556,Hulu Teso,14.09.10.2012,Logas Tanah Darat,Kabupaten,Kuantan Singingi,Riau
990,29556,Kuantan Sako,14.09.10.2011,Logas Tanah Darat,Kabupaten,Kuantan Singingi,Riau
991,29556,Logas,14.09.10.2002,Logas Tanah Darat,Kabupaten,Kuantan Singingi,Riau
992,29556,Lubuk Kebun,14.09.10.2003,Logas Tanah Darat,Kabupaten,Kuantan Singingi,Riau
993,29556,Perhentian Luas,14.09.10.2001,Logas Tanah Darat,Kabupaten,Kuantan Singingi,Riau
994,29556,Rambahan,14.09.10.2006,Logas Tanah Darat,Kabupaten,Kuantan Singingi,Riau
995,29556,Sako Margasari (Sako Margosari),14.09.10.2010,Logas Tanah Darat,Kabupaten,Kuantan Singingi,Riau
996,29556,Sidodadi,14.09.10.2015,Logas Tanah Darat,Kabupaten,Kuantan Singingi,Riau
997,29556,Sikijang,14.09.10.2008,Logas Tanah Darat,Kabupaten,Kuantan Singingi,Riau
998,29556,Situgal,14.09.10.2005,Logas Tanah Darat,Kabupaten,Kuantan Singingi,Riau
999,29556,Sukaraja,14.09.10.2009,Logas Tanah Darat,Kabupaten,Kuantan Singingi,Riau
1000,29556,Sungai Rambai,14.09.10.2004,Logas Tanah Darat,Kabupaten,Kuantan Singingi,Riau
1001,29556,Teratak Rendah,14.09.10.2007,Logas Tanah Darat,Kabupaten,Kuantan Singingi,Riau
1002,29353,Banjar Balam,14.02.09.2013,Lirik,Kabupaten,Indragiri Hulu,Riau
1003,29353,Gudang Batu,14.02.09.2004,Lirik,Kabupaten,Indragiri Hulu,Riau
1004,29353,Japura,14.02.09.2001,Lirik,Kabupaten,Indragiri Hulu,Riau
1005,29353,"Lambang Sari I, II, III",14.02.09.2010,Lirik,Kabupaten,Indragiri Hulu,Riau
1006,29353,Lambang Sari IV,14.02.09.2009,Lirik,Kabupaten,Indragiri Hulu,Riau
1007,29353,Lambang Sari V,14.02.09.2008,Lirik,Kabupaten,Indragiri Hulu,Riau
1008,29353,Lirik Area,14.02.09.2006,Lirik,Kabupaten,Indragiri Hulu,Riau
1009,29353,Mekar Sari,14.02.09.2016,Lirik,Kabupaten,Indragiri Hulu,Riau
1010,29353,Pasir Ringgit,14.02.09.2003,Lirik,Kabupaten,Indragiri Hulu,Riau
1011,29353,Pasir Sialang Jaya,14.02.09.2017,Lirik,Kabupaten,Indragiri Hulu,Riau
1012,29353,Redang Seko,14.02.09.2014,Lirik,Kabupaten,Indragiri Hulu,Riau
1013,29353,Rejosari,14.02.09.2007,Lirik,Kabupaten,Indragiri Hulu,Riau
1014,29353,Seko Lubuk Tigo,14.02.09.2012,Lirik,Kabupaten,Indragiri Hulu,Riau
1015,29353,Sidomulyo,14.02.09.2002,Lirik,Kabupaten,Indragiri Hulu,Riau
1016,29353,Sukajadi,14.02.09.2015,Lirik,Kabupaten,Indragiri Hulu,Riau
1017,29353,Sungai Sagu,14.02.09.2005,Lirik,Kabupaten,Indragiri Hulu,Riau
1018,29353,Wonosari,14.02.09.2011,Lirik,Kabupaten,Indragiri Hulu,Riau
1019,28144,Pesisir,14.71.04.1003,Lima Puluh,Kota,Pekanbaru,Riau
1020,28141,Rintis,14.71.04.1001,Lima Puluh,Kota,Pekanbaru,Riau
1021,28142,Sekip,14.71.04.1004,Lima Puluh,Kota,Pekanbaru,Riau
1022,28143,Tanjung RHU (Tanjung Rhu),14.71.04.1002,Lima Puluh,Kota,Pekanbaru,Riau
1023,28380,Langgam,14.05.05.1001,Langgam,Kabupaten,Pelalawan,Riau
1024,28380,Langkan,14.05.05.2007,Langgam,Kabupaten,Pelalawan,Riau
1025,28380,Padang Luas,14.05.05.2008,Langgam,Kabupaten,Pelalawan,Riau
1026,28380,Pangkalan Gondai,14.05.05.2006,Langgam,Kabupaten,Pelalawan,Riau
1027,28380,Penarikan,14.05.05.2003,Langgam,Kabupaten,Pelalawan,Riau
1028,28380,Segati,14.05.05.2004,Langgam,Kabupaten,Pelalawan,Riau
1029,28380,Sotol,14.05.05.2005,Langgam,Kabupaten,Pelalawan,Riau
1030,28380,Tambak,14.05.05.2002,Langgam,Kabupaten,Pelalawan,Riau
1031,28467,Batulangka Kecil,14.01.05.2013,Kuok,Kabupaten,Kampar,Riau
1032,28467,Bukit Melintang,14.01.05.2010,Kuok,Kabupaten,Kampar,Riau
1033,28467,Empat Balai,14.01.05.2006,Kuok,Kabupaten,Kampar,Riau
1034,28467,Kuok,14.01.05.2001,Kuok,Kabupaten,Kampar,Riau
1035,28467,Lereng,14.01.05.2012,Kuok,Kabupaten,Kampar,Riau
1036,28467,Merangin,14.01.05.2005,Kuok,Kabupaten,Kampar,Riau
1037,28467,Pulau Jambu,14.01.05.2007,Kuok,Kabupaten,Kampar,Riau
1038,28467,Pulau Terap (Pulautarap),14.01.05.2011,Kuok,Kabupaten,Kampar,Riau
1039,28467,Silam,14.01.05.2008,Kuok,Kabupaten,Kampar,Riau
1040,28556,Bagan Tujuh,14.06.06.2018,Kunto Darussalam,Kabupaten,Rokan Hulu,Riau
1041,28556,Bukit Intan Makmur,14.06.06.2017,Kunto Darussalam,Kabupaten,Rokan Hulu,Riau
1042,28556,Kota Baru,14.06.06.2009,Kunto Darussalam,Kabupaten,Rokan Hulu,Riau
1043,28556,Kota Intan,14.06.06.2003,Kunto Darussalam,Kabupaten,Rokan Hulu,Riau
1044,28556,Kota Lama,14.06.06.1001,Kunto Darussalam,Kabupaten,Rokan Hulu,Riau
1045,28556,Kota Raya,14.06.06.2008,Kunto Darussalam,Kabupaten,Rokan Hulu,Riau
1046,28556,Muara Dilam,14.06.06.2004,Kunto Darussalam,Kabupaten,Rokan Hulu,Riau
1047,28556,Pasir Indah,14.06.06.2011,Kunto Darussalam,Kabupaten,Rokan Hulu,Riau
1048,28556,Pasir Luhur,14.06.06.2012,Kunto Darussalam,Kabupaten,Rokan Hulu,Riau
1049,28556,Sungai Kuti,14.06.06.2010,Kunto Darussalam,Kabupaten,Rokan Hulu,Riau
1050,28286,Kulim,14.71.14.1001,Kulim,Kota,Pekanbaru,Riau
1051,28286,Mentangor,14.71.14.1002,Kulim,Kota,Pekanbaru,Riau
1052,28286,Pebatuan,14.71.14.1004,Kulim,Kota,Pekanbaru,Riau
1053,28289,Pematangkapau,14.71.14.1005,Kulim,Kota,Pekanbaru,Riau
1054,28286,Sialangrampai,14.71.14.1003,Kulim,Kota,Pekanbaru,Riau
1055,28990,Jojol,14.07.15.2006,Kubu Babussalam,Kabupaten,Rokan Hilir,Riau
1056,28990,Pulauhalang Belakang (Pulau Halang Belakang),14.07.15.2008,Kubu Babussalam,Kabupaten,Rokan Hilir,Riau
1057,28990,Pulauhalang Hulu (Pulau Halang Hulu),14.07.15.2012,Kubu Babussalam,Kabupaten,Rokan Hilir,Riau
1058,28990,Pulauhalang Muka (Pulau Halang Muka),14.07.15.2007,Kubu Babussalam,Kabupaten,Rokan Hilir,Riau
1059,28990,Rantau Panjang Kiri,14.07.15.2001,Kubu Babussalam,Kabupaten,Rokan Hilir,Riau
1060,28990,Rantau Panjang Kiri Hilir,14.07.15.2009,Kubu Babussalam,Kabupaten,Rokan Hilir,Riau
1061,28990,Sungaimajo (Sei / Sungai Majo),14.07.15.2003,Kubu Babussalam,Kabupaten,Rokan Hilir,Riau
1062,28990,Sungaimajo Pusako,14.07.15.2011,Kubu Babussalam,Kabupaten,Rokan Hilir,Riau
1063,28990,Sungaipanji-panji (Sei / Sungai Panji Panji),14.07.15.2005,Kubu Babussalam,Kabupaten,Rokan Hilir,Riau
1064,28990,Sungaipinang (Sei / Sungai Pinang),14.07.15.2004,Kubu Babussalam,Kabupaten,Rokan Hilir,Riau
1065,28990,Teluknilap (Teluk Nilap),14.07.15.2002,Kubu Babussalam,Kabupaten,Rokan Hilir,Riau
1066,28990,Teluknilap Jaya (Teluk Nilap Jaya),14.07.15.2010,Kubu Babussalam,Kabupaten,Rokan Hilir,Riau
1067,28991,Rantau Panjang Kanan,14.07.01.2004,Kubu,Kabupaten,Rokan Hilir,Riau
1068,28991,Sei Segajah Makmur,14.07.01.2015,Kubu,Kabupaten,Rokan Hilir,Riau
1069,28991,Sungai Segajah Jaya,14.07.01.2022,Kubu,Kabupaten,Rokan Hilir,Riau
1070,28991,Sungaikubu (Sei / Sungai Kubu),14.07.01.2003,Kubu,Kabupaten,Rokan Hilir,Riau
1071,28991,Sungaikubu Hulu (Sungai Kubu Hulu),14.07.01.2021,Kubu,Kabupaten,Rokan Hilir,Riau
1072,28991,Sungaisegajah (Sungai Sigajah / Segajah Makmur),14.07.01.2013,Kubu,Kabupaten,Rokan Hilir,Riau
1073,28991,Tanjungleban (Tanjung Leban),14.07.01.2002,Kubu,Kabupaten,Rokan Hilir,Riau
1074,28991,Telukmerbau (Teluk Merbau),14.07.01.1010,Kubu,Kabupaten,Rokan Hilir,Riau
1075,28991,Telukpiyai (Teluk Piyai),14.07.01.2012,Kubu,Kabupaten,Rokan Hilir,Riau
1076,28991,Telukpiyai Pesisir (Teluk Piyai Pesisir),14.07.01.2020,Kubu,Kabupaten,Rokan Hilir,Riau
1077,29511,Bandar Alai,14.09.02.2001,Kuantan Tengah,Kabupaten,Kuantan Singingi,Riau
1078,29511,Beringin Taluk,14.09.02.2023,Kuantan Tengah,Kabupaten,Kuantan Singingi,Riau
1079,29511,Jake,14.09.02.2020,Kuantan Tengah,Kabupaten,Kuantan Singingi,Riau
1080,29511,Jaya,14.09.02.2022,Kuantan Tengah,Kabupaten,Kuantan Singingi,Riau
1081,29511,Kopah,14.09.02.2007,Kuantan Tengah,Kabupaten,Kuantan Singingi,Riau
1082,29511,Koto Kari,14.09.02.2017,Kuantan Tengah,Kabupaten,Kuantan Singingi,Riau
1083,29515,Koto Taluk,14.09.02.2015,Kuantan Tengah,Kabupaten,Kuantan Singingi,Riau
1084,29511,Koto Tuo,14.09.02.2006,Kuantan Tengah,Kabupaten,Kuantan Singingi,Riau
1085,29511,Munsalo,14.09.02.2008,Kuantan Tengah,Kabupaten,Kuantan Singingi,Riau
1086,29511,Pasar Teluk,14.09.02.1016,Kuantan Tengah,Kabupaten,Kuantan Singingi,Riau
1087,29511,Pintu Gobang,14.09.02.2019,Kuantan Tengah,Kabupaten,Kuantan Singingi,Riau
1088,29511,Pulau Baru (Pulaubaru),14.09.02.2005,Kuantan Tengah,Kabupaten,Kuantan Singingi,Riau
1089,29511,Pulau Godang Kari (Pulaugodang Kari),14.09.02.2021,Kuantan Tengah,Kabupaten,Kuantan Singingi,Riau
1090,29511,Pulauaro,14.09.02.2003,Kuantan Tengah,Kabupaten,Kuantan Singingi,Riau
1091,29511,Pulaubanjar Kari,14.09.02.2028,Kuantan Tengah,Kabupaten,Kuantan Singingi,Riau
1092,29514,Pulaukedundung,14.09.02.2002,Kuantan Tengah,Kabupaten,Kuantan Singingi,Riau
1093,29511,Sawah,14.09.02.2014,Kuantan Tengah,Kabupaten,Kuantan Singingi,Riau
1094,29511,Seberang Taluk,14.09.02.2004,Kuantan Tengah,Kabupaten,Kuantan Singingi,Riau
1095,29511,Seberang Taluk Hilir,14.09.02.2026,Kuantan Tengah,Kabupaten,Kuantan Singingi,Riau
1096,29511,Simpang Tiga,14.09.02.1018,Kuantan Tengah,Kabupaten,Kuantan Singingi,Riau
1097,29511,Sitorajo,14.09.02.2024,Kuantan Tengah,Kabupaten,Kuantan Singingi,Riau
1098,29513,Sungaijering,14.09.02.1025,Kuantan Tengah,Kabupaten,Kuantan Singingi,Riau
1099,29512,Titian Modang Kopah,14.09.02.2027,Kuantan Tengah,Kabupaten,Kuantan Singingi,Riau
1100,29564,Air Buluh,14.09.01.2004,Kuantan Mudik,Kabupaten,Kuantan Singingi,Riau
1101,29564,Aur Duri,14.09.01.2026,Kuantan Mudik,Kabupaten,Kuantan Singingi,Riau
1102,29564,Banjar Guntung,14.09.01.2019,Kuantan Mudik,Kabupaten,Kuantan Singingi,Riau
1103,29564,Banjar Padang,14.09.01.2011,Kuantan Mudik,Kabupaten,Kuantan Singingi,Riau
1104,29564,Bukit Kauman,14.09.01.2025,Kuantan Mudik,Kabupaten,Kuantan Singingi,Riau
1105,29564,Bukitpedusunan,14.09.01.2020,Kuantan Mudik,Kabupaten,Kuantan Singingi,Riau
1106,29564,Kasang,14.09.01.2013,Kuantan Mudik,Kabupaten,Kuantan Singingi,Riau
1107,29564,Kinali,14.09.01.2024,Kuantan Mudik,Kabupaten,Kuantan Singingi,Riau
1108,29564,Koto Cengar,14.09.01.2009,Kuantan Mudik,Kabupaten,Kuantan Singingi,Riau
1109,29564,Koto Lubuk Jambi,14.09.01.2014,Kuantan Mudik,Kabupaten,Kuantan Singingi,Riau
1110,29564,Luai,14.09.01.2018,Kuantan Mudik,Kabupaten,Kuantan Singingi,Riau
1111,29564,Lubuk Ramo,14.09.01.2007,Kuantan Mudik,Kabupaten,Kuantan Singingi,Riau
1112,29564,Muaro Tombang,14.09.01.2030,Kuantan Mudik,Kabupaten,Kuantan Singingi,Riau
1113,29564,Pantai,14.09.01.2005,Kuantan Mudik,Kabupaten,Kuantan Singingi,Riau
1114,29564,Pasar Lubuk Jambi,14.09.01.1012,Kuantan Mudik,Kabupaten,Kuantan Singingi,Riau
1115,29564,Pebaun Hilir,14.09.01.2023,Kuantan Mudik,Kabupaten,Kuantan Singingi,Riau
1116,29564,Pebaun Hulu,14.09.01.2022,Kuantan Mudik,Kabupaten,Kuantan Singingi,Riau
1117,29564,Pulaubinjai,14.09.01.2015,Kuantan Mudik,Kabupaten,Kuantan Singingi,Riau
1118,29564,Rantau Sialang,14.09.01.2017,Kuantan Mudik,Kabupaten,Kuantan Singingi,Riau
1119,29564,Saik,14.09.01.2021,Kuantan Mudik,Kabupaten,Kuantan Singingi,Riau
1120,29564,Sangau,14.09.01.2010,Kuantan Mudik,Kabupaten,Kuantan Singingi,Riau
1121,29564,Seberang Cengar,14.09.01.2008,Kuantan Mudik,Kabupaten,Kuantan Singingi,Riau
1122,29564,Seberang Pantai,14.09.01.2016,Kuantan Mudik,Kabupaten,Kuantan Singingi,Riau
1123,29564,Sungaimanau,14.09.01.2027,Kuantan Mudik,Kabupaten,Kuantan Singingi,Riau
1124,29562,Danau,14.09.13.2009,Kuantan Hilir Seberang,Kabupaten,Kuantan Singingi,Riau
1125,29562,Kasang Limau Sundai,14.09.13.2010,Kuantan Hilir Seberang,Kabupaten,Kuantan Singingi,Riau
1126,29562,Koto Rajo,14.09.13.2011,Kuantan Hilir Seberang,Kabupaten,Kuantan Singingi,Riau
1127,29562,Lumbok,14.09.13.2006,Kuantan Hilir Seberang,Kabupaten,Kuantan Singingi,Riau
1128,29562,Pelukahan,14.09.13.2004,Kuantan Hilir Seberang,Kabupaten,Kuantan Singingi,Riau
1129,29562,Pengalihan,14.09.13.2005,Kuantan Hilir Seberang,Kabupaten,Kuantan Singingi,Riau
1130,29562,Pulaubaru,14.09.13.2001,Kuantan Hilir Seberang,Kabupaten,Kuantan Singingi,Riau
1131,29562,Pulauberalo,14.09.13.2002,Kuantan Hilir Seberang,Kabupaten,Kuantan Singingi,Riau
1132,29562,Pulaukulur,14.09.13.2003,Kuantan Hilir Seberang,Kabupaten,Kuantan Singingi,Riau
1133,29562,Rawang Oguang,14.09.13.2014,Kuantan Hilir Seberang,Kabupaten,Kuantan Singingi,Riau
1134,29562,Sungaisorik,14.09.13.2013,Kuantan Hilir Seberang,Kabupaten,Kuantan Singingi,Riau
1135,29562,Tanjung,14.09.13.2012,Kuantan Hilir Seberang,Kabupaten,Kuantan Singingi,Riau
1136,29562,Tanjungpisang,14.09.13.2008,Kuantan Hilir Seberang,Kabupaten,Kuantan Singingi,Riau
1137,29562,Teratak Jering,14.09.13.2007,Kuantan Hilir Seberang,Kabupaten,Kuantan Singingi,Riau
1138,29561,Banuaran,14.09.04.2006,Kuantan Hilir,Kabupaten,Kuantan Singingi,Riau
1139,29561,Dusun Tuo,14.09.04.2020,Kuantan Hilir,Kabupaten,Kuantan Singingi,Riau
1140,29561,Gunungmelintang,14.09.04.2028,Kuantan Hilir,Kabupaten,Kuantan Singingi,Riau
1141,29561,Kampung Madura,14.09.04.2007,Kuantan Hilir,Kabupaten,Kuantan Singingi,Riau
1142,29561,Kampung Medan,14.09.04.2017,Kuantan Hilir,Kabupaten,Kuantan Singingi,Riau
1143,29561,Kampung Tengah,14.09.04.2016,Kuantan Hilir,Kabupaten,Kuantan Singingi,Riau
1144,29561,Kepala Pulau,14.09.04.2018,Kuantan Hilir,Kabupaten,Kuantan Singingi,Riau
1145,29561,Koto Tuo,14.09.04.2005,Kuantan Hilir,Kabupaten,Kuantan Singingi,Riau
1146,29561,Pasar Baru,14.09.04.1002,Kuantan Hilir,Kabupaten,Kuantan Singingi,Riau
1147,29561,Pasar Usang,14.09.04.1001,Kuantan Hilir,Kabupaten,Kuantan Singingi,Riau
1148,29561,Pulau Kijang (Pulaukijang),14.09.04.2009,Kuantan Hilir,Kabupaten,Kuantan Singingi,Riau
1149,29561,Pulaumadinah,14.09.04.2015,Kuantan Hilir,Kabupaten,Kuantan Singingi,Riau
1150,29561,Rawang Bonto,14.09.04.2004,Kuantan Hilir,Kabupaten,Kuantan Singingi,Riau
1151,29561,Simpang Pulauberalo,14.09.04.2030,Kuantan Hilir,Kabupaten,Kuantan Singingi,Riau
1152,29561,Simpang Tanah Lapang,14.09.04.2003,Kuantan Hilir,Kabupaten,Kuantan Singingi,Riau
1153,29561,Teratak Baru,14.09.04.2019,Kuantan Hilir,Kabupaten,Kuantan Singingi,Riau
1154,28385,Serapung,14.05.10.2006,Kuala Kampar,Kabupaten,Pelalawan,Riau
1155,28385,Sokoi,14.05.10.2008,Kuala Kampar,Kabupaten,Pelalawan,Riau
1156,28385,Sungai Mas,14.05.10.2009,Kuala Kampar,Kabupaten,Pelalawan,Riau
1157,28385,Sungai Solok,14.05.10.2003,Kuala Kampar,Kabupaten,Pelalawan,Riau
1158,28385,Sungai Upih,14.05.10.2004,Kuala Kampar,Kabupaten,Pelalawan,Riau
1159,28385,Tanjung Sum,14.05.10.2002,Kuala Kampar,Kabupaten,Pelalawan,Riau
1160,28385,Teluk,14.05.10.2005,Kuala Kampar,Kabupaten,Pelalawan,Riau
1161,28385,Teluk Bakau,14.05.10.2010,Kuala Kampar,Kabupaten,Pelalawan,Riau
1162,28385,Teluk Beringin,14.05.10.2007,Kuala Kampar,Kabupaten,Pelalawan,Riau
1163,28385,Teluk Dalam,14.05.10.1001,Kuala Kampar,Kabupaten,Pelalawan,Riau
1164,29280,Perigi Raja,14.04.03.2009,Kuala Indragiri,Kabupaten,Indragiri Hilir,Riau
1165,29280,Sapat,14.04.03.1007,Kuala Indragiri,Kabupaten,Indragiri Hilir,Riau
1166,29280,Sungaibela (Sungai Bela),14.04.03.2003,Kuala Indragiri,Kabupaten,Indragiri Hilir,Riau
1167,29280,Sungaibuluh (Sungai Buluh),14.04.03.2001,Kuala Indragiri,Kabupaten,Indragiri Hilir,Riau
1168,29280,Sungaipiyai (Sungai Piyai),14.04.03.2008,Kuala Indragiri,Kabupaten,Indragiri Hilir,Riau
1169,29280,Tanjunglajau (Tanjung Lajau),14.04.03.2002,Kuala Indragiri,Kabupaten,Indragiri Hilir,Riau
1170,29280,Tanjungmelayu (Tanjung Melayu),14.04.03.2010,Kuala Indragiri,Kabupaten,Indragiri Hilir,Riau
1171,29280,Telukdalam (Teluk Dalam),14.04.03.2006,Kuala Indragiri,Kabupaten,Indragiri Hilir,Riau
1172,29335,Kuala Cenaku,14.02.10.2002,Kuala Cenaku,Kabupaten,Indragiri Hulu,Riau
1173,29335,Kuala Mulia,14.02.10.2004,Kuala Cenaku,Kabupaten,Indragiri Hulu,Riau
1174,29335,Pulau Gelang,14.02.10.2003,Kuala Cenaku,Kabupaten,Indragiri Hulu,Riau
1175,29335,Pulau Jum'at (Pulau Jumat),14.02.10.2010,Kuala Cenaku,Kabupaten,Indragiri Hulu,Riau
1176,29335,Rawa Asri,14.02.10.2007,Kuala Cenaku,Kabupaten,Indragiri Hulu,Riau
1177,29335,Rawa Sekip,14.02.10.2006,Kuala Cenaku,Kabupaten,Indragiri Hulu,Riau
1178,29335,Suka Jadi,14.02.10.2008,Kuala Cenaku,Kabupaten,Indragiri Hulu,Riau
1179,29335,Tambak,14.02.10.2001,Kuala Cenaku,Kabupaten,Indragiri Hulu,Riau
1180,29335,Tanjung Sari,14.02.10.2005,Kuala Cenaku,Kabupaten,Indragiri Hulu,Riau
1181,29335,Teluk Sungkai,14.02.10.2009,Kuala Cenaku,Kabupaten,Indragiri Hulu,Riau
1182,28453,Bandur Picak,14.01.21.2002,Koto Kampar Hulu,Kabupaten,Kampar,Riau
1183,28453,Gunung Malelo,14.01.21.2003,Koto Kampar Hulu,Kabupaten,Kampar,Riau
1184,28453,Pongkai,14.01.21.2005,Koto Kampar Hulu,Kabupaten,Kampar,Riau
1185,28453,Siberuang,14.01.21.2001,Koto Kampar Hulu,Kabupaten,Kampar,Riau
1186,28453,Tabing,14.01.21.2004,Koto Kampar Hulu,Kabupaten,Kampar,Riau
1187,28453,Tanjung,14.01.21.2006,Koto Kampar Hulu,Kabupaten,Kampar,Riau
1188,28672,Buatan I,14.08.09.2004,Koto Gasib,Kabupaten,Siak,Riau
1189,28672,Buatan II,14.08.09.2005,Koto Gasib,Kabupaten,Siak,Riau
1190,28672,Empang Pandan,14.08.09.2008,Koto Gasib,Kabupaten,Siak,Riau
1191,28672,Keranji Guguh,14.08.09.2009,Koto Gasib,Kabupaten,Siak,Riau
1192,28672,Kuala Gasib,14.08.09.2002,Koto Gasib,Kabupaten,Siak,Riau
1193,28672,Pangkalan Pisang,14.08.09.2001,Koto Gasib,Kabupaten,Siak,Riau
1194,28672,Rantau Panjang,14.08.09.2007,Koto Gasib,Kabupaten,Siak,Riau
1195,28672,Sengkemang,14.08.09.2006,Koto Gasib,Kabupaten,Siak,Riau
1196,28672,Sri Gemilang,14.08.09.2010,Koto Gasib,Kabupaten,Siak,Riau
1197,28672,Tasik Seminai,14.08.09.2011,Koto Gasib,Kabupaten,Siak,Riau
1198,28672,Teluk Rimba,14.08.09.2003,Koto Gasib,Kabupaten,Siak,Riau
1199,28352,Banjar Panjang,14.05.07.2005,Kerumutan,Kabupaten,Pelalawan,Riau
1200,28352,Beringin Makmur,14.05.07.2006,Kerumutan,Kabupaten,Pelalawan,Riau
1201,28352,Bukit Lembah Subur,14.05.07.2004,Kerumutan,Kabupaten,Pelalawan,Riau
1202,28352,Kerumutan,14.05.07.1001,Kerumutan,Kabupaten,Pelalawan,Riau
1203,28352,Lipai Bulan,14.05.07.2010,Kerumutan,Kabupaten,Pelalawan,Riau
1204,28352,Mak Teduh,14.05.07.2009,Kerumutan,Kabupaten,Pelalawan,Riau
1205,28352,Pangkalan Panduk,14.05.07.2002,Kerumutan,Kabupaten,Pelalawan,Riau
1206,28352,Pangkalan Tampoi/Tampui,14.05.07.2003,Kerumutan,Kabupaten,Pelalawan,Riau
1207,28352,Pematang Tinggi,14.05.07.2007,Kerumutan,Kabupaten,Pelalawan,Riau
1208,28352,Tanjung Air Hitam,14.05.07.2008,Kerumutan,Kabupaten,Pelalawan,Riau
1209,29275,Kayu Raja,14.04.09.2017,Keritang,Kabupaten,Indragiri Hilir,Riau
1210,29275,Kembang Mekarsari (Kembang Mekar Sari),14.04.09.2006,Keritang,Kabupaten,Indragiri Hilir,Riau
1211,29275,Kota Baru Reteh,14.04.09.1003,Keritang,Kabupaten,Indragiri Hilir,Riau
1212,29275,Kota Baru Seberida,14.04.09.2005,Keritang,Kabupaten,Indragiri Hilir,Riau
1213,29275,Kuala Keritang,14.04.09.2008,Keritang,Kabupaten,Indragiri Hilir,Riau
1214,29275,Kuala Lemang,14.04.09.2009,Keritang,Kabupaten,Indragiri Hilir,Riau
1215,29275,Lintas Utara,14.04.09.2016,Keritang,Kabupaten,Indragiri Hilir,Riau
1216,29275,Nusantara Jaya,14.04.09.2004,Keritang,Kabupaten,Indragiri Hilir,Riau
1217,29275,Nyiur Permai,14.04.09.2015,Keritang,Kabupaten,Indragiri Hilir,Riau
1218,29275,Pancur,14.04.09.2012,Keritang,Kabupaten,Indragiri Hilir,Riau
1219,29275,Pasar Kembang,14.04.09.2007,Keritang,Kabupaten,Indragiri Hilir,Riau
1220,29275,Pebenaan,14.04.09.2001,Keritang,Kabupaten,Indragiri Hilir,Riau
1221,29275,Pengalihan/Pengalehan,14.04.09.2011,Keritang,Kabupaten,Indragiri Hilir,Riau
1222,29275,Petalongan,14.04.09.2014,Keritang,Kabupaten,Indragiri Hilir,Riau
1223,29275,Seberang Pebenaan,14.04.09.2002,Keritang,Kabupaten,Indragiri Hilir,Riau
1224,29275,Sencalang,14.04.09.2013,Keritang,Kabupaten,Indragiri Hilir,Riau
1225,29275,Telukkelasa (Teluk Kelasa),14.04.09.2010,Keritang,Kabupaten,Indragiri Hilir,Riau
1226,28654,Buana Bakti/Bhakti,14.08.07.2003,Kerinci Kanan,Kabupaten,Siak,Riau
1227,28654,Buatan Baru,14.08.07.2009,Kerinci Kanan,Kabupaten,Siak,Riau
1228,28654,Bukit Agung,14.08.07.2006,Kerinci Kanan,Kabupaten,Siak,Riau
1229,28654,Bukit Harapan,14.08.07.2004,Kerinci Kanan,Kabupaten,Siak,Riau
1230,28654,Delima Jaya,14.08.07.2013,Kerinci Kanan,Kabupaten,Siak,Riau
1231,28654,Gabung Makmur,14.08.07.2010,Kerinci Kanan,Kabupaten,Siak,Riau
1232,28654,Jati Mulia/Mulya,14.08.07.2011,Kerinci Kanan,Kabupaten,Siak,Riau
1233,28654,Kerinci Kanan,14.08.07.2001,Kerinci Kanan,Kabupaten,Siak,Riau
1234,28654,Kerinci Kiri,14.08.07.2002,Kerinci Kanan,Kabupaten,Siak,Riau
1235,28654,Kumbara Utama,14.08.07.2005,Kerinci Kanan,Kabupaten,Siak,Riau
1236,28654,Seminai,14.08.07.2012,Kerinci Kanan,Kabupaten,Siak,Riau
1237,28654,Simpang Perak Jaya,14.08.07.2008,Kerinci Kanan,Kabupaten,Siak,Riau
1238,28564,Kepayang (Kepayan),14.06.15.2003,Kepenuhan Hulu,Kabupaten,Rokan Hulu,Riau
1239,28564,Kepenuhan Hulu,14.06.15.2001,Kepenuhan Hulu,Kabupaten,Rokan Hulu,Riau
1240,28564,Kepenuhan Jaya,14.06.15.2005,Kepenuhan Hulu,Kabupaten,Rokan Hulu,Riau
1241,28564,Muara Jaya,14.06.15.2004,Kepenuhan Hulu,Kabupaten,Rokan Hulu,Riau
1242,28564,Pekan Tebih,14.06.15.2002,Kepenuhan Hulu,Kabupaten,Rokan Hulu,Riau
1243,28563,Kepenuhan Barat,14.06.05.2003,Kepenuhan,Kabupaten,Rokan Hulu,Riau
1244,28563,Kepenuhan Barat Mulya,14.06.05.2009,Kepenuhan,Kabupaten,Rokan Hulu,Riau
1245,28563,Kepenuhan Barat Sei Rokan Jaya,14.06.05.2006,Kepenuhan,Kabupaten,Rokan Hulu,Riau
1246,28563,Kepenuhan Baru,14.06.05.2008,Kepenuhan,Kabupaten,Rokan Hulu,Riau
1247,28563,Kepenuhan Hilir,14.06.05.2004,Kepenuhan,Kabupaten,Rokan Hulu,Riau
1248,28563,Kepenuhan Raya,14.06.05.2007,Kepenuhan,Kabupaten,Rokan Hulu,Riau
1249,28563,Kepenuhan Timur,14.06.05.2005,Kepenuhan,Kabupaten,Rokan Hulu,Riau
1250,28563,Kepenuhantengah (Kepenuhan Tengah),14.06.05.1001,Kepenuhan,Kabupaten,Rokan Hulu,Riau
1251,28563,Rantau Binuang Sakti,14.06.05.2012,Kepenuhan,Kabupaten,Rokan Hulu,Riau
1252,28563,Ulak Patian,14.06.05.2010,Kepenuhan,Kabupaten,Rokan Hulu,Riau
1253,29274,Air Balui,14.04.14.2004,Kemuning,Kabupaten,Indragiri Hilir,Riau
1254,29274,Batu Ampar,14.04.14.2002,Kemuning,Kabupaten,Indragiri Hilir,Riau
1255,29274,Kemuning Muda,14.04.14.2007,Kemuning,Kabupaten,Indragiri Hilir,Riau
1256,29274,Kemuning Tua,14.04.14.2006,Kemuning,Kabupaten,Indragiri Hilir,Riau
1257,29274,Keritang,14.04.14.2003,Kemuning,Kabupaten,Indragiri Hilir,Riau
1258,29274,Limau Manis,14.04.14.2008,Kemuning,Kabupaten,Indragiri Hilir,Riau
1259,29274,Lubuk Besar,14.04.14.2009,Kemuning,Kabupaten,Indragiri Hilir,Riau
1260,29274,Sekara,14.04.14.2010,Kemuning,Kabupaten,Indragiri Hilir,Riau
1261,29274,Sekayan,14.04.14.2012,Kemuning,Kabupaten,Indragiri Hilir,Riau
1262,29274,Selensen,14.04.14.1001,Kemuning,Kabupaten,Indragiri Hilir,Riau
1263,29274,Talang Jangkang,14.04.14.2011,Kemuning,Kabupaten,Indragiri Hilir,Riau
1264,29274,Tuk Jimun (Dusun Tuk Jimun),14.04.14.2005,Kemuning,Kabupaten,Indragiri Hilir,Riau
1265,29261,Bayas Jaya,14.04.19.2004,Kempas,Kabupaten,Indragiri Hilir,Riau
1266,29261,Danaupulai Indah (Danau Pulai Indah),14.04.19.2011,Kempas,Kabupaten,Indragiri Hilir,Riau
1267,29261,Harapan Tani,14.04.19.1007,Kempas,Kabupaten,Indragiri Hilir,Riau
1268,29261,Karya Tani,14.04.19.2008,Kempas,Kabupaten,Indragiri Hilir,Riau
1269,29261,Kempas Jaya,14.04.19.1002,Kempas,Kabupaten,Indragiri Hilir,Riau
1270,29261,Kerta Jaya,14.04.19.2009,Kempas,Kabupaten,Indragiri Hilir,Riau
1271,29261,Kulim Jaya,14.04.19.2010,Kempas,Kabupaten,Indragiri Hilir,Riau
1272,29261,Pekan Tua,14.04.19.2001,Kempas,Kabupaten,Indragiri Hilir,Riau
1273,29261,Rumbai Jaya,14.04.19.2003,Kempas,Kabupaten,Indragiri Hilir,Riau
1274,29261,Sungaiara (Sungai Arah),14.04.19.2005,Kempas,Kabupaten,Indragiri Hilir,Riau
1275,29261,Sungaigantang (Sungai Gantang),14.04.19.2006,Kempas,Kabupaten,Indragiri Hilir,Riau
1276,29261,Sungairabit (Sungai Rabit),14.04.19.2012,Kempas,Kabupaten,Indragiri Hilir,Riau
1277,29352,Bongkal Malang,14.02.03.2021,Kelayang,Kabupaten,Indragiri Hulu,Riau
1278,29352,Bukit Selanjut,14.02.03.2030,Kelayang,Kabupaten,Indragiri Hulu,Riau
1279,29352,Dusun Tua,14.02.03.2022,Kelayang,Kabupaten,Indragiri Hulu,Riau
1280,29352,Dusun Tua Pelang,14.02.03.2031,Kelayang,Kabupaten,Indragiri Hulu,Riau
1281,29352,Kota Medan,14.02.03.2008,Kelayang,Kabupaten,Indragiri Hulu,Riau
1282,29352,Pasir Beringin,14.02.03.2028,Kelayang,Kabupaten,Indragiri Hulu,Riau
1283,29352,Pelangko,14.02.03.2018,Kelayang,Kabupaten,Indragiri Hulu,Riau
1284,29352,Polak Pisang,14.02.03.2010,Kelayang,Kabupaten,Indragiri Hulu,Riau
1285,29352,Pulau Sengkilo,14.02.03.2007,Kelayang,Kabupaten,Indragiri Hulu,Riau
1286,29352,Sei/Sungai Pasir Putih,14.02.03.2026,Kelayang,Kabupaten,Indragiri Hulu,Riau
1287,29352,Simpang Kelayang,14.02.03.1019,Kelayang,Kabupaten,Indragiri Hulu,Riau
1288,29352,Simpang Kota Medan,14.02.03.2009,Kelayang,Kabupaten,Indragiri Hulu,Riau
1289,29352,Sungai Banyak Ikan,14.02.03.2024,Kelayang,Kabupaten,Indragiri Hulu,Riau
1290,29352,Sungai Golang,14.02.03.2027,Kelayang,Kabupaten,Indragiri Hulu,Riau
1291,29352,Sungai Kuning Binio (Sungai Kuning Benio),14.02.03.2029,Kelayang,Kabupaten,Indragiri Hulu,Riau
1292,29352,Tanjung Beludu,14.02.03.2025,Kelayang,Kabupaten,Indragiri Hulu,Riau
1293,29352,Teluk Sejuah,14.02.03.2020,Kelayang,Kabupaten,Indragiri Hulu,Riau
1294,29255,Air Tawar,14.04.08.2006,Kateman,Kabupaten,Indragiri Hilir,Riau
1295,29255,Amal Bakti,14.04.08.1009,Kateman,Kabupaten,Indragiri Hilir,Riau
1296,29255,Bandar Sri Gemilang,14.04.08.1010,Kateman,Kabupaten,Indragiri Hilir,Riau
1297,29255,Kuala Selat,14.04.08.2002,Kateman,Kabupaten,Indragiri Hilir,Riau
1298,29255,Makmur Jaya,14.04.08.2011,Kateman,Kabupaten,Indragiri Hilir,Riau
1299,29255,Penjuru,14.04.08.2004,Kateman,Kabupaten,Indragiri Hilir,Riau
1300,29255,Sari Mulia/Mulya,14.04.08.2005,Kateman,Kabupaten,Indragiri Hilir,Riau
1301,29255,Sungaisimbar (Sungai Simbar),14.04.08.2003,Kateman,Kabupaten,Indragiri Hilir,Riau
1302,29255,Sungaiteritip (Sungai Teritip),14.04.08.2008,Kateman,Kabupaten,Indragiri Hilir,Riau
1303,29255,Tagaraja (Tegaraja),14.04.08.1001,Kateman,Kabupaten,Indragiri Hilir,Riau
1304,29255,Tanjungraja (Tanjung Raja),14.04.08.2007,Kateman,Kabupaten,Indragiri Hilir,Riau
1305,28686,Bekalar,14.08.10.2007,Kandis,Kabupaten,Siak,Riau
1306,28686,Belutu,14.08.10.2004,Kandis,Kabupaten,Siak,Riau
1307,28686,Jambai Makmur,14.08.10.2008,Kandis,Kabupaten,Siak,Riau
1308,28686,Kandis,14.08.10.2005,Kandis,Kabupaten,Siak,Riau
1309,28686,Kandis Kota,14.08.10.1003,Kandis,Kabupaten,Siak,Riau
1310,28686,Libo Jaya,14.08.10.2011,Kandis,Kabupaten,Siak,Riau
1311,28686,Pencing Bekuto,14.08.10.2010,Kandis,Kabupaten,Siak,Riau
1312,28686,Sam Sam,14.08.10.2006,Kandis,Kabupaten,Siak,Riau
1313,28686,Simpang Belutu,14.08.10.1001,Kandis,Kabupaten,Siak,Riau
1314,28686,Sungai Gondang,14.08.10.2009,Kandis,Kabupaten,Siak,Riau
1315,28686,Telaga Sam-Sam,14.08.10.1002,Kandis,Kabupaten,Siak,Riau
1316,28469,Kampung Panjang (Air Tiris),14.01.18.2003,Kampar Utara,Kabupaten,Kampar,Riau
1317,28469,Kayu Aro,14.01.18.2004,Kampar Utara,Kabupaten,Kampar,Riau
1318,28469,Muara Jalai,14.01.18.2001,Kampar Utara,Kabupaten,Kampar,Riau
1319,28469,Naga Beralih,14.01.18.2008,Kampar Utara,Kabupaten,Kampar,Riau
1320,28469,Sawah,14.01.18.2002,Kampar Utara,Kabupaten,Kampar,Riau
1321,28469,Sei/Sungai Jalau,14.01.18.2006,Kampar Utara,Kabupaten,Kampar,Riau
1322,28469,Sei/Sungai Tonang,14.01.18.2005,Kampar Utara,Kabupaten,Kampar,Riau
1323,28469,Sendayan,14.01.18.2007,Kampar Utara,Kabupaten,Kampar,Riau
1324,28475,Bina Baru,14.01.19.2002,Kampar Kiri Tengah,Kabupaten,Kampar,Riau
1325,28475,Bukit Sakai,14.01.19.2010,Kampar Kiri Tengah,Kabupaten,Kampar,Riau
1326,28475,Hidup Baru,14.01.19.2003,Kampar Kiri Tengah,Kabupaten,Kampar,Riau
1327,28475,Karya Bakti/Bhakti,14.01.19.2004,Kampar Kiri Tengah,Kabupaten,Kampar,Riau
1328,28475,Koto Damai,14.01.19.2008,Kampar Kiri Tengah,Kabupaten,Kampar,Riau
1329,28475,Lubuk Sakai,14.01.19.2005,Kampar Kiri Tengah,Kabupaten,Kampar,Riau
1330,28475,Mayang Pongkai,14.01.19.2007,Kampar Kiri Tengah,Kabupaten,Kampar,Riau
1331,28475,Mekar Jaya,14.01.19.2011,Kampar Kiri Tengah,Kabupaten,Kampar,Riau
1332,28475,Penghidupan,14.01.19.2006,Kampar Kiri Tengah,Kabupaten,Kampar,Riau
1333,28475,Simalinyang,14.01.19.2001,Kampar Kiri Tengah,Kabupaten,Kampar,Riau
1334,28475,Utama Karya,14.01.19.2009,Kampar Kiri Tengah,Kabupaten,Kampar,Riau
1335,28474,Aur Kuning,14.01.09.2006,Kampar Kiri Hulu,Kabupaten,Kampar,Riau
1336,28474,Batu Sanggan,14.01.09.2005,Kampar Kiri Hulu,Kabupaten,Kampar,Riau
1337,28474,Batu Sasak,14.01.09.2009,Kampar Kiri Hulu,Kabupaten,Kampar,Riau
1338,28474,Bukitbetung (Bukit Betung),14.01.09.2022,Kampar Kiri Hulu,Kabupaten,Kampar,Riau
1339,28474,Danau Sontul,14.01.09.2014,Kampar Kiri Hulu,Kabupaten,Kampar,Riau
1340,28474,Deras Tajak,14.01.09.2018,Kampar Kiri Hulu,Kabupaten,Kampar,Riau
1341,28474,Dua Sepakat,14.01.09.2016,Kampar Kiri Hulu,Kabupaten,Kampar,Riau
1342,28474,Gajah Bertalut,14.01.09.2013,Kampar Kiri Hulu,Kabupaten,Kampar,Riau
1343,28474,Gema,14.01.09.2001,Kampar Kiri Hulu,Kabupaten,Kampar,Riau
1344,28474,Kebun Tinggi,14.01.09.2011,Kampar Kiri Hulu,Kabupaten,Kampar,Riau
1345,28474,Koto Lama (Kota Lama),14.01.09.2004,Kampar Kiri Hulu,Kabupaten,Kampar,Riau
1346,28474,Lubuk Bingau,14.01.09.2024,Kampar Kiri Hulu,Kabupaten,Kampar,Riau
1347,28474,Ludai,14.01.09.2007,Kampar Kiri Hulu,Kabupaten,Kampar,Riau
1348,28474,Muarobio,14.01.09.2023,Kampar Kiri Hulu,Kabupaten,Kampar,Riau
1349,28474,Pangkalan Kapas,14.01.09.2010,Kampar Kiri Hulu,Kabupaten,Kampar,Riau
1350,28474,Pangkalan Serai,14.01.09.2015,Kampar Kiri Hulu,Kabupaten,Kampar,Riau
1351,28474,Subayang Jaya,14.01.09.2020,Kampar Kiri Hulu,Kabupaten,Kampar,Riau
1352,28474,Sungai Santi,14.01.09.2019,Kampar Kiri Hulu,Kabupaten,Kampar,Riau
1353,28474,Tanjung Belit,14.01.09.2002,Kampar Kiri Hulu,Kabupaten,Kampar,Riau
1354,28474,Tanjung Belit Selatan,14.01.09.2003,Kampar Kiri Hulu,Kabupaten,Kampar,Riau
1355,28474,Tanjung Beringin,14.01.09.2012,Kampar Kiri Hulu,Kabupaten,Kampar,Riau
1356,28474,Tanjung Karang,14.01.09.2008,Kampar Kiri Hulu,Kabupaten,Kampar,Riau
1357,28474,Tanjung Permai,14.01.09.2021,Kampar Kiri Hulu,Kabupaten,Kampar,Riau
1358,28474,Terusan,14.01.09.2017,Kampar Kiri Hulu,Kabupaten,Kampar,Riau
1359,28473,Bangun Sari,14.01.08.2008,Kampar Kiri Hilir,Kabupaten,Kampar,Riau
1360,28473,Gading Permai,14.01.08.2007,Kampar Kiri Hilir,Kabupaten,Kampar,Riau
1361,28473,Mentulik,14.01.08.2002,Kampar Kiri Hilir,Kabupaten,Kampar,Riau
1362,28473,Rantau Kasih,14.01.08.2005,Kampar Kiri Hilir,Kabupaten,Kampar,Riau
1363,28473,Sungai Bunga/Bungo,14.01.08.2004,Kampar Kiri Hilir,Kabupaten,Kampar,Riau
1364,28473,Sungai Pagar,14.01.08.1001,Kampar Kiri Hilir,Kabupaten,Kampar,Riau
1365,28473,Sungai Petai,14.01.08.2006,Kampar Kiri Hilir,Kabupaten,Kampar,Riau
1366,28473,Sungai Simpang Dua,14.01.08.2003,Kampar Kiri Hilir,Kabupaten,Kampar,Riau
1367,28472,Domo,14.01.07.2005,Kampar Kiri,Kabupaten,Kampar,Riau
1368,28472,IV Koto Setingkai,14.01.07.2006,Kampar Kiri,Kabupaten,Kampar,Riau
1369,28472,Kuntu,14.01.07.2003,Kampar Kiri,Kabupaten,Kampar,Riau
1370,28472,Kuntu Darussalam,14.01.07.2030,Kampar Kiri,Kabupaten,Kampar,Riau
1371,28472,Lipat Kain,14.01.07.1027,Kampar Kiri,Kabupaten,Kampar,Riau
1372,28472,Lipat Kain Selatan,14.01.07.2029,Kampar Kiri,Kabupaten,Kampar,Riau
1373,28472,Lipat Kain Utara,14.01.07.2028,Kampar Kiri,Kabupaten,Kampar,Riau
1374,28472,Muara Selayah (Muara Selaya),14.01.07.2019,Kampar Kiri,Kabupaten,Kampar,Riau
1375,28472,Padang Sawah,14.01.07.2004,Kampar Kiri,Kabupaten,Kampar,Riau
1376,28472,Sungai Geringging,14.01.07.2013,Kampar Kiri,Kabupaten,Kampar,Riau
1377,28472,Sungai Harapan,14.01.07.2032,Kampar Kiri,Kabupaten,Kampar,Riau
1378,28472,Sungai Paku,14.01.07.2016,Kampar Kiri,Kabupaten,Kampar,Riau
1379,28472,Sungai Raja,14.01.07.2023,Kampar Kiri,Kabupaten,Kampar,Riau
1380,28472,Sungai Rambai,14.01.07.2020,Kampar Kiri,Kabupaten,Kampar,Riau
1381,28472,Sungai Sarik,14.01.07.2026,Kampar Kiri,Kabupaten,Kampar,Riau
1382,28472,Sungailiti (Sungai Liti),14.01.07.2033,Kampar Kiri,Kabupaten,Kampar,Riau
1383,28472,Tanjung Harapan,14.01.07.2021,Kampar Kiri,Kabupaten,Kampar,Riau
1384,28472,Tanjungmas (Tanjung Mas),14.01.07.2031,Kampar Kiri,Kabupaten,Kampar,Riau
1385,28472,Teluk Paman,14.01.07.2008,Kampar Kiri,Kabupaten,Kampar,Riau
1386,28472,Telukpaman Timur (Teluk Paman Timur),14.01.07.2034,Kampar Kiri,Kabupaten,Kampar,Riau
1387,28461,Air Tiris,14.01.02.1027,Kampar,Kabupaten,Kampar,Riau
1388,28461,Batu Belah,14.01.02.2001,Kampar,Kabupaten,Kampar,Riau
1389,28461,Bukit Ranah,14.01.02.2033,Kampar,Kabupaten,Kampar,Riau
1390,28461,Koto Tibun,14.01.02.2035,Kampar,Kabupaten,Kampar,Riau
1391,28461,Limau Manis,14.01.02.2028,Kampar,Kabupaten,Kampar,Riau
1392,28461,Naumbai,14.01.02.2030,Kampar,Kabupaten,Kampar,Riau
1393,28461,Padang Mutung,14.01.02.2013,Kampar,Kabupaten,Kampar,Riau
1394,28461,Penyasawan,14.01.02.2007,Kampar,Kabupaten,Kampar,Riau
1395,28461,Pulau Jambu,14.01.02.2023,Kampar,Kabupaten,Kampar,Riau
1396,28461,Pulau Sarak,14.01.02.2034,Kampar,Kabupaten,Kampar,Riau
1397,28461,Pulau Tinggi,14.01.02.2031,Kampar,Kabupaten,Kampar,Riau
1398,28461,Ranah,14.01.02.2006,Kampar,Kabupaten,Kampar,Riau
1399,28461,Ranah Baru,14.01.02.2032,Kampar,Kabupaten,Kampar,Riau
1400,28461,Ranah Singkuang,14.01.02.2036,Kampar,Kabupaten,Kampar,Riau
1401,28461,Rumbio,14.01.02.2008,Kampar,Kabupaten,Kampar,Riau
1402,28461,Simpang Kubu,14.01.02.2025,Kampar,Kabupaten,Kampar,Riau
1403,28461,Tanjung Berulak,14.01.02.2003,Kampar,Kabupaten,Kampar,Riau
1404,28461,Tanjung Rambutan,14.01.02.2024,Kampar,Kabupaten,Kampar,Riau
1405,28460,Deli Makmur,14.01.17.2006,Kampa (Kampar Timur),Kabupaten,Kampar,Riau
1406,28460,Kampar,14.01.17.2003,Kampa (Kampar Timur),Kabupaten,Kampar,Riau
1407,28460,Koto Perambahan,14.01.17.2004,Kampa (Kampar Timur),Kabupaten,Kampar,Riau
1408,28460,Pulau Birandang,14.01.17.2001,Kampa (Kampar Timur),Kabupaten,Kampar,Riau
1409,28460,Pulau Rambai,14.01.17.2002,Kampa (Kampar Timur),Kabupaten,Kampar,Riau
1410,28460,Sawahbaru (Sawah Baru),14.01.17.2009,Kampa (Kampar Timur),Kabupaten,Kampar,Riau
1411,28460,Sei/Sungai Putih,14.01.17.2005,Kampa (Kampar Timur),Kabupaten,Kampar,Riau
1412,28460,Sungaitarap (Sungai Tarap),14.01.17.2007,Kampa (Kampar Timur),Kabupaten,Kampar,Riau
1413,28460,Tanjungbungo (Tanjung Bungo),14.01.17.2008,Kampa (Kampar Timur),Kabupaten,Kampar,Riau
1414,28554,Aliantan,14.06.12.2002,Kabun,Kabupaten,Rokan Hulu,Riau
1415,28554,Batu Langkah Besar,14.06.12.2005,Kabun,Kabupaten,Rokan Hulu,Riau
1416,28554,Bencah/Boncah Kesuma,14.06.12.2004,Kabun,Kabupaten,Rokan Hulu,Riau
1417,28554,Giti,14.06.12.2006,Kabun,Kabupaten,Rokan Hulu,Riau
1418,28554,Kabun,14.06.12.2001,Kabun,Kabupaten,Rokan Hulu,Riau
1419,28554,Kota/Koto Ranah,14.06.12.2003,Kabun,Kabupaten,Rokan Hulu,Riau
1420,29569,Banjar Nan Tigo (Banjar Nantigo),14.09.11.2008,Inuman,Kabupaten,Kuantan Singingi,Riau
1421,29569,Bedeng Sikuran,14.09.11.2007,Inuman,Kabupaten,Kuantan Singingi,Riau
1422,29569,Kampung Baru Koto,14.09.11.2013,Inuman,Kabupaten,Kuantan Singingi,Riau
1423,29569,Ketaping Jaya,14.09.11.2014,Inuman,Kabupaten,Kuantan Singingi,Riau
1424,29569,Koto Inuman,14.09.11.2002,Inuman,Kabupaten,Kuantan Singingi,Riau
1425,29569,Lebuh Lurus,14.09.11.2012,Inuman,Kabupaten,Kuantan Singingi,Riau
1426,29569,Pasar Inuman,14.09.11.2001,Inuman,Kabupaten,Kuantan Singingi,Riau
1427,29569,Pulaubusuk (Pulau Busuk),14.09.11.2006,Inuman,Kabupaten,Kuantan Singingi,Riau
1428,29569,Pulaubusuk Jaya (Pulau Busuk Jaya),14.09.11.2010,Inuman,Kabupaten,Kuantan Singingi,Riau
1429,29569,Pulaupanjang Hilir (Pulau Panjang Hilir),14.09.11.2004,Inuman,Kabupaten,Kuantan Singingi,Riau
1430,29569,Pulaupanjang Hulu (Pulau Panjang Hulu),14.09.11.2003,Inuman,Kabupaten,Kuantan Singingi,Riau
1431,29569,Pulausipan (Pulau Sipan),14.09.11.2009,Inuman,Kabupaten,Kuantan Singingi,Riau
1432,29569,Seberang Pulau Busuk,14.09.11.2011,Inuman,Kabupaten,Kuantan Singingi,Riau
1433,29569,Sigaruntang,14.09.11.2005,Inuman,Kabupaten,Kuantan Singingi,Riau
1434,29568,Inuman,14.09.12.2009,Hulu Kuantan,Kabupaten,Kuantan Singingi,Riau
1435,29568,Koto Kombu,14.09.12.2006,Hulu Kuantan,Kabupaten,Kuantan Singingi,Riau
1436,29568,Lubuk Ambacang,14.09.12.2001,Hulu Kuantan,Kabupaten,Kuantan Singingi,Riau
1437,29568,Mudik Ulo,14.09.12.2008,Hulu Kuantan,Kabupaten,Kuantan Singingi,Riau
1438,29568,Sampurago,14.09.12.2012,Hulu Kuantan,Kabupaten,Kuantan Singingi,Riau
1439,29568,Serosa (Serosah / Serusa),14.09.12.2011,Hulu Kuantan,Kabupaten,Kuantan Singingi,Riau
1440,29568,Sumpu,14.09.12.2007,Hulu Kuantan,Kabupaten,Kuantan Singingi,Riau
1441,29568,Sungaialah (Sungai Alah),14.09.12.2005,Hulu Kuantan,Kabupaten,Kuantan Singingi,Riau
1442,29568,Sungaikelelawar (Sungai Kalilawar / Kelelawar),14.09.12.2002,Hulu Kuantan,Kabupaten,Kuantan Singingi,Riau
1443,29568,Sungaipinang (Sungai Pinang),14.09.12.2004,Hulu Kuantan,Kabupaten,Kuantan Singingi,Riau
1444,29568,Tanjung,14.09.12.2003,Hulu Kuantan,Kabupaten,Kuantan Singingi,Riau
1445,29568,Tanjungmedang (Tanjung Medang),14.09.12.2010,Hulu Kuantan,Kabupaten,Kuantan Singingi,Riau
1446,29565,Gunung,14.09.07.2007,Gunungtoar (Gunung Toar),Kabupaten,Kuantan Singingi,Riau
1447,29565,Kampung Baru,14.09.07.2010,Gunungtoar (Gunung Toar),Kabupaten,Kuantan Singingi,Riau
1448,29565,Koto Gunung,14.09.07.2006,Gunungtoar (Gunung Toar),Kabupaten,Kuantan Singingi,Riau
1449,29565,Lubuk Terentang (Lubuk Terantang),14.09.07.2012,Gunungtoar (Gunung Toar),Kabupaten,Kuantan Singingi,Riau
1450,29565,Petapahan,14.09.07.2009,Gunungtoar (Gunung Toar),Kabupaten,Kuantan Singingi,Riau
1451,29565,Pisang Berebus,14.09.07.2011,Gunungtoar (Gunung Toar),Kabupaten,Kuantan Singingi,Riau
1452,29565,Pulaumungkur (Pulau Mungkur),14.09.07.2001,Gunungtoar (Gunung Toar),Kabupaten,Kuantan Singingi,Riau
1453,29565,Pulaurumput (Pulau Rumput),14.09.07.2003,Gunungtoar (Gunung Toar),Kabupaten,Kuantan Singingi,Riau
1454,29565,Seberang Gunung,14.09.07.2004,Gunungtoar (Gunung Toar),Kabupaten,Kuantan Singingi,Riau
1455,29565,Seberang Sungai,14.09.07.2014,Gunungtoar (Gunung Toar),Kabupaten,Kuantan Singingi,Riau
1456,29565,Siberobah,14.09.07.2013,Gunungtoar (Gunung Toar),Kabupaten,Kuantan Singingi,Riau
1457,29565,Teberau Panjang,14.09.07.2005,Gunungtoar (Gunung Toar),Kabupaten,Kuantan Singingi,Riau
1458,29565,Telukberingin (Teluk Beringin),14.09.07.2002,Gunungtoar (Gunung Toar),Kabupaten,Kuantan Singingi,Riau
1459,29565,Toar,14.09.07.2008,Gunungtoar (Gunung Toar),Kabupaten,Kuantan Singingi,Riau
1460,28471,Gunung Mulya,14.01.20.2008,Gunung Sahilan,Kabupaten,Kampar,Riau
1461,28471,Gunung Sahilan,14.01.20.2002,Gunung Sahilan,Kabupaten,Kampar,Riau
1462,28471,Gunung Sari,14.01.20.2003,Gunung Sahilan,Kabupaten,Kampar,Riau
1463,28471,Kebun Durian,14.01.20.2001,Gunung Sahilan,Kabupaten,Kampar,Riau
1464,28471,Makmur Sejahtera,14.01.20.2009,Gunung Sahilan,Kabupaten,Kampar,Riau
1465,28471,Sahilan Darussalam,14.01.20.2007,Gunung Sahilan,Kabupaten,Kampar,Riau
1466,28471,Subarak,14.01.20.2005,Gunung Sahilan,Kabupaten,Kampar,Riau
1467,28471,Suka Makmur,14.01.20.2004,Gunung Sahilan,Kabupaten,Kampar,Riau
1468,28471,Sungai Lipai,14.01.20.2006,Gunung Sahilan,Kabupaten,Kampar,Riau
1469,29253,Harapan Makmur,14.04.06.2010,Gaung Anak Serka,Kabupaten,Indragiri Hilir,Riau
1470,29253,Idaman,14.04.06.2012,Gaung Anak Serka,Kabupaten,Indragiri Hilir,Riau
1471,29253,Kelumpang,14.04.06.2011,Gaung Anak Serka,Kabupaten,Indragiri Hilir,Riau
1472,29253,Kuala Gaung,14.04.06.2001,Gaung Anak Serka,Kabupaten,Indragiri Hilir,Riau
1473,29253,Rambaian,14.04.06.2008,Gaung Anak Serka,Kabupaten,Indragiri Hilir,Riau
1474,29253,Sungaiempat (Sungai Empat),14.04.06.1004,Gaung Anak Serka,Kabupaten,Indragiri Hilir,Riau
1475,29253,Sungaiiliran (Sungai Iliran),14.04.06.2006,Gaung Anak Serka,Kabupaten,Indragiri Hilir,Riau
1476,29253,Tanjungharapan (Tanjung Harapan),14.04.06.1009,Gaung Anak Serka,Kabupaten,Indragiri Hilir,Riau
1477,29253,Telukpantaian (Teluk Pantaian),14.04.06.2002,Gaung Anak Serka,Kabupaten,Indragiri Hilir,Riau
1478,29253,Telukpinang (Teluk Pinang),14.04.06.1005,Gaung Anak Serka,Kabupaten,Indragiri Hilir,Riau
1479,29253,Teluksungka (Teluk Sungka),14.04.06.2003,Gaung Anak Serka,Kabupaten,Indragiri Hilir,Riau
1480,29253,Teluktuasan (Teluk Tuasan),14.04.06.2007,Gaung Anak Serka,Kabupaten,Indragiri Hilir,Riau
1481,29282,Belantaraya,14.04.12.2004,Gaung,Kabupaten,Indragiri Hilir,Riau
1482,29282,Gembira,14.04.12.2012,Gaung,Kabupaten,Indragiri Hilir,Riau
1483,29282,Jerambang,14.04.12.2010,Gaung,Kabupaten,Indragiri Hilir,Riau
1484,29282,Kuala Lahang,14.04.12.1006,Gaung,Kabupaten,Indragiri Hilir,Riau
1485,29282,Lahang Baru,14.04.12.2002,Gaung,Kabupaten,Indragiri Hilir,Riau
1486,29282,Lahang Hulu,14.04.12.2008,Gaung,Kabupaten,Indragiri Hilir,Riau
1487,29282,Lahang Tengah,14.04.12.2007,Gaung,Kabupaten,Indragiri Hilir,Riau
1488,29282,Pintasan,14.04.12.2016,Gaung,Kabupaten,Indragiri Hilir,Riau
1489,29282,Pungkat,14.04.12.2009,Gaung,Kabupaten,Indragiri Hilir,Riau
1490,29282,Semambu Kuning,14.04.12.2013,Gaung,Kabupaten,Indragiri Hilir,Riau
1491,29282,Simpang Gaung,14.04.12.2003,Gaung,Kabupaten,Indragiri Hilir,Riau
1492,29282,Soren,14.04.12.2015,Gaung,Kabupaten,Indragiri Hilir,Riau
1493,29282,Sungaibaru (Sungai Baru),14.04.12.2005,Gaung,Kabupaten,Indragiri Hilir,Riau
1494,29282,Telukkabung (Teluk Kabung),14.04.12.2011,Gaung,Kabupaten,Indragiri Hilir,Riau
1495,29282,Telukmerbau,14.04.12.2014,Gaung,Kabupaten,Indragiri Hilir,Riau
1496,29282,Terusan Kempas,14.04.12.2001,Gaung,Kabupaten,Indragiri Hilir,Riau
1497,29272,Bagan Jaya,14.04.02.2009,Enok,Kabupaten,Indragiri Hilir,Riau
1498,29272,Enok,14.04.02.1001,Enok,Kabupaten,Indragiri Hilir,Riau
1499,29272,Jaya Bhakti,14.04.02.2011,Enok,Kabupaten,Indragiri Hilir,Riau
1500,29272,Pantaiseberang Makmur (Pantai Seberang Makmur),14.04.02.1013,Enok,Kabupaten,Indragiri Hilir,Riau
1501,29272,Pengalihan,14.04.02.2004,Enok,Kabupaten,Indragiri Hilir,Riau
1502,29272,Pusaran,14.04.02.1002,Enok,Kabupaten,Indragiri Hilir,Riau
1503,29272,Rantau Panjang,14.04.02.2007,Enok,Kabupaten,Indragiri Hilir,Riau
1504,29272,Simpang Tiga,14.04.02.2006,Enok,Kabupaten,Indragiri Hilir,Riau
1505,29272,Simpang Tiga Daratan,14.04.02.2014,Enok,Kabupaten,Indragiri Hilir,Riau
1506,29272,Suhada,14.04.02.2010,Enok,Kabupaten,Indragiri Hilir,Riau
1507,29272,Sungaiambat (Sungai Ambat),14.04.02.2005,Enok,Kabupaten,Indragiri Hilir,Riau
1508,29272,Sungailokan (Sungai Lokan),14.04.02.2012,Enok,Kabupaten,Indragiri Hilir,Riau
1509,29272,Sungairukam (Sungai Rukam),14.04.02.2008,Enok,Kabupaten,Indragiri Hilir,Riau
1510,29272,Telukmedan (Teluk Medan),14.04.02.1003,Enok,Kabupaten,Indragiri Hilir,Riau
1511,28811,Bukit Batrem,14.72.02.1009,Dumai Timur,Kota,Dumai,Riau
1512,28814,Buluh Kasap,14.72.02.1006,Dumai Timur,Kota,Dumai,Riau
1513,28815,Jaya Mukti,14.72.02.1004,Dumai Timur,Kota,Dumai,Riau
1514,28816,Tanjung Palas,14.72.02.1003,Dumai Timur,Kota,Dumai,Riau
1515,28813,Teluk Binjai,14.72.02.1002,Dumai Timur,Kota,Dumai,Riau
1516,28825,Bukit Datuk,14.72.07.1004,Dumai Selatan,Kota,Dumai,Riau
1517,28826,Bukit Timah,14.72.07.1002,Dumai Selatan,Kota,Dumai,Riau
1518,28813,Bumi Ayu,14.72.07.1005,Dumai Selatan,Kota,Dumai,Riau
1519,28821,Mekar Sari,14.72.07.1003,Dumai Selatan,Kota,Dumai,Riau
1520,28825,Ratu Sima,14.72.07.1001,Dumai Selatan,Kota,Dumai,Riau
1521,28812,Bintan,14.72.06.1004,Dumai Kota,Kota,Dumai,Riau
1522,28811,Dumai Kota,14.72.06.1003,Dumai Kota,Kota,Dumai,Riau
1523,28821,Laksamana,14.72.06.1001,Dumai Kota,Kota,Dumai,Riau
1524,28822,Rimba Sekampung,14.72.06.1002,Dumai Kota,Kota,Dumai,Riau
1525,28812,Sukajadi,14.72.06.1005,Dumai Kota,Kota,Dumai,Riau
1526,28821,Bagan Keladi,14.72.01.1008,Dumai Barat,Kota,Dumai,Riau
1527,28824,Pangkalan Sesai,14.72.01.1003,Dumai Barat,Kota,Dumai,Riau
1528,28823,Purnama,14.72.01.1006,Dumai Barat,Kota,Dumai,Riau
1529,28824,Simapang Tetap Darul Ichsan (Simpang Tetap),14.72.01.1009,Dumai Barat,Kota,Dumai,Riau
1530,28671,Banjar Seminai,14.08.06.2002,Dayun,Kabupaten,Siak,Riau
1531,28671,Berumbung Baru (Tilan),14.08.06.2006,Dayun,Kabupaten,Siak,Riau
1532,28671,Buana Makmur,14.08.06.2008,Dayun,Kabupaten,Siak,Riau
1533,28671,Dayun,14.08.06.2001,Dayun,Kabupaten,Siak,Riau
1534,28671,Lubuk Tilam (Lubuk Tilan),14.08.06.2005,Dayun,Kabupaten,Siak,Riau
1535,28671,Merangkai,14.08.06.2004,Dayun,Kabupaten,Siak,Riau
1536,28671,Pangkalan Makmur,14.08.06.2007,Dayun,Kabupaten,Siak,Riau
1537,28671,Sawit Permai,14.08.06.2010,Dayun,Kabupaten,Siak,Riau
1538,28671,Sialang Sakti,14.08.06.2011,Dayun,Kabupaten,Siak,Riau
1539,28671,Suka Mulia/Mulya,14.08.06.2009,Dayun,Kabupaten,Siak,Riau
1540,28671,Teluk Merbau,14.08.06.2003,Dayun,Kabupaten,Siak,Riau
1541,29281,Concong Dalam,14.04.18.2002,Concong,Kabupaten,Indragiri Hilir,Riau
1542,29281,Concong Luar,14.04.18.1001,Concong,Kabupaten,Indragiri Hilir,Riau
1543,29281,Concong Tengah,14.04.18.2003,Concong,Kabupaten,Indragiri Hilir,Riau
1544,29281,Kampung Baru,14.04.18.2004,Concong,Kabupaten,Indragiri Hilir,Riau
1545,29281,Panglima Raja,14.04.18.2005,Concong,Kabupaten,Indragiri Hilir,Riau
1546,29281,Sungaiberapit (Sungai Berapit),14.04.18.2006,Concong,Kabupaten,Indragiri Hilir,Riau
1547,29555,Kampung Baru,14.09.05.2005,Cerenti,Kabupaten,Kuantan Singingi,Riau
1548,29555,Kampung Baru Timur,14.09.05.2013,Cerenti,Kabupaten,Kuantan Singingi,Riau
1549,29555,Kompe Berangin,14.09.05.2003,Cerenti,Kabupaten,Kuantan Singingi,Riau
1550,29555,Koto Cerenti,14.09.05.2007,Cerenti,Kabupaten,Kuantan Singingi,Riau
1551,29555,Koto Peraku,14.09.05.1002,Cerenti,Kabupaten,Kuantan Singingi,Riau
1552,29555,Pasar Cerenti,14.09.05.1001,Cerenti,Kabupaten,Kuantan Singingi,Riau
1553,29555,Pesikaian/Pasikaian,14.09.05.2010,Cerenti,Kabupaten,Kuantan Singingi,Riau
1554,29555,Pulau Panjang Cerenti,14.09.05.2009,Cerenti,Kabupaten,Kuantan Singingi,Riau
1555,29555,Pulaubayur (Pulau Bayur),14.09.05.2008,Cerenti,Kabupaten,Kuantan Singingi,Riau
1556,29555,Pulaujambu (Pulau Jambu),14.09.05.2006,Cerenti,Kabupaten,Kuantan Singingi,Riau
1557,29555,Sikakak,14.09.05.2004,Cerenti,Kabupaten,Kuantan Singingi,Riau
1558,29555,Tanjungmedan (Tanjung Medan),14.09.05.2012,Cerenti,Kabupaten,Kuantan Singingi,Riau
1559,29555,Telukpauh (Teluk Pauh),14.09.05.2011,Cerenti,Kabupaten,Kuantan Singingi,Riau
1560,28386,Bagan Labah (Bagan Laguh),14.05.08.2010,Bunut,Kabupaten,Pelalawan,Riau
1561,28386,Balam Merah,14.05.08.2009,Bunut,Kabupaten,Pelalawan,Riau
1562,28386,Keriung,14.05.08.2017,Bunut,Kabupaten,Pelalawan,Riau
1563,28386,Lubuk Mandian Gajah,14.05.08.2013,Bunut,Kabupaten,Pelalawan,Riau
1564,28386,Lubuk Mas,14.05.08.2008,Bunut,Kabupaten,Pelalawan,Riau
1565,28386,Merbau,14.05.08.2002,Bunut,Kabupaten,Pelalawan,Riau
1566,28386,Pangkalan Bunut Terap (Pangkalan Bunut),14.05.08.1011,Bunut,Kabupaten,Pelalawan,Riau
1567,28386,Petani,14.05.08.2001,Bunut,Kabupaten,Pelalawan,Riau
1568,28386,Sialang Kayu Batu,14.05.08.2018,Bunut,Kabupaten,Pelalawan,Riau
1569,28386,Sungai Buluh,14.05.08.2003,Bunut,Kabupaten,Pelalawan,Riau
1570,28764,Buatan/Buantan Lestari,14.08.08.2012,Bunga Raya,Kabupaten,Siak,Riau
1571,28764,Bunga Raya,14.08.08.2001,Bunga Raya,Kabupaten,Siak,Riau
1572,28764,Dayang Suri (Dayangsuri),14.08.08.2016,Bunga Raya,Kabupaten,Siak,Riau
1573,28764,Jati Baru,14.08.08.2002,Bunga Raya,Kabupaten,Siak,Riau
1574,28764,Jayapura (Jaya Pura),14.08.08.2003,Bunga Raya,Kabupaten,Siak,Riau
1575,28764,Kemuning Muda,14.08.08.2011,Bunga Raya,Kabupaten,Siak,Riau
1576,28764,Langsat Permai,14.08.08.2014,Bunga Raya,Kabupaten,Siak,Riau
1577,28764,Suak Merambai,14.08.08.2017,Bunga Raya,Kabupaten,Siak,Riau
1578,28764,Temusai,14.08.08.2015,Bunga Raya,Kabupaten,Siak,Riau
1579,28764,Tuah Indrapura,14.08.08.2013,Bunga Raya,Kabupaten,Siak,Riau
1580,28284,Airdingin,14.71.07.1012,Bukit Raya,Kota,Pekanbaru,Riau
1581,28284,Simpang Tiga,14.71.07.1005,Bukit Raya,Kota,Pekanbaru,Riau
1582,28281,Tangkerang Labuai,14.71.07.1011,Bukit Raya,Kota,Pekanbaru,Riau
1583,28288,Tangkerang Selatan,14.71.07.1006,Bukit Raya,Kota,Pekanbaru,Riau
1584,28289,Tangkerang Utara,14.71.07.1008,Bukit Raya,Kota,Pekanbaru,Riau
1585,28882,Bagan Besar,14.72.03.1004,Bukit Kapur,Kota,Dumai,Riau
1586,28882,Bagan Besar Timur,14.72.03.1006,Bukit Kapur,Kota,Dumai,Riau
1587,28882,Bukit Kapur,14.72.03.1007,Bukit Kapur,Kota,Dumai,Riau
1588,28882,Bukit Kayu Kapur,14.72.03.1002,Bukit Kapur,Kota,Dumai,Riau
1589,28882,Bukit Nenas,14.72.03.1001,Bukit Kapur,Kota,Dumai,Riau
1590,28882,Gurun Panjang,14.72.03.1003,Bukit Kapur,Kota,Dumai,Riau
1591,28882,Kampung Baru,14.72.03.1005,Bukit Kapur,Kota,Dumai,Riau
1592,28761,Batang Duku,14.03.03.2016,Bukit Batu,Kabupaten,Bengkalis,Riau
1593,28761,Bukit Batu,14.03.03.2006,Bukit Batu,Kabupaten,Bengkalis,Riau
1594,28761,Buruk Bakul,14.03.03.2005,Bukit Batu,Kabupaten,Bengkalis,Riau
1595,28761,Dompas,14.03.03.2002,Bukit Batu,Kabupaten,Bengkalis,Riau
1596,28761,Pakning Asal,14.03.03.2017,Bukit Batu,Kabupaten,Bengkalis,Riau
1597,28761,Pangkalan Jambi,14.03.03.2003,Bukit Batu,Kabupaten,Bengkalis,Riau
1598,28761,Sejangat,14.03.03.2001,Bukit Batu,Kabupaten,Bengkalis,Riau
1599,28761,Sukajadi,14.03.03.2007,Bukit Batu,Kabupaten,Bengkalis,Riau
1600,28761,Sungai Pakning,14.03.03.1010,Bukit Batu,Kabupaten,Bengkalis,Riau
1601,28761,Sungai Selari,14.03.03.2004,Bukit Batu,Kabupaten,Bengkalis,Riau
1602,28559,Bonai,14.06.13.2003,Bonai Darussalam,Kabupaten,Rokan Hulu,Riau
1603,28559,Kasang Mungai,14.06.13.2007,Bonai Darussalam,Kabupaten,Rokan Hulu,Riau
1604,28559,Kasang Padang,14.06.13.2006,Bonai Darussalam,Kabupaten,Rokan Hulu,Riau
1605,28559,Pauh,14.06.13.2005,Bonai Darussalam,Kabupaten,Rokan Hulu,Riau
1606,28559,Rawa Makmur,14.06.13.2004,Bonai Darussalam,Kabupaten,Rokan Hulu,Riau
1607,28559,Sontang,14.06.13.2002,Bonai Darussalam,Kabupaten,Rokan Hulu,Riau
1608,28559,Teluk Sono,14.06.13.2001,Bonai Darussalam,Kabupaten,Rokan Hulu,Riau
1609,28295,Binawidya,14.71.08.1010,Binawidya,Kota,Pekanbaru,Riau
1610,28290,Delima,14.71.08.1008,Binawidya,Kota,Pekanbaru,Riau
1611,28293,Simpangbaru,14.71.08.1001,Binawidya,Kota,Pekanbaru,Riau
1612,28292,Sungaisibam,14.71.08.1014,Binawidya,Kota,Pekanbaru,Riau
1613,28297,Tobekgodang,14.71.08.1009,Binawidya,Kota,Pekanbaru,Riau
1614,28711,Air Putih,14.03.01.2011,Bengkalis,Kabupaten,Bengkalis,Riau
1615,28715,Damai,14.03.01.2029,Bengkalis,Kabupaten,Bengkalis,Riau
1616,28713,Damon/Damun,14.03.01.1002,Bengkalis,Kabupaten,Bengkalis,Riau
1617,28716,Kelapapati (Kelapa Pati),14.03.01.2004,Bengkalis,Kabupaten,Bengkalis,Riau
1618,28717,Kelebuk,14.03.01.2022,Bengkalis,Kabupaten,Bengkalis,Riau
1619,28718,Kelemantan,14.03.01.2018,Bengkalis,Kabupaten,Bengkalis,Riau
1620,28719,Kelemantan Barat,14.03.01.2028,Bengkalis,Kabupaten,Bengkalis,Riau
1621,28720,Ketam Putih,14.03.01.2017,Bengkalis,Kabupaten,Bengkalis,Riau
1622,28712,Kota Bengkalis (Bengkalis Kota),14.03.01.1001,Bengkalis,Kabupaten,Bengkalis,Riau
1623,28721,Kuala Alam,14.03.01.2021,Bengkalis,Kabupaten,Bengkalis,Riau
1624,28722,Meskom,14.03.01.2009,Bengkalis,Kabupaten,Bengkalis,Riau
1625,28723,Palkun,14.03.01.2023,Bengkalis,Kabupaten,Bengkalis,Riau
1626,28724,Pangkalan Batang,14.03.01.2006,Bengkalis,Kabupaten,Bengkalis,Riau
1627,28725,Pangkalan Batang Barat,14.03.01.2030,Bengkalis,Kabupaten,Bengkalis,Riau
1628,28726,Pedekik,14.03.01.2005,Bengkalis,Kabupaten,Bengkalis,Riau
1629,28727,Pematang Duku,14.03.01.2016,Bengkalis,Kabupaten,Bengkalis,Riau
1630,28728,Pematang Duku Timur,14.03.01.2031,Bengkalis,Kabupaten,Bengkalis,Riau
1631,28729,Penampi,14.03.01.2013,Bengkalis,Kabupaten,Bengkalis,Riau
1632,28730,Penebal,14.03.01.2015,Bengkalis,Kabupaten,Bengkalis,Riau
1633,28731,Prapat Tunggal,14.03.01.2025,Bengkalis,Kabupaten,Bengkalis,Riau
1634,28732,Rimba Sekampung,14.03.01.1003,Bengkalis,Kabupaten,Bengkalis,Riau
1635,28733,Sebauk,14.03.01.2007,Bengkalis,Kabupaten,Bengkalis,Riau
1636,28734,Sei/Sungai Alam,14.03.01.2012,Bengkalis,Kabupaten,Bengkalis,Riau
1637,28735,Sekodi,14.03.01.2019,Bengkalis,Kabupaten,Bengkalis,Riau
1638,28736,Senderak,14.03.01.2027,Bengkalis,Kabupaten,Bengkalis,Riau
1639,28714,Senggoro,14.03.01.2010,Bengkalis,Kabupaten,Bengkalis,Riau
1640,28737,Simpang Ayam,14.03.01.2026,Bengkalis,Kabupaten,Bengkalis,Riau
1641,28738,Sungai Batang,14.03.01.2024,Bengkalis,Kabupaten,Bengkalis,Riau
1642,28739,Teluklatak (Teluk Latak),14.03.01.2008,Bengkalis,Kabupaten,Bengkalis,Riau
1643,28740,Temeran,14.03.01.2014,Bengkalis,Kabupaten,Bengkalis,Riau
1644,28741,Wonosari,14.03.01.2020,Bengkalis,Kabupaten,Bengkalis,Riau
1645,29566,Banjar Benai,14.09.06.2003,Benai,Kabupaten,Kuantan Singingi,Riau
1646,29566,Banjar Lopak,14.09.06.2007,Benai,Kabupaten,Kuantan Singingi,Riau
1647,29566,Benai,14.09.06.1001,Benai,Kabupaten,Kuantan Singingi,Riau
1648,29566,Benai Kecil,14.09.06.2016,Benai,Kabupaten,Kuantan Singingi,Riau
1649,29566,Gunungkesiangan,14.09.06.2005,Benai,Kabupaten,Kuantan Singingi,Riau
1650,29566,Koto Benai,14.09.06.2021,Benai,Kabupaten,Kuantan Singingi,Riau
1651,29566,Pulauingu,14.09.06.2012,Benai,Kabupaten,Kuantan Singingi,Riau
1652,29566,Pulaukalimanting,14.09.06.2006,Benai,Kabupaten,Kuantan Singingi,Riau
1653,29566,Pulaulancang,14.09.06.2015,Benai,Kabupaten,Kuantan Singingi,Riau
1654,29566,Pulautongah,14.09.06.2010,Benai,Kabupaten,Kuantan Singingi,Riau
1655,29566,Siberakun,14.09.06.2009,Benai,Kabupaten,Kuantan Singingi,Riau
1656,29566,Simandolak,14.09.06.2013,Benai,Kabupaten,Kuantan Singingi,Riau
1657,29566,Talontom,14.09.06.2004,Benai,Kabupaten,Kuantan Singingi,Riau
1658,29566,Tanjungsimandolak,14.09.06.2008,Benai,Kabupaten,Kuantan Singingi,Riau
1659,29566,Tebing Tinggi,14.09.06.2014,Benai,Kabupaten,Kuantan Singingi,Riau
1660,29566,Ujung Tanjung,14.09.06.2011,Benai,Kabupaten,Kuantan Singingi,Riau
1661,28912,Bantayan/Bantaian,14.07.12.2001,Batu Hampar,Kabupaten,Rokan Hilir,Riau
1662,28912,Bantayan/Bantaian Baru,14.07.12.2003,Batu Hampar,Kabupaten,Rokan Hilir,Riau
1663,28912,Bantayan/Bantaian Hilir,14.07.12.1004,Batu Hampar,Kabupaten,Rokan Hilir,Riau
1664,28912,Sungaisialang (Sei / Sungai Sialang),14.07.12.2002,Batu Hampar,Kabupaten,Rokan Hilir,Riau
1665,28912,Sungaisialang Hulu (Sei / Sungai Sialang Hulu),14.07.12.2005,Batu Hampar,Kabupaten,Rokan Hilir,Riau
1666,28785,Airkulim (Air Kulim),14.03.16.2002,Bathin Solapan,Kabupaten,Bengkalis,Riau
1667,28785,Balaimakam (Balai Makam),14.03.16.2010,Bathin Solapan,Kabupaten,Bengkalis,Riau
1668,28785,Bathinsobanga (Bathin Sobanga),14.03.16.2007,Bathin Solapan,Kabupaten,Bengkalis,Riau
1669,28785,Boncahmahang (Boncah Mahang),14.03.16.2009,Bathin Solapan,Kabupaten,Bengkalis,Riau
1670,28785,Buluhmanis (Buluh Manis),14.03.16.2003,Bathin Solapan,Kabupaten,Bengkalis,Riau
1671,28785,Bumbung,14.03.16.2004,Bathin Solapan,Kabupaten,Bengkalis,Riau
1672,28785,Kesumboampai,14.03.16.2006,Bathin Solapan,Kabupaten,Bengkalis,Riau
1673,28785,Pamesi,14.03.16.2005,Bathin Solapan,Kabupaten,Bengkalis,Riau
1674,28785,Pematangobo (Pematang Obo),14.03.16.2013,Bathin Solapan,Kabupaten,Bengkalis,Riau
1675,28785,Petani,14.03.16.2001,Bathin Solapan,Kabupaten,Bengkalis,Riau
1676,28785,Sebangar,14.03.16.2008,Bathin Solapan,Kabupaten,Bengkalis,Riau
1677,28785,Simpangpadang (Simpang Padang),14.03.16.2012,Bathin Solapan,Kabupaten,Bengkalis,Riau
1678,28785,Tambusaibatangdui (Tambusai Batang Dui),14.03.16.2011,Bathin Solapan,Kabupaten,Bengkalis,Riau
1679,29252,Gemilang Jaya,14.04.11.2010,Batang Tuaka,Kabupaten,Indragiri Hilir,Riau
1680,29252,Kuala Sebatu,14.04.11.2006,Batang Tuaka,Kabupaten,Indragiri Hilir,Riau
1681,29252,Pasir Emas,14.04.11.2012,Batang Tuaka,Kabupaten,Indragiri Hilir,Riau
1682,29252,Sialang Jaya,14.04.11.2009,Batang Tuaka,Kabupaten,Indragiri Hilir,Riau
1683,29252,Simpang Jaya,14.04.11.2013,Batang Tuaka,Kabupaten,Indragiri Hilir,Riau
1684,29252,Sungaidusun (Sungai Dusun),14.04.11.2003,Batang Tuaka,Kabupaten,Indragiri Hilir,Riau
1685,29252,Sungaijunjangan (Sungai Junjangan),14.04.11.2004,Batang Tuaka,Kabupaten,Indragiri Hilir,Riau
1686,29252,Sungailuar (Sungai Luar),14.04.11.2002,Batang Tuaka,Kabupaten,Indragiri Hilir,Riau
1687,29252,Sungaipiring (Sungai Piring),14.04.11.1001,Batang Tuaka,Kabupaten,Indragiri Hilir,Riau
1688,29252,Sungairawa (Sungai Rawa),14.04.11.2008,Batang Tuaka,Kabupaten,Indragiri Hilir,Riau
1689,29252,Sungairaya (Sungai Raya),14.04.11.2005,Batang Tuaka,Kabupaten,Indragiri Hilir,Riau
1690,29252,Tanjungsiantar (Tanjung Siantar),14.04.11.2007,Batang Tuaka,Kabupaten,Indragiri Hilir,Riau
1691,29252,Tasik Raya,14.04.11.2011,Batang Tuaka,Kabupaten,Indragiri Hilir,Riau
1692,29354,Koto Tuo,14.02.14.2010,Batang Peranap,Kabupaten,Indragiri Hulu,Riau
1693,29354,Peladangan,14.02.14.2009,Batang Peranap,Kabupaten,Indragiri Hulu,Riau
1694,29354,Pematang,14.02.14.2003,Batang Peranap,Kabupaten,Indragiri Hulu,Riau
1695,29354,Pematang Benteng,14.02.14.2006,Batang Peranap,Kabupaten,Indragiri Hulu,Riau
1696,29354,Pesajian,14.02.14.2001,Batang Peranap,Kabupaten,Indragiri Hulu,Riau
1697,29354,Punti/Panti Kayu,14.02.14.2002,Batang Peranap,Kabupaten,Indragiri Hulu,Riau
1698,29354,Selunak,14.02.14.2004,Batang Peranap,Kabupaten,Indragiri Hulu,Riau
1699,29354,Sencano Jaya,14.02.14.2007,Batang Peranap,Kabupaten,Indragiri Hulu,Riau
1700,29354,Suka Maju (Sukamaju),14.02.14.2005,Batang Peranap,Kabupaten,Indragiri Hulu,Riau
1701,29354,Sungai Aur,14.02.14.2008,Batang Peranap,Kabupaten,Indragiri Hulu,Riau
1702,29356,Belimbing,14.02.08.2007,Batang Gangsal (Batang Gansal),Kabupaten,Indragiri Hulu,Riau
1703,29356,Danau Rambai,14.02.08.2011,Batang Gangsal (Batang Gansal),Kabupaten,Indragiri Hulu,Riau
1704,29356,Penyaguan,14.02.08.2010,Batang Gangsal (Batang Gansal),Kabupaten,Indragiri Hulu,Riau
1705,29356,Rantau Langsat,14.02.08.2002,Batang Gangsal (Batang Gansal),Kabupaten,Indragiri Hulu,Riau
1706,29356,Ringin,14.02.08.2008,Batang Gangsal (Batang Gansal),Kabupaten,Indragiri Hulu,Riau
1707,29356,Seberida,14.02.08.2005,Batang Gangsal (Batang Gansal),Kabupaten,Indragiri Hulu,Riau
1708,29356,Siambul,14.02.08.2001,Batang Gangsal (Batang Gansal),Kabupaten,Indragiri Hulu,Riau
1709,29356,Sungai Akar,14.02.08.2003,Batang Gangsal (Batang Gansal),Kabupaten,Indragiri Hulu,Riau
1710,29356,Talang Lakat,14.02.08.2006,Batang Gangsal (Batang Gansal),Kabupaten,Indragiri Hulu,Riau
1711,29356,Usul,14.02.08.2004,Batang Gangsal (Batang Gansal),Kabupaten,Indragiri Hulu,Riau
1712,29355,Alim,14.02.07.2018,Batang Cenaku,Kabupaten,Indragiri Hulu,Riau
1713,29355,Anak Talang,14.02.07.2002,Batang Cenaku,Kabupaten,Indragiri Hulu,Riau
1714,29355,Aur Cina,14.02.07.2019,Batang Cenaku,Kabupaten,Indragiri Hulu,Riau
1715,29355,Batu Papan,14.02.07.2022,Batang Cenaku,Kabupaten,Indragiri Hulu,Riau
1716,29355,Bukit Lingkar,14.02.07.2004,Batang Cenaku,Kabupaten,Indragiri Hulu,Riau
1717,29355,Bukit Lipai,14.02.07.2005,Batang Cenaku,Kabupaten,Indragiri Hulu,Riau
1718,29355,Cenaku Kecil,14.02.07.2017,Batang Cenaku,Kabupaten,Indragiri Hulu,Riau
1719,29355,Kepayang Sari,14.02.07.2021,Batang Cenaku,Kabupaten,Indragiri Hulu,Riau
1720,29355,Kerubung Jaya,14.02.07.2008,Batang Cenaku,Kabupaten,Indragiri Hulu,Riau
1721,29355,Kuala Gading,14.02.07.2006,Batang Cenaku,Kabupaten,Indragiri Hulu,Riau
1722,29355,Kuala Kilan,14.02.07.2007,Batang Cenaku,Kabupaten,Indragiri Hulu,Riau
1723,29355,Lahai Kemuning,14.02.07.2020,Batang Cenaku,Kabupaten,Indragiri Hulu,Riau
1724,29355,Pataling/Petaling Jaya,14.02.07.2015,Batang Cenaku,Kabupaten,Indragiri Hulu,Riau
1725,29355,Pejangki,14.02.07.2009,Batang Cenaku,Kabupaten,Indragiri Hulu,Riau
1726,29355,Pematang Manggis,14.02.07.2010,Batang Cenaku,Kabupaten,Indragiri Hulu,Riau
1727,29355,Punti Anai,14.02.07.2014,Batang Cenaku,Kabupaten,Indragiri Hulu,Riau
1728,29355,Sanglap,14.02.07.2023,Batang Cenaku,Kabupaten,Indragiri Hulu,Riau
1729,29355,Sipang,14.02.07.2011,Batang Cenaku,Kabupaten,Indragiri Hulu,Riau
1730,29355,Talang Bersemi,14.02.07.2012,Batang Cenaku,Kabupaten,Indragiri Hulu,Riau
1731,29355,Talang Mulia/Mulya,14.02.07.2013,Batang Cenaku,Kabupaten,Indragiri Hulu,Riau
1732,28763,Bantan Air,14.03.02.2002,Bantan,Kabupaten,Bengkalis,Riau
1733,28763,Bantan Sari,14.03.02.2019,Bantan,Kabupaten,Bengkalis,Riau
1734,28763,Bantan Tengah,14.03.02.2001,Bantan,Kabupaten,Bengkalis,Riau
1735,28763,Bantan Timur,14.03.02.2020,Bantan,Kabupaten,Bengkalis,Riau
1736,28763,Bantan Tua,14.03.02.2003,Bantan,Kabupaten,Bengkalis,Riau
1737,28763,Berancah,14.03.02.2011,Bantan,Kabupaten,Bengkalis,Riau
1738,28763,Deluk,14.03.02.2023,Bantan,Kabupaten,Bengkalis,Riau
1739,28763,Jangkang,14.03.02.2008,Bantan,Kabupaten,Bengkalis,Riau
1740,28763,Kembung Baru,14.03.02.2017,Bantan,Kabupaten,Bengkalis,Riau
1741,28763,Kembung Luar,14.03.02.2007,Bantan,Kabupaten,Bengkalis,Riau
1742,28763,Mentayan,14.03.02.2013,Bantan,Kabupaten,Bengkalis,Riau
1743,28763,Muntai,14.03.02.2009,Bantan,Kabupaten,Bengkalis,Riau
1744,28763,Muntai Barat,14.03.02.2022,Bantan,Kabupaten,Bengkalis,Riau
1745,28763,Pambang Pesisir,14.03.02.2014,Bantan,Kabupaten,Bengkalis,Riau
1746,28763,Pampang Baru,14.03.02.2016,Bantan,Kabupaten,Bengkalis,Riau
1747,28763,Pasiran,14.03.02.2018,Bantan,Kabupaten,Bengkalis,Riau
1748,28763,Resam Lapis,14.03.02.2010,Bantan,Kabupaten,Bengkalis,Riau
1749,28763,Selat Baru,14.03.02.2005,Bantan,Kabupaten,Bengkalis,Riau
1750,28763,Suka Maju,14.03.02.2015,Bantan,Kabupaten,Bengkalis,Riau
1751,28763,Teluk Lancar,14.03.02.2006,Bantan,Kabupaten,Bengkalis,Riau
1752,28763,Teluk Papal,14.03.02.2021,Bantan,Kabupaten,Bengkalis,Riau
1753,28763,Telukpambang,14.03.02.2004,Bantan,Kabupaten,Bengkalis,Riau
1754,28763,Ulu Pulau,14.03.02.2012,Bantan,Kabupaten,Bengkalis,Riau
1755,28557,Bangun Purba,14.06.10.2004,Bangun Purba,Kabupaten,Rokan Hulu,Riau
1756,28557,Bangun Purba Barat,14.06.10.2006,Bangun Purba,Kabupaten,Rokan Hulu,Riau
1757,28557,Bangun Purba Timur Jaya,14.06.10.2005,Bangun Purba,Kabupaten,Rokan Hulu,Riau
1758,28557,Pasir Agung,14.06.10.2001,Bangun Purba,Kabupaten,Rokan Hulu,Riau
1759,28557,Pasir Intan,14.06.10.2002,Bangun Purba,Kabupaten,Rokan Hulu,Riau
1760,28557,Rambah Jaya,14.06.10.2003,Bangun Purba,Kabupaten,Rokan Hulu,Riau
1761,28557,Tangun,14.06.10.2007,Bangun Purba,Kabupaten,Rokan Hulu,Riau
1762,28993,Bangko Bakti,14.07.10.2004,Bangko Pusako / Pusaka,Kabupaten,Rokan Hilir,Riau
1763,28993,Bangko Balam,14.07.10.2015,Bangko Pusako / Pusaka,Kabupaten,Rokan Hilir,Riau
1764,28993,Bangko Jaya,14.07.10.2002,Bangko Pusako / Pusaka,Kabupaten,Rokan Hilir,Riau
1765,28993,Bangko Kanan,14.07.10.1001,Bangko Pusako / Pusaka,Kabupaten,Rokan Hilir,Riau
1766,28993,Bangko Kiri,14.07.10.1006,Bangko Pusako / Pusaka,Kabupaten,Rokan Hilir,Riau
1767,28993,Bangko Lestari,14.07.10.2014,Bangko Pusako / Pusaka,Kabupaten,Rokan Hilir,Riau
1768,28993,Bangko Makmur,14.07.10.2009,Bangko Pusako / Pusaka,Kabupaten,Rokan Hilir,Riau
1769,28993,Bangko Mas Raya,14.07.10.2016,Bangko Pusako / Pusaka,Kabupaten,Rokan Hilir,Riau
1770,28993,Bangko Mukti,14.07.10.2013,Bangko Pusako / Pusaka,Kabupaten,Rokan Hilir,Riau
1771,28993,Bangko Permata,14.07.10.2012,Bangko Pusako / Pusaka,Kabupaten,Rokan Hilir,Riau
1772,28993,Bangko Pusaka (Pusako),14.07.10.2005,Bangko Pusako / Pusaka,Kabupaten,Rokan Hilir,Riau
1773,28993,Bangko Sempurna,14.07.10.2003,Bangko Pusako / Pusaka,Kabupaten,Rokan Hilir,Riau
1774,28993,Pematang Damar,14.07.10.2010,Bangko Pusako / Pusaka,Kabupaten,Rokan Hilir,Riau
1775,28993,Pematang Ibul,14.07.10.2011,Bangko Pusako / Pusaka,Kabupaten,Rokan Hilir,Riau
1776,28993,Sungai Menasib (Sei Manasib),14.07.10.2007,Bangko Pusako / Pusaka,Kabupaten,Rokan Hilir,Riau
1777,28993,Teluk Bano I,14.07.10.2008,Bangko Pusako / Pusaka,Kabupaten,Rokan Hilir,Riau
1778,28912,Bagan Barat,14.07.02.1016,Bangko,Kabupaten,Rokan Hilir,Riau
1779,28912,Bagan Hulu,14.07.02.1015,Bangko,Kabupaten,Rokan Hilir,Riau
1780,28913,Bagan Jawa,14.07.02.2013,Bangko,Kabupaten,Rokan Hilir,Riau
1781,28912,Bagan Jawa Pesisir,14.07.02.2021,Bangko,Kabupaten,Rokan Hilir,Riau
1782,28911,Bagan Kota,14.07.02.1012,Bangko,Kabupaten,Rokan Hilir,Riau
1783,28912,Bagan Punak,14.07.02.1011,Bangko,Kabupaten,Rokan Hilir,Riau
1784,28912,Bagan Punak Meranti,14.07.02.2024,Bangko,Kabupaten,Rokan Hilir,Riau
1785,28912,Bagan Punak Pesisir,14.07.02.2025,Bangko,Kabupaten,Rokan Hilir,Riau
1786,28912,Bagan Timur,14.07.02.1017,Bangko,Kabupaten,Rokan Hilir,Riau
1787,28912,Labuhan Tangga Baru,14.07.02.2019,Bangko,Kabupaten,Rokan Hilir,Riau
1788,28913,Labuhan Tangga Besar,14.07.02.2010,Bangko,Kabupaten,Rokan Hilir,Riau
1789,28912,Labuhan Tangga Hilir,14.07.02.2023,Bangko,Kabupaten,Rokan Hilir,Riau
1790,28912,Labuhan Tangga Kecil,14.07.02.2009,Bangko,Kabupaten,Rokan Hilir,Riau
1791,28914,Parit Aman,14.07.02.2014,Bangko,Kabupaten,Rokan Hilir,Riau
1792,28912,Serusa,14.07.02.2022,Bangko,Kabupaten,Rokan Hilir,Riau
1793,28411,Bangkinang (Bangkinang Kota),14.01.01.1011,Bangkinang Kota,Kabupaten,Kampar,Riau
1794,28411,Kumantan,14.01.01.2009,Bangkinang Kota,Kabupaten,Kampar,Riau
1795,28412,Langgini Sialang (Langgini),14.01.01.1013,Bangkinang Kota,Kabupaten,Kampar,Riau
1796,28411,Rindan Permai (Ridan Permai),14.01.01.2010,Bangkinang Kota,Kabupaten,Kampar,Riau
1797,28463,Binuang,14.01.15.2009,Bangkinang,Kabupaten,Kampar,Riau
1798,28463,Bukit Sembilan,14.01.15.2006,Bangkinang,Kabupaten,Kampar,Riau
1799,28463,Bukitpayung (Bukit Payung),14.01.15.2004,Bangkinang,Kabupaten,Kampar,Riau
1800,28463,Laboy Jaya (Laboi Jaya),14.01.15.2003,Bangkinang,Kabupaten,Kampar,Riau
1801,28463,Muara Uwai,14.01.15.2002,Bangkinang,Kabupaten,Kampar,Riau
1802,28463,Pasir Sialang,14.01.15.1008,Bangkinang,Kabupaten,Kampar,Riau
1803,28463,Pulau,14.01.15.1007,Bangkinang,Kabupaten,Kampar,Riau
1804,28463,Pulau Lawas,14.01.15.2001,Bangkinang,Kabupaten,Kampar,Riau
1805,28463,Suka Mulya,14.01.15.2005,Bangkinang,Kabupaten,Kampar,Riau
1806,28383,Kiab Jaya,14.05.11.2005,Bandar Sei Kijang,Kabupaten,Pelalawan,Riau
1807,28383,Lubuk Ogung,14.05.11.2002,Bandar Sei Kijang,Kabupaten,Pelalawan,Riau
1808,28383,Muda Setia,14.05.11.2004,Bandar Sei Kijang,Kabupaten,Pelalawan,Riau
1809,28383,Sei Kijang,14.05.11.1001,Bandar Sei Kijang,Kabupaten,Pelalawan,Riau
1810,28383,Simpang Beringin,14.05.11.2003,Bandar Sei Kijang,Kabupaten,Pelalawan,Riau
1811,28384,Airterjun (Air Terjun),14.05.12.2010,Bandar Petalangan,Kabupaten,Pelalawan,Riau
1812,28384,Angkasa,14.05.12.2006,Bandar Petalangan,Kabupaten,Pelalawan,Riau
1813,28384,Kuala Semundam,14.05.12.2001,Bandar Petalangan,Kabupaten,Pelalawan,Riau
1814,28384,Lubuk Keranji Timur,14.05.12.2009,Bandar Petalangan,Kabupaten,Pelalawan,Riau
1815,28384,Lubuk Raja,14.05.12.2008,Bandar Petalangan,Kabupaten,Pelalawan,Riau
1816,28384,Lubuk Terap,14.05.12.2005,Bandar Petalangan,Kabupaten,Pelalawan,Riau
1817,28384,Rawang Empat,14.05.12.1002,Bandar Petalangan,Kabupaten,Pelalawan,Riau
1818,28384,Sialang Bungkuk,14.05.12.2011,Bandar Petalangan,Kabupaten,Pelalawan,Riau
1819,28384,Sialang Godang,14.05.12.2007,Bandar Petalangan,Kabupaten,Pelalawan,Riau
1820,28384,Tambun,14.05.12.2003,Bandar Petalangan,Kabupaten,Pelalawan,Riau
1821,28384,Terbangiang,14.05.12.2004,Bandar Petalangan,Kabupaten,Pelalawan,Riau
1822,28762,Api Api,14.03.14.2003,Bandar Laksamana,Kabupaten,Bengkalis,Riau
1823,28762,Bukitkerikil (Bukit Kerikil),14.03.14.2006,Bandar Laksamana,Kabupaten,Bengkalis,Riau
1824,28762,Parit I Api Api (Paritsatuapi Api),14.03.14.2001,Bandar Laksamana,Kabupaten,Bengkalis,Riau
1825,28762,Sepahat,14.03.14.2005,Bandar Laksamana,Kabupaten,Bengkalis,Riau
1826,28762,Tanjungleban (Tanjung Leban),14.03.14.2007,Bandar Laksamana,Kabupaten,Bengkalis,Riau
1827,28762,Temiang,14.03.14.2002,Bandar Laksamana,Kabupaten,Bengkalis,Riau
1828,28762,Tenggayun,14.03.14.2004,Bandar Laksamana,Kabupaten,Bengkalis,Riau
1829,28992,Bagan Bhakti,14.07.18.2006,Balai Jaya,Kabupaten,Rokan Hilir,Riau
1830,28992,Balai Jaya,14.07.18.2004,Balai Jaya,Kabupaten,Rokan Hilir,Riau
1831,28992,Balai Jaya Kota,14.07.18.1001,Balai Jaya,Kabupaten,Rokan Hilir,Riau
1832,28992,Balam Jaya,14.07.18.2003,Balai Jaya,Kabupaten,Rokan Hilir,Riau
1833,28992,Balam Sempurna,14.07.18.2005,Balai Jaya,Kabupaten,Rokan Hilir,Riau
1834,28992,Balam Sempurna Kota,14.07.18.1002,Balai Jaya,Kabupaten,Rokan Hilir,Riau
1835,28992,Kencana,14.07.18.2007,Balai Jaya,Kabupaten,Rokan Hilir,Riau
1836,28992,Lubuk Jawi,14.07.18.2011,Balai Jaya,Kabupaten,Rokan Hilir,Riau
1837,28992,Pasir Putih,14.07.18.2008,Balai Jaya,Kabupaten,Rokan Hilir,Riau
1838,28992,Pasir Putih Barat,14.07.18.2010,Balai Jaya,Kabupaten,Rokan Hilir,Riau
1839,28992,Pasir Putih Utara,14.07.18.2009,Balai Jaya,Kabupaten,Rokan Hilir,Riau
1840,28992,Bagan Batu,14.07.05.2002,Bagansinembah (Bagan Sinembah),Kabupaten,Rokan Hilir,Riau
1841,28992,Bagan Batu Kota,14.07.05.1018,Bagansinembah (Bagan Sinembah),Kabupaten,Rokan Hilir,Riau
1842,28992,Bagan Manunggal,14.07.05.2016,Bagansinembah (Bagan Sinembah),Kabupaten,Rokan Hilir,Riau
1843,28992,Bagan Sapta Permai,14.07.05.2017,Bagansinembah (Bagan Sinembah),Kabupaten,Rokan Hilir,Riau
1844,28992,Bahtera Makmur,14.07.05.2003,Bagansinembah (Bagan Sinembah),Kabupaten,Rokan Hilir,Riau
1845,28992,Bahtera Makmur Kota,14.07.05.1019,Bagansinembah (Bagan Sinembah),Kabupaten,Rokan Hilir,Riau
1846,28992,Bakti Makmur,14.07.05.2025,Bagansinembah (Bagan Sinembah),Kabupaten,Rokan Hilir,Riau
1847,28992,Bhayangkara Jaya,14.07.05.2031,Bagansinembah (Bagan Sinembah),Kabupaten,Rokan Hilir,Riau
1848,28992,Gelora,14.07.05.2008,Bagansinembah (Bagan Sinembah),Kabupaten,Rokan Hilir,Riau
1849,28992,Jaya Agung,14.07.05.2028,Bagansinembah (Bagan Sinembah),Kabupaten,Rokan Hilir,Riau
1850,28992,Meranti Makmur,14.07.05.2030,Bagansinembah (Bagan Sinembah),Kabupaten,Rokan Hilir,Riau
1851,28992,Pelita,14.07.05.2007,Bagansinembah (Bagan Sinembah),Kabupaten,Rokan Hilir,Riau
1852,28992,Suka Maju,14.07.05.2015,Bagansinembah (Bagan Sinembah),Kabupaten,Rokan Hilir,Riau
1853,28992,Bagan Sinembah,14.07.17.2002,Bagan Sinembah Raya,Kabupaten,Rokan Hilir,Riau
1854,28992,Bagan Sinembah Barat,14.07.17.2010,Bagan Sinembah Raya,Kabupaten,Rokan Hilir,Riau
1855,28992,Bagan Sinembah Kota,14.07.17.1001,Bagan Sinembah Raya,Kabupaten,Rokan Hilir,Riau
1856,28992,Bagan Sinembah Timur,14.07.17.2008,Bagan Sinembah Raya,Kabupaten,Rokan Hilir,Riau
1857,28992,Bagan Sinembah Utara,14.07.17.2009,Bagan Sinembah Raya,Kabupaten,Rokan Hilir,Riau
1858,28992,Harapan Makmur,14.07.17.2004,Bagan Sinembah Raya,Kabupaten,Rokan Hilir,Riau
1859,28992,Harapan Makmur Selatan,14.07.17.2003,Bagan Sinembah Raya,Kabupaten,Rokan Hilir,Riau
1860,28992,Makmur Jaya,14.07.17.2005,Bagan Sinembah Raya,Kabupaten,Rokan Hilir,Riau
1861,28992,Panca Mukti,14.07.17.2007,Bagan Sinembah Raya,Kabupaten,Rokan Hilir,Riau
1862,28992,Salak,14.07.17.2006,Bagan Sinembah Raya,Kabupaten,Rokan Hilir,Riau