no,postal_code,urban,area_code,sub_district,dt2,city,province
1,91342,Arjo Sari (Arjosari),76.04.03.2013,Wonomulyo,Kabupaten,Polewali Mandar,Sulawesi Barat
2,91342,Bakka-Bakka,76.04.03.2012,Wonomulyo,Kabupaten,Polewali Mandar,Sulawesi Barat
3,91342,Banua Baru,76.04.03.2006,Wonomulyo,Kabupaten,Polewali Mandar,Sulawesi Barat
4,91342,Bumiayu,76.04.03.2004,Wonomulyo,Kabupaten,Polewali Mandar,Sulawesi Barat
5,91342,Bumimulyo (Bumi Mulyo),76.04.03.2010,Wonomulyo,Kabupaten,Polewali Mandar,Sulawesi Barat
6,91342,Campurjo,76.04.03.2009,Wonomulyo,Kabupaten,Polewali Mandar,Sulawesi Barat
7,91342,Galeson (Geleso),76.04.03.2014,Wonomulyo,Kabupaten,Polewali Mandar,Sulawesi Barat
8,91342,Kebunsari,76.04.03.2005,Wonomulyo,Kabupaten,Polewali Mandar,Sulawesi Barat
9,91342,Nepo,76.04.03.2007,Wonomulyo,Kabupaten,Polewali Mandar,Sulawesi Barat
10,91342,Sidodadi,76.04.03.1001,Wonomulyo,Kabupaten,Polewali Mandar,Sulawesi Barat
11,91342,Sidorejo,76.04.03.2002,Wonomulyo,Kabupaten,Polewali Mandar,Sulawesi Barat
12,91342,Sugihwaras (Sugih Waras),76.04.03.2008,Wonomulyo,Kabupaten,Polewali Mandar,Sulawesi Barat
13,91342,Sumberejo (Sumberjo),76.04.03.2003,Wonomulyo,Kabupaten,Polewali Mandar,Sulawesi Barat
14,91342,Tumpiling,76.04.03.2011,Wonomulyo,Kabupaten,Polewali Mandar,Sulawesi Barat
15,91454,Kabiraan,76.05.05.2001,Ulumanda (Ulumunda),Kabupaten,Majene,Sulawesi Barat
16,91454,Panggalo,76.05.05.2008,Ulumanda (Ulumunda),Kabupaten,Majene,Sulawesi Barat
17,91454,Popenga,76.05.05.2006,Ulumanda (Ulumunda),Kabupaten,Majene,Sulawesi Barat
18,91454,Salutambung,76.05.05.2005,Ulumanda (Ulumunda),Kabupaten,Majene,Sulawesi Barat
19,91454,Sambabo,76.05.05.2002,Ulumanda (Ulumunda),Kabupaten,Majene,Sulawesi Barat
20,91454,Sulai,76.05.05.2007,Ulumanda (Ulumunda),Kabupaten,Majene,Sulawesi Barat
21,91454,Tandeallo,76.05.05.2003,Ulumanda (Ulumunda),Kabupaten,Majene,Sulawesi Barat
22,91454,Ulumanda,76.05.05.2004,Ulumanda (Ulumunda),Kabupaten,Majene,Sulawesi Barat
23,91355,Ambopadang (Ambo Padang),76.04.05.2002,"Tutar (Tubbi Taramanu, Tutallu)",Kabupaten,Polewali Mandar,Sulawesi Barat
24,91355,Arabua,76.04.05.2010,"Tutar (Tubbi Taramanu, Tutallu)",Kabupaten,Polewali Mandar,Sulawesi Barat
25,91355,Besoangin,76.04.05.2005,"Tutar (Tubbi Taramanu, Tutallu)",Kabupaten,Polewali Mandar,Sulawesi Barat
26,91355,Besoangin Utara,76.04.05.2011,"Tutar (Tubbi Taramanu, Tutallu)",Kabupaten,Polewali Mandar,Sulawesi Barat
27,91355,Peburru,76.04.05.2007,"Tutar (Tubbi Taramanu, Tutallu)",Kabupaten,Polewali Mandar,Sulawesi Barat
28,91355,Piriang Tapiko,76.04.05.2006,"Tutar (Tubbi Taramanu, Tutallu)",Kabupaten,Polewali Mandar,Sulawesi Barat
29,91355,Poda,76.04.05.2012,"Tutar (Tubbi Taramanu, Tutallu)",Kabupaten,Polewali Mandar,Sulawesi Barat
30,91355,Pollewani,76.04.05.2009,"Tutar (Tubbi Taramanu, Tutallu)",Kabupaten,Polewali Mandar,Sulawesi Barat
31,91355,Ratte,76.04.05.2004,"Tutar (Tubbi Taramanu, Tutallu)",Kabupaten,Polewali Mandar,Sulawesi Barat
32,91355,Taloba,76.04.05.2008,"Tutar (Tubbi Taramanu, Tutallu)",Kabupaten,Polewali Mandar,Sulawesi Barat
33,91355,Taramanu,76.04.05.1001,"Tutar (Tubbi Taramanu, Tutallu)",Kabupaten,Polewali Mandar,Sulawesi Barat
34,91355,Taramanu Tua,76.04.05.2013,"Tutar (Tubbi Taramanu, Tutallu)",Kabupaten,Polewali Mandar,Sulawesi Barat
35,91355,Tubbi,76.04.05.2003,"Tutar (Tubbi Taramanu, Tutallu)",Kabupaten,Polewali Mandar,Sulawesi Barat
36,91455,Bonde Bonde,76.05.07.2005,Tubo Sendana,Kabupaten,Majene,Sulawesi Barat
37,91455,Onang (Onang Selatan),76.05.07.2001,Tubo Sendana,Kabupaten,Majene,Sulawesi Barat
38,91455,Onang Utara,76.05.07.2003,Tubo Sendana,Kabupaten,Majene,Sulawesi Barat
39,91455,Tubo,76.05.07.2002,Tubo Sendana,Kabupaten,Majene,Sulawesi Barat
40,91455,Tubo Poang,76.05.07.2007,Tubo Sendana,Kabupaten,Majene,Sulawesi Barat
41,91455,Tubo Selatan,76.05.07.2004,Tubo Sendana,Kabupaten,Majene,Sulawesi Barat
42,91455,Tubo Tengah,76.05.07.2006,Tubo Sendana,Kabupaten,Majene,Sulawesi Barat
43,91464,Bambamanurung,76.06.04.2012,Topoyo,Kabupaten,Mamuju Tengah,Sulawesi Barat
44,91464,Budong-Budong,76.06.04.2001,Topoyo,Kabupaten,Mamuju Tengah,Sulawesi Barat
45,91464,Kabubu,76.06.04.2004,Topoyo,Kabupaten,Mamuju Tengah,Sulawesi Barat
46,91464,Pangalloang,76.06.04.2014,Topoyo,Kabupaten,Mamuju Tengah,Sulawesi Barat
47,91464,Paraili,76.06.04.2008,Topoyo,Kabupaten,Mamuju Tengah,Sulawesi Barat
48,91464,Salulekbo (Salulebo),76.06.04.2013,Topoyo,Kabupaten,Mamuju Tengah,Sulawesi Barat
49,91464,Salupangkang,76.06.04.2009,Topoyo,Kabupaten,Mamuju Tengah,Sulawesi Barat
50,91464,Salupangkang IV,76.06.04.2010,Topoyo,Kabupaten,Mamuju Tengah,Sulawesi Barat
51,91464,Sinabatta,76.06.04.2015,Topoyo,Kabupaten,Mamuju Tengah,Sulawesi Barat
52,91464,Tabolang,76.06.04.2007,Topoyo,Kabupaten,Mamuju Tengah,Sulawesi Barat
53,91464,Tangkou (Tangkau),76.06.04.2006,Topoyo,Kabupaten,Mamuju Tengah,Sulawesi Barat
54,91464,Tappilina,76.06.04.2011,Topoyo,Kabupaten,Mamuju Tengah,Sulawesi Barat
55,91464,Topoyo,76.06.04.2002,Topoyo,Kabupaten,Mamuju Tengah,Sulawesi Barat
56,91464,Tumbu,76.06.04.2003,Topoyo,Kabupaten,Mamuju Tengah,Sulawesi Barat
57,91464,Waeputeh (Wae Puteh),76.06.04.2005,Topoyo,Kabupaten,Mamuju Tengah,Sulawesi Barat
58,91564,Buana Sakti,76.02.11.2003,Tommo,Kabupaten,Mamuju,Sulawesi Barat
59,91564,Campaloga,76.02.11.2002,Tommo,Kabupaten,Mamuju,Sulawesi Barat
60,91564,Kakullasang (Kakulasang / Kakullasan),76.02.11.2008,Tommo,Kabupaten,Mamuju,Sulawesi Barat
61,91564,Kalepu,76.02.11.2010,Tommo,Kabupaten,Mamuju,Sulawesi Barat
62,91564,Leling,76.02.11.2009,Tommo,Kabupaten,Mamuju,Sulawesi Barat
63,91564,Leling Barat,76.02.11.2012,Tommo,Kabupaten,Mamuju,Sulawesi Barat
64,91564,Leling Utara,76.02.11.2013,Tommo,Kabupaten,Mamuju,Sulawesi Barat
65,91564,Malino,76.02.11.2007,Tommo,Kabupaten,Mamuju,Sulawesi Barat
66,91564,Rantemario (Rante Mario),76.02.11.2006,Tommo,Kabupaten,Mamuju,Sulawesi Barat
67,91564,Saludengen,76.02.11.2014,Tommo,Kabupaten,Mamuju,Sulawesi Barat
68,91564,Sandana,76.02.11.2011,Tommo,Kabupaten,Mamuju,Sulawesi Barat
69,91564,Tamejarra (Tammejarra),76.02.11.2005,Tommo,Kabupaten,Mamuju,Sulawesi Barat
70,91564,Tamemongga,76.02.11.2004,Tommo,Kabupaten,Mamuju,Sulawesi Barat
71,91564,Tommo,76.02.11.2001,Tommo,Kabupaten,Mamuju,Sulawesi Barat
72,91463,Bambadaru,76.06.01.2006,Tobadak,Kabupaten,Mamuju Tengah,Sulawesi Barat
73,91463,Batu Parigi,76.06.01.2005,Tobadak,Kabupaten,Mamuju Tengah,Sulawesi Barat
74,91463,Mahahe,76.06.01.2001,Tobadak,Kabupaten,Mamuju Tengah,Sulawesi Barat
75,91463,Palongaan (Polongaan),76.06.01.2004,Tobadak,Kabupaten,Mamuju Tengah,Sulawesi Barat
76,91463,Saloadak,76.06.01.2008,Tobadak,Kabupaten,Mamuju Tengah,Sulawesi Barat
77,91463,Salobaja (Sulobaja),76.06.01.2002,Tobadak,Kabupaten,Mamuju Tengah,Sulawesi Barat
78,91463,Sejati,76.06.01.2007,Tobadak,Kabupaten,Mamuju Tengah,Sulawesi Barat
79,91463,Tobadak,76.06.01.2003,Tobadak,Kabupaten,Mamuju Tengah,Sulawesi Barat
80,91356,Batulaya,76.04.01.2007,Tinambung,Kabupaten,Polewali Mandar,Sulawesi Barat
81,91356,Galung Lombok,76.04.01.2005,Tinambung,Kabupaten,Polewali Mandar,Sulawesi Barat
82,91356,Karama,76.04.01.2002,Tinambung,Kabupaten,Polewali Mandar,Sulawesi Barat
83,91356,Lekopadis,76.04.01.2004,Tinambung,Kabupaten,Polewali Mandar,Sulawesi Barat
84,91356,Sepabatu (Sepa Batu),76.04.01.2008,Tinambung,Kabupaten,Polewali Mandar,Sulawesi Barat
85,91356,Tandung,76.04.01.2006,Tinambung,Kabupaten,Polewali Mandar,Sulawesi Barat
86,91356,Tangnga-Tangnga,76.04.01.2003,Tinambung,Kabupaten,Polewali Mandar,Sulawesi Barat
87,91356,Tinambung,76.04.01.1001,Tinambung,Kabupaten,Polewali Mandar,Sulawesi Barat
88,91579,Jengeng Raya,76.01.08.2005,Tikke Raya,Kabupaten,Pasangkayu (Mamuju Utara),Sulawesi Barat
89,91579,Lariang,76.01.08.2003,Tikke Raya,Kabupaten,Pasangkayu (Mamuju Utara),Sulawesi Barat
90,91579,Makmur Jaya,76.01.08.2002,Tikke Raya,Kabupaten,Pasangkayu (Mamuju Utara),Sulawesi Barat
91,91579,Pajalele (Pakawa),76.01.08.2004,Tikke Raya,Kabupaten,Pasangkayu (Mamuju Utara),Sulawesi Barat
92,91579,Tikke,76.01.08.2001,Tikke Raya,Kabupaten,Pasangkayu (Mamuju Utara),Sulawesi Barat
93,91368,Kariango,76.03.14.2003,Tawalian,Kabupaten,Mamasa,Sulawesi Barat
94,91368,Rantetangnga (Rante Tangnga),76.03.14.2004,Tawalian,Kabupaten,Mamasa,Sulawesi Barat
95,91368,Tawalian,76.03.14.1001,Tawalian,Kabupaten,Mamasa,Sulawesi Barat
96,91368,Tawalian Timur,76.03.14.2002,Tawalian,Kabupaten,Mamasa,Sulawesi Barat
97,91341,Banato Rejo,76.04.07.2014,Tapango,Kabupaten,Polewali Mandar,Sulawesi Barat
98,91341,Batu,76.04.07.2005,Tapango,Kabupaten,Polewali Mandar,Sulawesi Barat
99,91341,Bussu,76.04.07.2010,Tapango,Kabupaten,Polewali Mandar,Sulawesi Barat
100,91341,Dakka,76.04.07.2004,Tapango,Kabupaten,Polewali Mandar,Sulawesi Barat
101,91341,Jambu Malea,76.04.07.2012,Tapango,Kabupaten,Polewali Mandar,Sulawesi Barat
102,91341,Kalimbua,76.04.07.2013,Tapango,Kabupaten,Polewali Mandar,Sulawesi Barat
103,91341,Kurrak,76.04.07.2009,Tapango,Kabupaten,Polewali Mandar,Sulawesi Barat
104,91341,Palatta,76.04.07.2007,Tapango,Kabupaten,Polewali Mandar,Sulawesi Barat
105,91341,Pelitakan,76.04.07.1001,Tapango,Kabupaten,Polewali Mandar,Sulawesi Barat
106,91341,Rappang,76.04.07.2003,Tapango,Kabupaten,Polewali Mandar,Sulawesi Barat
107,91341,Riso,76.04.07.2006,Tapango,Kabupaten,Polewali Mandar,Sulawesi Barat
108,91341,Tapango,76.04.07.2002,Tapango,Kabupaten,Polewali Mandar,Sulawesi Barat
109,91341,Tapango Barat,76.04.07.2008,Tapango,Kabupaten,Polewali Mandar,Sulawesi Barat
110,91341,Tuttula,76.04.07.2011,Tapango,Kabupaten,Polewali Mandar,Sulawesi Barat
111,91552,Ahu,76.02.13.2007,Tapalang Barat,Kabupaten,Mamuju,Sulawesi Barat
112,91552,Dungkait,76.02.13.2001,Tapalang Barat,Kabupaten,Mamuju,Sulawesi Barat
113,91552,Labuang Rano,76.02.13.2003,Tapalang Barat,Kabupaten,Mamuju,Sulawesi Barat
114,91552,Lebani,76.02.13.2002,Tapalang Barat,Kabupaten,Mamuju,Sulawesi Barat
115,91552,Pangasaan,76.02.13.2006,Tapalang Barat,Kabupaten,Mamuju,Sulawesi Barat
116,91552,Pasabu (Pasa Bu),76.02.13.2004,Tapalang Barat,Kabupaten,Mamuju,Sulawesi Barat
117,91552,Tanete Pao,76.02.13.2005,Tapalang Barat,Kabupaten,Mamuju,Sulawesi Barat
118,91551,Bela,76.02.02.2009,Tapalang,Kabupaten,Mamuju,Sulawesi Barat
119,91551,Dayanginna,76.02.02.1014,Tapalang,Kabupaten,Mamuju,Sulawesi Barat
120,91551,Galung,76.02.02.1001,Tapalang,Kabupaten,Mamuju,Sulawesi Barat
121,91551,Kasambang,76.02.02.1002,Tapalang,Kabupaten,Mamuju,Sulawesi Barat
122,91551,Kopeang,76.02.02.2013,Tapalang,Kabupaten,Mamuju,Sulawesi Barat
123,91551,Orobatu,76.02.02.2003,Tapalang,Kabupaten,Mamuju,Sulawesi Barat
124,91551,Rantedoda,76.02.02.2012,Tapalang,Kabupaten,Mamuju,Sulawesi Barat
125,91551,Taan (Taang / Ta'an),76.02.02.2010,Tapalang,Kabupaten,Mamuju,Sulawesi Barat
126,91551,Takandeang,76.02.02.2006,Tapalang,Kabupaten,Mamuju,Sulawesi Barat
127,91551,Tampalang,76.02.02.2011,Tapalang,Kabupaten,Mamuju,Sulawesi Barat
128,91367,Ballabatu,76.03.09.2010,Tanduk Kalua,Kabupaten,Mamasa,Sulawesi Barat
129,91367,Kanan,76.03.09.2015,Tanduk Kalua,Kabupaten,Mamasa,Sulawesi Barat
130,91367,Malabo,76.03.09.2001,Tanduk Kalua,Kabupaten,Mamasa,Sulawesi Barat
131,91367,Mannababa,76.03.09.2008,Tanduk Kalua,Kabupaten,Mamasa,Sulawesi Barat
132,91367,Mesakada,76.03.09.2009,Tanduk Kalua,Kabupaten,Mamasa,Sulawesi Barat
133,91367,Minake,76.03.09.1011,Tanduk Kalua,Kabupaten,Mamasa,Sulawesi Barat
134,91367,Pambe,76.03.09.2012,Tanduk Kalua,Kabupaten,Mamasa,Sulawesi Barat
135,91367,Parondobulawan,76.03.09.2006,Tanduk Kalua,Kabupaten,Mamasa,Sulawesi Barat
136,91367,Salurano,76.03.09.2013,Tanduk Kalua,Kabupaten,Mamasa,Sulawesi Barat
137,91367,Sindagamanik,76.03.09.2005,Tanduk Kalua,Kabupaten,Mamasa,Sulawesi Barat
138,91367,Talimbung,76.03.09.2014,Tanduk Kalua,Kabupaten,Mamasa,Sulawesi Barat
139,91367,Tamalantik,76.03.09.2007,Tanduk Kalua,Kabupaten,Mamasa,Sulawesi Barat
140,91450,Awo,76.05.06.2007,Tammerodo Sendana (Tammeredo Sendana),Kabupaten,Majene,Sulawesi Barat
141,91450,Manyamba,76.05.06.2006,Tammerodo Sendana (Tammeredo Sendana),Kabupaten,Majene,Sulawesi Barat
142,91450,Seppong,76.05.06.2001,Tammerodo Sendana (Tammeredo Sendana),Kabupaten,Majene,Sulawesi Barat
143,91450,Tallambalao,76.05.06.2004,Tammerodo Sendana (Tammeredo Sendana),Kabupaten,Majene,Sulawesi Barat
144,91450,Tammerodo,76.05.06.2002,Tammerodo Sendana (Tammeredo Sendana),Kabupaten,Majene,Sulawesi Barat
145,91450,Tammerodo Utara,76.05.06.2005,Tammerodo Sendana (Tammeredo Sendana),Kabupaten,Majene,Sulawesi Barat
146,91450,Ulidang,76.05.06.2003,Tammerodo Sendana (Tammeredo Sendana),Kabupaten,Majene,Sulawesi Barat
147,91372,Burana,76.03.05.2009,Tabulahan,Kabupaten,Mamasa,Sulawesi Barat
148,91372,Gandang Dewata,76.03.05.2008,Tabulahan,Kabupaten,Mamasa,Sulawesi Barat
149,91372,Lakahang,76.03.05.1001,Tabulahan,Kabupaten,Mamasa,Sulawesi Barat
150,91372,Lakahang Utama,76.03.05.2015,Tabulahan,Kabupaten,Mamasa,Sulawesi Barat
151,91372,Malatiro,76.03.05.2003,Tabulahan,Kabupaten,Mamasa,Sulawesi Barat
152,91372,Pangandaran,76.03.05.2011,Tabulahan,Kabupaten,Mamasa,Sulawesi Barat
153,91372,Periangan,76.03.05.2002,Tabulahan,Kabupaten,Mamasa,Sulawesi Barat
154,91372,Peu' (Peu),76.03.05.2013,Tabulahan,Kabupaten,Mamasa,Sulawesi Barat
155,91372,Salubakka,76.03.05.2010,Tabulahan,Kabupaten,Mamasa,Sulawesi Barat
156,91372,Saluleang,76.03.05.2005,Tabulahan,Kabupaten,Mamasa,Sulawesi Barat
157,91372,Tabulahan,76.03.05.2004,Tabulahan,Kabupaten,Mamasa,Sulawesi Barat
158,91372,Talopak,76.03.05.2012,Tabulahan,Kabupaten,Mamasa,Sulawesi Barat
159,91372,Tampak Kurra,76.03.05.2007,Tabulahan,Kabupaten,Mamasa,Sulawesi Barat
160,91372,Timoro,76.03.05.2014,Tabulahan,Kabupaten,Mamasa,Sulawesi Barat
161,91364,Bakadisura,76.03.10.2007,Tabang,Kabupaten,Mamasa,Sulawesi Barat
162,91364,Kalama,76.03.10.2006,Tabang,Kabupaten,Mamasa,Sulawesi Barat
163,91364,Masupu,76.03.10.2005,Tabang,Kabupaten,Mamasa,Sulawesi Barat
164,91364,Salukona,76.03.10.2008,Tabang,Kabupaten,Mamasa,Sulawesi Barat
165,91364,Tabang,76.03.10.1001,Tabang,Kabupaten,Mamasa,Sulawesi Barat
166,91364,Tabang Barat,76.03.10.2004,Tabang,Kabupaten,Mamasa,Sulawesi Barat
167,91364,Tadokalua,76.03.10.2003,Tabang,Kabupaten,Mamasa,Sulawesi Barat
168,91360,Banea,76.03.06.2009,Sumarorong,Kabupaten,Mamasa,Sulawesi Barat
169,91360,Batang Uru,76.03.06.2003,Sumarorong,Kabupaten,Mamasa,Sulawesi Barat
170,91360,Batangnguru Timur,76.03.06.2007,Sumarorong,Kabupaten,Mamasa,Sulawesi Barat
171,91360,Rante Kamase,76.03.06.2010,Sumarorong,Kabupaten,Mamasa,Sulawesi Barat
172,91360,Salubalo,76.03.06.2008,Sumarorong,Kabupaten,Mamasa,Sulawesi Barat
173,91360,Sasakan,76.03.06.2004,Sumarorong,Kabupaten,Mamasa,Sulawesi Barat
174,91360,Sibanawa,76.03.06.2006,Sumarorong,Kabupaten,Mamasa,Sulawesi Barat
175,91360,Sumarorong,76.03.06.1001,Sumarorong,Kabupaten,Mamasa,Sulawesi Barat
176,91360,Tabone,76.03.06.1002,Sumarorong,Kabupaten,Mamasa,Sulawesi Barat
177,91360,Tadisi,76.03.06.2005,Sumarorong,Kabupaten,Mamasa,Sulawesi Barat
178,91512,Botteng,76.02.12.2003,Simboro (Simboro dan Kepulauan),Kabupaten,Mamuju,Sulawesi Barat
179,91512,Botteng Utara,76.02.12.2007,Simboro (Simboro dan Kepulauan),Kabupaten,Mamuju,Sulawesi Barat
180,91512,Pati'di,76.02.12.2009,Simboro (Simboro dan Kepulauan),Kabupaten,Mamuju,Sulawesi Barat
181,91512,Rangas,76.02.12.1002,Simboro (Simboro dan Kepulauan),Kabupaten,Mamuju,Sulawesi Barat
182,91512,Saletto (Salletto),76.02.12.2004,Simboro (Simboro dan Kepulauan),Kabupaten,Mamuju,Sulawesi Barat
183,91512,Simboro,76.02.12.1001,Simboro (Simboro dan Kepulauan),Kabupaten,Mamuju,Sulawesi Barat
184,91513,Sumare,76.02.12.2005,Simboro (Simboro dan Kepulauan),Kabupaten,Mamuju,Sulawesi Barat
185,91512,Tapandullu,76.02.12.2008,Simboro (Simboro dan Kepulauan),Kabupaten,Mamuju,Sulawesi Barat
186,91365,Lisuan Ada,76.03.08.2008,Sesenapadang,Kabupaten,Mamasa,Sulawesi Barat
187,91365,Malangkena Padang,76.03.08.2012,Sesenapadang,Kabupaten,Mamasa,Sulawesi Barat
188,91365,Malimbong,76.03.08.2013,Sesenapadang,Kabupaten,Mamasa,Sulawesi Barat
189,91365,Marampan Orobua,76.03.08.2014,Sesenapadang,Kabupaten,Mamasa,Sulawesi Barat
190,91365,Orobua,76.03.08.2002,Sesenapadang,Kabupaten,Mamasa,Sulawesi Barat
191,91365,Orobua Selatan,76.03.08.2010,Sesenapadang,Kabupaten,Mamasa,Sulawesi Barat
192,91365,Orobua Timur,76.03.08.2004,Sesenapadang,Kabupaten,Mamasa,Sulawesi Barat
193,91365,Paladan,76.03.08.2003,Sesenapadang,Kabupaten,Mamasa,Sulawesi Barat
194,91365,Rante Puang,76.03.08.2006,Sesenapadang,Kabupaten,Mamasa,Sulawesi Barat
195,91365,Satenetean,76.03.08.2007,Sesenapadang,Kabupaten,Mamasa,Sulawesi Barat
196,91452,Banua Sendana,76.05.03.2022,Sendana,Kabupaten,Majene,Sulawesi Barat
197,91452,Binanga,76.05.03.2016,Sendana,Kabupaten,Majene,Sulawesi Barat
198,91452,Bukit Samang,76.05.03.2026,Sendana,Kabupaten,Majene,Sulawesi Barat
199,91452,Lalatedzong,76.05.03.2015,Sendana,Kabupaten,Majene,Sulawesi Barat
200,91452,Leppangang,76.05.03.2019,Sendana,Kabupaten,Majene,Sulawesi Barat
201,91452,Limboro Rambu-Rambu,76.05.03.2024,Sendana,Kabupaten,Majene,Sulawesi Barat
202,91452,Limbua,76.05.03.2025,Sendana,Kabupaten,Majene,Sulawesi Barat
203,91452,Mosso,76.05.03.1001,Sendana,Kabupaten,Majene,Sulawesi Barat
204,91452,Mosso Dhua,76.05.03.1002,Sendana,Kabupaten,Majene,Sulawesi Barat
205,91452,Paminggalan,76.05.03.2018,Sendana,Kabupaten,Majene,Sulawesi Barat
206,91452,Pundau,76.05.03.2020,Sendana,Kabupaten,Majene,Sulawesi Barat
207,91452,Puttada,76.05.03.2017,Sendana,Kabupaten,Majene,Sulawesi Barat
208,91452,Sendana,76.05.03.2021,Sendana,Kabupaten,Majene,Sulawesi Barat
209,91452,Tallubanua,76.05.03.2007,Sendana,Kabupaten,Majene,Sulawesi Barat
210,91452,Tallubanua Utara,76.05.03.2023,Sendana,Kabupaten,Majene,Sulawesi Barat
211,91452,Totolisi Sendana,76.05.03.2004,Sendana,Kabupaten,Majene,Sulawesi Barat
212,91576,Bulu Mario,76.01.04.2003,Sarudu,Kabupaten,Pasangkayu (Mamuju Utara),Sulawesi Barat
213,91576,Doda,76.01.04.2012,Sarudu,Kabupaten,Pasangkayu (Mamuju Utara),Sulawesi Barat
214,91576,Kumasari,76.01.04.2005,Sarudu,Kabupaten,Pasangkayu (Mamuju Utara),Sulawesi Barat
215,91576,Patika,76.01.04.2011,Sarudu,Kabupaten,Pasangkayu (Mamuju Utara),Sulawesi Barat
216,91576,Sarudu,76.01.04.2001,Sarudu,Kabupaten,Pasangkayu (Mamuju Utara),Sulawesi Barat
217,91591,Letawa,76.01.11.2003,Sarjo,Kabupaten,Pasangkayu (Mamuju Utara),Sulawesi Barat
218,91591,Maponu,76.01.11.2002,Sarjo,Kabupaten,Pasangkayu (Mamuju Utara),Sulawesi Barat
219,91591,Sarjo,76.01.11.2001,Sarjo,Kabupaten,Pasangkayu (Mamuju Utara),Sulawesi Barat
220,91591,Sarude,76.01.11.2004,Sarjo,Kabupaten,Pasangkayu (Mamuju Utara),Sulawesi Barat
221,91563,Bunde,76.02.08.2001,Sampaga,Kabupaten,Mamuju,Sulawesi Barat
222,91563,Kalonding,76.02.08.2002,Sampaga,Kabupaten,Mamuju,Sulawesi Barat
223,91563,Losso,76.02.08.2007,Sampaga,Kabupaten,Mamuju,Sulawesi Barat
224,91563,Salubarana,76.02.08.2006,Sampaga,Kabupaten,Mamuju,Sulawesi Barat
225,91563,Sampaga,76.02.08.2004,Sampaga,Kabupaten,Mamuju,Sulawesi Barat
226,91563,Tanambuah (Tanam Buah / Tanambua),76.02.08.2005,Sampaga,Kabupaten,Mamuju,Sulawesi Barat
227,91563,Tarailu,76.02.08.2003,Sampaga,Kabupaten,Mamuju,Sulawesi Barat
228,91376,Bambang Buda,76.03.15.2005,Rantebulahan Timur,Kabupaten,Mamasa,Sulawesi Barat
229,91376,Buangin,76.03.15.2004,Rantebulahan Timur,Kabupaten,Mamasa,Sulawesi Barat
230,91376,Kirak,76.03.15.2007,Rantebulahan Timur,Kabupaten,Mamasa,Sulawesi Barat
231,91376,Leko,76.03.15.2006,Rantebulahan Timur,Kabupaten,Mamasa,Sulawesi Barat
232,91376,Salumokanan,76.03.15.2001,Rantebulahan Timur,Kabupaten,Mamasa,Sulawesi Barat
233,91376,Salumokanan Barat,76.03.15.2003,Rantebulahan Timur,Kabupaten,Mamasa,Sulawesi Barat
234,91376,Salumokanan Utara,76.03.15.2008,Rantebulahan Timur,Kabupaten,Mamasa,Sulawesi Barat
235,91376,Sampale,76.03.15.2009,Rantebulahan Timur,Kabupaten,Mamasa,Sulawesi Barat
236,91314,Darma,76.04.04.1009,Polewali,Kabupaten,Polewali Mandar,Sulawesi Barat
237,91313,Lantora,76.04.04.1004,Polewali,Kabupaten,Polewali Mandar,Sulawesi Barat
238,91315,Madate (Madatte),76.04.04.1007,Polewali,Kabupaten,Polewali Mandar,Sulawesi Barat
239,91311,Manding,76.04.04.1008,Polewali,Kabupaten,Polewali Mandar,Sulawesi Barat
240,91311,Pekkabata,76.04.04.1006,Polewali,Kabupaten,Polewali Mandar,Sulawesi Barat
241,91311,Polewali,76.04.04.1001,Polewali,Kabupaten,Polewali Mandar,Sulawesi Barat
242,91315,Sulewatang,76.04.04.1003,Polewali,Kabupaten,Polewali Mandar,Sulawesi Barat
243,91311,Takatidung,76.04.04.1005,Polewali,Kabupaten,Polewali Mandar,Sulawesi Barat
244,91315,Wattang,76.04.04.1002,Polewali,Kabupaten,Polewali Mandar,Sulawesi Barat
245,91570,Batu Oge,76.01.09.2003,Pedongga,Kabupaten,Pasangkayu (Mamuju Utara),Sulawesi Barat
246,91570,Malei (Malei II),76.01.09.2001,Pedongga,Kabupaten,Pasangkayu (Mamuju Utara),Sulawesi Barat
247,91570,Martasari,76.01.09.2004,Pedongga,Kabupaten,Pasangkayu (Mamuju Utara),Sulawesi Barat
248,91570,Pedanda (Pedanda II),76.01.09.2002,Pedongga,Kabupaten,Pasangkayu (Mamuju Utara),Sulawesi Barat
249,91571,Ako,76.01.02.2015,Pasangkayu,Kabupaten,Pasangkayu (Mamuju Utara),Sulawesi Barat
250,91571,Gunung Sari,76.01.02.2016,Pasangkayu,Kabupaten,Pasangkayu (Mamuju Utara),Sulawesi Barat
251,91571,Karya Bersama,76.01.02.2014,Pasangkayu,Kabupaten,Pasangkayu (Mamuju Utara),Sulawesi Barat
252,91571,Martajaya,76.01.02.1002,Pasangkayu,Kabupaten,Pasangkayu (Mamuju Utara),Sulawesi Barat
253,91571,Pakava,76.01.02.2010,Pasangkayu,Kabupaten,Pasangkayu (Mamuju Utara),Sulawesi Barat
254,91571,Pasangkayu,76.01.02.1001,Pasangkayu,Kabupaten,Pasangkayu (Mamuju Utara),Sulawesi Barat
255,91565,Batu Ampa,76.02.07.2009,Papalang,Kabupaten,Mamuju,Sulawesi Barat
256,91565,Boda-Boda,76.02.07.2007,Papalang,Kabupaten,Mamuju,Sulawesi Barat
257,91565,Bonda,76.02.07.2003,Papalang,Kabupaten,Mamuju,Sulawesi Barat
258,91565,Papalang,76.02.07.2002,Papalang,Kabupaten,Mamuju,Sulawesi Barat
259,91565,Salukayu (Salokayu),76.02.07.2005,Papalang,Kabupaten,Mamuju,Sulawesi Barat
260,91565,Sisango,76.02.07.2008,Papalang,Kabupaten,Mamuju,Sulawesi Barat
261,91565,Sukadamai,76.02.07.2006,Papalang,Kabupaten,Mamuju,Sulawesi Barat
262,91565,Toabo,76.02.07.2001,Papalang,Kabupaten,Mamuju,Sulawesi Barat
263,91565,Topore (Topare / Tapore),76.02.07.2004,Papalang,Kabupaten,Mamuju,Sulawesi Barat
264,91462,Kombiling,76.06.02.2008,Pangale,Kabupaten,Mamuju Tengah,Sulawesi Barat
265,91462,Kuo,76.06.02.2005,Pangale,Kabupaten,Mamuju Tengah,Sulawesi Barat
266,91462,Lamba Lamba,76.06.02.2007,Pangale,Kabupaten,Mamuju Tengah,Sulawesi Barat
267,91462,Lemo-Lemo,76.06.02.2009,Pangale,Kabupaten,Mamuju Tengah,Sulawesi Barat
268,91462,Pangale,76.06.02.2002,Pangale,Kabupaten,Mamuju Tengah,Sulawesi Barat
269,91462,Polo Camba,76.06.02.2006,Pangale,Kabupaten,Mamuju Tengah,Sulawesi Barat
270,91462,Polo Lereng,76.06.02.2004,Pangale,Kabupaten,Mamuju Tengah,Sulawesi Barat
271,91462,Polo Pangale,76.06.02.2001,Pangale,Kabupaten,Mamuju Tengah,Sulawesi Barat
272,91462,Sartanamaju (Sartana Maju),76.06.02.2003,Pangale,Kabupaten,Mamuju Tengah,Sulawesi Barat
273,91369,Datubaringan,76.03.04.2009,Pana,Kabupaten,Mamasa,Sulawesi Barat
274,91369,Karaka,76.03.04.2012,Pana,Kabupaten,Mamasa,Sulawesi Barat
275,91369,Mamullu,76.03.04.2005,Pana,Kabupaten,Mamasa,Sulawesi Barat
276,91369,Manipi,76.03.04.2003,Pana,Kabupaten,Mamasa,Sulawesi Barat
277,91369,Pana,76.03.04.1001,Pana,Kabupaten,Mamasa,Sulawesi Barat
278,91369,Panura,76.03.04.2010,Pana,Kabupaten,Mamasa,Sulawesi Barat
279,91369,Saloan,76.03.04.2016,Pana,Kabupaten,Mamasa,Sulawesi Barat
280,91369,Salutambun,76.03.04.2015,Pana,Kabupaten,Mamasa,Sulawesi Barat
281,91369,Sapan,76.03.04.2006,Pana,Kabupaten,Mamasa,Sulawesi Barat
282,91369,Tallang Bulawan,76.03.04.2011,Pana,Kabupaten,Mamasa,Sulawesi Barat
283,91369,Ulusalu,76.03.04.2013,Pana,Kabupaten,Mamasa,Sulawesi Barat
284,91369,Ulusalu Indah,76.03.04.2017,Pana,Kabupaten,Mamasa,Sulawesi Barat
285,91369,Weri,76.03.04.2014,Pana,Kabupaten,Mamasa,Sulawesi Barat
286,91451,Adolang,76.05.02.2003,Pamboang,Kabupaten,Majene,Sulawesi Barat
287,91451,Adolang Dhua,76.05.02.2012,Pamboang,Kabupaten,Majene,Sulawesi Barat
288,91451,Bababulo,76.05.02.2004,Pamboang,Kabupaten,Majene,Sulawesi Barat
289,91451,Bababulo Utara,76.05.02.2009,Pamboang,Kabupaten,Majene,Sulawesi Barat
290,91451,Balombong,76.05.02.2015,Pamboang,Kabupaten,Majene,Sulawesi Barat
291,91451,Banua Adolang,76.05.02.2011,Pamboang,Kabupaten,Majene,Sulawesi Barat
292,91451,Betteng,76.05.02.2006,Pamboang,Kabupaten,Majene,Sulawesi Barat
293,91451,Bonde,76.05.02.2005,Pamboang,Kabupaten,Majene,Sulawesi Barat
294,91451,Bonde Utara,76.05.02.2008,Pamboang,Kabupaten,Majene,Sulawesi Barat
295,91451,Buttu Pamboang,76.05.02.2010,Pamboang,Kabupaten,Majene,Sulawesi Barat
296,91451,Lalampanua,76.05.02.1001,Pamboang,Kabupaten,Majene,Sulawesi Barat
297,91451,Pesuloang,76.05.02.2014,Pamboang,Kabupaten,Majene,Sulawesi Barat
298,91451,Simbang,76.05.02.2007,Pamboang,Kabupaten,Majene,Sulawesi Barat
299,91451,Sirindu,76.05.02.1002,Pamboang,Kabupaten,Majene,Sulawesi Barat
300,91451,Tinambung,76.05.02.2013,Pamboang,Kabupaten,Majene,Sulawesi Barat
301,91363,Batupapan,76.03.13.2003,Nosu,Kabupaten,Mamasa,Sulawesi Barat
302,91363,Masewwe,76.03.13.2004,Nosu,Kabupaten,Mamasa,Sulawesi Barat
303,91363,Minanga,76.03.13.2002,Nosu,Kabupaten,Mamasa,Sulawesi Barat
304,91363,Minanga Timur,76.03.13.2006,Nosu,Kabupaten,Mamasa,Sulawesi Barat
305,91363,Nosu,76.03.13.1001,Nosu,Kabupaten,Mamasa,Sulawesi Barat
306,91363,Parinding,76.03.13.2007,Nosu,Kabupaten,Mamasa,Sulawesi Barat
307,91363,Siwi,76.03.13.2005,Nosu,Kabupaten,Mamasa,Sulawesi Barat
308,91361,Makuang,76.03.07.2003,Messawa,Kabupaten,Mamasa,Sulawesi Barat
309,91361,Malimbong,76.03.07.2005,Messawa,Kabupaten,Mamasa,Sulawesi Barat
310,91361,Matande,76.03.07.2006,Messawa,Kabupaten,Mamasa,Sulawesi Barat
311,91361,Messawa,76.03.07.1001,Messawa,Kabupaten,Mamasa,Sulawesi Barat
312,91361,Pasma Mambu,76.03.07.2008,Messawa,Kabupaten,Mamasa,Sulawesi Barat
313,91361,Rippung,76.03.07.2002,Messawa,Kabupaten,Mamasa,Sulawesi Barat
314,91361,Sepang,76.03.07.2004,Messawa,Kabupaten,Mamasa,Sulawesi Barat
315,91361,Sipai,76.03.07.2007,Messawa,Kabupaten,Mamasa,Sulawesi Barat
316,91361,Tanete Batu,76.03.07.2009,Messawa,Kabupaten,Mamasa,Sulawesi Barat
317,91375,Botteng,76.03.17.2002,Mehalaan,Kabupaten,Mamasa,Sulawesi Barat
318,91375,Kondo,76.03.17.2009,Mehalaan,Kabupaten,Mamasa,Sulawesi Barat
319,91375,Leko Sukamaju,76.03.17.2010,Mehalaan,Kabupaten,Mamasa,Sulawesi Barat
320,91375,Mehalaan,76.03.17.2001,Mehalaan,Kabupaten,Mamasa,Sulawesi Barat
321,91375,Mehalaan Barat,76.03.17.2005,Mehalaan,Kabupaten,Mamasa,Sulawesi Barat
322,91375,Mesakada,76.03.17.2004,Mehalaan,Kabupaten,Mamasa,Sulawesi Barat
323,91375,Passembuk,76.03.17.2008,Mehalaan,Kabupaten,Mamasa,Sulawesi Barat
324,91375,Saluahok,76.03.17.2006,Mehalaan,Kabupaten,Mamasa,Sulawesi Barat
325,91375,Salubalo,76.03.17.2007,Mehalaan,Kabupaten,Mamasa,Sulawesi Barat
326,91375,Salukonta,76.03.17.2003,Mehalaan,Kabupaten,Mamasa,Sulawesi Barat
327,91375,Ulumea,76.03.17.2011,Mehalaan,Kabupaten,Mamasa,Sulawesi Barat
328,91350,Ba'ba Tapua,76.04.09.2006,Matangnga,Kabupaten,Polewali Mandar,Sulawesi Barat
329,91350,Katimbang,76.04.09.2007,Matangnga,Kabupaten,Polewali Mandar,Sulawesi Barat
330,91350,Lilli,76.04.09.2002,Matangnga,Kabupaten,Polewali Mandar,Sulawesi Barat
331,91350,Mambu Tapua,76.04.09.2005,Matangnga,Kabupaten,Polewali Mandar,Sulawesi Barat
332,91350,Matangnga,76.04.09.1001,Matangnga,Kabupaten,Polewali Mandar,Sulawesi Barat
333,91350,Rangoan,76.04.09.2003,Matangnga,Kabupaten,Polewali Mandar,Sulawesi Barat
334,91350,Tapua,76.04.09.2004,Matangnga,Kabupaten,Polewali Mandar,Sulawesi Barat
335,91352,Barumbung,76.04.14.2003,Matakali,Kabupaten,Polewali Mandar,Sulawesi Barat
336,91352,Bunga-Bunga,76.04.14.2007,Matakali,Kabupaten,Polewali Mandar,Sulawesi Barat
337,91352,Indomakkombong (Indo Makkombong / Indomakkondang),76.04.14.2006,Matakali,Kabupaten,Polewali Mandar,Sulawesi Barat
338,91352,Matakali,76.04.14.1001,Matakali,Kabupaten,Polewali Mandar,Sulawesi Barat
339,91352,Pasiang,76.04.14.2004,Matakali,Kabupaten,Polewali Mandar,Sulawesi Barat
340,91352,Petampanua (Patampanua),76.04.14.2002,Matakali,Kabupaten,Polewali Mandar,Sulawesi Barat
341,91352,Tonrolima (Tonro Lima),76.04.14.2005,Matakali,Kabupaten,Polewali Mandar,Sulawesi Barat
342,91359,Beroangin,76.04.08.2011,Mapilli,Kabupaten,Polewali Mandar,Sulawesi Barat
343,91359,Bonne-Bonne,76.04.08.2009,Mapilli,Kabupaten,Polewali Mandar,Sulawesi Barat
344,91359,Bonra,76.04.08.2016,Mapilli,Kabupaten,Polewali Mandar,Sulawesi Barat
345,91359,Buku,76.04.08.2007,Mapilli,Kabupaten,Polewali Mandar,Sulawesi Barat
346,91359,Kurma,76.04.08.2005,Mapilli,Kabupaten,Polewali Mandar,Sulawesi Barat
347,91359,Landi Kanusuang,76.04.08.2019,Mapilli,Kabupaten,Polewali Mandar,Sulawesi Barat
348,91359,Mapili (Mapilli),76.04.08.1001,Mapilli,Kabupaten,Polewali Mandar,Sulawesi Barat
349,91359,Rappang Barat,76.04.08.2018,Mapilli,Kabupaten,Polewali Mandar,Sulawesi Barat
350,91359,Rumpa,76.04.08.2003,Mapilli,Kabupaten,Polewali Mandar,Sulawesi Barat
351,91359,Sattoko,76.04.08.2017,Mapilli,Kabupaten,Polewali Mandar,Sulawesi Barat
352,91359,Segerang,76.04.08.2015,Mapilli,Kabupaten,Polewali Mandar,Sulawesi Barat
353,91359,Ugibaru (Ugi Baru),76.04.08.2002,Mapilli,Kabupaten,Polewali Mandar,Sulawesi Barat
354,91514,Bambu,76.02.01.2005,Mamuju,Kabupaten,Mamuju,Sulawesi Barat
355,91511,Batu Pannu,76.02.01.2014,Mamuju,Kabupaten,Mamuju,Sulawesi Barat
356,91511,Binanga,76.02.01.1002,Mamuju,Kabupaten,Mamuju,Sulawesi Barat
357,91515,Karampuang,76.02.01.2006,Mamuju,Kabupaten,Mamuju,Sulawesi Barat
358,91515,Karema,76.02.01.1012,Mamuju,Kabupaten,Mamuju,Sulawesi Barat
359,91511,Mamunyu,76.02.01.1003,Mamuju,Kabupaten,Mamuju,Sulawesi Barat
360,91515,Rimuku,76.02.01.1013,Mamuju,Kabupaten,Mamuju,Sulawesi Barat
361,91511,Tadui,76.02.01.2010,Mamuju,Kabupaten,Mamuju,Sulawesi Barat
362,91370,Bujung Manurung,76.03.01.2026,Mambi,Kabupaten,Mamasa,Sulawesi Barat
363,91370,Indobanua,76.03.01.2029,Mambi,Kabupaten,Mamasa,Sulawesi Barat
364,91370,Mambi,76.03.01.1001,Mambi,Kabupaten,Mamasa,Sulawesi Barat
365,91370,Pamosean,76.03.01.2024,Mambi,Kabupaten,Mamasa,Sulawesi Barat
366,91370,Rantebulahan,76.03.01.2004,Mambi,Kabupaten,Mamasa,Sulawesi Barat
367,91370,Salu Alo,76.03.01.2027,Mambi,Kabupaten,Mamasa,Sulawesi Barat
368,91370,Salubanua,76.03.01.2016,Mambi,Kabupaten,Mamasa,Sulawesi Barat
369,91370,Saludurian,76.03.01.2030,Mambi,Kabupaten,Mamasa,Sulawesi Barat
370,91370,Selumaka,76.03.01.2025,Mambi,Kabupaten,Mamasa,Sulawesi Barat
371,91370,Sendana,76.03.01.2019,Mambi,Kabupaten,Mamasa,Sulawesi Barat
372,91370,Sondonglayu,76.03.01.2008,Mambi,Kabupaten,Mamasa,Sulawesi Barat
373,91370,Talipukki,76.03.01.1002,Mambi,Kabupaten,Mamasa,Sulawesi Barat
374,91370,Tapalina,76.03.01.2017,Mambi,Kabupaten,Mamasa,Sulawesi Barat
375,91362,Bombong Lambe,76.03.03.2011,Mamasa,Kabupaten,Mamasa,Sulawesi Barat
376,91362,Bubun Batu,76.03.03.2012,Mamasa,Kabupaten,Mamasa,Sulawesi Barat
377,91362,Buntu Buda,76.03.03.2007,Mamasa,Kabupaten,Mamasa,Sulawesi Barat
378,91362,Lambanan,76.03.03.2004,Mamasa,Kabupaten,Mamasa,Sulawesi Barat
379,91362,Lembana Salulo,76.03.03.2005,Mamasa,Kabupaten,Mamasa,Sulawesi Barat
380,91362,Mamasa,76.03.03.1001,Mamasa,Kabupaten,Mamasa,Sulawesi Barat
381,91362,Mambuliling,76.03.03.2010,Mamasa,Kabupaten,Mamasa,Sulawesi Barat
382,91362,Osango,76.03.03.2003,Mamasa,Kabupaten,Mamasa,Sulawesi Barat
383,91362,Pebassian,76.03.03.2009,Mamasa,Kabupaten,Mamasa,Sulawesi Barat
384,91362,Rambusaratu,76.03.03.2002,Mamasa,Kabupaten,Mamasa,Sulawesi Barat
385,91362,Taupe,76.03.03.2006,Mamasa,Kabupaten,Mamasa,Sulawesi Barat
386,91362,Tondok Bakaru,76.03.03.2008,Mamasa,Kabupaten,Mamasa,Sulawesi Barat
387,91453,Bambangan,76.05.04.2002,Malunda,Kabupaten,Majene,Sulawesi Barat
388,91453,Kayuangin,76.05.04.2016,Malunda,Kabupaten,Majene,Sulawesi Barat
389,91453,Lamungang Batu,76.05.04.1015,Malunda,Kabupaten,Majene,Sulawesi Barat
390,91453,Lombang,76.05.04.2004,Malunda,Kabupaten,Majene,Sulawesi Barat
391,91453,Lombang Timur,76.05.04.2011,Malunda,Kabupaten,Majene,Sulawesi Barat
392,91453,Lombong,76.05.04.2005,Malunda,Kabupaten,Majene,Sulawesi Barat
393,91453,Lombong Timur,76.05.04.2013,Malunda,Kabupaten,Majene,Sulawesi Barat
394,91453,Maliaya,76.05.04.2010,Malunda,Kabupaten,Majene,Sulawesi Barat
395,91453,Malunda,76.05.04.1001,Malunda,Kabupaten,Majene,Sulawesi Barat
396,91453,Mekkatta,76.05.04.2006,Malunda,Kabupaten,Majene,Sulawesi Barat
397,91453,Mekkatta Selatan,76.05.04.2014,Malunda,Kabupaten,Majene,Sulawesi Barat
398,91453,Salutahongan,76.05.04.2012,Malunda,Kabupaten,Majene,Sulawesi Barat
399,91358,Baru,76.04.10.2003,Luyo,Kabupaten,Polewali Mandar,Sulawesi Barat
400,91358,Batupanga (Batu Panga),76.04.10.1004,Luyo,Kabupaten,Polewali Mandar,Sulawesi Barat
401,91358,Batupanga Daala,76.04.10.2008,Luyo,Kabupaten,Polewali Mandar,Sulawesi Barat
402,91358,Luyo (Lujo),76.04.10.2009,Luyo,Kabupaten,Polewali Mandar,Sulawesi Barat
403,91358,Mambu,76.04.10.2001,Luyo,Kabupaten,Polewali Mandar,Sulawesi Barat
404,91358,Mapili Barat (Mapilli Barat),76.04.10.2006,Luyo,Kabupaten,Polewali Mandar,Sulawesi Barat
405,91358,Puccadi,76.04.10.2011,Luyo,Kabupaten,Polewali Mandar,Sulawesi Barat
406,91358,Pussui,76.04.10.2005,Luyo,Kabupaten,Polewali Mandar,Sulawesi Barat
407,91358,Pussui Barat,76.04.10.2010,Luyo,Kabupaten,Polewali Mandar,Sulawesi Barat
408,91358,Sambali Wali,76.04.10.2007,Luyo,Kabupaten,Polewali Mandar,Sulawesi Barat
409,91358,Tenggelang (Tenggelan),76.04.10.2002,Luyo,Kabupaten,Polewali Mandar,Sulawesi Barat
410,91321,Lembang Lembang,76.04.11.2002,Limboro,Kabupaten,Polewali Mandar,Sulawesi Barat
411,91321,Limboro,76.04.11.1001,Limboro,Kabupaten,Polewali Mandar,Sulawesi Barat
412,91321,Napo,76.04.11.2005,Limboro,Kabupaten,Polewali Mandar,Sulawesi Barat
413,91321,Palece,76.04.11.2011,Limboro,Kabupaten,Polewali Mandar,Sulawesi Barat
414,91321,Pendulangan (Pandulangan),76.04.11.2007,Limboro,Kabupaten,Polewali Mandar,Sulawesi Barat
415,91321,Renggeang,76.04.11.2008,Limboro,Kabupaten,Polewali Mandar,Sulawesi Barat
416,91321,Salarri,76.04.11.2009,Limboro,Kabupaten,Polewali Mandar,Sulawesi Barat
417,91321,Samasundu,76.04.11.2004,Limboro,Kabupaten,Polewali Mandar,Sulawesi Barat
418,91321,Tandasura (Tandassura),76.04.11.2003,Limboro,Kabupaten,Polewali Mandar,Sulawesi Barat
419,91321,Tangan Baru,76.04.11.2010,Limboro,Kabupaten,Polewali Mandar,Sulawesi Barat
420,91321,Todang Todang,76.04.11.2006,Limboro,Kabupaten,Polewali Mandar,Sulawesi Barat
421,91577,Bajawali,76.01.12.2003,Lariang,Kabupaten,Pasangkayu (Mamuju Utara),Sulawesi Barat
422,91577,Bambakoro,76.01.12.2007,Lariang,Kabupaten,Pasangkayu (Mamuju Utara),Sulawesi Barat
423,91577,Batu Matoru,76.01.12.2006,Lariang,Kabupaten,Pasangkayu (Mamuju Utara),Sulawesi Barat
424,91577,Kenangan,76.01.12.2002,Lariang,Kabupaten,Pasangkayu (Mamuju Utara),Sulawesi Barat
425,91577,Kulu,76.01.12.2005,Lariang,Kabupaten,Pasangkayu (Mamuju Utara),Sulawesi Barat
426,91577,Parabu,76.01.12.2001,Lariang,Kabupaten,Pasangkayu (Mamuju Utara),Sulawesi Barat
427,91577,Singgani,76.01.12.2004,Lariang,Kabupaten,Pasangkayu (Mamuju Utara),Sulawesi Barat
428,91512,Bala Balakang,76.02.16.2001,Kep. Bala Balakang,Kabupaten,Mamuju,Sulawesi Barat
429,91512,Bala Balakang Timur,76.02.16.2002,Kep. Bala Balakang,Kabupaten,Mamuju,Sulawesi Barat
430,91460,Benggaulu,76.06.05.2007,Karossa,Kabupaten,Mamuju Tengah,Sulawesi Barat
431,91460,Kadaila,76.06.05.2004,Karossa,Kabupaten,Mamuju Tengah,Sulawesi Barat
432,91460,Kambunong,76.06.05.2009,Karossa,Kabupaten,Mamuju Tengah,Sulawesi Barat
433,91460,Karossa,76.06.05.2001,Karossa,Kabupaten,Mamuju Tengah,Sulawesi Barat
434,91460,Kayu Calla,76.06.05.2005,Karossa,Kabupaten,Mamuju Tengah,Sulawesi Barat
435,91460,Lara,76.06.05.2003,Karossa,Kabupaten,Mamuju Tengah,Sulawesi Barat
436,91460,Lembah Hopo,76.06.05.2006,Karossa,Kabupaten,Mamuju Tengah,Sulawesi Barat
437,91460,Salubiro,76.06.05.2010,Karossa,Kabupaten,Mamuju Tengah,Sulawesi Barat
438,91460,Sanjango,76.06.05.2011,Karossa,Kabupaten,Mamuju Tengah,Sulawesi Barat
439,91460,Suka Maju,76.06.05.2008,Karossa,Kabupaten,Mamuju Tengah,Sulawesi Barat
440,91460,Tasokko,76.06.05.2002,Karossa,Kabupaten,Mamuju Tengah,Sulawesi Barat
441,91560,Batu Makkada,76.02.04.2016,Kalumpang,Kabupaten,Mamuju,Sulawesi Barat
442,91560,Kalumpang,76.02.04.2001,Kalumpang,Kabupaten,Mamuju,Sulawesi Barat
443,91560,Karama,76.02.04.2004,Kalumpang,Kabupaten,Mamuju,Sulawesi Barat
444,91560,Karataun,76.02.04.2003,Kalumpang,Kabupaten,Mamuju,Sulawesi Barat
445,91560,Kondo Bulo,76.02.04.2014,Kalumpang,Kabupaten,Mamuju,Sulawesi Barat
446,91560,Lasa' (Lasa),76.02.04.2017,Kalumpang,Kabupaten,Mamuju,Sulawesi Barat
447,91560,Limbong,76.02.04.2012,Kalumpang,Kabupaten,Mamuju,Sulawesi Barat
448,91560,Makkaliki,76.02.04.2015,Kalumpang,Kabupaten,Mamuju,Sulawesi Barat
449,91560,Polio (Ba'san),76.02.04.2011,Kalumpang,Kabupaten,Mamuju,Sulawesi Barat
450,91560,Salumakki,76.02.04.2010,Kalumpang,Kabupaten,Mamuju,Sulawesi Barat
451,91560,Sandapang,76.02.04.2013,Kalumpang,Kabupaten,Mamuju,Sulawesi Barat
452,91560,Siraun,76.02.04.2006,Kalumpang,Kabupaten,Mamuju,Sulawesi Barat
453,91560,Tumoga (Tumonga),76.02.04.2007,Kalumpang,Kabupaten,Mamuju,Sulawesi Barat
454,91561,Bebanga,76.02.03.1002,Kalukku,Kabupaten,Mamuju,Sulawesi Barat
455,91561,Belang-Belang,76.02.03.2006,Kalukku,Kabupaten,Mamuju,Sulawesi Barat
456,91561,Beru-Beru,76.02.03.2005,Kalukku,Kabupaten,Mamuju,Sulawesi Barat
457,91561,Guliling,76.02.03.2010,Kalukku,Kabupaten,Mamuju,Sulawesi Barat
458,91561,Kabuloang,76.02.03.2007,Kalukku,Kabupaten,Mamuju,Sulawesi Barat
459,91561,Kalukku,76.02.03.1003,Kalukku,Kabupaten,Mamuju,Sulawesi Barat
460,91561,Kalukku Barat,76.02.03.2012,Kalukku,Kabupaten,Mamuju,Sulawesi Barat
461,91561,Keang,76.02.03.2008,Kalukku,Kabupaten,Mamuju,Sulawesi Barat
462,91561,Pammulukang,76.02.03.2013,Kalukku,Kabupaten,Mamuju,Sulawesi Barat
463,91561,Pokkang,76.02.03.2009,Kalukku,Kabupaten,Mamuju,Sulawesi Barat
464,91561,Sinyonyoi,76.02.03.1001,Kalukku,Kabupaten,Mamuju,Sulawesi Barat
465,91561,Sinyonyoi Selatan,76.02.03.1014,Kalukku,Kabupaten,Mamuju,Sulawesi Barat
466,91561,Sondoang,76.02.03.2004,Kalukku,Kabupaten,Mamuju,Sulawesi Barat
467,91561,Uhaimate,76.02.03.2011,Kalukku,Kabupaten,Mamuju,Sulawesi Barat
468,91573,Saptanajaya,76.01.06.2002,Duripoku,Kabupaten,Pasangkayu (Mamuju Utara),Sulawesi Barat
469,91573,Sipakainga,76.01.06.2004,Duripoku,Kabupaten,Pasangkayu (Mamuju Utara),Sulawesi Barat
470,91573,Tammarunang (Tammarunnang),76.01.06.2001,Duripoku,Kabupaten,Pasangkayu (Mamuju Utara),Sulawesi Barat
471,91573,Taranggi,76.01.06.2003,Duripoku,Kabupaten,Pasangkayu (Mamuju Utara),Sulawesi Barat
472,91581,Benggaulu,76.01.05.2002,Dapurang,Kabupaten,Pasangkayu (Mamuju Utara),Sulawesi Barat
473,91581,Bulu Bonggu,76.01.05.2004,Dapurang,Kabupaten,Pasangkayu (Mamuju Utara),Sulawesi Barat
474,91581,Dapurang,76.01.05.2001,Dapurang,Kabupaten,Pasangkayu (Mamuju Utara),Sulawesi Barat
475,91581,Sarasa (Serasa),76.01.05.2005,Dapurang,Kabupaten,Pasangkayu (Mamuju Utara),Sulawesi Barat
476,91581,Tirtabuana (Tirta Buana),76.01.05.2003,Dapurang,Kabupaten,Pasangkayu (Mamuju Utara),Sulawesi Barat
477,91357,Bonde,76.04.02.2003,Campalagian,Kabupaten,Polewali Mandar,Sulawesi Barat
478,91357,Botto,76.04.02.2014,Campalagian,Kabupaten,Polewali Mandar,Sulawesi Barat
479,91357,Gattungan,76.04.02.2015,Campalagian,Kabupaten,Polewali Mandar,Sulawesi Barat
480,91357,Katumbangan,76.04.02.2008,Campalagian,Kabupaten,Polewali Mandar,Sulawesi Barat
481,91357,Katumbangan Lemo,76.04.02.2004,Campalagian,Kabupaten,Polewali Mandar,Sulawesi Barat
482,91357,Kenje,76.04.02.2012,Campalagian,Kabupaten,Polewali Mandar,Sulawesi Barat
483,91357,Lagi-Agi,76.04.02.2018,Campalagian,Kabupaten,Polewali Mandar,Sulawesi Barat
484,91357,Laliko,76.04.02.2002,Campalagian,Kabupaten,Polewali Mandar,Sulawesi Barat
485,91357,Lampoko,76.04.02.2007,Campalagian,Kabupaten,Polewali Mandar,Sulawesi Barat
486,91357,Lapeo,76.04.02.2009,Campalagian,Kabupaten,Polewali Mandar,Sulawesi Barat
487,91357,Ongko,76.04.02.2011,Campalagian,Kabupaten,Polewali Mandar,Sulawesi Barat
488,91357,Padang,76.04.02.2017,Campalagian,Kabupaten,Polewali Mandar,Sulawesi Barat
489,91357,Padang Timur,76.04.02.2016,Campalagian,Kabupaten,Polewali Mandar,Sulawesi Barat
490,91357,Panyampa,76.04.02.2005,Campalagian,Kabupaten,Polewali Mandar,Sulawesi Barat
491,91357,Pappang,76.04.02.1001,Campalagian,Kabupaten,Polewali Mandar,Sulawesi Barat
492,91357,Parappe,76.04.02.2010,Campalagian,Kabupaten,Polewali Mandar,Sulawesi Barat
493,91357,Sumarang (Sumarrang),76.04.02.2013,Campalagian,Kabupaten,Polewali Mandar,Sulawesi Barat
494,91357,Suruang,76.04.02.2006,Campalagian,Kabupaten,Polewali Mandar,Sulawesi Barat
495,91374,Aralle Timur,76.03.16.2011,Buntumalangka,Kabupaten,Mamasa,Sulawesi Barat
496,91374,Buntumalangka,76.03.16.2001,Buntumalangka,Kabupaten,Mamasa,Sulawesi Barat
497,91374,Kabae,76.03.16.2006,Buntumalangka,Kabupaten,Mamasa,Sulawesi Barat
498,91374,Kebanga,76.03.16.2003,Buntumalangka,Kabupaten,Mamasa,Sulawesi Barat
499,91374,Penatangan,76.03.16.2008,Buntumalangka,Kabupaten,Mamasa,Sulawesi Barat
500,91374,Ranteberan,76.03.16.2002,Buntumalangka,Kabupaten,Mamasa,Sulawesi Barat
501,91374,Salurindu,76.03.16.2004,Buntumalangka,Kabupaten,Mamasa,Sulawesi Barat
502,91374,Salutambun,76.03.16.2010,Buntumalangka,Kabupaten,Mamasa,Sulawesi Barat
503,91374,Salutambun Barat,76.03.16.2007,Buntumalangka,Kabupaten,Mamasa,Sulawesi Barat
504,91374,Salutambun Timur,76.03.16.2009,Buntumalangka,Kabupaten,Mamasa,Sulawesi Barat
505,91374,Taora,76.03.16.2005,Buntumalangka,Kabupaten,Mamasa,Sulawesi Barat
506,91578,Bukit Harapan,76.01.07.2003,Bulu Taba,Kabupaten,Pasangkayu (Mamuju Utara),Sulawesi Barat
507,91578,Karave (Karabe),76.01.07.2002,Bulu Taba,Kabupaten,Pasangkayu (Mamuju Utara),Sulawesi Barat
508,91578,Kastabuana (Kasta Buana),76.01.07.2004,Bulu Taba,Kabupaten,Pasangkayu (Mamuju Utara),Sulawesi Barat
509,91578,Lelejae,76.01.07.2006,Bulu Taba,Kabupaten,Pasangkayu (Mamuju Utara),Sulawesi Barat
510,91578,Lilimori (Lelemori),76.01.07.2001,Bulu Taba,Kabupaten,Pasangkayu (Mamuju Utara),Sulawesi Barat
511,91578,Ompi,76.01.07.2007,Bulu Taba,Kabupaten,Pasangkayu (Mamuju Utara),Sulawesi Barat
512,91578,Sumber Sari (Sumbersari),76.01.07.2005,Bulu Taba,Kabupaten,Pasangkayu (Mamuju Utara),Sulawesi Barat
513,91353,Bulo,76.04.16.2001,Bulo,Kabupaten,Polewali Mandar,Sulawesi Barat
514,91353,Daala Timur,76.04.16.2005,Bulo,Kabupaten,Polewali Mandar,Sulawesi Barat
515,91353,Ihing,76.04.16.2009,Bulo,Kabupaten,Polewali Mandar,Sulawesi Barat
516,91353,Karombang,76.04.16.2004,Bulo,Kabupaten,Polewali Mandar,Sulawesi Barat
517,91353,Lenggo,76.04.16.2006,Bulo,Kabupaten,Polewali Mandar,Sulawesi Barat
518,91353,Pulliwa,76.04.16.2002,Bulo,Kabupaten,Polewali Mandar,Sulawesi Barat
519,91353,Sabura,76.04.16.2007,Bulo,Kabupaten,Polewali Mandar,Sulawesi Barat
520,91353,Sepporraki,76.04.16.2008,Bulo,Kabupaten,Polewali Mandar,Sulawesi Barat
521,91353,Tapambanua (Patambanua),76.04.16.2003,Bulo,Kabupaten,Polewali Mandar,Sulawesi Barat
522,91461,Babana,76.06.03.2001,Budong-Budong,Kabupaten,Mamuju Tengah,Sulawesi Barat
523,91461,Barakkang,76.06.03.2010,Budong-Budong,Kabupaten,Mamuju Tengah,Sulawesi Barat
524,91461,Bojo,76.06.03.2009,Budong-Budong,Kabupaten,Mamuju Tengah,Sulawesi Barat
525,91461,Kire,76.06.03.2005,Budong-Budong,Kabupaten,Mamuju Tengah,Sulawesi Barat
526,91461,Lembah Hada,76.06.03.2011,Budong-Budong,Kabupaten,Mamuju Tengah,Sulawesi Barat
527,91461,Lumu,76.06.03.2002,Budong-Budong,Kabupaten,Mamuju Tengah,Sulawesi Barat
528,91461,Pasapa,76.06.03.2008,Budong-Budong,Kabupaten,Mamuju Tengah,Sulawesi Barat
529,91461,Pontanakayang,76.06.03.2003,Budong-Budong,Kabupaten,Mamuju Tengah,Sulawesi Barat
530,91461,Salogatta (Salugatta),76.06.03.2004,Budong-Budong,Kabupaten,Mamuju Tengah,Sulawesi Barat
531,91461,Salumanurung,76.06.03.2007,Budong-Budong,Kabupaten,Mamuju Tengah,Sulawesi Barat
532,91461,Tinali,76.06.03.2006,Budong-Budong,Kabupaten,Mamuju Tengah,Sulawesi Barat
533,91562,Banuada,76.02.15.2009,Bonehau,Kabupaten,Mamuju,Sulawesi Barat
534,91562,Bonehau,76.02.15.2001,Bonehau,Kabupaten,Mamuju,Sulawesi Barat
535,91562,Buttuada,76.02.15.2003,Bonehau,Kabupaten,Mamuju,Sulawesi Barat
536,91562,Hinua,76.02.15.2010,Bonehau,Kabupaten,Mamuju,Sulawesi Barat
537,91562,Kinatang,76.02.15.2011,Bonehau,Kabupaten,Mamuju,Sulawesi Barat
538,91562,Lumika,76.02.15.2005,Bonehau,Kabupaten,Mamuju,Sulawesi Barat
539,91562,Mappu,76.02.15.2006,Bonehau,Kabupaten,Mamuju,Sulawesi Barat
540,91562,Salutiwo,76.02.15.2002,Bonehau,Kabupaten,Mamuju,Sulawesi Barat
541,91562,Tamalea (Talondo I),76.02.15.2004,Bonehau,Kabupaten,Mamuju,Sulawesi Barat
542,91312,Amassangan,76.04.06.1005,Binuang,Kabupaten,Polewali Mandar,Sulawesi Barat
543,91312,Amola,76.04.06.2009,Binuang,Kabupaten,Polewali Mandar,Sulawesi Barat
544,91312,Batetangnga,76.04.06.2006,Binuang,Kabupaten,Polewali Mandar,Sulawesi Barat
545,91312,Kaleok,76.04.06.2008,Binuang,Kabupaten,Polewali Mandar,Sulawesi Barat
546,91351,Kuajang,76.04.06.2002,Binuang,Kabupaten,Polewali Mandar,Sulawesi Barat
547,91311,Mammi,76.04.06.2007,Binuang,Kabupaten,Polewali Mandar,Sulawesi Barat
548,91312,Mirring,76.04.06.2004,Binuang,Kabupaten,Polewali Mandar,Sulawesi Barat
549,91351,Paku,76.04.06.2003,Binuang,Kabupaten,Polewali Mandar,Sulawesi Barat
550,91312,Rea,76.04.06.2010,Binuang,Kabupaten,Polewali Mandar,Sulawesi Barat
551,91312,Tonyaman,76.04.06.2001,Binuang,Kabupaten,Polewali Mandar,Sulawesi Barat
552,91572,Balanti,76.01.03.2002,Baras,Kabupaten,Pasangkayu (Mamuju Utara),Sulawesi Barat
553,91572,Baras,76.01.03.1001,Baras,Kabupaten,Pasangkayu (Mamuju Utara),Sulawesi Barat
554,91572,Bulu Parigi,76.01.03.2012,Baras,Kabupaten,Pasangkayu (Mamuju Utara),Sulawesi Barat
555,91572,Kasano,76.01.03.2016,Baras,Kabupaten,Pasangkayu (Mamuju Utara),Sulawesi Barat
556,91572,Motu,76.01.03.2003,Baras,Kabupaten,Pasangkayu (Mamuju Utara),Sulawesi Barat
557,91572,Towoni (Toroni),76.01.03.2013,Baras,Kabupaten,Pasangkayu (Mamuju Utara),Sulawesi Barat
558,91414,Baruga,76.05.08.1002,Banggae Timur,Kabupaten,Majene,Sulawesi Barat
559,91411,Baruga Dhua (Baruga Dua),76.05.08.1003,Banggae Timur,Kabupaten,Majene,Sulawesi Barat
560,91412,Baurung,76.05.08.1001,Banggae Timur,Kabupaten,Majene,Sulawesi Barat
561,91413,Buttu Baruga,76.05.08.2009,Banggae Timur,Kabupaten,Majene,Sulawesi Barat
562,91412,Labuang,76.05.08.1004,Banggae Timur,Kabupaten,Majene,Sulawesi Barat
563,91413,Labuang Utara,76.05.08.1007,Banggae Timur,Kabupaten,Majene,Sulawesi Barat
564,91413,Lembang,76.05.08.1006,Banggae Timur,Kabupaten,Majene,Sulawesi Barat
565,91413,Tande,76.05.08.1005,Banggae Timur,Kabupaten,Majene,Sulawesi Barat
566,91413,Tande Timur,76.05.08.1008,Banggae Timur,Kabupaten,Majene,Sulawesi Barat
567,91411,Banggae,76.05.01.1001,Banggae,Kabupaten,Majene,Sulawesi Barat
568,91415,Baru,76.05.01.1003,Banggae,Kabupaten,Majene,Sulawesi Barat
569,91411,Galung,76.05.01.1013,Banggae,Kabupaten,Majene,Sulawesi Barat
570,91415,Palipi Soreang,76.05.01.2011,Banggae,Kabupaten,Majene,Sulawesi Barat
571,91415,Pamboborang,76.05.01.2012,Banggae,Kabupaten,Majene,Sulawesi Barat
572,91411,Pangali-Ali,76.05.01.1007,Banggae,Kabupaten,Majene,Sulawesi Barat
573,91415,Rangas,76.05.01.1010,Banggae,Kabupaten,Majene,Sulawesi Barat
574,91415,Totoli,76.05.01.1009,Banggae,Kabupaten,Majene,Sulawesi Barat
575,91371,Balatana,76.03.11.2020,Bambang,Kabupaten,Mamasa,Sulawesi Barat
576,91371,Bambang,76.03.11.2010,Bambang,Kabupaten,Mamasa,Sulawesi Barat
577,91371,Bambang Timur,76.03.11.2014,Bambang,Kabupaten,Mamasa,Sulawesi Barat
578,91371,Limbadebata,76.03.11.2008,Bambang,Kabupaten,Mamasa,Sulawesi Barat
579,91371,Masoso,76.03.11.2002,Bambang,Kabupaten,Mamasa,Sulawesi Barat
580,91371,Minanga,76.03.11.2015,Bambang,Kabupaten,Mamasa,Sulawesi Barat
581,91371,Mokallang,76.03.11.2001,Bambang,Kabupaten,Mamasa,Sulawesi Barat
582,91371,Rantelemo,76.03.11.2011,Bambang,Kabupaten,Mamasa,Sulawesi Barat
583,91371,Rantetarima,76.03.11.2017,Bambang,Kabupaten,Mamasa,Sulawesi Barat
584,91371,Saluassing,76.03.11.2003,Bambang,Kabupaten,Mamasa,Sulawesi Barat
585,91371,Salubulo,76.03.11.2004,Bambang,Kabupaten,Mamasa,Sulawesi Barat
586,91371,Saludengen,76.03.11.2012,Bambang,Kabupaten,Mamasa,Sulawesi Barat
587,91371,Salukadi,76.03.11.2005,Bambang,Kabupaten,Mamasa,Sulawesi Barat
588,91371,Salukepopok,76.03.11.2006,Bambang,Kabupaten,Mamasa,Sulawesi Barat
589,91371,Salururu,76.03.11.2018,Bambang,Kabupaten,Mamasa,Sulawesi Barat
590,91371,Salutabang,76.03.11.2019,Bambang,Kabupaten,Mamasa,Sulawesi Barat
591,91371,Sikamase,76.03.11.2016,Bambang,Kabupaten,Mamasa,Sulawesi Barat
592,91371,Tanete Tomba,76.03.11.2009,Bambang,Kabupaten,Mamasa,Sulawesi Barat
593,91371,Ulumambi,76.03.11.2013,Bambang,Kabupaten,Mamasa,Sulawesi Barat
594,91371,Ulumambi Barat,76.03.11.2007,Bambang,Kabupaten,Mamasa,Sulawesi Barat
595,91575,Bambalamotu,76.01.01.1006,Bambalamotu,Kabupaten,Pasangkayu (Mamuju Utara),Sulawesi Barat
596,91575,Kalola,76.01.01.2008,Bambalamotu,Kabupaten,Pasangkayu (Mamuju Utara),Sulawesi Barat
597,91575,Pangiang,76.01.01.2007,Bambalamotu,Kabupaten,Pasangkayu (Mamuju Utara),Sulawesi Barat
598,91575,Polewali,76.01.01.2003,Bambalamotu,Kabupaten,Pasangkayu (Mamuju Utara),Sulawesi Barat
599,91575,Randomayang,76.01.01.2004,Bambalamotu,Kabupaten,Pasangkayu (Mamuju Utara),Sulawesi Barat
600,91575,Wulai,76.01.01.2009,Bambalamotu,Kabupaten,Pasangkayu (Mamuju Utara),Sulawesi Barat
601,91574,Bambaira,76.01.10.2001,Bambaira,Kabupaten,Pasangkayu (Mamuju Utara),Sulawesi Barat
602,91574,Kaluku Nangka (Kalukunangka),76.01.10.2004,Bambaira,Kabupaten,Pasangkayu (Mamuju Utara),Sulawesi Barat
603,91574,Kasoloang,76.01.10.2002,Bambaira,Kabupaten,Pasangkayu (Mamuju Utara),Sulawesi Barat
604,91574,Tampaure,76.01.10.2003,Bambaira,Kabupaten,Pasangkayu (Mamuju Utara),Sulawesi Barat
605,91366,Balla,76.03.12.2001,Balla,Kabupaten,Mamasa,Sulawesi Barat
606,91366,Balla Barat,76.03.12.2002,Balla,Kabupaten,Mamasa,Sulawesi Barat
607,91366,Balla Satanetean,76.03.12.2003,Balla,Kabupaten,Mamasa,Sulawesi Barat
608,91366,Balla Timur,76.03.12.2008,Balla,Kabupaten,Mamasa,Sulawesi Barat
609,91366,Balla Tumuka,76.03.12.2004,Balla,Kabupaten,Mamasa,Sulawesi Barat
610,91366,Bambapuang,76.03.12.2007,Balla,Kabupaten,Mamasa,Sulawesi Barat
611,91366,Pidara,76.03.12.2006,Balla,Kabupaten,Mamasa,Sulawesi Barat
612,91366,Sepakuan,76.03.12.2005,Balla,Kabupaten,Mamasa,Sulawesi Barat
613,91354,Bala,76.04.12.2008,Balanipa,Kabupaten,Polewali Mandar,Sulawesi Barat
614,91354,Balanipa,76.04.12.1002,Balanipa,Kabupaten,Polewali Mandar,Sulawesi Barat
615,91354,Galung Tuluk (Galung Tulu),76.04.12.2005,Balanipa,Kabupaten,Polewali Mandar,Sulawesi Barat
616,91354,Lambanan,76.04.12.2009,Balanipa,Kabupaten,Polewali Mandar,Sulawesi Barat
617,91354,Lego,76.04.12.2010,Balanipa,Kabupaten,Polewali Mandar,Sulawesi Barat
618,91354,Mosso,76.04.12.2004,Balanipa,Kabupaten,Polewali Mandar,Sulawesi Barat
619,91354,Pallis,76.04.12.2011,Balanipa,Kabupaten,Polewali Mandar,Sulawesi Barat
620,91354,Pambusuang,76.04.12.2007,Balanipa,Kabupaten,Polewali Mandar,Sulawesi Barat
621,91354,Sabang Subik,76.04.12.2006,Balanipa,Kabupaten,Polewali Mandar,Sulawesi Barat
622,91354,Tamanggalle (Tammangalle),76.04.12.2003,Balanipa,Kabupaten,Polewali Mandar,Sulawesi Barat
623,91354,Tammejarra (Tammajarra),76.04.12.2001,Balanipa,Kabupaten,Polewali Mandar,Sulawesi Barat
624,91373,Aralle,76.03.02.1001,Aralle,Kabupaten,Mamasa,Sulawesi Barat
625,91373,Aralle Selatan,76.03.02.2018,Aralle,Kabupaten,Mamasa,Sulawesi Barat
626,91373,Aralle Utara,76.03.02.2007,Aralle,Kabupaten,Mamasa,Sulawesi Barat
627,91373,Baruru,76.03.02.2010,Aralle,Kabupaten,Mamasa,Sulawesi Barat
628,91373,Hahangan,76.03.02.2019,Aralle,Kabupaten,Mamasa,Sulawesi Barat
629,91373,Kalabe,76.03.02.2017,Aralle,Kabupaten,Mamasa,Sulawesi Barat
630,91373,Pamoseang Pangga,76.03.02.2016,Aralle,Kabupaten,Mamasa,Sulawesi Barat
631,91373,Panetean,76.03.02.2004,Aralle,Kabupaten,Mamasa,Sulawesi Barat
632,91373,Ralle Anak,76.03.02.2003,Aralle,Kabupaten,Mamasa,Sulawesi Barat
633,91373,Ralleanak Utara,76.03.02.2015,Aralle,Kabupaten,Mamasa,Sulawesi Barat
634,91373,Uhaidaho,76.03.02.2009,Aralle,Kabupaten,Mamasa,Sulawesi Barat
635,91373,Uhailanu,76.03.02.2005,Aralle,Kabupaten,Mamasa,Sulawesi Barat
636,91315,Anreapi,76.04.13.1001,Anreapi,Kabupaten,Polewali Mandar,Sulawesi Barat
637,91315,Duampanua,76.04.13.2002,Anreapi,Kabupaten,Polewali Mandar,Sulawesi Barat
638,91315,Kelapa Dua,76.04.13.2003,Anreapi,Kabupaten,Polewali Mandar,Sulawesi Barat
639,91315,Kunyi,76.04.13.2005,Anreapi,Kabupaten,Polewali Mandar,Sulawesi Barat
640,91315,Papandangan (Pappandangan),76.04.13.2004,Anreapi,Kabupaten,Polewali Mandar,Sulawesi Barat
641,91325,Alu (Allu),76.04.15.2008,Allu (Alu),Kabupaten,Polewali Mandar,Sulawesi Barat
642,91325,Kalumammang,76.04.15.2003,Allu (Alu),Kabupaten,Polewali Mandar,Sulawesi Barat
643,91325,Mombi,76.04.15.2002,Allu (Alu),Kabupaten,Polewali Mandar,Sulawesi Barat
644,91325,Pao Pao,76.04.15.2004,Allu (Alu),Kabupaten,Polewali Mandar,Sulawesi Barat
645,91325,Petoosang,76.04.15.1009,Allu (Alu),Kabupaten,Polewali Mandar,Sulawesi Barat
646,91325,Puppu Uring (Pupu Uring / Puppuring),76.04.15.2005,Allu (Alu),Kabupaten,Polewali Mandar,Sulawesi Barat
647,91325,Saragian,76.04.15.2006,Allu (Alu),Kabupaten,Polewali Mandar,Sulawesi Barat
648,91325,Sayoang,76.04.15.2007,Allu (Alu),Kabupaten,Polewali Mandar,Sulawesi Barat