no,postal_code,urban,area_code,sub_district,dt2,city,province
1,95376,Budo,71.06.04.2006,Wori,Kabupaten,Minahasa Utara,Sulawesi Utara
2,95376,Bulo,71.06.04.2014,Wori,Kabupaten,Minahasa Utara,Sulawesi Utara
3,95376,Darunu,71.06.04.2007,Wori,Kabupaten,Minahasa Utara,Sulawesi Utara
4,95376,Kima Bajo,71.06.04.2003,Wori,Kabupaten,Minahasa Utara,Sulawesi Utara
5,95376,Kulu,71.06.04.2013,Wori,Kabupaten,Minahasa Utara,Sulawesi Utara
6,95376,Lansa,71.06.04.2015,Wori,Kabupaten,Minahasa Utara,Sulawesi Utara
7,95376,Lantung,71.06.04.2016,Wori,Kabupaten,Minahasa Utara,Sulawesi Utara
8,95376,Mantehage Bango,71.06.04.2011,Wori,Kabupaten,Minahasa Utara,Sulawesi Utara
9,95376,Mantehage Buhias,71.06.04.2010,Wori,Kabupaten,Minahasa Utara,Sulawesi Utara
10,95376,Mantehage II Tangkasi (Mantehage Tangkas),71.06.04.2012,Wori,Kabupaten,Minahasa Utara,Sulawesi Utara
11,95376,Mantehage III Tinongko (Mantehage Tinongko),71.06.04.2008,Wori,Kabupaten,Minahasa Utara,Sulawesi Utara
12,95376,Minaesa,71.06.04.2018,Wori,Kabupaten,Minahasa Utara,Sulawesi Utara
13,95376,Nain,71.06.04.2009,Wori,Kabupaten,Minahasa Utara,Sulawesi Utara
14,95376,Nain Satu,71.06.04.2020,Wori,Kabupaten,Minahasa Utara,Sulawesi Utara
15,95376,Nain Tatampi,71.06.04.2019,Wori,Kabupaten,Minahasa Utara,Sulawesi Utara
16,95376,Pontoh (Ponto),71.06.04.2017,Wori,Kabupaten,Minahasa Utara,Sulawesi Utara
17,95376,Talawaan Atas,71.06.04.2005,Wori,Kabupaten,Minahasa Utara,Sulawesi Utara
18,95376,Talawaan Bantik,71.06.04.2004,Wori,Kabupaten,Minahasa Utara,Sulawesi Utara
19,95376,Tiwoho,71.06.04.2001,Wori,Kabupaten,Minahasa Utara,Sulawesi Utara
20,95376,Wori,71.06.04.2002,Wori,Kabupaten,Minahasa Utara,Sulawesi Utara
21,95113,Bumi Beringin,71.71.04.1012,Wenang,Kota,Manado,Sulawesi Utara
22,95121,Calaca,71.71.04.1008,Wenang,Kota,Manado,Sulawesi Utara
23,95121,Istiqlal,71.71.04.1009,Wenang,Kota,Manado,Sulawesi Utara
24,95122,Komo Luar,71.71.04.1011,Wenang,Kota,Manado,Sulawesi Utara
25,95123,Lawangirung (Lawang Irung),71.71.04.1010,Wenang,Kota,Manado,Sulawesi Utara
26,95112,Mahakeret Barat,71.71.04.1003,Wenang,Kota,Manado,Sulawesi Utara
27,95112,Mahakeret Timur,71.71.04.1002,Wenang,Kota,Manado,Sulawesi Utara
28,95122,Pinaesaan,71.71.04.1007,Wenang,Kota,Manado,Sulawesi Utara
29,95119,Teling Bawah,71.71.04.1004,Wenang,Kota,Manado,Sulawesi Utara
30,95124,Tikala Kumaraka,71.71.04.1001,Wenang,Kota,Manado,Sulawesi Utara
31,95111,Wenang Selatan,71.71.04.1006,Wenang,Kota,Manado,Sulawesi Utara
32,95111,Wenang Utara,71.71.04.1005,Wenang,Kota,Manado,Sulawesi Utara
33,95117,Bumi Nyiur,71.71.07.1004,Wanea,Kota,Manado,Sulawesi Utara
34,95117,Karombasan Selatan,71.71.07.1009,Wanea,Kota,Manado,Sulawesi Utara
35,95117,Karombasan Utara,71.71.07.1008,Wanea,Kota,Manado,Sulawesi Utara
36,95119,Pakowa,71.71.07.1003,Wanea,Kota,Manado,Sulawesi Utara
37,95118,Ranotana Weru,71.71.07.1005,Wanea,Kota,Manado,Sulawesi Utara
38,95117,Tanjung Batu,71.71.07.1002,Wanea,Kota,Manado,Sulawesi Utara
39,95119,Teling Atas,71.71.07.1006,Wanea,Kota,Manado,Sulawesi Utara
40,95117,Tingkulu,71.71.07.1007,Wanea,Kota,Manado,Sulawesi Utara
41,95117,Wanea,71.71.07.1001,Wanea,Kota,Manado,Sulawesi Utara
42,95783,Dodap,71.10.01.2005,Tutuyan,Kabupaten,Bolaang Mongondow Timur,Sulawesi Utara
43,95783,Dodap Pantai,71.10.01.2006,Tutuyan,Kabupaten,Bolaang Mongondow Timur,Sulawesi Utara
44,95783,Dodop Mikasa,71.10.01.2010,Tutuyan,Kabupaten,Bolaang Mongondow Timur,Sulawesi Utara
45,95783,Kayumoyondi,71.10.01.2001,Tutuyan,Kabupaten,Bolaang Mongondow Timur,Sulawesi Utara
46,95783,Togid,71.10.01.2004,Tutuyan,Kabupaten,Bolaang Mongondow Timur,Sulawesi Utara
47,95783,Tombolikat,71.10.01.2002,Tutuyan,Kabupaten,Bolaang Mongondow Timur,Sulawesi Utara
48,95783,Tombolikat Selatan,71.10.01.2009,Tutuyan,Kabupaten,Bolaang Mongondow Timur,Sulawesi Utara
49,95783,Tutuyan,71.10.01.2003,Tutuyan,Kabupaten,Bolaang Mongondow Timur,Sulawesi Utara
50,95783,Tutuyan II,71.10.01.2007,Tutuyan,Kabupaten,Bolaang Mongondow Timur,Sulawesi Utara
51,95783,Tutuyan III,71.10.01.2008,Tutuyan,Kabupaten,Bolaang Mongondow Timur,Sulawesi Utara
52,95352,Lelema,71.05.12.2005,Tumpaan,Kabupaten,Minahasa Selatan,Sulawesi Utara
53,95352,Matani,71.05.12.2003,Tumpaan,Kabupaten,Minahasa Selatan,Sulawesi Utara
54,95352,Matani Satu,71.05.12.2017,Tumpaan,Kabupaten,Minahasa Selatan,Sulawesi Utara
55,95352,Munte,71.05.12.2007,Tumpaan,Kabupaten,Minahasa Selatan,Sulawesi Utara
56,95352,Popontolen,71.05.12.2004,Tumpaan,Kabupaten,Minahasa Selatan,Sulawesi Utara
57,95352,Tangkunei (Tangkuney),71.05.12.2006,Tumpaan,Kabupaten,Minahasa Selatan,Sulawesi Utara
58,95352,Tumpaan,71.05.12.2002,Tumpaan,Kabupaten,Minahasa Selatan,Sulawesi Utara
59,95352,Tumpaan Baru,71.05.12.2016,Tumpaan,Kabupaten,Minahasa Selatan,Sulawesi Utara
60,95352,Tumpaan Satu,71.05.12.2001,Tumpaan,Kabupaten,Minahasa Selatan,Sulawesi Utara
61,95352,Tumpan Dua (Tumpaan Dua),71.05.12.2018,Tumpaan,Kabupaten,Minahasa Selatan,Sulawesi Utara
62,95239,Bitung Karangria (Bitungkarangria),71.71.02.1001,Tuminting (Tuminiting),Kota,Manado,Sulawesi Utara
63,95239,Islam (Kampung Islam),71.71.02.1007,Tuminting (Tuminiting),Kota,Manado,Sulawesi Utara
64,95238,Maasing,71.71.02.1004,Tuminting (Tuminiting),Kota,Manado,Sulawesi Utara
65,95239,Mahawu,71.71.02.1010,Tuminting (Tuminiting),Kota,Manado,Sulawesi Utara
66,95239,Sindulang Dua,71.71.02.1006,Tuminting (Tuminiting),Kota,Manado,Sulawesi Utara
67,95239,Sindulang Satu,71.71.02.1005,Tuminting (Tuminiting),Kota,Manado,Sulawesi Utara
68,95239,Sumompo,71.71.02.1009,Tuminting (Tuminiting),Kota,Manado,Sulawesi Utara
69,95239,Tuminting,71.71.02.1002,Tuminting (Tuminiting),Kota,Manado,Sulawesi Utara
70,95239,Tumumpa Dua,71.71.02.1008,Tuminting (Tuminiting),Kota,Manado,Sulawesi Utara
71,95239,Tumumpa Satu,71.71.02.1003,Tuminting (Tuminiting),Kota,Manado,Sulawesi Utara
72,95982,Banga,71.07.07.2007,Touluaan Selatan,Kabupaten,Minahasa Tenggara,Sulawesi Utara
73,95982,Bunag,71.07.07.2006,Touluaan Selatan,Kabupaten,Minahasa Tenggara,Sulawesi Utara
74,95982,Kalait,71.07.07.2001,Touluaan Selatan,Kabupaten,Minahasa Tenggara,Sulawesi Utara
75,95982,Kalait Dua,71.07.07.2003,Touluaan Selatan,Kabupaten,Minahasa Tenggara,Sulawesi Utara
76,95982,Kalait Satu,71.07.07.2002,Touluaan Selatan,Kabupaten,Minahasa Tenggara,Sulawesi Utara
77,95982,Kalait Tiga,71.07.07.2004,Touluaan Selatan,Kabupaten,Minahasa Tenggara,Sulawesi Utara
78,95982,Lowatag (Lowatak / Lowantag),71.07.07.2005,Touluaan Selatan,Kabupaten,Minahasa Tenggara,Sulawesi Utara
79,95982,Ranoako,71.07.07.2009,Touluaan Selatan,Kabupaten,Minahasa Tenggara,Sulawesi Utara
80,95982,Suhuyon,71.07.07.2010,Touluaan Selatan,Kabupaten,Minahasa Tenggara,Sulawesi Utara
81,95982,Tambelang,71.07.07.2008,Touluaan Selatan,Kabupaten,Minahasa Tenggara,Sulawesi Utara
82,95981,Lobu,71.07.06.2022,Touluaan,Kabupaten,Minahasa Tenggara,Sulawesi Utara
83,95981,Lobu Atas,71.07.06.2021,Touluaan,Kabupaten,Minahasa Tenggara,Sulawesi Utara
84,95981,Lobu Dua,71.07.06.2006,Touluaan,Kabupaten,Minahasa Tenggara,Sulawesi Utara
85,95981,Lobu Kota,71.07.06.2020,Touluaan,Kabupaten,Minahasa Tenggara,Sulawesi Utara
86,95981,Lobu Satu,71.07.06.2005,Touluaan,Kabupaten,Minahasa Tenggara,Sulawesi Utara
87,95981,Ranoketang Atas,71.07.06.2003,Touluaan,Kabupaten,Minahasa Tenggara,Sulawesi Utara
88,95981,Ranoketang Atas Satu,71.07.06.2019,Touluaan,Kabupaten,Minahasa Tenggara,Sulawesi Utara
89,95981,Tondanauw (Toundanouw / Toundanou),71.07.06.2004,Touluaan,Kabupaten,Minahasa Tenggara,Sulawesi Utara
90,95981,Tondanouw Satu (Toundanouw Satu),71.07.06.2017,Touluaan,Kabupaten,Minahasa Tenggara,Sulawesi Utara
91,95981,Toundanouw Atas,71.07.06.2018,Touluaan,Kabupaten,Minahasa Tenggara,Sulawesi Utara
92,95614,Kampung Jawa,71.02.16.1003,Tondano Utara,Kabupaten,Minahasa,Sulawesi Utara
93,95615,Kembuan,71.02.16.2007,Tondano Utara,Kabupaten,Minahasa,Sulawesi Utara
94,95615,Kembuan Satu,71.02.16.2008,Tondano Utara,Kabupaten,Minahasa,Sulawesi Utara
95,95614,Marawas,71.02.16.1005,Tondano Utara,Kabupaten,Minahasa,Sulawesi Utara
96,95615,Sasaran,71.02.16.1002,Tondano Utara,Kabupaten,Minahasa,Sulawesi Utara
97,95615,Sumalangka,71.02.16.1001,Tondano Utara,Kabupaten,Minahasa,Sulawesi Utara
98,95610,Tonsea Lama,71.02.16.2006,Tondano Utara,Kabupaten,Minahasa,Sulawesi Utara
99,95614,Wulauan (Wulaoan),71.02.16.1004,Tondano Utara,Kabupaten,Minahasa,Sulawesi Utara
100,95612,Katinggolan,71.02.02.1008,Tondano Timur,Kabupaten,Minahasa,Sulawesi Utara
101,95613,Kendis,71.02.02.1007,Tondano Timur,Kabupaten,Minahasa,Sulawesi Utara
102,95611,Kiniar,71.02.02.1011,Tondano Timur,Kabupaten,Minahasa,Sulawesi Utara
103,95612,Liningaan,71.02.02.1009,Tondano Timur,Kabupaten,Minahasa,Sulawesi Utara
104,95614,Luaan,71.02.02.1001,Tondano Timur,Kabupaten,Minahasa,Sulawesi Utara
105,95612,Makalounsow (Makalonsouw),71.02.02.1014,Tondano Timur,Kabupaten,Minahasa,Sulawesi Utara
106,95612,Papakelan,71.02.02.1013,Tondano Timur,Kabupaten,Minahasa,Sulawesi Utara
107,95613,Ranowangko,71.02.02.1005,Tondano Timur,Kabupaten,Minahasa,Sulawesi Utara
108,95611,Taler,71.02.02.1010,Tondano Timur,Kabupaten,Minahasa,Sulawesi Utara
109,95611,Touluor (Toulour),71.02.02.1012,Tondano Timur,Kabupaten,Minahasa,Sulawesi Utara
110,95613,Wengkol,71.02.02.1006,Tondano Timur,Kabupaten,Minahasa,Sulawesi Utara
111,95618,Koya,71.02.18.1005,Tondano Selatan,Kabupaten,Minahasa,Sulawesi Utara
112,95618,Maesa Unima,71.02.18.1008,Tondano Selatan,Kabupaten,Minahasa,Sulawesi Utara
113,95619,Paleloan (Peleloan),71.02.18.1006,Tondano Selatan,Kabupaten,Minahasa,Sulawesi Utara
114,95618,Tataaran Dua (II),71.02.18.1003,Tondano Selatan,Kabupaten,Minahasa,Sulawesi Utara
115,95619,Tataaran Patar,71.02.18.1007,Tondano Selatan,Kabupaten,Minahasa,Sulawesi Utara
116,95618,Tataaran Satu (I),71.02.18.1004,Tondano Selatan,Kabupaten,Minahasa,Sulawesi Utara
117,95619,Tounsaru,71.02.18.1002,Tondano Selatan,Kabupaten,Minahasa,Sulawesi Utara
118,95619,Urongo,71.02.18.1001,Tondano Selatan,Kabupaten,Minahasa,Sulawesi Utara
119,95616,Masarang,71.02.01.1007,Tondano Barat,Kabupaten,Minahasa,Sulawesi Utara
120,95615,Rerewokan,71.02.01.1013,Tondano Barat,Kabupaten,Minahasa,Sulawesi Utara
121,95617,Rinegetan,71.02.01.1008,Tondano Barat,Kabupaten,Minahasa,Sulawesi Utara
122,95617,Roong,71.02.01.1009,Tondano Barat,Kabupaten,Minahasa,Sulawesi Utara
123,95616,Tounkuramber,71.02.01.1011,Tondano Barat,Kabupaten,Minahasa,Sulawesi Utara
124,95617,Tuutu,71.02.01.1010,Tondano Barat,Kabupaten,Minahasa,Sulawesi Utara
125,95615,Watulambot,71.02.01.1014,Tondano Barat,Kabupaten,Minahasa,Sulawesi Utara
126,95616,Wawalintouan,71.02.01.1012,Tondano Barat,Kabupaten,Minahasa,Sulawesi Utara
127,95615,Wewelan (Wewelen),71.02.01.1015,Tondano Barat,Kabupaten,Minahasa,Sulawesi Utara
128,95358,Karowa,71.05.02.2017,Tompaso Baru,Kabupaten,Minahasa Selatan,Sulawesi Utara
129,95358,Kinalawiran,71.05.02.2012,Tompaso Baru,Kabupaten,Minahasa Selatan,Sulawesi Utara
130,95358,Liandok,71.05.02.2018,Tompaso Baru,Kabupaten,Minahasa Selatan,Sulawesi Utara
131,95358,Lindangan,71.05.02.2016,Tompaso Baru,Kabupaten,Minahasa Selatan,Sulawesi Utara
132,95358,Pinaesaan,71.05.02.2014,Tompaso Baru,Kabupaten,Minahasa Selatan,Sulawesi Utara
133,95358,Raraatean,71.05.02.2009,Tompaso Baru,Kabupaten,Minahasa Selatan,Sulawesi Utara
134,95358,Sion,71.05.02.2010,Tompaso Baru,Kabupaten,Minahasa Selatan,Sulawesi Utara
135,95358,Tompaso Baru I (Tompaso Baru Satu),71.05.02.2011,Tompaso Baru,Kabupaten,Minahasa Selatan,Sulawesi Utara
136,95358,Tompaso Baru II (Tompaso Baru Dua),71.05.02.2013,Tompaso Baru,Kabupaten,Minahasa Selatan,Sulawesi Utara
137,95358,Torout,71.05.02.2015,Tompaso Baru,Kabupaten,Minahasa Selatan,Sulawesi Utara
138,95698,Penaesaan,71.02.25.2001,Tompaso Barat,Kabupaten,Minahasa,Sulawesi Utara
139,95698,Pinabetengan,71.02.25.2005,Tompaso Barat,Kabupaten,Minahasa,Sulawesi Utara
140,95698,Pinabetengan Selatan,71.02.25.2006,Tompaso Barat,Kabupaten,Minahasa,Sulawesi Utara
141,95698,Pinabetengan Utara,71.02.25.2004,Tompaso Barat,Kabupaten,Minahasa,Sulawesi Utara
142,95698,Tompaso Dua,71.02.25.2002,Tompaso Barat,Kabupaten,Minahasa,Sulawesi Utara
143,95698,Tompaso Dua Utara,71.02.25.2003,Tompaso Barat,Kabupaten,Minahasa,Sulawesi Utara
144,95698,Tonsewer,71.02.25.2007,Tompaso Barat,Kabupaten,Minahasa,Sulawesi Utara
145,95698,Tonsewer Selatan,71.02.25.2008,Tompaso Barat,Kabupaten,Minahasa,Sulawesi Utara
146,95698,Touure,71.02.25.2009,Tompaso Barat,Kabupaten,Minahasa,Sulawesi Utara
147,95698,Touure Dua,71.02.25.2010,Tompaso Barat,Kabupaten,Minahasa,Sulawesi Utara
148,95693,Kamanga,71.02.07.2005,Tompaso,Kabupaten,Minahasa,Sulawesi Utara
149,95693,Kamanga Dua,71.02.07.2012,Tompaso,Kabupaten,Minahasa,Sulawesi Utara
150,95693,Liba,71.02.07.2010,Tompaso,Kabupaten,Minahasa,Sulawesi Utara
151,95693,Sendangan,71.02.07.2006,Tompaso,Kabupaten,Minahasa,Sulawesi Utara
152,95693,Talikuran,71.02.07.2007,Tompaso,Kabupaten,Minahasa,Sulawesi Utara
153,95693,Tember,71.02.07.2004,Tompaso,Kabupaten,Minahasa,Sulawesi Utara
154,95693,Tempok,71.02.07.2009,Tompaso,Kabupaten,Minahasa,Sulawesi Utara
155,95693,Tempok Selatan,71.02.07.2016,Tompaso,Kabupaten,Minahasa,Sulawesi Utara
156,95693,Tolok,71.02.07.2011,Tompaso,Kabupaten,Minahasa,Sulawesi Utara
157,95693,Tolok Satu,71.02.07.2017,Tompaso,Kabupaten,Minahasa,Sulawesi Utara
158,95418,Kakaskasen,71.73.03.1010,Tomohon Utara,Kota,Tomohon,Sulawesi Utara
159,95416,Kakaskasen Dua,71.73.03.1005,Tomohon Utara,Kota,Tomohon,Sulawesi Utara
160,95415,Kakaskasen Satu,71.73.03.1004,Tomohon Utara,Kota,Tomohon,Sulawesi Utara
161,95417,Kakaskasen Tiga,71.73.03.1006,Tomohon Utara,Kota,Tomohon,Sulawesi Utara
162,95419,Kayawu,71.73.03.1008,Tomohon Utara,Kota,Tomohon,Sulawesi Utara
163,95414,Kinilow,71.73.03.1003,Tomohon Utara,Kota,Tomohon,Sulawesi Utara
164,95413,Kinilow Satu,71.73.03.1009,Tomohon Utara,Kota,Tomohon,Sulawesi Utara
165,95411,Tinoor Dua,71.73.03.1002,Tomohon Utara,Kota,Tomohon,Sulawesi Utara
166,95412,Tinoor Satu,71.73.03.1001,Tomohon Utara,Kota,Tomohon,Sulawesi Utara
167,95418,Wailan,71.73.03.1007,Tomohon Utara,Kota,Tomohon,Sulawesi Utara
168,95449,Kumelembuai (Kumelembuay),71.73.05.1005,Tomohon Timur,Kota,Tomohon,Sulawesi Utara
169,95446,Paslaten Dua,71.73.05.1002,Tomohon Timur,Kota,Tomohon,Sulawesi Utara
170,95446,Paslaten Satu,71.73.05.1001,Tomohon Timur,Kota,Tomohon,Sulawesi Utara
171,95447,Rurukan,71.73.05.1003,Tomohon Timur,Kota,Tomohon,Sulawesi Utara
172,95449,Rurukan Satu,71.73.05.1004,Tomohon Timur,Kota,Tomohon,Sulawesi Utara
173,95442,Kamasi,71.73.02.1011,Tomohon Tengah,Kota,Tomohon,Sulawesi Utara
174,95441,Kamasi Satu,71.73.02.1018,Tomohon Tengah,Kota,Tomohon,Sulawesi Utara
175,95442,Kolongan,71.73.02.1012,Tomohon Tengah,Kota,Tomohon,Sulawesi Utara
176,95441,Kolongan Satu,71.73.02.1019,Tomohon Tengah,Kota,Tomohon,Sulawesi Utara
177,95444,Matani Dua,71.73.02.1016,Tomohon Tengah,Kota,Tomohon,Sulawesi Utara
178,95445,Matani Satu,71.73.02.1015,Tomohon Tengah,Kota,Tomohon,Sulawesi Utara
179,95443,Matani Tiga,71.73.02.1017,Tomohon Tengah,Kota,Tomohon,Sulawesi Utara
180,95441,Talete Dua,71.73.02.1010,Tomohon Tengah,Kota,Tomohon,Sulawesi Utara
181,95441,Talete Satu,71.73.02.1009,Tomohon Tengah,Kota,Tomohon,Sulawesi Utara
182,95433,Kampung Jawa,71.73.01.1006,Tomohon Selatan,Kota,Tomohon,Sulawesi Utara
183,95435,Lahendong,71.73.01.1002,Tomohon Selatan,Kota,Tomohon,Sulawesi Utara
184,95431,Lansot,71.73.01.1007,Tomohon Selatan,Kota,Tomohon,Sulawesi Utara
185,95437,Pangolombian,71.73.01.1004,Tomohon Selatan,Kota,Tomohon,Sulawesi Utara
186,95434,Pinaras,71.73.01.1001,Tomohon Selatan,Kota,Tomohon,Sulawesi Utara
187,95436,Tondangow,71.73.01.1003,Tomohon Selatan,Kota,Tomohon,Sulawesi Utara
188,95432,Tumatangtang,71.73.01.1005,Tomohon Selatan,Kota,Tomohon,Sulawesi Utara
189,95439,Tumatangtang Satu,71.73.01.1012,Tomohon Selatan,Kota,Tomohon,Sulawesi Utara
190,95438,Uluindano,71.73.01.1009,Tomohon Selatan,Kota,Tomohon,Sulawesi Utara
191,95439,Walian,71.73.01.1008,Tomohon Selatan,Kota,Tomohon,Sulawesi Utara
192,95439,Walian Dua,71.73.01.1011,Tomohon Selatan,Kota,Tomohon,Sulawesi Utara
193,95439,Walian Satu,71.73.01.1010,Tomohon Selatan,Kota,Tomohon,Sulawesi Utara
194,95423,Taratara,71.73.04.1007,Tomohon Barat,Kota,Tomohon,Sulawesi Utara
195,95424,Taratara Dua,71.73.04.1005,Tomohon Barat,Kota,Tomohon,Sulawesi Utara
196,95425,Taratara Satu,71.73.04.1004,Tomohon Barat,Kota,Tomohon,Sulawesi Utara
197,95423,Taratara Tiga,71.73.04.1008,Tomohon Barat,Kota,Tomohon,Sulawesi Utara
198,95422,Woloan Dua,71.73.04.1002,Tomohon Barat,Kota,Tomohon,Sulawesi Utara
199,95421,Woloan Satu,71.73.04.1001,Tomohon Barat,Kota,Tomohon,Sulawesi Utara
200,95423,Woloan Satu Utara,71.73.04.1006,Tomohon Barat,Kota,Tomohon,Sulawesi Utara
201,95423,Woloan Tiga,71.73.04.1003,Tomohon Barat,Kota,Tomohon,Sulawesi Utara
202,95778,Botuliodu,71.11.07.2001,Tomini,Kabupaten,Bolaang Mongondow Selatan,Sulawesi Utara
203,95778,Milangodaa,71.11.07.2004,Tomini,Kabupaten,Bolaang Mongondow Selatan,Sulawesi Utara
204,95778,Milangodaa Barat,71.11.07.2005,Tomini,Kabupaten,Bolaang Mongondow Selatan,Sulawesi Utara
205,95778,Milangodaa Utara (Milangoda Utara),71.11.07.2006,Tomini,Kabupaten,Bolaang Mongondow Selatan,Sulawesi Utara
206,95778,Nunuka Raya,71.11.07.2002,Tomini,Kabupaten,Bolaang Mongondow Selatan,Sulawesi Utara
207,95778,Pakuku Jaya,71.11.07.2007,Tomini,Kabupaten,Bolaang Mongondow Selatan,Sulawesi Utara
208,95778,Tolutu,71.11.07.2003,Tomini,Kabupaten,Bolaang Mongondow Selatan,Sulawesi Utara
209,95663,Kamangta,71.02.14.2006,Tombulu,Kabupaten,Minahasa,Sulawesi Utara
210,95663,Kembes I (Kembes Satu),71.02.14.2002,Tombulu,Kabupaten,Minahasa,Sulawesi Utara
211,95663,Kembes II (Kembes Dua),71.02.14.2001,Tombulu,Kabupaten,Minahasa,Sulawesi Utara
212,95663,Koka,71.02.14.2004,Tombulu,Kabupaten,Minahasa,Sulawesi Utara
213,95663,Rumengkor,71.02.14.2008,Tombulu,Kabupaten,Minahasa,Sulawesi Utara
214,95663,Rumengkor Dua,71.02.14.2011,Tombulu,Kabupaten,Minahasa,Sulawesi Utara
215,95663,Rumengkor Satu,71.02.14.2010,Tombulu,Kabupaten,Minahasa,Sulawesi Utara
216,95663,Sawangan,71.02.14.2007,Tombulu,Kabupaten,Minahasa,Sulawesi Utara
217,95663,Suluan,71.02.14.2005,Tombulu,Kabupaten,Minahasa,Sulawesi Utara
218,95663,Tikela,71.02.14.2009,Tombulu,Kabupaten,Minahasa,Sulawesi Utara
219,95663,Toumbuluan (Tombuluan),71.02.14.2003,Tombulu,Kabupaten,Minahasa,Sulawesi Utara
220,95991,Kuyanga,71.07.10.2007,Tombatu Utara,Kabupaten,Minahasa Tenggara,Sulawesi Utara
221,95991,Kuyanga Satu,71.07.10.2008,Tombatu Utara,Kabupaten,Minahasa Tenggara,Sulawesi Utara
222,95991,Tombatu Dua,71.07.10.2001,Tombatu Utara,Kabupaten,Minahasa Tenggara,Sulawesi Utara
223,95991,Tombatu Dua Barat,71.07.10.2003,Tombatu Utara,Kabupaten,Minahasa Tenggara,Sulawesi Utara
224,95991,Tombatu Dua Tengah,71.07.10.2004,Tombatu Utara,Kabupaten,Minahasa Tenggara,Sulawesi Utara
225,95991,Tombatu Dua Utara,71.07.10.2002,Tombatu Utara,Kabupaten,Minahasa Tenggara,Sulawesi Utara
226,95991,Tombatu Tiga,71.07.10.2005,Tombatu Utara,Kabupaten,Minahasa Tenggara,Sulawesi Utara
227,95991,Tombatu Tiga Tengah,71.07.10.2006,Tombatu Utara,Kabupaten,Minahasa Tenggara,Sulawesi Utara
228,95991,Winorangian,71.07.10.2009,Tombatu Utara,Kabupaten,Minahasa Tenggara,Sulawesi Utara
229,95991,Winorangian Satu,71.07.10.2010,Tombatu Utara,Kabupaten,Minahasa Tenggara,Sulawesi Utara
230,95990,Esandom,71.07.09.2009,Tombatu Timur,Kabupaten,Minahasa Tenggara,Sulawesi Utara
231,95990,Esandom Dua,71.07.09.2011,Tombatu Timur,Kabupaten,Minahasa Tenggara,Sulawesi Utara
232,95990,Esandom Satu,71.07.09.2010,Tombatu Timur,Kabupaten,Minahasa Tenggara,Sulawesi Utara
233,95990,Molompar,71.07.09.2001,Tombatu Timur,Kabupaten,Minahasa Tenggara,Sulawesi Utara
234,95990,Molompar Atas,71.07.09.2003,Tombatu Timur,Kabupaten,Minahasa Tenggara,Sulawesi Utara
235,95990,Molompar Dua,71.07.09.2004,Tombatu Timur,Kabupaten,Minahasa Tenggara,Sulawesi Utara
236,95990,Molompar Dua Selatan,71.07.09.2006,Tombatu Timur,Kabupaten,Minahasa Tenggara,Sulawesi Utara
237,95990,Molompar Dua Utara,71.07.09.2005,Tombatu Timur,Kabupaten,Minahasa Tenggara,Sulawesi Utara
238,95990,Molompar Satu,71.07.09.2002,Tombatu Timur,Kabupaten,Minahasa Tenggara,Sulawesi Utara
239,95990,Mundung,71.07.09.2007,Tombatu Timur,Kabupaten,Minahasa Tenggara,Sulawesi Utara
240,95990,Mundung Satu,71.07.09.2008,Tombatu Timur,Kabupaten,Minahasa Tenggara,Sulawesi Utara
241,95996,Betelan,71.07.05.2008,Tombatu,Kabupaten,Minahasa Tenggara,Sulawesi Utara
242,95996,Betelan Satu,71.07.05.2016,Tombatu,Kabupaten,Minahasa Tenggara,Sulawesi Utara
243,95996,Kali,71.07.05.2012,Tombatu,Kabupaten,Minahasa Tenggara,Sulawesi Utara
244,95996,Kali Oki,71.07.05.2017,Tombatu,Kabupaten,Minahasa Tenggara,Sulawesi Utara
245,95996,Pisa,71.07.05.2014,Tombatu,Kabupaten,Minahasa Tenggara,Sulawesi Utara
246,95996,Tombatu,71.07.05.2015,Tombatu,Kabupaten,Minahasa Tenggara,Sulawesi Utara
247,95996,Tombatu Satu,71.07.05.2009,Tombatu,Kabupaten,Minahasa Tenggara,Sulawesi Utara
248,95996,Tombatu Tiga Selatan,71.07.05.2018,Tombatu,Kabupaten,Minahasa Tenggara,Sulawesi Utara
249,95996,Tombatu Tiga Timur,71.07.05.2019,Tombatu,Kabupaten,Minahasa Tenggara,Sulawesi Utara
250,95996,Tonsawang,71.07.05.2006,Tombatu,Kabupaten,Minahasa Tenggara,Sulawesi Utara
251,95996,Tonsawang Satu,71.07.05.2020,Tombatu,Kabupaten,Minahasa Tenggara,Sulawesi Utara
252,95652,Lemoh,71.02.24.2001,Tombariri Timur,Kabupaten,Minahasa,Sulawesi Utara
253,95652,Lemoh Barat,71.02.24.2002,Tombariri Timur,Kabupaten,Minahasa,Sulawesi Utara
254,95652,Lemoh Timur,71.02.24.2003,Tombariri Timur,Kabupaten,Minahasa,Sulawesi Utara
255,95652,Lemoh Uner,71.02.24.2004,Tombariri Timur,Kabupaten,Minahasa,Sulawesi Utara
256,95652,Lolah,71.02.24.2005,Tombariri Timur,Kabupaten,Minahasa,Sulawesi Utara
257,95652,Lolah Dua,71.02.24.2007,Tombariri Timur,Kabupaten,Minahasa,Sulawesi Utara
258,95652,Lolah Satu,71.02.24.2006,Tombariri Timur,Kabupaten,Minahasa,Sulawesi Utara
259,95652,Lolah Tiga,71.02.24.2008,Tombariri Timur,Kabupaten,Minahasa,Sulawesi Utara
260,95652,Ranotongkor,71.02.24.2009,Tombariri Timur,Kabupaten,Minahasa,Sulawesi Utara
261,95652,Ranotongkor Timur,71.02.24.2010,Tombariri Timur,Kabupaten,Minahasa,Sulawesi Utara
262,95651,Borgo,71.02.15.2011,Tombariri,Kabupaten,Minahasa,Sulawesi Utara
263,95651,Kumu,71.02.15.2001,Tombariri,Kabupaten,Minahasa,Sulawesi Utara
264,95651,Mokupa,71.02.15.2009,Tombariri,Kabupaten,Minahasa,Sulawesi Utara
265,95651,Pinasungkulan,71.02.15.2007,Tombariri,Kabupaten,Minahasa,Sulawesi Utara
266,95651,Poopoh,71.02.15.2003,Tombariri,Kabupaten,Minahasa,Sulawesi Utara
267,95651,Ranowangko,71.02.15.2004,Tombariri,Kabupaten,Minahasa,Sulawesi Utara
268,95651,Sarani Matani,71.02.15.2010,Tombariri,Kabupaten,Minahasa,Sulawesi Utara
269,95651,Senduk,71.02.15.2005,Tombariri,Kabupaten,Minahasa,Sulawesi Utara
270,95651,Tambala,71.02.15.2012,Tombariri,Kabupaten,Minahasa,Sulawesi Utara
271,95651,Teling,71.02.15.2002,Tombariri,Kabupaten,Minahasa,Sulawesi Utara
272,95125,Banjer,71.71.05.1011,Tikala,Kota,Manado,Sulawesi Utara
273,95129,Paal IV,71.71.05.1010,Tikala,Kota,Manado,Sulawesi Utara
274,95129,Taas,71.71.05.1009,Tikala,Kota,Manado,Sulawesi Utara
275,95124,Tikala Ares,71.71.05.1012,Tikala,Kota,Manado,Sulawesi Utara
276,95126,Tikala Baru,71.71.05.1008,Tikala,Kota,Manado,Sulawesi Utara
277,95355,Boyong Atas,71.05.09.2001,Tenga,Kabupaten,Minahasa Selatan,Sulawesi Utara
278,95355,Molinow,71.05.09.2014,Tenga,Kabupaten,Minahasa Selatan,Sulawesi Utara
279,95355,Paku Ure (Pakuure),71.05.09.2015,Tenga,Kabupaten,Minahasa Selatan,Sulawesi Utara
280,95355,Paku Ure II (Pakuure Dua),71.05.09.2002,Tenga,Kabupaten,Minahasa Selatan,Sulawesi Utara
281,95355,Paku Ure Kinamang (Pakuure Kinamang),71.05.09.2017,Tenga,Kabupaten,Minahasa Selatan,Sulawesi Utara
282,95355,Paku Ure Tinanian (Pakuure Tinanian),71.05.09.2016,Tenga,Kabupaten,Minahasa Selatan,Sulawesi Utara
283,95355,Pakuure Satu,71.05.09.2011,Tenga,Kabupaten,Minahasa Selatan,Sulawesi Utara
284,95355,Pakuure Tiga,71.05.09.2012,Tenga,Kabupaten,Minahasa Selatan,Sulawesi Utara
285,95355,Pakuweru,71.05.09.2009,Tenga,Kabupaten,Minahasa Selatan,Sulawesi Utara
286,95355,Pakuweru Utara,71.05.09.2018,Tenga,Kabupaten,Minahasa Selatan,Sulawesi Utara
287,95355,Radey,71.05.09.2004,Tenga,Kabupaten,Minahasa Selatan,Sulawesi Utara
288,95355,Sapa,71.05.09.2010,Tenga,Kabupaten,Minahasa Selatan,Sulawesi Utara
289,95355,Sapa Barat,71.05.09.2019,Tenga,Kabupaten,Minahasa Selatan,Sulawesi Utara
290,95355,Sapa Timur,71.05.09.2020,Tenga,Kabupaten,Minahasa Selatan,Sulawesi Utara
291,95355,Tawaang,71.05.09.2005,Tenga,Kabupaten,Minahasa Selatan,Sulawesi Utara
292,95355,Tawaang Barat,71.05.09.2022,Tenga,Kabupaten,Minahasa Selatan,Sulawesi Utara
293,95355,Tawaang Timur,71.05.09.2021,Tenga,Kabupaten,Minahasa Selatan,Sulawesi Utara
294,95355,Tenga,71.05.09.2003,Tenga,Kabupaten,Minahasa Selatan,Sulawesi Utara
295,95851,Dalako Bembanehe (Dalako Bembanahe),71.03.11.2005,Tatoareng,Kabupaten,Kepulauan Sangihe,Sulawesi Utara
296,95851,Kahakitang,71.03.11.2002,Tatoareng,Kabupaten,Kepulauan Sangihe,Sulawesi Utara
297,95851,Kalama,71.03.11.2001,Tatoareng,Kabupaten,Kepulauan Sangihe,Sulawesi Utara
298,95851,Mahenggetang (Mahengetang),71.03.11.2003,Tatoareng,Kabupaten,Kepulauan Sangihe,Sulawesi Utara
299,95851,Para,71.03.11.2004,Tatoareng,Kabupaten,Kepulauan Sangihe,Sulawesi Utara
300,95851,Para I,71.03.11.2007,Tatoareng,Kabupaten,Kepulauan Sangihe,Sulawesi Utara
301,95851,Taleko Batusaiki,71.03.11.2006,Tatoareng,Kabupaten,Kepulauan Sangihe,Sulawesi Utara
302,95351,Arakan,71.05.19.2011,Tatapaan,Kabupaten,Minahasa Selatan,Sulawesi Utara
303,95351,Bajo,71.05.19.2003,Tatapaan,Kabupaten,Minahasa Selatan,Sulawesi Utara
304,95351,Paslaten,71.05.19.2001,Tatapaan,Kabupaten,Minahasa Selatan,Sulawesi Utara
305,95351,Paslaten Satu,71.05.19.2010,Tatapaan,Kabupaten,Minahasa Selatan,Sulawesi Utara
306,95351,Popareng,71.05.19.2005,Tatapaan,Kabupaten,Minahasa Selatan,Sulawesi Utara
307,95351,Pungkol,71.05.19.2008,Tatapaan,Kabupaten,Minahasa Selatan,Sulawesi Utara
308,95351,Raprap (Rap-Rap),71.05.19.2009,Tatapaan,Kabupaten,Minahasa Selatan,Sulawesi Utara
309,95351,Sondaken,71.05.19.2007,Tatapaan,Kabupaten,Minahasa Selatan,Sulawesi Utara
310,95351,Sulu,71.05.19.2002,Tatapaan,Kabupaten,Minahasa Selatan,Sulawesi Utara
311,95351,Wawona,71.05.19.2004,Tatapaan,Kabupaten,Minahasa Selatan,Sulawesi Utara
312,95351,Wawontulap,71.05.19.2006,Tatapaan,Kabupaten,Minahasa Selatan,Sulawesi Utara
313,95953,Kaneyan,71.05.13.2002,Tareran,Kabupaten,Minahasa Selatan,Sulawesi Utara
314,95953,Koreng,71.05.13.2003,Tareran,Kabupaten,Minahasa Selatan,Sulawesi Utara
315,95953,Lansot,71.05.13.2006,Tareran,Kabupaten,Minahasa Selatan,Sulawesi Utara
316,95953,Lansot Timur,71.05.13.2017,Tareran,Kabupaten,Minahasa Selatan,Sulawesi Utara
317,95953,Pinamorongan,71.05.13.2001,Tareran,Kabupaten,Minahasa Selatan,Sulawesi Utara
318,95953,Rumoong Atas (Romoong Atas),71.05.13.2005,Tareran,Kabupaten,Minahasa Selatan,Sulawesi Utara
319,95953,Rumoong Atas Dua (Romoong Atas Dua),71.05.13.2014,Tareran,Kabupaten,Minahasa Selatan,Sulawesi Utara
320,95953,Tumaluntung,71.05.13.2004,Tareran,Kabupaten,Minahasa Selatan,Sulawesi Utara
321,95953,Tumaluntung Satu,71.05.13.2019,Tareran,Kabupaten,Minahasa Selatan,Sulawesi Utara
322,95953,Wiau Lapi,71.05.13.2007,Tareran,Kabupaten,Minahasa Selatan,Sulawesi Utara
323,95953,Wiau Lapi Barat,71.05.13.2020,Tareran,Kabupaten,Minahasa Selatan,Sulawesi Utara
324,95953,Wuwuk,71.05.13.2008,Tareran,Kabupaten,Minahasa Selatan,Sulawesi Utara
325,95953,Wuwuk Barat,71.05.13.2018,Tareran,Kabupaten,Minahasa Selatan,Sulawesi Utara
326,95882,Ammat,71.04.10.2004,Tampan' Amma (Tampan Amma),Kabupaten,Kepulauan Talaud,Sulawesi Utara
327,95882,Ammat Selatan,71.04.10.2009,Tampan' Amma (Tampan Amma),Kabupaten,Kepulauan Talaud,Sulawesi Utara
328,95882,Binalang,71.04.10.2005,Tampan' Amma (Tampan Amma),Kabupaten,Kepulauan Talaud,Sulawesi Utara
329,95882,Binalang Timur,71.04.10.2010,Tampan' Amma (Tampan Amma),Kabupaten,Kepulauan Talaud,Sulawesi Utara
330,95882,Dapalan,71.04.10.2002,Tampan' Amma (Tampan Amma),Kabupaten,Kepulauan Talaud,Sulawesi Utara
331,95882,Dapihe,71.04.10.2007,Tampan' Amma (Tampan Amma),Kabupaten,Kepulauan Talaud,Sulawesi Utara
332,95882,Ganalo,71.04.10.2006,Tampan' Amma (Tampan Amma),Kabupaten,Kepulauan Talaud,Sulawesi Utara
333,95882,Riung,71.04.10.2003,Tampan' Amma (Tampan Amma),Kabupaten,Kepulauan Talaud,Sulawesi Utara
334,95882,Riung Utara,71.04.10.2011,Tampan' Amma (Tampan Amma),Kabupaten,Kepulauan Talaud,Sulawesi Utara
335,95882,Tuabatu,71.04.10.2001,Tampan' Amma (Tampan Amma),Kabupaten,Kepulauan Talaud,Sulawesi Utara
336,95882,Tuabatu Barat,71.04.10.2008,Tampan' Amma (Tampan Amma),Kabupaten,Kepulauan Talaud,Sulawesi Utara
337,95855,Balane,71.03.12.2004,Tamako,Kabupaten,Kepulauan Sangihe,Sulawesi Utara
338,95855,Bebu,71.03.12.2009,Tamako,Kabupaten,Kepulauan Sangihe,Sulawesi Utara
339,95855,Binala,71.03.12.2005,Tamako,Kabupaten,Kepulauan Sangihe,Sulawesi Utara
340,95855,Dagho,71.03.12.2012,Tamako,Kabupaten,Kepulauan Sangihe,Sulawesi Utara
341,95855,Hesang,71.03.12.2020,Tamako,Kabupaten,Kepulauan Sangihe,Sulawesi Utara
342,95855,Kalama Darat,71.03.12.2016,Tamako,Kabupaten,Kepulauan Sangihe,Sulawesi Utara
343,95855,Kalinda,71.03.12.2008,Tamako,Kabupaten,Kepulauan Sangihe,Sulawesi Utara
344,95855,Kalinda I,71.03.12.2017,Tamako,Kabupaten,Kepulauan Sangihe,Sulawesi Utara
345,95855,Lelipang,71.03.12.2014,Tamako,Kabupaten,Kepulauan Sangihe,Sulawesi Utara
346,95855,Mahumu,71.03.12.2013,Tamako,Kabupaten,Kepulauan Sangihe,Sulawesi Utara
347,95855,Mahumu I,71.03.12.2018,Tamako,Kabupaten,Kepulauan Sangihe,Sulawesi Utara
348,95855,Mahumu II,71.03.12.2019,Tamako,Kabupaten,Kepulauan Sangihe,Sulawesi Utara
349,95855,Makalekuhe (Makalakuhe),71.03.12.2010,Tamako,Kabupaten,Kepulauan Sangihe,Sulawesi Utara
350,95855,Menggawa,71.03.12.2007,Tamako,Kabupaten,Kepulauan Sangihe,Sulawesi Utara
351,95855,Menggawa II,71.03.12.2015,Tamako,Kabupaten,Kepulauan Sangihe,Sulawesi Utara
352,95855,Nagha I (Satu),71.03.12.2001,Tamako,Kabupaten,Kepulauan Sangihe,Sulawesi Utara
353,95855,Nagha II (Dua),71.03.12.2002,Tamako,Kabupaten,Kepulauan Sangihe,Sulawesi Utara
354,95855,Pananaru,71.03.12.2011,Tamako,Kabupaten,Kepulauan Sangihe,Sulawesi Utara
355,95855,Pokol,71.03.12.2003,Tamako,Kabupaten,Kepulauan Sangihe,Sulawesi Utara
356,95855,Ulung Peliang (Ulungpeliang),71.03.12.2006,Tamako,Kabupaten,Kepulauan Sangihe,Sulawesi Utara
357,95370,Kolongan,71.06.09.2002,Talawaan,Kabupaten,Minahasa Utara,Sulawesi Utara
358,95370,Mapanget,71.06.09.2004,Talawaan,Kabupaten,Minahasa Utara,Sulawesi Utara
359,95370,Paniki Atas,71.06.09.2001,Talawaan,Kabupaten,Minahasa Utara,Sulawesi Utara
360,95370,Paniki Baru,71.06.09.2012,Talawaan,Kabupaten,Minahasa Utara,Sulawesi Utara
361,95370,Patokaan,71.06.09.2009,Talawaan,Kabupaten,Minahasa Utara,Sulawesi Utara
362,95370,Talawaan,71.06.09.2003,Talawaan,Kabupaten,Minahasa Utara,Sulawesi Utara
363,95370,Teepwarisa (Teep Warisa),71.06.09.2010,Talawaan,Kabupaten,Minahasa Utara,Sulawesi Utara
364,95370,Tumbohon,71.06.09.2007,Talawaan,Kabupaten,Minahasa Utara,Sulawesi Utara
365,95370,Warisa,71.06.09.2006,Talawaan,Kabupaten,Minahasa Utara,Sulawesi Utara
366,95370,Warisa Kampung Baru,71.06.09.2011,Talawaan,Kabupaten,Minahasa Utara,Sulawesi Utara
367,95370,Winetin,71.06.09.2008,Talawaan,Kabupaten,Minahasa Utara,Sulawesi Utara
368,95370,Wusa,71.06.09.2005,Talawaan,Kabupaten,Minahasa Utara,Sulawesi Utara
369,95814,Batulewehe,71.03.24.1008,Tahuna Timur,Kabupaten,Kepulauan Sangihe,Sulawesi Utara
370,95816,Dumuhung,71.03.24.1007,Tahuna Timur,Kabupaten,Kepulauan Sangihe,Sulawesi Utara
371,95815,Enengpahembang,71.03.24.1002,Tahuna Timur,Kabupaten,Kepulauan Sangihe,Sulawesi Utara
372,95812,Lesa,71.03.24.1001,Tahuna Timur,Kabupaten,Kepulauan Sangihe,Sulawesi Utara
373,95815,Tapuang,71.03.24.1003,Tahuna Timur,Kabupaten,Kepulauan Sangihe,Sulawesi Utara
374,95814,Tidore,71.03.24.1004,Tahuna Timur,Kabupaten,Kepulauan Sangihe,Sulawesi Utara
375,95815,Tona I,71.03.24.1005,Tahuna Timur,Kabupaten,Kepulauan Sangihe,Sulawesi Utara
376,95815,Tona II,71.03.24.1006,Tahuna Timur,Kabupaten,Kepulauan Sangihe,Sulawesi Utara
377,95817,Angges,71.03.23.1002,Tahuna Barat,Kabupaten,Kepulauan Sangihe,Sulawesi Utara
378,95818,Kolongan Akembawi (Akembawi),71.03.23.1006,Tahuna Barat,Kabupaten,Kepulauan Sangihe,Sulawesi Utara
379,95818,Kolongan Beha,71.03.23.1004,Tahuna Barat,Kabupaten,Kepulauan Sangihe,Sulawesi Utara
380,95815,Kolongan Beha Baru,71.03.23.1005,Tahuna Barat,Kabupaten,Kepulauan Sangihe,Sulawesi Utara
381,95817,Kolongan Mitung,71.03.23.1003,Tahuna Barat,Kabupaten,Kepulauan Sangihe,Sulawesi Utara
382,95811,Pananekeng,71.03.23.1001,Tahuna Barat,Kabupaten,Kepulauan Sangihe,Sulawesi Utara
383,95811,Apengsembeka (Apeng Sembeka),71.03.17.1008,Tahuna,Kabupaten,Kepulauan Sangihe,Sulawesi Utara
384,95811,Bungalawang,71.03.17.1015,Tahuna,Kabupaten,Kepulauan Sangihe,Sulawesi Utara
385,95813,Mahena,71.03.17.1009,Tahuna,Kabupaten,Kepulauan Sangihe,Sulawesi Utara
386,95811,Manente,71.03.17.1017,Tahuna,Kabupaten,Kepulauan Sangihe,Sulawesi Utara
387,95811,Santiago,71.03.17.1016,Tahuna,Kabupaten,Kepulauan Sangihe,Sulawesi Utara
388,95812,Sawang Bendar,71.03.17.1006,Tahuna,Kabupaten,Kepulauan Sangihe,Sulawesi Utara
389,95813,Soataloara I,71.03.17.1007,Tahuna,Kabupaten,Kepulauan Sangihe,Sulawesi Utara
390,95813,Soataloara II,71.03.17.1018,Tahuna,Kabupaten,Kepulauan Sangihe,Sulawesi Utara
391,95865,Bawo,71.09.06.2006,Tagulandang Utara,Kabupaten,Kepulauan Siau Tagulandang Biaro (Sitaro),Sulawesi Utara
392,95865,Bawoleu,71.09.06.2004,Tagulandang Utara,Kabupaten,Kepulauan Siau Tagulandang Biaro (Sitaro),Sulawesi Utara
393,95865,Bulangan,71.09.06.2001,Tagulandang Utara,Kabupaten,Kepulauan Siau Tagulandang Biaro (Sitaro),Sulawesi Utara
394,95865,Lumbo,71.09.06.2005,Tagulandang Utara,Kabupaten,Kepulauan Siau Tagulandang Biaro (Sitaro),Sulawesi Utara
395,95865,Minanga,71.09.06.2002,Tagulandang Utara,Kabupaten,Kepulauan Siau Tagulandang Biaro (Sitaro),Sulawesi Utara
396,95865,Wo (W O),71.09.06.2003,Tagulandang Utara,Kabupaten,Kepulauan Siau Tagulandang Biaro (Sitaro),Sulawesi Utara
397,95866,Batumawira,71.09.10.2005,Tagulandang Selatan,Kabupaten,Kepulauan Siau Tagulandang Biaro (Sitaro),Sulawesi Utara
398,95866,Bira Kiama (Bira Kimia / Birakiama),71.09.10.2003,Tagulandang Selatan,Kabupaten,Kepulauan Siau Tagulandang Biaro (Sitaro),Sulawesi Utara
399,95866,Birarikei,71.09.10.2006,Tagulandang Selatan,Kabupaten,Kepulauan Siau Tagulandang Biaro (Sitaro),Sulawesi Utara
400,95866,Buha,71.09.10.2004,Tagulandang Selatan,Kabupaten,Kepulauan Siau Tagulandang Biaro (Sitaro),Sulawesi Utara
401,95866,Humbia,71.09.10.2001,Tagulandang Selatan,Kabupaten,Kepulauan Siau Tagulandang Biaro (Sitaro),Sulawesi Utara
402,95866,Kisihang,71.09.10.2002,Tagulandang Selatan,Kabupaten,Kepulauan Siau Tagulandang Biaro (Sitaro),Sulawesi Utara
403,95863,Apengsala,71.09.03.2006,Tagulandang,Kabupaten,Kepulauan Siau Tagulandang Biaro (Sitaro),Sulawesi Utara
404,95863,Bahoi,71.09.03.1001,Tagulandang,Kabupaten,Kepulauan Siau Tagulandang Biaro (Sitaro),Sulawesi Utara
405,95863,Balehumara,71.09.03.1002,Tagulandang,Kabupaten,Kepulauan Siau Tagulandang Biaro (Sitaro),Sulawesi Utara
406,95863,Barangka Pehe,71.09.03.2014,Tagulandang,Kabupaten,Kepulauan Siau Tagulandang Biaro (Sitaro),Sulawesi Utara
407,95863,Boto,71.09.03.2004,Tagulandang,Kabupaten,Kepulauan Siau Tagulandang Biaro (Sitaro),Sulawesi Utara
408,95863,Haasi,71.09.03.2010,Tagulandang,Kabupaten,Kepulauan Siau Tagulandang Biaro (Sitaro),Sulawesi Utara
409,95863,Laingpatehi,71.09.03.2012,Tagulandang,Kabupaten,Kepulauan Siau Tagulandang Biaro (Sitaro),Sulawesi Utara
410,95863,Lesah,71.09.03.2003,Tagulandang,Kabupaten,Kepulauan Siau Tagulandang Biaro (Sitaro),Sulawesi Utara
411,95863,Lesah Rende,71.09.03.2013,Tagulandang,Kabupaten,Kepulauan Siau Tagulandang Biaro (Sitaro),Sulawesi Utara
412,95863,Mahangiang,71.09.03.2008,Tagulandang,Kabupaten,Kepulauan Siau Tagulandang Biaro (Sitaro),Sulawesi Utara
413,95863,Mohongsawang (Mohonsawang),71.09.03.2005,Tagulandang,Kabupaten,Kepulauan Siau Tagulandang Biaro (Sitaro),Sulawesi Utara
414,95863,Mulengan (Mulengen),71.09.03.2007,Tagulandang,Kabupaten,Kepulauan Siau Tagulandang Biaro (Sitaro),Sulawesi Utara
415,95863,Pahiama,71.09.03.2015,Tagulandang,Kabupaten,Kepulauan Siau Tagulandang Biaro (Sitaro),Sulawesi Utara
416,95863,Pumpente,71.09.03.2011,Tagulandang,Kabupaten,Kepulauan Siau Tagulandang Biaro (Sitaro),Sulawesi Utara
417,95863,Tulusang (Tulusan),71.09.03.2009,Tagulandang,Kabupaten,Kepulauan Siau Tagulandang Biaro (Sitaro),Sulawesi Utara
418,95856,Bahu,71.03.08.2002,Tabukan Utara,Kabupaten,Kepulauan Sangihe,Sulawesi Utara
419,95856,Beha,71.03.08.2006,Tabukan Utara,Kabupaten,Kepulauan Sangihe,Sulawesi Utara
420,95856,Bengketang,71.03.08.2012,Tabukan Utara,Kabupaten,Kepulauan Sangihe,Sulawesi Utara
421,95856,Bowongkulu,71.03.08.2014,Tabukan Utara,Kabupaten,Kepulauan Sangihe,Sulawesi Utara
422,95856,Bowongkulu I,71.03.08.2025,Tabukan Utara,Kabupaten,Kepulauan Sangihe,Sulawesi Utara
423,95856,Kalasuge,71.03.08.2001,Tabukan Utara,Kabupaten,Kepulauan Sangihe,Sulawesi Utara
424,95856,Kalekube,71.03.08.2004,Tabukan Utara,Kabupaten,Kepulauan Sangihe,Sulawesi Utara
425,95856,Kalekube I,71.03.08.2024,Tabukan Utara,Kabupaten,Kepulauan Sangihe,Sulawesi Utara
426,95856,Kalurae,71.03.08.2011,Tabukan Utara,Kabupaten,Kepulauan Sangihe,Sulawesi Utara
427,95856,Lenganeng,71.03.08.2008,Tabukan Utara,Kabupaten,Kepulauan Sangihe,Sulawesi Utara
428,95856,Likuang,71.03.08.2023,Tabukan Utara,Kabupaten,Kepulauan Sangihe,Sulawesi Utara
429,95856,Mala,71.03.08.2003,Tabukan Utara,Kabupaten,Kepulauan Sangihe,Sulawesi Utara
430,95856,Moade,71.03.08.2017,Tabukan Utara,Kabupaten,Kepulauan Sangihe,Sulawesi Utara
431,95856,Naha (Nahasahabe),71.03.08.2005,Tabukan Utara,Kabupaten,Kepulauan Sangihe,Sulawesi Utara
432,95856,Naha I,71.03.08.2026,Tabukan Utara,Kabupaten,Kepulauan Sangihe,Sulawesi Utara
433,95856,Petta,71.03.08.2013,Tabukan Utara,Kabupaten,Kepulauan Sangihe,Sulawesi Utara
434,95856,Petta Barat,71.03.08.2021,Tabukan Utara,Kabupaten,Kepulauan Sangihe,Sulawesi Utara
435,95856,Petta Selatan,71.03.08.2022,Tabukan Utara,Kabupaten,Kepulauan Sangihe,Sulawesi Utara
436,95856,Petta Timur,71.03.08.2020,Tabukan Utara,Kabupaten,Kepulauan Sangihe,Sulawesi Utara
437,95856,Pusunge,71.03.08.2016,Tabukan Utara,Kabupaten,Kepulauan Sangihe,Sulawesi Utara
438,95856,Raku,71.03.08.2019,Tabukan Utara,Kabupaten,Kepulauan Sangihe,Sulawesi Utara
439,95856,Tarolang,71.03.08.2009,Tabukan Utara,Kabupaten,Kepulauan Sangihe,Sulawesi Utara
440,95856,Tola,71.03.08.2010,Tabukan Utara,Kabupaten,Kepulauan Sangihe,Sulawesi Utara
441,95856,Utaurano,71.03.08.2007,Tabukan Utara,Kabupaten,Kepulauan Sangihe,Sulawesi Utara
442,95857,Bira,71.03.14.2004,Tabukan Tengah,Kabupaten,Kepulauan Sangihe,Sulawesi Utara
443,95857,Biru,71.03.14.2010,Tabukan Tengah,Kabupaten,Kepulauan Sangihe,Sulawesi Utara
444,95857,Bowongkali,71.03.14.2001,Tabukan Tengah,Kabupaten,Kepulauan Sangihe,Sulawesi Utara
445,95857,Bungalawang,71.03.14.2006,Tabukan Tengah,Kabupaten,Kepulauan Sangihe,Sulawesi Utara
446,95857,Gunung,71.03.14.2008,Tabukan Tengah,Kabupaten,Kepulauan Sangihe,Sulawesi Utara
447,95857,Kulur I,71.03.14.2002,Tabukan Tengah,Kabupaten,Kepulauan Sangihe,Sulawesi Utara
448,95857,Kulur II,71.03.14.2003,Tabukan Tengah,Kabupaten,Kepulauan Sangihe,Sulawesi Utara
449,95857,Kuma,71.03.14.2005,Tabukan Tengah,Kabupaten,Kepulauan Sangihe,Sulawesi Utara
450,95857,Kuma I,71.03.14.2018,Tabukan Tengah,Kabupaten,Kepulauan Sangihe,Sulawesi Utara
451,95857,Malueng,71.03.14.2017,Tabukan Tengah,Kabupaten,Kepulauan Sangihe,Sulawesi Utara
452,95857,Miulu,71.03.14.2007,Tabukan Tengah,Kabupaten,Kepulauan Sangihe,Sulawesi Utara
453,95857,Palahanaeng,71.03.14.2014,Tabukan Tengah,Kabupaten,Kepulauan Sangihe,Sulawesi Utara
454,95857,Pelelangen,71.03.14.2016,Tabukan Tengah,Kabupaten,Kepulauan Sangihe,Sulawesi Utara
455,95857,Rendingan,71.03.14.2013,Tabukan Tengah,Kabupaten,Kepulauan Sangihe,Sulawesi Utara
456,95857,Sensong,71.03.14.2012,Tabukan Tengah,Kabupaten,Kepulauan Sangihe,Sulawesi Utara
457,95857,Talengen,71.03.14.2009,Tabukan Tengah,Kabupaten,Kepulauan Sangihe,Sulawesi Utara
458,95857,Tariang Baru (Tariangbaru),71.03.14.2011,Tabukan Tengah,Kabupaten,Kepulauan Sangihe,Sulawesi Utara
459,95857,Timbelang,71.03.14.2015,Tabukan Tengah,Kabupaten,Kepulauan Sangihe,Sulawesi Utara
460,95850,Basauh,71.03.20.2002,Tabukan Selatan Tenggara,Kabupaten,Kepulauan Sangihe,Sulawesi Utara
461,95850,Dalokaweng,71.03.20.2005,Tabukan Selatan Tenggara,Kabupaten,Kepulauan Sangihe,Sulawesi Utara
462,95850,Malisade,71.03.20.2006,Tabukan Selatan Tenggara,Kabupaten,Kepulauan Sangihe,Sulawesi Utara
463,95850,Pintareng,71.03.20.2001,Tabukan Selatan Tenggara,Kabupaten,Kepulauan Sangihe,Sulawesi Utara
464,95850,Sampakang,71.03.20.2004,Tabukan Selatan Tenggara,Kabupaten,Kepulauan Sangihe,Sulawesi Utara
465,95850,Tumalede,71.03.20.2003,Tabukan Selatan Tenggara,Kabupaten,Kepulauan Sangihe,Sulawesi Utara
466,95859,Aha Patung,71.03.19.2009,Tabukan Selatan Tengah,Kabupaten,Kepulauan Sangihe,Sulawesi Utara
467,95859,Beeng,71.03.19.2004,Tabukan Selatan Tengah,Kabupaten,Kepulauan Sangihe,Sulawesi Utara
468,95859,Beeng Laut,71.03.19.2007,Tabukan Selatan Tengah,Kabupaten,Kepulauan Sangihe,Sulawesi Utara
469,95859,Bowone,71.03.19.2006,Tabukan Selatan Tengah,Kabupaten,Kepulauan Sangihe,Sulawesi Utara
470,95859,Hangke,71.03.19.2001,Tabukan Selatan Tengah,Kabupaten,Kepulauan Sangihe,Sulawesi Utara
471,95859,Lehupu,71.03.19.2005,Tabukan Selatan Tengah,Kabupaten,Kepulauan Sangihe,Sulawesi Utara
472,95859,Salurang,71.03.19.2002,Tabukan Selatan Tengah,Kabupaten,Kepulauan Sangihe,Sulawesi Utara
473,95859,Tambung,71.03.19.2003,Tabukan Selatan Tengah,Kabupaten,Kepulauan Sangihe,Sulawesi Utara
474,95859,Tenda,71.03.19.2008,Tabukan Selatan Tengah,Kabupaten,Kepulauan Sangihe,Sulawesi Utara
475,95858,Batuwingkung,71.03.15.2015,Tabukan Selatan,Kabupaten,Kepulauan Sangihe,Sulawesi Utara
476,95858,Bentung,71.03.15.2002,Tabukan Selatan,Kabupaten,Kepulauan Sangihe,Sulawesi Utara
477,95858,Binebas,71.03.15.2007,Tabukan Selatan,Kabupaten,Kepulauan Sangihe,Sulawesi Utara
478,95858,Birahi,71.03.15.2016,Tabukan Selatan,Kabupaten,Kepulauan Sangihe,Sulawesi Utara
479,95858,Bukide,71.03.15.2018,Tabukan Selatan,Kabupaten,Kepulauan Sangihe,Sulawesi Utara
480,95858,Bulo,71.03.15.2021,Tabukan Selatan,Kabupaten,Kepulauan Sangihe,Sulawesi Utara
481,95858,Kalagheng,71.03.15.2019,Tabukan Selatan,Kabupaten,Kepulauan Sangihe,Sulawesi Utara
482,95858,Laotongan,71.03.15.2017,Tabukan Selatan,Kabupaten,Kepulauan Sangihe,Sulawesi Utara
483,95858,Lesabe,71.03.15.2003,Tabukan Selatan,Kabupaten,Kepulauan Sangihe,Sulawesi Utara
484,95858,Lesabe I,71.03.15.2020,Tabukan Selatan,Kabupaten,Kepulauan Sangihe,Sulawesi Utara
485,95858,Malammenggu (Malamenggu),71.03.15.2004,Tabukan Selatan,Kabupaten,Kepulauan Sangihe,Sulawesi Utara
486,95858,Mandoi,71.03.15.2008,Tabukan Selatan,Kabupaten,Kepulauan Sangihe,Sulawesi Utara
487,95858,Palareng,71.03.15.2005,Tabukan Selatan,Kabupaten,Kepulauan Sangihe,Sulawesi Utara
488,95858,Simueng,71.03.15.2001,Tabukan Selatan,Kabupaten,Kepulauan Sangihe,Sulawesi Utara
489,95952,Kapoya Satu,71.05.23.2009,Suluun Tareran,Kabupaten,Minahasa Selatan,Sulawesi Utara
490,95952,Kapoyah (Kapoya),71.05.23.2007,Suluun Tareran,Kabupaten,Minahasa Selatan,Sulawesi Utara
491,95952,Pinapalangkow (Pinapalangkon),71.05.23.2006,Suluun Tareran,Kabupaten,Minahasa Selatan,Sulawesi Utara
492,95952,Suluun Dua,71.05.23.2003,Suluun Tareran,Kabupaten,Minahasa Selatan,Sulawesi Utara
493,95952,Suluun Empat,71.05.23.2005,Suluun Tareran,Kabupaten,Minahasa Selatan,Sulawesi Utara
494,95952,Suluun Satu,71.05.23.2002,Suluun Tareran,Kabupaten,Minahasa Selatan,Sulawesi Utara
495,95952,Suluun Tiga,71.05.23.2004,Suluun Tareran,Kabupaten,Minahasa Selatan,Sulawesi Utara
496,95952,Talaitad,71.05.23.2001,Suluun Tareran,Kabupaten,Minahasa Selatan,Sulawesi Utara
497,95952,Talaitad Utara,71.05.23.2008,Suluun Tareran,Kabupaten,Minahasa Selatan,Sulawesi Utara
498,95691,Kauneran,71.02.11.2005,Sonder,Kabupaten,Minahasa,Sulawesi Utara
499,95691,Kauneran Satu,71.02.11.2014,Sonder,Kabupaten,Minahasa,Sulawesi Utara
500,95691,Kolongan Atas,71.02.11.2002,Sonder,Kabupaten,Minahasa,Sulawesi Utara
501,95691,Kolongan Atas Dua,71.02.11.2013,Sonder,Kabupaten,Minahasa,Sulawesi Utara
502,95691,Kotongan Atas Satu,71.02.11.2019,Sonder,Kabupaten,Minahasa,Sulawesi Utara
503,95691,Leilem,71.02.11.2001,Sonder,Kabupaten,Minahasa,Sulawesi Utara
504,95691,Leilem Dua,71.02.11.2011,Sonder,Kabupaten,Minahasa,Sulawesi Utara
505,95691,Leilem Tiga,71.02.11.2012,Sonder,Kabupaten,Minahasa,Sulawesi Utara
506,95691,Rambunan,71.02.11.2007,Sonder,Kabupaten,Minahasa,Sulawesi Utara
507,95691,Rambunan Amian,71.02.11.2015,Sonder,Kabupaten,Minahasa,Sulawesi Utara
508,95691,Sandangan Satu,71.02.11.2016,Sonder,Kabupaten,Minahasa,Sulawesi Utara
509,95691,Sawangan,71.02.11.2008,Sonder,Kabupaten,Minahasa,Sulawesi Utara
510,95691,Sendangan,71.02.11.2006,Sonder,Kabupaten,Minahasa,Sulawesi Utara
511,95691,Talikuran,71.02.11.2004,Sonder,Kabupaten,Minahasa,Sulawesi Utara
512,95691,Talikuran Satu,71.02.11.2017,Sonder,Kabupaten,Minahasa,Sulawesi Utara
513,95691,Timbukar,71.02.11.2010,Sonder,Kabupaten,Minahasa,Sulawesi Utara
514,95691,Tincep,71.02.11.2009,Sonder,Kabupaten,Minahasa,Sulawesi Utara
515,95691,Tounelet,71.02.11.2018,Sonder,Kabupaten,Minahasa,Sulawesi Utara
516,95691,Tounelet Satu,71.02.11.2003,Sonder,Kabupaten,Minahasa,Sulawesi Utara
517,95959,Aergale,71.05.08.2006,Sinonsayang,Kabupaten,Minahasa Selatan,Sulawesi Utara
518,95959,Blongko,71.05.08.2001,Sinonsayang,Kabupaten,Minahasa Selatan,Sulawesi Utara
519,95959,Boyongpante (Boyong Pante),71.05.08.2002,Sinonsayang,Kabupaten,Minahasa Selatan,Sulawesi Utara
520,95959,Boyongpante Dua,71.05.08.2012,Sinonsayang,Kabupaten,Minahasa Selatan,Sulawesi Utara
521,95959,Durian,71.05.08.2009,Sinonsayang,Kabupaten,Minahasa Selatan,Sulawesi Utara
522,95959,Ongkaw I (Ongkaw Satu),71.05.08.2004,Sinonsayang,Kabupaten,Minahasa Selatan,Sulawesi Utara
523,95959,Ongkaw II (Ongkaw Dua),71.05.08.2005,Sinonsayang,Kabupaten,Minahasa Selatan,Sulawesi Utara
524,95959,Ongkaw Tiga,71.05.08.2011,Sinonsayang,Kabupaten,Minahasa Selatan,Sulawesi Utara
525,95959,Poigar I (Poigar Satu),71.05.08.2007,Sinonsayang,Kabupaten,Minahasa Selatan,Sulawesi Utara
526,95959,Poigar II (Poigar Dua),71.05.08.2008,Sinonsayang,Kabupaten,Minahasa Selatan,Sulawesi Utara
527,95959,Tanamon,71.05.08.2010,Sinonsayang,Kabupaten,Minahasa Selatan,Sulawesi Utara
528,95959,Tanamon Utara,71.05.08.2013,Sinonsayang,Kabupaten,Minahasa Selatan,Sulawesi Utara
529,95959,Tiniwangko (Tiniawangko),71.05.08.2003,Sinonsayang,Kabupaten,Minahasa Selatan,Sulawesi Utara
530,95231,Karame,71.71.03.1004,Singkil,Kota,Manado,Sulawesi Utara
531,95232,Ketang Baru,71.71.03.1005,Singkil,Kota,Manado,Sulawesi Utara
532,95234,Kombos Barat,71.71.03.1007,Singkil,Kota,Manado,Sulawesi Utara
533,95234,Kombos Timur,71.71.03.1008,Singkil,Kota,Manado,Sulawesi Utara
534,95234,Singkil Dua,71.71.03.1002,Singkil,Kota,Manado,Sulawesi Utara
535,95234,Singkil Satu,71.71.03.1001,Singkil,Kota,Manado,Sulawesi Utara
536,95232,Ternate Baru,71.71.03.1006,Singkil,Kota,Manado,Sulawesi Utara
537,95234,Ternate Tanjung,71.71.03.1009,Singkil,Kota,Manado,Sulawesi Utara
538,95231,Wawonasa,71.71.03.1003,Singkil,Kota,Manado,Sulawesi Utara
539,95998,Silian,71.07.08.2001,Silian Raya,Kabupaten,Minahasa Tenggara,Sulawesi Utara
540,95998,Silian Barat,71.07.08.2008,Silian Raya,Kabupaten,Minahasa Tenggara,Sulawesi Utara
541,95998,Silian Dua,71.07.08.2005,Silian Raya,Kabupaten,Minahasa Tenggara,Sulawesi Utara
542,95998,Silian Kota,71.07.08.2009,Silian Raya,Kabupaten,Minahasa Tenggara,Sulawesi Utara
543,95998,Silian Satu,71.07.08.2003,Silian Raya,Kabupaten,Minahasa Tenggara,Sulawesi Utara
544,95998,Silian Selatan,71.07.08.2004,Silian Raya,Kabupaten,Minahasa Tenggara,Sulawesi Utara
545,95998,Silian Tengah,71.07.08.2006,Silian Raya,Kabupaten,Minahasa Tenggara,Sulawesi Utara
546,95998,Silian Tiga,71.07.08.2007,Silian Raya,Kabupaten,Minahasa Tenggara,Sulawesi Utara
547,95998,Silian Timur,71.07.08.2010,Silian Raya,Kabupaten,Minahasa Tenggara,Sulawesi Utara
548,95998,Silian Utara,71.07.08.2002,Silian Raya,Kabupaten,Minahasa Tenggara,Sulawesi Utara
549,95867,Balirangeng (Balirangen),71.09.04.2006,Siau Timur Selatan,Kabupaten,Kepulauan Siau Tagulandang Biaro (Sitaro),Sulawesi Utara
550,95867,Bandil,71.09.04.2004,Siau Timur Selatan,Kabupaten,Kepulauan Siau Tagulandang Biaro (Sitaro),Sulawesi Utara
551,95867,Biau,71.09.04.2005,Siau Timur Selatan,Kabupaten,Kepulauan Siau Tagulandang Biaro (Sitaro),Sulawesi Utara
552,95867,Biau Seha,71.09.04.2013,Siau Timur Selatan,Kabupaten,Kepulauan Siau Tagulandang Biaro (Sitaro),Sulawesi Utara
553,95867,Binalu,71.09.04.2010,Siau Timur Selatan,Kabupaten,Kepulauan Siau Tagulandang Biaro (Sitaro),Sulawesi Utara
554,95867,Buhias,71.09.04.2007,Siau Timur Selatan,Kabupaten,Kepulauan Siau Tagulandang Biaro (Sitaro),Sulawesi Utara
555,95867,Kalihiang,71.09.04.2011,Siau Timur Selatan,Kabupaten,Kepulauan Siau Tagulandang Biaro (Sitaro),Sulawesi Utara
556,95867,Lahopang,71.09.04.2009,Siau Timur Selatan,Kabupaten,Kepulauan Siau Tagulandang Biaro (Sitaro),Sulawesi Utara
557,95867,Mala,71.09.04.2001,Siau Timur Selatan,Kabupaten,Kepulauan Siau Tagulandang Biaro (Sitaro),Sulawesi Utara
558,95867,Matole,71.09.04.2014,Siau Timur Selatan,Kabupaten,Kepulauan Siau Tagulandang Biaro (Sitaro),Sulawesi Utara
559,95867,Pahepa,71.09.04.2012,Siau Timur Selatan,Kabupaten,Kepulauan Siau Tagulandang Biaro (Sitaro),Sulawesi Utara
560,95867,Pangirolong,71.09.04.2002,Siau Timur Selatan,Kabupaten,Kepulauan Siau Tagulandang Biaro (Sitaro),Sulawesi Utara
561,95867,Sawang,71.09.04.2003,Siau Timur Selatan,Kabupaten,Kepulauan Siau Tagulandang Biaro (Sitaro),Sulawesi Utara
562,95867,Tapile,71.09.04.2008,Siau Timur Selatan,Kabupaten,Kepulauan Siau Tagulandang Biaro (Sitaro),Sulawesi Utara
563,95861,Akesimbeka,71.09.01.1012,Siau Timur,Kabupaten,Kepulauan Siau Tagulandang Biaro (Sitaro),Sulawesi Utara
564,95861,Apelawo,71.09.01.2002,Siau Timur,Kabupaten,Kepulauan Siau Tagulandang Biaro (Sitaro),Sulawesi Utara
565,95861,Bahu,71.09.01.1013,Siau Timur,Kabupaten,Kepulauan Siau Tagulandang Biaro (Sitaro),Sulawesi Utara
566,95861,Bebali,71.09.01.1009,Siau Timur,Kabupaten,Kepulauan Siau Tagulandang Biaro (Sitaro),Sulawesi Utara
567,95861,Buise,71.09.01.2006,Siau Timur,Kabupaten,Kepulauan Siau Tagulandang Biaro (Sitaro),Sulawesi Utara
568,95861,Bukide,71.09.01.2001,Siau Timur,Kabupaten,Kepulauan Siau Tagulandang Biaro (Sitaro),Sulawesi Utara
569,95861,Dame,71.09.01.2008,Siau Timur,Kabupaten,Kepulauan Siau Tagulandang Biaro (Sitaro),Sulawesi Utara
570,95861,Dame I,71.09.01.2014,Siau Timur,Kabupaten,Kepulauan Siau Tagulandang Biaro (Sitaro),Sulawesi Utara
571,95861,Deahe (Beaha),71.09.01.2003,Siau Timur,Kabupaten,Kepulauan Siau Tagulandang Biaro (Sitaro),Sulawesi Utara
572,95861,Kanang,71.09.01.2005,Siau Timur,Kabupaten,Kepulauan Siau Tagulandang Biaro (Sitaro),Sulawesi Utara
573,95861,Karalung,71.09.01.2007,Siau Timur,Kabupaten,Kepulauan Siau Tagulandang Biaro (Sitaro),Sulawesi Utara
574,95861,Karalung Satu,71.09.01.2016,Siau Timur,Kabupaten,Kepulauan Siau Tagulandang Biaro (Sitaro),Sulawesi Utara
575,95861,Lia,71.09.01.2004,Siau Timur,Kabupaten,Kepulauan Siau Tagulandang Biaro (Sitaro),Sulawesi Utara
576,95861,Lia Satu,71.09.01.2015,Siau Timur,Kabupaten,Kepulauan Siau Tagulandang Biaro (Sitaro),Sulawesi Utara
577,95861,Tarorane,71.09.01.1011,Siau Timur,Kabupaten,Kepulauan Siau Tagulandang Biaro (Sitaro),Sulawesi Utara
578,95861,Tatahadeng (Tatehadeng),71.09.01.1010,Siau Timur,Kabupaten,Kepulauan Siau Tagulandang Biaro (Sitaro),Sulawesi Utara
579,95860,Beong,71.09.09.2002,Siau Tengah,Kabupaten,Kepulauan Siau Tagulandang Biaro (Sitaro),Sulawesi Utara
580,95860,Dompase,71.09.09.2004,Siau Tengah,Kabupaten,Kepulauan Siau Tagulandang Biaro (Sitaro),Sulawesi Utara
581,95860,Lai,71.09.09.2003,Siau Tengah,Kabupaten,Kepulauan Siau Tagulandang Biaro (Sitaro),Sulawesi Utara
582,95860,Salili,71.09.09.2001,Siau Tengah,Kabupaten,Kepulauan Siau Tagulandang Biaro (Sitaro),Sulawesi Utara
583,95869,Batubulan,71.09.08.2005,Siau Barat Utara,Kabupaten,Kepulauan Siau Tagulandang Biaro (Sitaro),Sulawesi Utara
584,95869,Hiung,71.09.08.2002,Siau Barat Utara,Kabupaten,Kepulauan Siau Tagulandang Biaro (Sitaro),Sulawesi Utara
585,95869,Kawahang,71.09.08.2004,Siau Barat Utara,Kabupaten,Kepulauan Siau Tagulandang Biaro (Sitaro),Sulawesi Utara
586,95869,Kiawang,71.09.08.2003,Siau Barat Utara,Kabupaten,Kepulauan Siau Tagulandang Biaro (Sitaro),Sulawesi Utara
587,95869,Kinali,71.09.08.2001,Siau Barat Utara,Kabupaten,Kepulauan Siau Tagulandang Biaro (Sitaro),Sulawesi Utara
588,95869,Mini,71.09.08.2007,Siau Barat Utara,Kabupaten,Kepulauan Siau Tagulandang Biaro (Sitaro),Sulawesi Utara
589,95869,Nameng,71.09.08.2006,Siau Barat Utara,Kabupaten,Kepulauan Siau Tagulandang Biaro (Sitaro),Sulawesi Utara
590,95869,Winangun,71.09.08.2008,Siau Barat Utara,Kabupaten,Kepulauan Siau Tagulandang Biaro (Sitaro),Sulawesi Utara
591,95868,Batusenggo,71.09.05.2006,Siau Barat Selatan,Kabupaten,Kepulauan Siau Tagulandang Biaro (Sitaro),Sulawesi Utara
592,95868,Kapeta,71.09.05.2002,Siau Barat Selatan,Kabupaten,Kepulauan Siau Tagulandang Biaro (Sitaro),Sulawesi Utara
593,95868,Laghaeng,71.09.05.2004,Siau Barat Selatan,Kabupaten,Kepulauan Siau Tagulandang Biaro (Sitaro),Sulawesi Utara
594,95868,Mahuneni,71.09.05.2007,Siau Barat Selatan,Kabupaten,Kepulauan Siau Tagulandang Biaro (Sitaro),Sulawesi Utara
595,95868,Makoa (Mekar Sari),71.09.05.2005,Siau Barat Selatan,Kabupaten,Kepulauan Siau Tagulandang Biaro (Sitaro),Sulawesi Utara
596,95868,Talawid,71.09.05.2003,Siau Barat Selatan,Kabupaten,Kepulauan Siau Tagulandang Biaro (Sitaro),Sulawesi Utara
597,95868,Tanaki,71.09.05.2001,Siau Barat Selatan,Kabupaten,Kepulauan Siau Tagulandang Biaro (Sitaro),Sulawesi Utara
598,95862,Bumbiha,71.09.02.2006,Siau Barat,Kabupaten,Kepulauan Siau Tagulandang Biaro (Sitaro),Sulawesi Utara
599,95862,Kanawong,71.09.02.2005,Siau Barat,Kabupaten,Kepulauan Siau Tagulandang Biaro (Sitaro),Sulawesi Utara
600,95862,Lehi,71.09.02.2008,Siau Barat,Kabupaten,Kepulauan Siau Tagulandang Biaro (Sitaro),Sulawesi Utara
601,95862,Makalehi,71.09.02.2010,Siau Barat,Kabupaten,Kepulauan Siau Tagulandang Biaro (Sitaro),Sulawesi Utara
602,95862,Makalehi Timur,71.09.02.2012,Siau Barat,Kabupaten,Kepulauan Siau Tagulandang Biaro (Sitaro),Sulawesi Utara
603,95862,Makalehi Utara,71.09.02.2011,Siau Barat,Kabupaten,Kepulauan Siau Tagulandang Biaro (Sitaro),Sulawesi Utara
604,95862,Ondong,71.09.02.1004,Siau Barat,Kabupaten,Kepulauan Siau Tagulandang Biaro (Sitaro),Sulawesi Utara
605,95862,Paniki,71.09.02.1003,Siau Barat,Kabupaten,Kepulauan Siau Tagulandang Biaro (Sitaro),Sulawesi Utara
606,95862,Paseng,71.09.02.1002,Siau Barat,Kabupaten,Kepulauan Siau Tagulandang Biaro (Sitaro),Sulawesi Utara
607,95862,Pehe,71.09.02.2007,Siau Barat,Kabupaten,Kepulauan Siau Tagulandang Biaro (Sitaro),Sulawesi Utara
608,95862,Peling,71.09.02.2009,Siau Barat,Kabupaten,Kepulauan Siau Tagulandang Biaro (Sitaro),Sulawesi Utara
609,95862,Peling Sawang (Pelingsawang),71.09.02.2001,Siau Barat,Kabupaten,Kepulauan Siau Tagulandang Biaro (Sitaro),Sulawesi Utara
610,95116,Ranotana,71.71.06.1007,Sario,Kota,Manado,Sulawesi Utara
611,95114,Sario,71.71.06.1004,Sario,Kota,Manado,Sulawesi Utara
612,95113,Sario Kotabaru (Sario Kota Baru),71.71.06.1002,Sario,Kota,Manado,Sulawesi Utara
613,95114,Sario Tumpaan,71.71.06.1003,Sario,Kota,Manado,Sulawesi Utara
614,95114,Sario Utara,71.71.06.1001,Sario,Kota,Manado,Sulawesi Utara
615,95113,Titiwungan Selatan (Titiwungen Selatan),71.71.06.1006,Sario,Kota,Manado,Sulawesi Utara
616,95113,Titiwungan Utara (Titiwungen Utara),71.71.06.1005,Sario,Kota,Manado,Sulawesi Utara
617,95762,Ampeng Sembeka,71.08.01.2011,Sangkub,Kabupaten,Bolaang Mongondow Utara,Sulawesi Utara
618,95762,Busisingo,71.08.01.2002,Sangkub,Kabupaten,Bolaang Mongondow Utara,Sulawesi Utara
619,95762,Busisingo Utara,71.08.01.2010,Sangkub,Kabupaten,Bolaang Mongondow Utara,Sulawesi Utara
620,95762,Mokusato,71.08.01.2015,Sangkub,Kabupaten,Bolaang Mongondow Utara,Sulawesi Utara
621,95762,Monompia,71.08.01.2014,Sangkub,Kabupaten,Bolaang Mongondow Utara,Sulawesi Utara
622,95762,Pangkusa,71.08.01.2005,Sangkub,Kabupaten,Bolaang Mongondow Utara,Sulawesi Utara
623,95762,Sampiro,71.08.01.2008,Sangkub,Kabupaten,Bolaang Mongondow Utara,Sulawesi Utara
624,95762,Sang Tombolang (Sangtombolang),71.08.01.2003,Sangkub,Kabupaten,Bolaang Mongondow Utara,Sulawesi Utara
625,95762,Sangkub Empat (Sanglup Empat),71.08.01.2016,Sangkub,Kabupaten,Bolaang Mongondow Utara,Sulawesi Utara
626,95762,Sangkub Timur,71.08.01.2013,Sangkub,Kabupaten,Bolaang Mongondow Utara,Sulawesi Utara
627,95762,Sangkup I (Sangkub I),71.08.01.2001,Sangkub,Kabupaten,Bolaang Mongondow Utara,Sulawesi Utara
628,95762,Sangkup II (Sangkub II),71.08.01.2006,Sangkub,Kabupaten,Bolaang Mongondow Utara,Sulawesi Utara
629,95762,Sangkup III (Sangkub III),71.08.01.2009,Sangkub,Kabupaten,Bolaang Mongondow Utara,Sulawesi Utara
630,95762,Sidodadi,71.08.01.2007,Sangkub,Kabupaten,Bolaang Mongondow Utara,Sulawesi Utara
631,95762,Suka Makmur,71.08.01.2012,Sangkub,Kabupaten,Bolaang Mongondow Utara,Sulawesi Utara
632,95762,Tombolango,71.08.01.2004,Sangkub,Kabupaten,Bolaang Mongondow Utara,Sulawesi Utara
633,95742,Ayong,71.01.05.2001,Sang Tombolang,Kabupaten,Bolaang Mongondow,Sulawesi Utara
634,95742,Babo,71.01.05.2002,Sang Tombolang,Kabupaten,Bolaang Mongondow,Sulawesi Utara
635,95742,Batumera (Batu Merah),71.01.05.2017,Sang Tombolang,Kabupaten,Bolaang Mongondow,Sulawesi Utara
636,95742,Bolangat,71.01.05.2003,Sang Tombolang,Kabupaten,Bolaang Mongondow,Sulawesi Utara
637,95742,Bolangat Timur,71.01.05.2020,Sang Tombolang,Kabupaten,Bolaang Mongondow,Sulawesi Utara
638,95742,Cempaka,71.01.05.2015,Sang Tombolang,Kabupaten,Bolaang Mongondow,Sulawesi Utara
639,95742,Domisil Moonow,71.01.05.2005,Sang Tombolang,Kabupaten,Bolaang Mongondow,Sulawesi Utara
640,95742,Lolanan,71.01.05.2012,Sang Tombolang,Kabupaten,Bolaang Mongondow,Sulawesi Utara
641,95742,Maelang,71.01.05.2004,Sang Tombolang,Kabupaten,Bolaang Mongondow,Sulawesi Utara
642,95742,Pangi,71.01.05.2006,Sang Tombolang,Kabupaten,Bolaang Mongondow,Sulawesi Utara
643,95742,Pangi Timur (Pangi Timu),71.01.05.2019,Sang Tombolang,Kabupaten,Bolaang Mongondow,Sulawesi Utara
644,95742,Pasir Putih,71.01.05.2018,Sang Tombolang,Kabupaten,Bolaang Mongondow,Sulawesi Utara
645,95871,Balang,71.04.11.2006,Salibabu,Kabupaten,Kepulauan Talaud,Sulawesi Utara
646,95871,Bitunuris,71.04.11.2001,Salibabu,Kabupaten,Kepulauan Talaud,Sulawesi Utara
647,95871,Bitunuris Selatan,71.04.11.2002,Salibabu,Kabupaten,Kepulauan Talaud,Sulawesi Utara
648,95871,Dalum,71.04.11.2005,Salibabu,Kabupaten,Kepulauan Talaud,Sulawesi Utara
649,95871,Salibabu,71.04.11.2003,Salibabu,Kabupaten,Kepulauan Talaud,Sulawesi Utara
650,95871,Salibabu Utara,71.04.11.2004,Salibabu,Kabupaten,Kepulauan Talaud,Sulawesi Utara
651,95681,Kaima,71.02.08.2005,Remboken,Kabupaten,Minahasa,Sulawesi Utara
652,95681,Kasuratan,71.02.08.2001,Remboken,Kabupaten,Minahasa,Sulawesi Utara
653,95681,Leleko,71.02.08.2011,Remboken,Kabupaten,Minahasa,Sulawesi Utara
654,95681,Parepei (Parepey),71.02.08.2002,Remboken,Kabupaten,Minahasa,Sulawesi Utara
655,95681,Paslaten,71.02.08.2010,Remboken,Kabupaten,Minahasa,Sulawesi Utara
656,95681,Pulutan,71.02.08.2003,Remboken,Kabupaten,Minahasa,Sulawesi Utara
657,95681,Sendangan,71.02.08.2006,Remboken,Kabupaten,Minahasa,Sulawesi Utara
658,95681,Sinuian,71.02.08.2004,Remboken,Kabupaten,Minahasa,Sulawesi Utara
659,95681,Talikuran,71.02.08.2008,Remboken,Kabupaten,Minahasa,Sulawesi Utara
660,95681,Tampusu,71.02.08.2009,Remboken,Kabupaten,Minahasa,Sulawesi Utara
661,95681,Timu,71.02.08.2007,Remboken,Kabupaten,Minahasa,Sulawesi Utara
662,95999,Basaan,71.07.04.2005,Ratatotok,Kabupaten,Minahasa Tenggara,Sulawesi Utara
663,95999,Basaan Dua,71.07.04.2010,Ratatotok,Kabupaten,Minahasa Tenggara,Sulawesi Utara
664,95999,Basaan Satu,71.07.04.2006,Ratatotok,Kabupaten,Minahasa Tenggara,Sulawesi Utara
665,95999,Morea (Moreah),71.07.04.2007,Ratatotok,Kabupaten,Minahasa Tenggara,Sulawesi Utara
666,95999,Morea Satu (Moreah Satu),71.07.04.2008,Ratatotok,Kabupaten,Minahasa Tenggara,Sulawesi Utara
667,95999,Ratatotok,71.07.04.2014,Ratatotok,Kabupaten,Minahasa Tenggara,Sulawesi Utara
668,95999,Ratatotok Dua,71.07.04.2002,Ratatotok,Kabupaten,Minahasa Tenggara,Sulawesi Utara
669,95999,Ratatotok Muara,71.07.04.2015,Ratatotok,Kabupaten,Minahasa Tenggara,Sulawesi Utara
670,95999,Ratatotok Satu,71.07.04.2001,Ratatotok,Kabupaten,Minahasa Tenggara,Sulawesi Utara
671,95999,Ratatotok Selatan,71.07.04.2003,Ratatotok,Kabupaten,Minahasa Tenggara,Sulawesi Utara
672,95999,Ratatotok Tengah,71.07.04.2013,Ratatotok,Kabupaten,Minahasa Tenggara,Sulawesi Utara
673,95999,Ratatotok Tenggara,71.07.04.2012,Ratatotok,Kabupaten,Minahasa Tenggara,Sulawesi Utara
674,95999,Ratatotok Timur,71.07.04.2004,Ratatotok,Kabupaten,Minahasa Tenggara,Sulawesi Utara
675,95999,Ratatotok Utara,71.07.04.2011,Ratatotok,Kabupaten,Minahasa Tenggara,Sulawesi Utara
676,95999,Soyoan (Soyowan),71.07.04.2009,Ratatotok,Kabupaten,Minahasa Tenggara,Sulawesi Utara
677,95995,Pangu,71.07.12.2006,Ratahan Timur,Kabupaten,Minahasa Tenggara,Sulawesi Utara
678,95995,Pangu Dua,71.07.12.2008,Ratahan Timur,Kabupaten,Minahasa Tenggara,Sulawesi Utara
679,95995,Pangu Satu,71.07.12.2007,Ratahan Timur,Kabupaten,Minahasa Tenggara,Sulawesi Utara
680,95995,Wioi Dua,71.07.12.2003,Ratahan Timur,Kabupaten,Minahasa Tenggara,Sulawesi Utara
681,95995,Wioi Satu,71.07.12.2002,Ratahan Timur,Kabupaten,Minahasa Tenggara,Sulawesi Utara
682,95995,Wioi Tiga,71.07.12.2004,Ratahan Timur,Kabupaten,Minahasa Tenggara,Sulawesi Utara
683,95995,Wioi Timur,71.07.12.2005,Ratahan Timur,Kabupaten,Minahasa Tenggara,Sulawesi Utara
684,95995,Wioy (Wioi),71.07.12.2001,Ratahan Timur,Kabupaten,Minahasa Tenggara,Sulawesi Utara
685,95995,Wongkai Satu,71.07.12.2010,Ratahan Timur,Kabupaten,Minahasa Tenggara,Sulawesi Utara
686,95995,Wongkay (Wongkai),71.07.12.2009,Ratahan Timur,Kabupaten,Minahasa Tenggara,Sulawesi Utara
687,95994,Lowu Dua,71.07.01.1008,Ratahan,Kabupaten,Minahasa Tenggara,Sulawesi Utara
688,95994,Lowu Satu,71.07.01.1009,Ratahan,Kabupaten,Minahasa Tenggara,Sulawesi Utara
689,95994,Lowu Utara,71.07.01.1016,Ratahan,Kabupaten,Minahasa Tenggara,Sulawesi Utara
690,95994,Nataan,71.07.01.1017,Ratahan,Kabupaten,Minahasa Tenggara,Sulawesi Utara
691,95994,Rasi,71.07.01.2003,Ratahan,Kabupaten,Minahasa Tenggara,Sulawesi Utara
692,95994,Rasi Satu,71.07.01.2021,Ratahan,Kabupaten,Minahasa Tenggara,Sulawesi Utara
693,95994,Tosuraya,71.07.01.1004,Ratahan,Kabupaten,Minahasa Tenggara,Sulawesi Utara
694,95994,Tosuraya Barat,71.07.01.1018,Ratahan,Kabupaten,Minahasa Tenggara,Sulawesi Utara
695,95994,Tosuraya Selatan,71.07.01.1019,Ratahan,Kabupaten,Minahasa Tenggara,Sulawesi Utara
696,95994,Wawali,71.07.01.1005,Ratahan,Kabupaten,Minahasa Tenggara,Sulawesi Utara
697,95994,Wawali Pasan,71.07.01.1020,Ratahan,Kabupaten,Minahasa Tenggara,Sulawesi Utara
698,95944,Beringin,71.05.03.2005,Ranoyapo,Kabupaten,Minahasa Selatan,Sulawesi Utara
699,95944,Lompad,71.05.03.2008,Ranoyapo,Kabupaten,Minahasa Selatan,Sulawesi Utara
700,95944,Lompad Baru,71.05.03.2009,Ranoyapo,Kabupaten,Minahasa Selatan,Sulawesi Utara
701,95944,Mopolo,71.05.03.2004,Ranoyapo,Kabupaten,Minahasa Selatan,Sulawesi Utara
702,95944,Mopolo Esa,71.05.03.2015,Ranoyapo,Kabupaten,Minahasa Selatan,Sulawesi Utara
703,95944,Pontak,71.05.03.2010,Ranoyapo,Kabupaten,Minahasa Selatan,Sulawesi Utara
704,95944,Pontak Satu,71.05.03.2014,Ranoyapo,Kabupaten,Minahasa Selatan,Sulawesi Utara
705,95944,Poopo,71.05.03.2002,Ranoyapo,Kabupaten,Minahasa Selatan,Sulawesi Utara
706,95944,Poopo Barat,71.05.03.2013,Ranoyapo,Kabupaten,Minahasa Selatan,Sulawesi Utara
707,95944,Poopo Utara,71.05.03.2012,Ranoyapo,Kabupaten,Minahasa Selatan,Sulawesi Utara
708,95944,Powalutan,71.05.03.2006,Ranoyapo,Kabupaten,Minahasa Selatan,Sulawesi Utara
709,95944,Ranoyapo (Ranoiapo),71.05.03.2003,Ranoyapo,Kabupaten,Minahasa Selatan,Sulawesi Utara
710,95537,Apela Dua (II),71.72.03.1008,Ranowulu (Bitung Utara),Kota,Bitung,Sulawesi Utara
711,95537,Apela Satu (I),71.72.03.1009,Ranowulu (Bitung Utara),Kota,Bitung,Sulawesi Utara
712,95535,Batuputih Atas (Batu Putih Atas),71.72.03.1011,Ranowulu (Bitung Utara),Kota,Bitung,Sulawesi Utara
713,95535,Batuputih Bawah (Batu Putih Bawah),71.72.03.1012,Ranowulu (Bitung Utara),Kota,Bitung,Sulawesi Utara
714,95533,Danowudu,71.72.03.1006,Ranowulu (Bitung Utara),Kota,Bitung,Sulawesi Utara
715,95531,Dua Sudara (Duasadara),71.72.03.1007,Ranowulu (Bitung Utara),Kota,Bitung,Sulawesi Utara
716,95536,Karondoran,71.72.03.1001,Ranowulu (Bitung Utara),Kota,Bitung,Sulawesi Utara
717,95538,Kumersot (Kumeresot),71.72.03.1002,Ranowulu (Bitung Utara),Kota,Bitung,Sulawesi Utara
718,95535,Pinasungkulan,71.72.03.1010,Ranowulu (Bitung Utara),Kota,Bitung,Sulawesi Utara
719,95531,Pinokalan,71.72.03.1004,Ranowulu (Bitung Utara),Kota,Bitung,Sulawesi Utara
720,95532,Tewaan,71.72.03.1005,Ranowulu (Bitung Utara),Kota,Bitung,Sulawesi Utara
721,95880,Alo,71.04.03.2003,Rainis,Kabupaten,Kepulauan Talaud,Sulawesi Utara
722,95880,Alo Utara,71.04.03.2022,Rainis,Kabupaten,Kepulauan Talaud,Sulawesi Utara
723,95880,Bantane,71.04.03.2006,Rainis,Kabupaten,Kepulauan Talaud,Sulawesi Utara
724,95880,Bantane Utara,71.04.03.2015,Rainis,Kabupaten,Kepulauan Talaud,Sulawesi Utara
725,95880,Nunu,71.04.03.2004,Rainis,Kabupaten,Kepulauan Talaud,Sulawesi Utara
726,95880,Nunu Utara,71.04.03.2020,Rainis,Kabupaten,Kepulauan Talaud,Sulawesi Utara
727,95880,Parangen,71.04.03.2014,Rainis,Kabupaten,Kepulauan Talaud,Sulawesi Utara
728,95880,Rainis,71.04.03.2005,Rainis,Kabupaten,Kepulauan Talaud,Sulawesi Utara
729,95880,Rainis Batupenga (Rainis Baru Penga),71.04.03.2021,Rainis,Kabupaten,Kepulauan Talaud,Sulawesi Utara
730,95880,Tabang,71.04.03.2007,Rainis,Kabupaten,Kepulauan Talaud,Sulawesi Utara
731,95880,Tabang Barat,71.04.03.2018,Rainis,Kabupaten,Kepulauan Talaud,Sulawesi Utara
732,95997,Bentenan,71.07.02.2003,Pusomaen,Kabupaten,Minahasa Tenggara,Sulawesi Utara
733,95997,Bentenan Indah,71.07.02.2008,Pusomaen,Kabupaten,Minahasa Tenggara,Sulawesi Utara
734,95997,Bentenan Satu,71.07.02.2014,Pusomaen,Kabupaten,Minahasa Tenggara,Sulawesi Utara
735,95997,Makalu,71.07.02.2005,Pusomaen,Kabupaten,Minahasa Tenggara,Sulawesi Utara
736,95997,Makalu Selatan,71.07.02.2012,Pusomaen,Kabupaten,Minahasa Tenggara,Sulawesi Utara
737,95997,Minanga,71.07.02.2006,Pusomaen,Kabupaten,Minahasa Tenggara,Sulawesi Utara
738,95997,Minanga Dua,71.07.02.2010,Pusomaen,Kabupaten,Minahasa Tenggara,Sulawesi Utara
739,95997,Minanga Satu,71.07.02.2007,Pusomaen,Kabupaten,Minahasa Tenggara,Sulawesi Utara
740,95997,Minanga Tiga,71.07.02.2011,Pusomaen,Kabupaten,Minahasa Tenggara,Sulawesi Utara
741,95997,Minanga Timur,71.07.02.2009,Pusomaen,Kabupaten,Minahasa Tenggara,Sulawesi Utara
742,95997,Tatengesan,71.07.02.2001,Pusomaen,Kabupaten,Minahasa Tenggara,Sulawesi Utara
743,95997,Tatengesan Satu,71.07.02.2013,Pusomaen,Kabupaten,Minahasa Tenggara,Sulawesi Utara
744,95997,Tumbak,71.07.02.2004,Pusomaen,Kabupaten,Minahasa Tenggara,Sulawesi Utara
745,95997,Tumbak Madani,71.07.02.2015,Pusomaen,Kabupaten,Minahasa Tenggara,Sulawesi Utara
746,95997,Wiau,71.07.02.2002,Pusomaen,Kabupaten,Minahasa Tenggara,Sulawesi Utara
747,95878,Daran,71.04.15.2004,Pulutan,Kabupaten,Kepulauan Talaud,Sulawesi Utara
748,95878,Daran Utara,71.04.15.2005,Pulutan,Kabupaten,Kepulauan Talaud,Sulawesi Utara
749,95878,Pulutan,71.04.15.2001,Pulutan,Kabupaten,Kepulauan Talaud,Sulawesi Utara
750,95878,Pulutan Selatan,71.04.15.2003,Pulutan,Kabupaten,Kepulauan Talaud,Sulawesi Utara
751,95878,Pulutan Utara,71.04.15.2002,Pulutan,Kabupaten,Kepulauan Talaud,Sulawesi Utara
752,95774,Iloheluma,71.11.02.2016,Posigadan,Kabupaten,Bolaang Mongondow Selatan,Sulawesi Utara
753,95774,Inosota,71.11.02.2023,Posigadan,Kabupaten,Bolaang Mongondow Selatan,Sulawesi Utara
754,95774,Lion,71.11.02.2001,Posigadan,Kabupaten,Bolaang Mongondow Selatan,Sulawesi Utara
755,95774,Luwoo,71.11.02.2008,Posigadan,Kabupaten,Bolaang Mongondow Selatan,Sulawesi Utara
756,95774,Manggadaa,71.11.02.2012,Posigadan,Kabupaten,Bolaang Mongondow Selatan,Sulawesi Utara
757,95774,Meyambanga,71.11.02.2003,Posigadan,Kabupaten,Bolaang Mongondow Selatan,Sulawesi Utara
758,95774,Meyambanga Timur,71.11.02.2017,Posigadan,Kabupaten,Bolaang Mongondow Selatan,Sulawesi Utara
759,95774,Molosipat,71.11.02.2019,Posigadan,Kabupaten,Bolaang Mongondow Selatan,Sulawesi Utara
760,95774,Momalia I,71.11.02.2009,Posigadan,Kabupaten,Bolaang Mongondow Selatan,Sulawesi Utara
761,95774,Momalia II,71.11.02.2002,Posigadan,Kabupaten,Bolaang Mongondow Selatan,Sulawesi Utara
762,95774,Momalia Tiga,71.11.02.2022,Posigadan,Kabupaten,Bolaang Mongondow Selatan,Sulawesi Utara
763,95774,Pilolahunga,71.11.02.2013,Posigadan,Kabupaten,Bolaang Mongondow Selatan,Sulawesi Utara
764,95774,Saibuah,71.11.02.2004,Posigadan,Kabupaten,Bolaang Mongondow Selatan,Sulawesi Utara
765,95774,Sakti,71.11.02.2011,Posigadan,Kabupaten,Bolaang Mongondow Selatan,Sulawesi Utara
766,95774,Sinombayuga,71.11.02.2007,Posigadan,Kabupaten,Bolaang Mongondow Selatan,Sulawesi Utara
767,95774,Tonala,71.11.02.2014,Posigadan,Kabupaten,Bolaang Mongondow Selatan,Sulawesi Utara
768,95753,Gogaluman,71.01.20.2006,Poigar,Kabupaten,Bolaang Mongondow,Sulawesi Utara
769,95753,Mariri Baru,71.01.20.2002,Poigar,Kabupaten,Bolaang Mongondow,Sulawesi Utara
770,95753,Mariri Dua (II),71.01.20.2014,Poigar,Kabupaten,Bolaang Mongondow,Sulawesi Utara
771,95753,Mariri Lama,71.01.20.2001,Poigar,Kabupaten,Bolaang Mongondow,Sulawesi Utara
772,95753,Mariri Satu (I),71.01.20.2015,Poigar,Kabupaten,Bolaang Mongondow,Sulawesi Utara
773,95753,Mondatong,71.01.20.2011,Poigar,Kabupaten,Bolaang Mongondow,Sulawesi Utara
774,95753,Mondatong Baru,71.01.20.2020,Poigar,Kabupaten,Bolaang Mongondow,Sulawesi Utara
775,95753,Nanasi,71.01.20.2008,Poigar,Kabupaten,Bolaang Mongondow,Sulawesi Utara
776,95753,Nanasi Timur,71.01.20.2017,Poigar,Kabupaten,Bolaang Mongondow,Sulawesi Utara
777,95753,Nonapan,71.01.20.2018,Poigar,Kabupaten,Bolaang Mongondow,Sulawesi Utara
778,95753,Nonapan Baru,71.01.20.2016,Poigar,Kabupaten,Bolaang Mongondow,Sulawesi Utara
779,95753,Nonapan I (Nonapan Satu),71.01.20.2004,Poigar,Kabupaten,Bolaang Mongondow,Sulawesi Utara
780,95753,Nonapan II (Nonapan Dua),71.01.20.2003,Poigar,Kabupaten,Bolaang Mongondow,Sulawesi Utara
781,95753,Poigar I (Poigar),71.01.20.2007,Poigar,Kabupaten,Bolaang Mongondow,Sulawesi Utara
782,95753,Poigar II,71.01.20.2012,Poigar,Kabupaten,Bolaang Mongondow,Sulawesi Utara
783,95753,Poigar III,71.01.20.2013,Poigar,Kabupaten,Bolaang Mongondow,Sulawesi Utara
784,95753,Pomoman,71.01.20.2009,Poigar,Kabupaten,Bolaang Mongondow,Sulawesi Utara
785,95753,Tanjung Mariri,71.01.20.2019,Poigar,Kabupaten,Bolaang Mongondow,Sulawesi Utara
786,95753,Tiberias,71.01.20.2010,Poigar,Kabupaten,Bolaang Mongondow,Sulawesi Utara
787,95753,Wineru,71.01.20.2005,Poigar,Kabupaten,Bolaang Mongondow,Sulawesi Utara
788,95777,Dayow,71.11.05.2004,Pinolosian Timur,Kabupaten,Bolaang Mongondow Selatan,Sulawesi Utara
789,95777,Dumagin A,71.11.05.2002,Pinolosian Timur,Kabupaten,Bolaang Mongondow Selatan,Sulawesi Utara
790,95777,Dumagin B,71.11.05.2003,Pinolosian Timur,Kabupaten,Bolaang Mongondow Selatan,Sulawesi Utara
791,95777,Iligon,71.11.05.2009,Pinolosian Timur,Kabupaten,Bolaang Mongondow Selatan,Sulawesi Utara
792,95777,Matandoi,71.11.05.2001,Pinolosian Timur,Kabupaten,Bolaang Mongondow Selatan,Sulawesi Utara
793,95777,Matandoi Selatan (Motandoi Selatan),71.11.05.2010,Pinolosian Timur,Kabupaten,Bolaang Mongondow Selatan,Sulawesi Utara
794,95777,Modisi,71.11.05.2006,Pinolosian Timur,Kabupaten,Bolaang Mongondow Selatan,Sulawesi Utara
795,95777,Onggunoi,71.11.05.2005,Pinolosian Timur,Kabupaten,Bolaang Mongondow Selatan,Sulawesi Utara
796,95777,Onggunoi Selatan,71.11.05.2012,Pinolosian Timur,Kabupaten,Bolaang Mongondow Selatan,Sulawesi Utara
797,95777,Perjuangan,71.11.05.2011,Pinolosian Timur,Kabupaten,Bolaang Mongondow Selatan,Sulawesi Utara
798,95777,Pidung,71.11.05.2008,Pinolosian Timur,Kabupaten,Bolaang Mongondow Selatan,Sulawesi Utara
799,95777,Posilagon,71.11.05.2007,Pinolosian Timur,Kabupaten,Bolaang Mongondow Selatan,Sulawesi Utara
800,95776,Adow,71.11.04.2002,Pinolosian Tengah,Kabupaten,Bolaang Mongondow Selatan,Sulawesi Utara
801,95776,Adow Selatan,71.11.04.2006,Pinolosian Tengah,Kabupaten,Bolaang Mongondow Selatan,Sulawesi Utara
802,95776,Deaga,71.11.04.2005,Pinolosian Tengah,Kabupaten,Bolaang Mongondow Selatan,Sulawesi Utara
803,95776,Mataindo,71.11.04.2001,Pinolosian Tengah,Kabupaten,Bolaang Mongondow Selatan,Sulawesi Utara
804,95776,Mataindo Utara (Matandoi Utara),71.11.04.2007,Pinolosian Tengah,Kabupaten,Bolaang Mongondow Selatan,Sulawesi Utara
805,95776,Tobayagan,71.11.04.2004,Pinolosian Tengah,Kabupaten,Bolaang Mongondow Selatan,Sulawesi Utara
806,95776,Tobayagan Selatan,71.11.04.2008,Pinolosian Tengah,Kabupaten,Bolaang Mongondow Selatan,Sulawesi Utara
807,95776,Torosik,71.11.04.2003,Pinolosian Tengah,Kabupaten,Bolaang Mongondow Selatan,Sulawesi Utara
808,95775,Ilomata,71.11.03.2006,Pinolosian,Kabupaten,Bolaang Mongondow Selatan,Sulawesi Utara
809,95775,Kombot,71.11.03.2004,Pinolosian,Kabupaten,Bolaang Mongondow Selatan,Sulawesi Utara
810,95775,Kombot Timur,71.11.03.2010,Pinolosian,Kabupaten,Bolaang Mongondow Selatan,Sulawesi Utara
811,95775,Linawan,71.11.03.2001,Pinolosian,Kabupaten,Bolaang Mongondow Selatan,Sulawesi Utara
812,95775,Linawan I,71.11.03.2007,Pinolosian,Kabupaten,Bolaang Mongondow Selatan,Sulawesi Utara
813,95775,Lungkap,71.11.03.2005,Pinolosian,Kabupaten,Bolaang Mongondow Selatan,Sulawesi Utara
814,95775,Nunuk,71.11.03.2002,Pinolosian,Kabupaten,Bolaang Mongondow Selatan,Sulawesi Utara
815,95775,Pinolosian,71.11.03.2003,Pinolosian,Kabupaten,Bolaang Mongondow Selatan,Sulawesi Utara
816,95775,Pinolosian Selatan,71.11.03.2009,Pinolosian,Kabupaten,Bolaang Mongondow Selatan,Sulawesi Utara
817,95775,Tolotoyon (Tolotoyan),71.11.03.2008,Pinolosian,Kabupaten,Bolaang Mongondow Selatan,Sulawesi Utara
818,95766,Batu Bantayo (Batu Batayo),71.08.06.2013,Pinogaluman,Kabupaten,Bolaang Mongondow Utara,Sulawesi Utara
819,95766,Batu Tajam (Batutajam),71.08.06.2003,Pinogaluman,Kabupaten,Bolaang Mongondow Utara,Sulawesi Utara
820,95766,Buko,71.08.06.2005,Pinogaluman,Kabupaten,Bolaang Mongondow Utara,Sulawesi Utara
821,95766,Buko Selatan,71.08.06.2011,Pinogaluman,Kabupaten,Bolaang Mongondow Utara,Sulawesi Utara
822,95766,Buko Utara,71.08.06.2018,Pinogaluman,Kabupaten,Bolaang Mongondow Utara,Sulawesi Utara
823,95766,Busato,71.08.06.2012,Pinogaluman,Kabupaten,Bolaang Mongondow Utara,Sulawesi Utara
824,95766,Dalapuli,71.08.06.2004,Pinogaluman,Kabupaten,Bolaang Mongondow Utara,Sulawesi Utara
825,95766,Dalapuli Barat,71.08.06.2017,Pinogaluman,Kabupaten,Bolaang Mongondow Utara,Sulawesi Utara
826,95766,Dalapuli Timur,71.08.06.2016,Pinogaluman,Kabupaten,Bolaang Mongondow Utara,Sulawesi Utara
827,95766,Dengi,71.08.06.2006,Pinogaluman,Kabupaten,Bolaang Mongondow Utara,Sulawesi Utara
828,95766,Duini,71.08.06.2022,Pinogaluman,Kabupaten,Bolaang Mongondow Utara,Sulawesi Utara
829,95766,Kayu Ogu (Kayuogu),71.08.06.2009,Pinogaluman,Kabupaten,Bolaang Mongondow Utara,Sulawesi Utara
830,95766,Komus I (Komus Satu),71.08.06.2001,Pinogaluman,Kabupaten,Bolaang Mongondow Utara,Sulawesi Utara
831,95766,Padango,71.08.06.2014,Pinogaluman,Kabupaten,Bolaang Mongondow Utara,Sulawesi Utara
832,95766,Tambulang Pantai (Tambulong Pantai),71.08.06.2020,Pinogaluman,Kabupaten,Bolaang Mongondow Utara,Sulawesi Utara
833,95766,Tambulang Timur (Tambulong Timur),71.08.06.2019,Pinogaluman,Kabupaten,Bolaang Mongondow Utara,Sulawesi Utara
834,95766,Tanjung Sidupa,71.08.06.2010,Pinogaluman,Kabupaten,Bolaang Mongondow Utara,Sulawesi Utara
835,95766,Tombulang,71.08.06.2007,Pinogaluman,Kabupaten,Bolaang Mongondow Utara,Sulawesi Utara
836,95766,Tontulow (Tuntulow),71.08.06.2008,Pinogaluman,Kabupaten,Bolaang Mongondow Utara,Sulawesi Utara
837,95766,Tuntulow Utara (Tintulow Utara),71.08.06.2015,Pinogaluman,Kabupaten,Bolaang Mongondow Utara,Sulawesi Utara
838,95766,Tuntung,71.08.06.2002,Pinogaluman,Kabupaten,Bolaang Mongondow Utara,Sulawesi Utara
839,95766,Tuntung Timur,71.08.06.2021,Pinogaluman,Kabupaten,Bolaang Mongondow Utara,Sulawesi Utara
840,95662,Kali,71.02.13.2014,Pineleng,Kabupaten,Minahasa,Sulawesi Utara
841,95662,Kali Selatan,71.02.13.2016,Pineleng,Kabupaten,Minahasa,Sulawesi Utara
842,95662,Lotta,71.02.13.2021,Pineleng,Kabupaten,Minahasa,Sulawesi Utara
843,95662,Pineleng Dua Indah,71.02.13.2020,Pineleng,Kabupaten,Minahasa,Sulawesi Utara
844,95662,Pineleng I (Pineleng Satu),71.02.13.2001,Pineleng,Kabupaten,Minahasa,Sulawesi Utara
845,95662,Pineleng II (Pineleng Dua),71.02.13.2002,Pineleng,Kabupaten,Minahasa,Sulawesi Utara
846,95662,Pineleng Satu Timur,71.02.13.2024,Pineleng,Kabupaten,Minahasa,Sulawesi Utara
847,95662,Sea,71.02.13.2007,Pineleng,Kabupaten,Minahasa,Sulawesi Utara
848,95662,Sea I,71.02.13.2003,Pineleng,Kabupaten,Minahasa,Sulawesi Utara
849,95662,Sea II,71.02.13.2004,Pineleng,Kabupaten,Minahasa,Sulawesi Utara
850,95662,Sea Mitra,71.02.13.2022,Pineleng,Kabupaten,Minahasa,Sulawesi Utara
851,95662,Sea Tumpengan,71.02.13.2023,Pineleng,Kabupaten,Minahasa,Sulawesi Utara
852,95662,Warembungan,71.02.13.2006,Pineleng,Kabupaten,Minahasa,Sulawesi Utara
853,95662,Winagun Atas (Winangun Atas),71.02.13.2005,Pineleng,Kabupaten,Minahasa,Sulawesi Utara
854,95750,Insil,71.01.22.2007,Passi Timur,Kabupaten,Bolaang Mongondow,Sulawesi Utara
855,95750,Insil Baru,71.01.22.2012,Passi Timur,Kabupaten,Bolaang Mongondow,Sulawesi Utara
856,95750,Manembo,71.01.22.2005,Passi Timur,Kabupaten,Bolaang Mongondow,Sulawesi Utara
857,95750,Mobuya,71.01.22.2009,Passi Timur,Kabupaten,Bolaang Mongondow,Sulawesi Utara
858,95750,Pangian,71.01.22.2003,Passi Timur,Kabupaten,Bolaang Mongondow,Sulawesi Utara
859,95750,Pangian Barat,71.01.22.2014,Passi Timur,Kabupaten,Bolaang Mongondow,Sulawesi Utara
860,95750,Pangian Tengah,71.01.22.2013,Passi Timur,Kabupaten,Bolaang Mongondow,Sulawesi Utara
861,95750,Poopo,71.01.22.2004,Passi Timur,Kabupaten,Bolaang Mongondow,Sulawesi Utara
862,95750,Poopo Barat,71.01.22.2015,Passi Timur,Kabupaten,Bolaang Mongondow,Sulawesi Utara
863,95750,Poopo Selatan,71.01.22.2016,Passi Timur,Kabupaten,Bolaang Mongondow,Sulawesi Utara
864,95750,Sinsingon,71.01.22.2006,Passi Timur,Kabupaten,Bolaang Mongondow,Sulawesi Utara
865,95750,Sinsingon Barat,71.01.22.2017,Passi Timur,Kabupaten,Bolaang Mongondow,Sulawesi Utara
866,95750,Sinsingon Timur,71.01.22.2018,Passi Timur,Kabupaten,Bolaang Mongondow,Sulawesi Utara
867,95751,Bintau,71.01.19.2017,Passi Barat,Kabupaten,Bolaang Mongondow,Sulawesi Utara
868,95751,Bulud,71.01.19.2018,Passi Barat,Kabupaten,Bolaang Mongondow,Sulawesi Utara
869,95751,Inuai,71.01.19.2022,Passi Barat,Kabupaten,Bolaang Mongondow,Sulawesi Utara
870,95751,Lobong,71.01.19.2003,Passi Barat,Kabupaten,Bolaang Mongondow,Sulawesi Utara
871,95751,Muntoi (Muntoi Induk / Muntoy),71.01.19.2001,Passi Barat,Kabupaten,Bolaang Mongondow,Sulawesi Utara
872,95751,Muntoi Timur,71.01.19.2024,Passi Barat,Kabupaten,Bolaang Mongondow,Sulawesi Utara
873,95751,Otam,71.01.19.2019,Passi Barat,Kabupaten,Bolaang Mongondow,Sulawesi Utara
874,95751,Otam Barat,71.01.19.2025,Passi Barat,Kabupaten,Bolaang Mongondow,Sulawesi Utara
875,95751,Passi (Passi 1),71.01.19.2004,Passi Barat,Kabupaten,Bolaang Mongondow,Sulawesi Utara
876,95751,Passi II (Passi 2),71.01.19.2023,Passi Barat,Kabupaten,Bolaang Mongondow,Sulawesi Utara
877,95751,Poyuyanan,71.01.19.2002,Passi Barat,Kabupaten,Bolaang Mongondow,Sulawesi Utara
878,95751,Wangga,71.01.19.2020,Passi Barat,Kabupaten,Bolaang Mongondow,Sulawesi Utara
879,95751,Wangga Satu,71.01.19.2026,Passi Barat,Kabupaten,Bolaang Mongondow,Sulawesi Utara
880,95993,Liwutung,71.07.11.2007,Pasan,Kabupaten,Minahasa Tenggara,Sulawesi Utara
881,95993,Liwutung Dua,71.07.11.2009,Pasan,Kabupaten,Minahasa Tenggara,Sulawesi Utara
882,95993,Liwutung Satu,71.07.11.2008,Pasan,Kabupaten,Minahasa Tenggara,Sulawesi Utara
883,95993,Maulit,71.07.11.2011,Pasan,Kabupaten,Minahasa Tenggara,Sulawesi Utara
884,95993,Poniki,71.07.11.2010,Pasan,Kabupaten,Minahasa Tenggara,Sulawesi Utara
885,95993,Tolombukan,71.07.11.2004,Pasan,Kabupaten,Minahasa Tenggara,Sulawesi Utara
886,95993,Tolombukan Barat,71.07.11.2006,Pasan,Kabupaten,Minahasa Tenggara,Sulawesi Utara
887,95993,Tolombukan Satu,71.07.11.2005,Pasan,Kabupaten,Minahasa Tenggara,Sulawesi Utara
888,95993,Towuntu,71.07.11.2001,Pasan,Kabupaten,Minahasa Tenggara,Sulawesi Utara
889,95993,Towuntu Barat,71.07.11.2003,Pasan,Kabupaten,Minahasa Tenggara,Sulawesi Utara
890,95993,Towuntu Timur,71.07.11.2002,Pasan,Kabupaten,Minahasa Tenggara,Sulawesi Utara
891,95127,Dendengan Dalam,71.71.11.1006,Paal Dua,Kota,Manado,Sulawesi Utara
892,95127,Dendengan Luar,71.71.11.1007,Paal Dua,Kota,Manado,Sulawesi Utara
893,95129,Kairagi Weru,71.71.11.1002,Paal Dua,Kota,Manado,Sulawesi Utara
894,95129,Malendeng,71.71.11.1005,Paal Dua,Kota,Manado,Sulawesi Utara
895,95129,Paal Dua,71.71.11.1003,Paal Dua,Kota,Manado,Sulawesi Utara
896,95129,Perkamil,71.71.11.1004,Paal Dua,Kota,Manado,Sulawesi Utara
897,95128,Ranomuut (Ranomut),71.71.11.1001,Paal Dua,Kota,Manado,Sulawesi Utara
898,95842,Bukide,71.03.09.2003,Nusa Tabukan,Kabupaten,Kepulauan Sangihe,Sulawesi Utara
899,95842,Bukide Timur,71.03.09.2004,Nusa Tabukan,Kabupaten,Kepulauan Sangihe,Sulawesi Utara
900,95842,Nanedakele,71.03.09.2001,Nusa Tabukan,Kabupaten,Kepulauan Sangihe,Sulawesi Utara
901,95842,Nanusa,71.03.09.2005,Nusa Tabukan,Kabupaten,Kepulauan Sangihe,Sulawesi Utara
902,95842,Nusa,71.03.09.2002,Nusa Tabukan,Kabupaten,Kepulauan Sangihe,Sulawesi Utara
903,95786,Bai,71.10.03.2006,Nuangan,Kabupaten,Bolaang Mongondow Timur,Sulawesi Utara
904,95786,Idumun,71.10.03.2001,Nuangan,Kabupaten,Bolaang Mongondow Timur,Sulawesi Utara
905,95786,Iyok,71.10.03.2011,Nuangan,Kabupaten,Bolaang Mongondow Timur,Sulawesi Utara
906,95786,Jiko Belanga,71.10.03.2007,Nuangan,Kabupaten,Bolaang Mongondow Timur,Sulawesi Utara
907,95786,Loyow,71.10.03.2012,Nuangan,Kabupaten,Bolaang Mongondow Timur,Sulawesi Utara
908,95786,Matabulu,71.10.03.2002,Nuangan,Kabupaten,Bolaang Mongondow Timur,Sulawesi Utara
909,95786,Matabulu Timur,71.10.03.2014,Nuangan,Kabupaten,Bolaang Mongondow Timur,Sulawesi Utara
910,95786,Nuangan,71.10.03.2003,Nuangan,Kabupaten,Bolaang Mongondow Timur,Sulawesi Utara
911,95786,Nuangan Barat,71.10.03.2018,Nuangan,Kabupaten,Bolaang Mongondow Timur,Sulawesi Utara
912,95786,Nuangan I,71.10.03.2010,Nuangan,Kabupaten,Bolaang Mongondow Timur,Sulawesi Utara
913,95786,Nuangan Selatan,71.10.03.2019,Nuangan,Kabupaten,Bolaang Mongondow Timur,Sulawesi Utara
914,95884,Dampulis,71.04.05.2004,Nanusa,Kabupaten,Kepulauan Talaud,Sulawesi Utara
915,95884,Dampulis Selatan,71.04.05.2009,Nanusa,Kabupaten,Kepulauan Talaud,Sulawesi Utara
916,95884,Kakorotan,71.04.05.2001,Nanusa,Kabupaten,Kepulauan Talaud,Sulawesi Utara
917,95884,Karatung,71.04.05.2005,Nanusa,Kabupaten,Kepulauan Talaud,Sulawesi Utara
918,95884,Karatung Selatan,71.04.05.2008,Nanusa,Kabupaten,Kepulauan Talaud,Sulawesi Utara
919,95884,Karatung Tengah,71.04.05.2007,Nanusa,Kabupaten,Kepulauan Talaud,Sulawesi Utara
920,95884,Laluhe,71.04.05.2003,Nanusa,Kabupaten,Kepulauan Talaud,Sulawesi Utara
921,95884,Marampit,71.04.05.2002,Nanusa,Kabupaten,Kepulauan Talaud,Sulawesi Utara
922,95884,Marampit Timur,71.04.05.2010,Nanusa,Kabupaten,Kepulauan Talaud,Sulawesi Utara
923,95785,Atoga,71.10.06.2004,Motongkad,Kabupaten,Bolaang Mongondow Timur,Sulawesi Utara
924,95785,Atoga Timur,71.10.06.2005,Motongkad,Kabupaten,Bolaang Mongondow Timur,Sulawesi Utara
925,95785,Jiko,71.10.06.2009,Motongkad,Kabupaten,Bolaang Mongondow Timur,Sulawesi Utara
926,95785,Jiko Utara,71.10.06.2010,Motongkad,Kabupaten,Bolaang Mongondow Timur,Sulawesi Utara
927,95785,Molobog,71.10.06.2007,Motongkad,Kabupaten,Bolaang Mongondow Timur,Sulawesi Utara
928,95785,Molobog Barat,71.10.06.2008,Motongkad,Kabupaten,Bolaang Mongondow Timur,Sulawesi Utara
929,95785,Molobog Timur,71.10.06.2011,Motongkad,Kabupaten,Bolaang Mongondow Timur,Sulawesi Utara
930,95785,Motongkad,71.10.06.2002,Motongkad,Kabupaten,Bolaang Mongondow Timur,Sulawesi Utara
931,95785,Motongkad Selatan,71.10.06.2003,Motongkad,Kabupaten,Bolaang Mongondow Timur,Sulawesi Utara
932,95785,Motongkad Tengah,71.10.06.2006,Motongkad,Kabupaten,Bolaang Mongondow Timur,Sulawesi Utara
933,95785,Motongkad Utara,71.10.06.2001,Motongkad,Kabupaten,Bolaang Mongondow Timur,Sulawesi Utara
934,95943,Karimbow,71.05.22.2001,Motoling Timur,Kabupaten,Minahasa Selatan,Sulawesi Utara
935,95943,Karimbow Talikuran,71.05.22.2002,Motoling Timur,Kabupaten,Minahasa Selatan,Sulawesi Utara
936,95943,Picuan,71.05.22.2007,Motoling Timur,Kabupaten,Minahasa Selatan,Sulawesi Utara
937,95943,Picuan Satu,71.05.22.2008,Motoling Timur,Kabupaten,Minahasa Selatan,Sulawesi Utara
938,95943,Tokin,71.05.22.2003,Motoling Timur,Kabupaten,Minahasa Selatan,Sulawesi Utara
939,95943,Tokin Baru,71.05.22.2004,Motoling Timur,Kabupaten,Minahasa Selatan,Sulawesi Utara
940,95943,Wanga,71.05.22.2006,Motoling Timur,Kabupaten,Minahasa Selatan,Sulawesi Utara
941,95943,Wanga Amongena,71.05.22.2005,Motoling Timur,Kabupaten,Minahasa Selatan,Sulawesi Utara
942,95942,Keroit,71.05.21.2008,Motoling Barat,Kabupaten,Minahasa Selatan,Sulawesi Utara
943,95942,Raanan Baru,71.05.21.2004,Motoling Barat,Kabupaten,Minahasa Selatan,Sulawesi Utara
944,95942,Ranaan Baru Dua (Raanan Baru Dua),71.05.21.2006,Motoling Barat,Kabupaten,Minahasa Selatan,Sulawesi Utara
945,95942,Ranaan Baru Satu (Raanan Baru Satu),71.05.21.2005,Motoling Barat,Kabupaten,Minahasa Selatan,Sulawesi Utara
946,95942,Tondei Dua (Tondey Dua),71.05.21.2003,Motoling Barat,Kabupaten,Minahasa Selatan,Sulawesi Utara
947,95942,Tondei Satu (Tondey Satu),71.05.21.2002,Motoling Barat,Kabupaten,Minahasa Selatan,Sulawesi Utara
948,95942,Tondey (Tondei),71.05.21.2001,Motoling Barat,Kabupaten,Minahasa Selatan,Sulawesi Utara
949,95942,Toyopon,71.05.21.2007,Motoling Barat,Kabupaten,Minahasa Selatan,Sulawesi Utara
950,95941,Lalumpe,71.05.07.2015,Motoling,Kabupaten,Minahasa Selatan,Sulawesi Utara
951,95941,Motoling,71.05.07.2001,Motoling,Kabupaten,Minahasa Selatan,Sulawesi Utara
952,95941,Motoling I (Motoling Satu),71.05.07.2003,Motoling,Kabupaten,Minahasa Selatan,Sulawesi Utara
953,95941,Motoling II (Motoling Dua),71.05.07.2004,Motoling,Kabupaten,Minahasa Selatan,Sulawesi Utara
954,95941,Motoling Mawale,71.05.07.2002,Motoling,Kabupaten,Minahasa Selatan,Sulawesi Utara
955,95941,Picuan Baru,71.05.07.2005,Motoling,Kabupaten,Minahasa Selatan,Sulawesi Utara
956,95941,Raanan Lama,71.05.07.2021,Motoling,Kabupaten,Minahasa Selatan,Sulawesi Utara
957,95870,Moronge,71.04.17.2001,Moronge,Kabupaten,Kepulauan Talaud,Sulawesi Utara
958,95870,Moronge I,71.04.17.2002,Moronge,Kabupaten,Kepulauan Talaud,Sulawesi Utara
959,95870,Moronge II,71.04.17.2003,Moronge,Kabupaten,Kepulauan Talaud,Sulawesi Utara
960,95870,Moronge Selatan,71.04.17.2004,Moronge,Kabupaten,Kepulauan Talaud,Sulawesi Utara
961,95870,Moronge Selatan I,71.04.17.2006,Moronge,Kabupaten,Kepulauan Talaud,Sulawesi Utara
962,95870,Moronge Selatan II,71.04.17.2005,Moronge,Kabupaten,Kepulauan Talaud,Sulawesi Utara
963,95784,Bongkudai Baru,71.10.07.2003,Mooat,Kabupaten,Bolaang Mongondow Timur,Sulawesi Utara
964,95784,Bongkudai Selatan,71.10.07.2002,Mooat,Kabupaten,Bolaang Mongondow Timur,Sulawesi Utara
965,95784,Bongkudai Timur,71.10.07.2005,Mooat,Kabupaten,Bolaang Mongondow Timur,Sulawesi Utara
966,95784,Bongkudai Utara,71.10.07.2004,Mooat,Kabupaten,Bolaang Mongondow Timur,Sulawesi Utara
967,95784,Guaan,71.10.07.2006,Mooat,Kabupaten,Bolaang Mongondow Timur,Sulawesi Utara
968,95784,Kokapoi,71.10.07.2009,Mooat,Kabupaten,Bolaang Mongondow Timur,Sulawesi Utara
969,95784,Kokapoi Timur,71.10.07.2010,Mooat,Kabupaten,Bolaang Mongondow Timur,Sulawesi Utara
970,95784,Mokitompia,71.10.07.2008,Mooat,Kabupaten,Bolaang Mongondow Timur,Sulawesi Utara
971,95784,Mooat,71.10.07.2001,Mooat,Kabupaten,Bolaang Mongondow Timur,Sulawesi Utara
972,95784,Mototompian,71.10.07.2007,Mooat,Kabupaten,Bolaang Mongondow Timur,Sulawesi Utara
973,95958,Kakenturan,71.05.01.2002,Modoinding,Kabupaten,Minahasa Selatan,Sulawesi Utara
974,95958,Kakenturan Barat,71.05.01.2009,Modoinding,Kabupaten,Minahasa Selatan,Sulawesi Utara
975,95958,Linelean,71.05.01.2007,Modoinding,Kabupaten,Minahasa Selatan,Sulawesi Utara
976,95958,Makaaruyen,71.05.01.2006,Modoinding,Kabupaten,Minahasa Selatan,Sulawesi Utara
977,95958,Mokobang,71.05.01.2008,Modoinding,Kabupaten,Minahasa Selatan,Sulawesi Utara
978,95958,Palelon,71.05.01.2003,Modoinding,Kabupaten,Minahasa Selatan,Sulawesi Utara
979,95958,Pinasungkulan,71.05.01.2004,Modoinding,Kabupaten,Minahasa Selatan,Sulawesi Utara
980,95958,Pinasungkulan Utara,71.05.01.2010,Modoinding,Kabupaten,Minahasa Selatan,Sulawesi Utara
981,95958,Sinisir,71.05.01.2001,Modoinding,Kabupaten,Minahasa Selatan,Sulawesi Utara
982,95958,Wulurmaatus,71.05.01.2005,Modoinding,Kabupaten,Minahasa Selatan,Sulawesi Utara
983,95781,Bangkudai Barat (Bongkudai Barat),71.10.05.2003,Modayag Barat,Kabupaten,Bolaang Mongondow Timur,Sulawesi Utara
984,95781,Bangunan Wuwuk,71.10.05.2002,Modayag Barat,Kabupaten,Bolaang Mongondow Timur,Sulawesi Utara
985,95781,Bangunan Wuwuk Timur,71.10.05.2008,Modayag Barat,Kabupaten,Bolaang Mongondow Timur,Sulawesi Utara
986,95781,Bongkudai,71.10.05.2004,Modayag Barat,Kabupaten,Bolaang Mongondow Timur,Sulawesi Utara
987,95781,Inaton,71.10.05.2007,Modayag Barat,Kabupaten,Bolaang Mongondow Timur,Sulawesi Utara
988,95781,Moonow,71.10.05.2006,Modayag Barat,Kabupaten,Bolaang Mongondow Timur,Sulawesi Utara
989,95781,Moyongkota,71.10.05.2001,Modayag Barat,Kabupaten,Bolaang Mongondow Timur,Sulawesi Utara
990,95781,Moyongkota Baru,71.10.05.2005,Modayag Barat,Kabupaten,Bolaang Mongondow Timur,Sulawesi Utara
991,95781,Pinonobatuan,71.10.05.2009,Modayag Barat,Kabupaten,Bolaang Mongondow Timur,Sulawesi Utara
992,95781,Tangaton,71.10.05.2010,Modayag Barat,Kabupaten,Bolaang Mongondow Timur,Sulawesi Utara
993,95780,Badaro,71.10.04.2010,Modayag,Kabupaten,Bolaang Mongondow Timur,Sulawesi Utara
994,95780,Buyandi,71.10.04.2007,Modayag,Kabupaten,Bolaang Mongondow Timur,Sulawesi Utara
995,95780,Candi Rejo,71.10.04.2021,Modayag,Kabupaten,Bolaang Mongondow Timur,Sulawesi Utara
996,95780,Lanut,71.10.04.2009,Modayag,Kabupaten,Bolaang Mongondow Timur,Sulawesi Utara
997,95780,Liberia,71.10.04.2002,Modayag,Kabupaten,Bolaang Mongondow Timur,Sulawesi Utara
998,95780,Liberia Timur,71.10.04.2014,Modayag,Kabupaten,Bolaang Mongondow Timur,Sulawesi Utara
999,95780,Modayag,71.10.04.2001,Modayag,Kabupaten,Bolaang Mongondow Timur,Sulawesi Utara
1000,95780,Modayag Barat,71.10.04.2011,Modayag,Kabupaten,Bolaang Mongondow Timur,Sulawesi Utara
1001,95780,Modayag Timur,71.10.04.2012,Modayag,Kabupaten,Bolaang Mongondow Timur,Sulawesi Utara
1002,95780,Purworejo,71.10.04.2003,Modayag,Kabupaten,Bolaang Mongondow Timur,Sulawesi Utara
1003,95780,Purworejo Tengah,71.10.04.2016,Modayag,Kabupaten,Bolaang Mongondow Timur,Sulawesi Utara
1004,95780,Purworejo Timur,71.10.04.2013,Modayag,Kabupaten,Bolaang Mongondow Timur,Sulawesi Utara
1005,95780,Sumber Rejo,71.10.04.2022,Modayag,Kabupaten,Bolaang Mongondow Timur,Sulawesi Utara
1006,95780,Tobongon,71.10.04.2008,Modayag,Kabupaten,Bolaang Mongondow Timur,Sulawesi Utara
1007,95889,Pulau Miangas,71.04.13.2001,Miangas,Kabupaten,Kepulauan Talaud,Sulawesi Utara
1008,95886,Bowombaru (Bawombaru),71.04.16.2004,Melonguane Timur,Kabupaten,Kepulauan Talaud,Sulawesi Utara
1009,95886,Bowombaru Tengah,71.04.16.2005,Melonguane Timur,Kabupaten,Kepulauan Talaud,Sulawesi Utara
1010,95886,Bowombaru Utara,71.04.16.2006,Melonguane Timur,Kabupaten,Kepulauan Talaud,Sulawesi Utara
1011,95886,Tule,71.04.16.2001,Melonguane Timur,Kabupaten,Kepulauan Talaud,Sulawesi Utara
1012,95886,Tule Tengah,71.04.16.2002,Melonguane Timur,Kabupaten,Kepulauan Talaud,Sulawesi Utara
1013,95886,Tule Utara,71.04.16.2003,Melonguane Timur,Kabupaten,Kepulauan Talaud,Sulawesi Utara
1014,95885,Ambela,71.04.07.2008,Melonguane,Kabupaten,Kepulauan Talaud,Sulawesi Utara
1015,95885,Kiama,71.04.07.2003,Melonguane,Kabupaten,Kepulauan Talaud,Sulawesi Utara
1016,95885,Kiama Barat,71.04.07.2012,Melonguane,Kabupaten,Kepulauan Talaud,Sulawesi Utara
1017,95885,Mala,71.04.07.2002,Melonguane,Kabupaten,Kepulauan Talaud,Sulawesi Utara
1018,95885,Mala Timur,71.04.07.2017,Melonguane,Kabupaten,Kepulauan Talaud,Sulawesi Utara
1019,95885,Maredaren Utara,71.04.07.2015,Melonguane,Kabupaten,Kepulauan Talaud,Sulawesi Utara
1020,95885,Melonguane,71.04.07.1001,Melonguane,Kabupaten,Kepulauan Talaud,Sulawesi Utara
1021,95885,Melonguane Barat,71.04.07.1010,Melonguane,Kabupaten,Kepulauan Talaud,Sulawesi Utara
1022,95885,Melonguane Timur,71.04.07.1009,Melonguane,Kabupaten,Kepulauan Talaud,Sulawesi Utara
1023,95885,Sawang,71.04.07.2007,Melonguane,Kabupaten,Kepulauan Talaud,Sulawesi Utara
1024,95885,Sawang Utara,71.04.07.2016,Melonguane,Kabupaten,Kepulauan Talaud,Sulawesi Utara
1025,95885,Tarun,71.04.07.2006,Melonguane,Kabupaten,Kepulauan Talaud,Sulawesi Utara
1026,95885,Tarun Selatan,71.04.07.2011,Melonguane,Kabupaten,Kepulauan Talaud,Sulawesi Utara
1027,95545,Manembo Nembo Atas,71.72.05.1003,Matuari (Bitung Barat),Kota,Bitung,Sulawesi Utara
1028,95545,Manembo Nembo Tengah,71.72.05.1013,Matuari (Bitung Barat),Kota,Bitung,Sulawesi Utara
1029,95545,Manembo-nembo (Manembo Nembo Bawah),71.72.05.1007,Matuari (Bitung Barat),Kota,Bitung,Sulawesi Utara
1030,95546,Sagerat,71.72.05.1002,Matuari (Bitung Barat),Kota,Bitung,Sulawesi Utara
1031,95546,Sagerat Weru Dua (II),71.72.05.1012,Matuari (Bitung Barat),Kota,Bitung,Sulawesi Utara
1032,95546,Sagerat Weru Satu (I),71.72.05.1011,Matuari (Bitung Barat),Kota,Bitung,Sulawesi Utara
1033,95547,Tanjung Merah,71.72.05.1001,Matuari (Bitung Barat),Kota,Bitung,Sulawesi Utara
1034,95539,Tendeki,71.72.05.1014,Matuari (Bitung Barat),Kota,Bitung,Sulawesi Utara
1035,95251,Bengkol,71.71.08.1006,Mapanget,Kota,Manado,Sulawesi Utara
1036,95252,Buha,71.71.08.1005,Mapanget,Kota,Manado,Sulawesi Utara
1037,95254,Kairagi Dua,71.71.08.1009,Mapanget,Kota,Manado,Sulawesi Utara
1038,95253,Kairagi Satu,71.71.08.1008,Mapanget,Kota,Manado,Sulawesi Utara
1039,95259,Kima Atas,71.71.08.1004,Mapanget,Kota,Manado,Sulawesi Utara
1040,95258,Lapangan,71.71.08.1002,Mapanget,Kota,Manado,Sulawesi Utara
1041,95258,Mapanget Barat,71.71.08.1003,Mapanget,Kota,Manado,Sulawesi Utara
1042,95256,Paniki Bawah,71.71.08.1001,Mapanget,Kota,Manado,Sulawesi Utara
1043,95257,Paniki Dua,71.71.08.1011,Mapanget,Kota,Manado,Sulawesi Utara
1044,95259,Paniki Satu,71.71.08.1010,Mapanget,Kota,Manado,Sulawesi Utara
1045,95854,Batunderang,71.03.10.2007,Manganitu Selatan,Kabupaten,Kepulauan Sangihe,Sulawesi Utara
1046,95854,Bebalang,71.03.10.2008,Manganitu Selatan,Kabupaten,Kepulauan Sangihe,Sulawesi Utara
1047,95854,Kaluwatu,71.03.10.2001,Manganitu Selatan,Kabupaten,Kepulauan Sangihe,Sulawesi Utara
1048,95854,Laine,71.03.10.2002,Manganitu Selatan,Kabupaten,Kepulauan Sangihe,Sulawesi Utara
1049,95854,Lapango,71.03.10.2003,Manganitu Selatan,Kabupaten,Kepulauan Sangihe,Sulawesi Utara
1050,95854,Lapango I,71.03.10.2013,Manganitu Selatan,Kabupaten,Kepulauan Sangihe,Sulawesi Utara
1051,95854,Lapepahe,71.03.10.2011,Manganitu Selatan,Kabupaten,Kepulauan Sangihe,Sulawesi Utara
1052,95854,Lehimi Tariang,71.03.10.2012,Manganitu Selatan,Kabupaten,Kepulauan Sangihe,Sulawesi Utara
1053,95854,Mawira,71.03.10.2009,Manganitu Selatan,Kabupaten,Kepulauan Sangihe,Sulawesi Utara
1054,95854,Ngalipaeng Dua (II),71.03.10.2006,Manganitu Selatan,Kabupaten,Kepulauan Sangihe,Sulawesi Utara
1055,95854,Ngalipaeng Satu (I),71.03.10.2005,Manganitu Selatan,Kabupaten,Kepulauan Sangihe,Sulawesi Utara
1056,95854,Pindang,71.03.10.2010,Manganitu Selatan,Kabupaten,Kepulauan Sangihe,Sulawesi Utara
1057,95854,Sowaeng (Mawira),71.03.10.2004,Manganitu Selatan,Kabupaten,Kepulauan Sangihe,Sulawesi Utara
1058,95853,Bakalaeng,71.03.13.2014,Manganitu,Kabupaten,Kepulauan Sangihe,Sulawesi Utara
1059,95853,Barangka,71.03.13.2002,Manganitu,Kabupaten,Kepulauan Sangihe,Sulawesi Utara
1060,95853,Barangkalang,71.03.13.2012,Manganitu,Kabupaten,Kepulauan Sangihe,Sulawesi Utara
1061,95853,Belengang,71.03.13.2013,Manganitu,Kabupaten,Kepulauan Sangihe,Sulawesi Utara
1062,95853,Bengka,71.03.13.2018,Manganitu,Kabupaten,Kepulauan Sangihe,Sulawesi Utara
1063,95853,Hiung,71.03.13.2015,Manganitu,Kabupaten,Kepulauan Sangihe,Sulawesi Utara
1064,95853,Karatung I,71.03.13.2007,Manganitu,Kabupaten,Kepulauan Sangihe,Sulawesi Utara
1065,95853,Karatung II,71.03.13.2008,Manganitu,Kabupaten,Kepulauan Sangihe,Sulawesi Utara
1066,95853,Kauhis,71.03.13.2009,Manganitu,Kabupaten,Kepulauan Sangihe,Sulawesi Utara
1067,95853,Lebo,71.03.13.2011,Manganitu,Kabupaten,Kepulauan Sangihe,Sulawesi Utara
1068,95853,Mala,71.03.13.2006,Manganitu,Kabupaten,Kepulauan Sangihe,Sulawesi Utara
1069,95853,Manumpitaeng,71.03.13.2004,Manganitu,Kabupaten,Kepulauan Sangihe,Sulawesi Utara
1070,95853,Nahepese,71.03.13.2003,Manganitu,Kabupaten,Kepulauan Sangihe,Sulawesi Utara
1071,95853,Pinebentengang,71.03.13.2016,Manganitu,Kabupaten,Kepulauan Sangihe,Sulawesi Utara
1072,95853,Sesiwung,71.03.13.2010,Manganitu,Kabupaten,Kepulauan Sangihe,Sulawesi Utara
1073,95853,Taloarane,71.03.13.2005,Manganitu,Kabupaten,Kepulauan Sangihe,Sulawesi Utara
1074,95853,Taloarane I,71.03.13.2017,Manganitu,Kabupaten,Kepulauan Sangihe,Sulawesi Utara
1075,95853,Tawoali,71.03.13.2001,Manganitu,Kabupaten,Kepulauan Sangihe,Sulawesi Utara
1076,95661,Agotey,71.02.23.2012,Mandolang,Kabupaten,Minahasa,Sulawesi Utara
1077,95661,Kalasey Dua,71.02.23.2002,Mandolang,Kabupaten,Minahasa,Sulawesi Utara
1078,95661,Kalasey Satu,71.02.23.2001,Mandolang,Kabupaten,Minahasa,Sulawesi Utara
1079,95661,Koha,71.02.23.2008,Mandolang,Kabupaten,Minahasa,Sulawesi Utara
1080,95661,Koha Barat,71.02.23.2009,Mandolang,Kabupaten,Minahasa,Sulawesi Utara
1081,95661,Koha Selatan,71.02.23.2011,Mandolang,Kabupaten,Minahasa,Sulawesi Utara
1082,95661,Koha Timur,71.02.23.2010,Mandolang,Kabupaten,Minahasa,Sulawesi Utara
1083,95661,Tateli,71.02.23.2003,Mandolang,Kabupaten,Minahasa,Sulawesi Utara
1084,95661,Tateli Dua,71.02.23.2006,Mandolang,Kabupaten,Minahasa,Sulawesi Utara
1085,95661,Tateli Satu,71.02.23.2005,Mandolang,Kabupaten,Minahasa,Sulawesi Utara
1086,95661,Tateli Tiga,71.02.23.2007,Mandolang,Kabupaten,Minahasa,Sulawesi Utara
1087,95661,Tateli Weru,71.02.23.2004,Mandolang,Kabupaten,Minahasa,Sulawesi Utara
1088,95115,Bahu,71.71.09.1002,Malalayang,Kota,Manado,Sulawesi Utara
1089,95163,Batu Kota,71.71.09.1004,Malalayang,Kota,Manado,Sulawesi Utara
1090,95115,Kleak,71.71.09.1003,Malalayang,Kota,Manado,Sulawesi Utara
1091,95163,Malalayang Dua (II),71.71.09.1007,Malalayang,Kota,Manado,Sulawesi Utara
1092,95162,Malalayang Satu (I),71.71.09.1001,Malalayang,Kota,Manado,Sulawesi Utara
1093,95163,Malalayang Satu Barat,71.71.09.1006,Malalayang,Kota,Manado,Sulawesi Utara
1094,95163,Malalayang Satu Timur,71.71.09.1005,Malalayang,Kota,Manado,Sulawesi Utara
1095,95161,Winangun Dua,71.71.09.1009,Malalayang,Kota,Manado,Sulawesi Utara
1096,95161,Winangun Satu,71.71.09.1008,Malalayang,Kota,Manado,Sulawesi Utara
1097,95357,Bojonegoro,71.05.16.2005,Maesaan,Kabupaten,Minahasa Selatan,Sulawesi Utara
1098,95357,Kinamang,71.05.16.2007,Maesaan,Kabupaten,Minahasa Selatan,Sulawesi Utara
1099,95357,Kinamang Satu (Kinamang I),71.05.16.2009,Maesaan,Kabupaten,Minahasa Selatan,Sulawesi Utara
1100,95357,Kinaweruan,71.05.16.2003,Maesaan,Kabupaten,Minahasa Selatan,Sulawesi Utara
1101,95357,Liningaan,71.05.16.2004,Maesaan,Kabupaten,Minahasa Selatan,Sulawesi Utara
1102,95357,Lowian,71.05.16.2002,Maesaan,Kabupaten,Minahasa Selatan,Sulawesi Utara
1103,95357,Lowian Satu,71.05.16.2010,Maesaan,Kabupaten,Minahasa Selatan,Sulawesi Utara
1104,95357,Tambelang,71.05.16.2006,Maesaan,Kabupaten,Minahasa Selatan,Sulawesi Utara
1105,95357,Temboan,71.05.16.2008,Maesaan,Kabupaten,Minahasa Selatan,Sulawesi Utara
1106,95357,Tumani,71.05.16.2001,Maesaan,Kabupaten,Minahasa Selatan,Sulawesi Utara
1107,95357,Tumani Selatan,71.05.16.2012,Maesaan,Kabupaten,Minahasa Selatan,Sulawesi Utara
1108,95357,Tumani Utara,71.05.16.2011,Maesaan,Kabupaten,Minahasa Selatan,Sulawesi Utara
1109,95511,Bitung Barat Dua (II),71.72.07.1003,Maesa,Kota,Bitung,Sulawesi Utara
1110,95511,Bitung Barat Satu (I),71.72.07.1001,Maesa,Kota,Bitung,Sulawesi Utara
1111,95521,Bitung Tengah,71.72.07.1004,Maesa,Kota,Bitung,Sulawesi Utara
1112,95522,Bitung Timur,71.72.07.1005,Maesa,Kota,Bitung,Sulawesi Utara
1113,95523,Kakenturan Dua (Kekenturan Dua / II),71.72.07.1007,Maesa,Kota,Bitung,Sulawesi Utara
1114,95523,Kakenturan Satu (Kekenturan Satu / I),71.72.07.1006,Maesa,Kota,Bitung,Sulawesi Utara
1115,95512,Pakadoodan,71.72.07.1002,Maesa,Kota,Bitung,Sulawesi Utara
1116,95512,Pateten Tiga,71.72.07.1008,Maesa,Kota,Bitung,Sulawesi Utara
1117,95513,Kadoodan,71.72.02.1004,Madidir (Bitung Tengah),Kota,Bitung,Sulawesi Utara
1118,95516,Madidir Unet,71.72.02.1007,Madidir (Bitung Tengah),Kota,Bitung,Sulawesi Utara
1119,95515,Madidir Ure,71.72.02.1003,Madidir (Bitung Tengah),Kota,Bitung,Sulawesi Utara
1120,95514,Madidir Weru,71.72.02.1006,Madidir (Bitung Tengah),Kota,Bitung,Sulawesi Utara
1121,95541,Paceda,71.72.02.1002,Madidir (Bitung Tengah),Kota,Bitung,Sulawesi Utara
1122,95541,Wangurer Barat,71.72.02.1001,Madidir (Bitung Tengah),Kota,Bitung,Sulawesi Utara
1123,95541,Wangurer Timur,71.72.02.1009,Madidir (Bitung Tengah),Kota,Bitung,Sulawesi Utara
1124,95541,Wangurer Utara,71.72.02.1011,Madidir (Bitung Tengah),Kota,Bitung,Sulawesi Utara
1125,95737,Abak,71.01.14.2002,Lolayan,Kabupaten,Bolaang Mongondow,Sulawesi Utara
1126,95737,Bakan,71.01.14.2006,Lolayan,Kabupaten,Bolaang Mongondow,Sulawesi Utara
1127,95737,Bombanon,71.01.14.2001,Lolayan,Kabupaten,Bolaang Mongondow,Sulawesi Utara
1128,95737,Kopandakan II,71.01.14.2017,Lolayan,Kabupaten,Bolaang Mongondow,Sulawesi Utara
1129,95737,Lolayan,71.01.14.2009,Lolayan,Kabupaten,Bolaang Mongondow,Sulawesi Utara
1130,95737,Matali Baru,71.01.14.2005,Lolayan,Kabupaten,Bolaang Mongondow,Sulawesi Utara
1131,95737,Mengkang,71.01.14.2021,Lolayan,Kabupaten,Bolaang Mongondow,Sulawesi Utara
1132,95737,Mopait,71.01.14.2010,Lolayan,Kabupaten,Bolaang Mongondow,Sulawesi Utara
1133,95737,Mopusi,71.01.14.2004,Lolayan,Kabupaten,Bolaang Mongondow,Sulawesi Utara
1134,95737,Sanoyan Selatan (Tanoyan Selatan),71.01.14.2007,Lolayan,Kabupaten,Bolaang Mongondow,Sulawesi Utara
1135,95737,Tanoyan Utara,71.01.14.2019,Lolayan,Kabupaten,Bolaang Mongondow,Sulawesi Utara
1136,95737,Tapa Aog,71.01.14.2003,Lolayan,Kabupaten,Bolaang Mongondow,Sulawesi Utara
1137,95737,Tungoi I,71.01.14.2008,Lolayan,Kabupaten,Bolaang Mongondow,Sulawesi Utara
1138,95737,Tungoi II,71.01.14.2020,Lolayan,Kabupaten,Bolaang Mongondow,Sulawesi Utara
1139,95741,Baturapa,71.01.12.2014,Lolak,Kabupaten,Bolaang Mongondow,Sulawesi Utara
1140,95741,Baturapa II,71.01.12.2021,Lolak,Kabupaten,Bolaang Mongondow,Sulawesi Utara
1141,95741,Bumbung,71.01.12.2013,Lolak,Kabupaten,Bolaang Mongondow,Sulawesi Utara
1142,95741,Buntalo,71.01.12.2012,Lolak,Kabupaten,Bolaang Mongondow,Sulawesi Utara
1143,95741,Buntalo Selatan,71.01.12.2020,Lolak,Kabupaten,Bolaang Mongondow,Sulawesi Utara
1144,95741,Buntalo Timur,71.01.12.2019,Lolak,Kabupaten,Bolaang Mongondow,Sulawesi Utara
1145,95741,Diat,71.01.12.2022,Lolak,Kabupaten,Bolaang Mongondow,Sulawesi Utara
1146,95741,Dulangan,71.01.12.2025,Lolak,Kabupaten,Bolaang Mongondow,Sulawesi Utara
1147,95741,Labuan Uki,71.01.12.2008,Lolak,Kabupaten,Bolaang Mongondow,Sulawesi Utara
1148,95741,Lalow,71.01.12.2011,Lolak,Kabupaten,Bolaang Mongondow,Sulawesi Utara
1149,95741,Lolak,71.01.12.2005,Lolak,Kabupaten,Bolaang Mongondow,Sulawesi Utara
1150,95741,Lolak II,71.01.12.2018,Lolak,Kabupaten,Bolaang Mongondow,Sulawesi Utara
1151,95741,Lolak Tambolango,71.01.12.2017,Lolak,Kabupaten,Bolaang Mongondow,Sulawesi Utara
1152,95741,Mongkoinit,71.01.12.2007,Lolak,Kabupaten,Bolaang Mongondow,Sulawesi Utara
1153,95741,Mongkoinit Barat,71.01.12.2024,Lolak,Kabupaten,Bolaang Mongondow,Sulawesi Utara
1154,95741,Motabang,71.01.12.2006,Lolak,Kabupaten,Bolaang Mongondow,Sulawesi Utara
1155,95741,Padang Lalow,71.01.12.2026,Lolak,Kabupaten,Bolaang Mongondow,Sulawesi Utara
1156,95741,Pindol,71.01.12.2002,Lolak,Kabupaten,Bolaang Mongondow,Sulawesi Utara
1157,95741,Pindolili,71.01.12.2016,Lolak,Kabupaten,Bolaang Mongondow,Sulawesi Utara
1158,95741,Pinogalum Timur,71.01.12.2023,Lolak,Kabupaten,Bolaang Mongondow,Sulawesi Utara
1159,95741,Pinogaluman,71.01.12.2009,Lolak,Kabupaten,Bolaang Mongondow,Sulawesi Utara
1160,95741,Sauk,71.01.12.2010,Lolak,Kabupaten,Bolaang Mongondow,Sulawesi Utara
1161,95741,Solog,71.01.12.2003,Lolak,Kabupaten,Bolaang Mongondow,Sulawesi Utara
1162,95741,Tandu,71.01.12.2004,Lolak,Kabupaten,Bolaang Mongondow,Sulawesi Utara
1163,95741,Totabuan,71.01.12.2001,Lolak,Kabupaten,Bolaang Mongondow,Sulawesi Utara
1164,95741,Tuyat,71.01.12.2015,Lolak,Kabupaten,Bolaang Mongondow,Sulawesi Utara
1165,95875,Lirung,71.04.01.1005,Lirung,Kabupaten,Kepulauan Talaud,Sulawesi Utara
1166,95875,Lirung Matane,71.04.01.1024,Lirung,Kabupaten,Kepulauan Talaud,Sulawesi Utara
1167,95875,Lirung Satu (Lirung I),71.04.01.1011,Lirung,Kabupaten,Kepulauan Talaud,Sulawesi Utara
1168,95875,Musi,71.04.01.2007,Lirung,Kabupaten,Kepulauan Talaud,Sulawesi Utara
1169,95875,Sereh,71.04.01.2006,Lirung,Kabupaten,Kepulauan Talaud,Sulawesi Utara
1170,95875,Sereh I,71.04.01.2017,Lirung,Kabupaten,Kepulauan Talaud,Sulawesi Utara
1171,95875,Talolang,71.04.01.2015,Lirung,Kabupaten,Kepulauan Talaud,Sulawesi Utara
1172,95375,Ehe,71.06.07.2025,Likupang Timur,Kabupaten,Minahasa Utara,Sulawesi Utara
1173,95375,Kahuhu (Kahuku),71.06.07.2020,Likupang Timur,Kabupaten,Minahasa Utara,Sulawesi Utara
1174,95375,Kalinaun,71.06.07.2016,Likupang Timur,Kabupaten,Minahasa Utara,Sulawesi Utara
1175,95375,Kinunang,71.06.07.2023,Likupang Timur,Kabupaten,Minahasa Utara,Sulawesi Utara
1176,95375,Libas,71.06.07.2021,Likupang Timur,Kabupaten,Minahasa Utara,Sulawesi Utara
1177,95375,Lihunu,71.06.07.2019,Likupang Timur,Kabupaten,Minahasa Utara,Sulawesi Utara
1178,95375,Likupang I (Likupang Satu),71.06.07.2008,Likupang Timur,Kabupaten,Minahasa Utara,Sulawesi Utara
1179,95375,Likupang II (Likupang Dua),71.06.07.2009,Likupang Timur,Kabupaten,Minahasa Utara,Sulawesi Utara
1180,95375,Likupang Kampung Ambong,71.06.07.2022,Likupang Timur,Kabupaten,Minahasa Utara,Sulawesi Utara
1181,95375,Maen,71.06.07.2012,Likupang Timur,Kabupaten,Minahasa Utara,Sulawesi Utara
1182,95375,Marinsow (Marinsouw),71.06.07.2014,Likupang Timur,Kabupaten,Minahasa Utara,Sulawesi Utara
1183,95375,Pinenek,71.06.07.2018,Likupang Timur,Kabupaten,Minahasa Utara,Sulawesi Utara
1184,95375,Pulisan,71.06.07.2015,Likupang Timur,Kabupaten,Minahasa Utara,Sulawesi Utara
1185,95375,Resetlemen,71.06.07.2024,Likupang Timur,Kabupaten,Minahasa Utara,Sulawesi Utara
1186,95375,Rinondoran,71.06.07.2017,Likupang Timur,Kabupaten,Minahasa Utara,Sulawesi Utara
1187,95375,Sarawet (Serawet),71.06.07.2010,Likupang Timur,Kabupaten,Minahasa Utara,Sulawesi Utara
1188,95375,Wineru,71.06.07.2011,Likupang Timur,Kabupaten,Minahasa Utara,Sulawesi Utara
1189,95375,Winuri,71.06.07.2013,Likupang Timur,Kabupaten,Minahasa Utara,Sulawesi Utara
1190,95374,Batu,71.06.10.2006,Likupang Selatan,Kabupaten,Minahasa Utara,Sulawesi Utara
1191,95374,Kaweruan,71.06.10.2004,Likupang Selatan,Kabupaten,Minahasa Utara,Sulawesi Utara
1192,95374,Kokoleh Dua,71.06.10.2002,Likupang Selatan,Kabupaten,Minahasa Utara,Sulawesi Utara
1193,95374,Kokoleh Satu,71.06.10.2001,Likupang Selatan,Kabupaten,Minahasa Utara,Sulawesi Utara
1194,95374,Paslaten,71.06.10.2003,Likupang Selatan,Kabupaten,Minahasa Utara,Sulawesi Utara
1195,95374,Wangurer,71.06.10.2005,Likupang Selatan,Kabupaten,Minahasa Utara,Sulawesi Utara
1196,95374,Werot,71.06.10.2007,Likupang Selatan,Kabupaten,Minahasa Utara,Sulawesi Utara
1197,95377,Airbanua,71.06.06.2004,Likupang Barat,Kabupaten,Minahasa Utara,Sulawesi Utara
1198,95377,Bahoi,71.06.06.2011,Likupang Barat,Kabupaten,Minahasa Utara,Sulawesi Utara
1199,95377,Bulutui,71.06.06.2017,Likupang Barat,Kabupaten,Minahasa Utara,Sulawesi Utara
1200,95377,Gangga I,71.06.06.2001,Likupang Barat,Kabupaten,Minahasa Utara,Sulawesi Utara
1201,95377,Gangga II,71.06.06.2002,Likupang Barat,Kabupaten,Minahasa Utara,Sulawesi Utara
1202,95377,Jayakarsa,71.06.06.2009,Likupang Barat,Kabupaten,Minahasa Utara,Sulawesi Utara
1203,95377,Kinabuhutan,71.06.06.2019,Likupang Barat,Kabupaten,Minahasa Utara,Sulawesi Utara
1204,95377,Maliambao,71.06.06.2006,Likupang Barat,Kabupaten,Minahasa Utara,Sulawesi Utara
1205,95377,Mubune,71.06.06.2015,Likupang Barat,Kabupaten,Minahasa Utara,Sulawesi Utara
1206,95377,Munte,71.06.06.2016,Likupang Barat,Kabupaten,Minahasa Utara,Sulawesi Utara
1207,95377,Palaes,71.06.06.2005,Likupang Barat,Kabupaten,Minahasa Utara,Sulawesi Utara
1208,95377,Paputungan,71.06.06.2008,Likupang Barat,Kabupaten,Minahasa Utara,Sulawesi Utara
1209,95377,Serei,71.06.06.2013,Likupang Barat,Kabupaten,Minahasa Utara,Sulawesi Utara
1210,95377,Sonsilo,71.06.06.2014,Likupang Barat,Kabupaten,Minahasa Utara,Sulawesi Utara
1211,95377,Talise,71.06.06.2003,Likupang Barat,Kabupaten,Minahasa Utara,Sulawesi Utara
1212,95377,Tambun,71.06.06.2020,Likupang Barat,Kabupaten,Minahasa Utara,Sulawesi Utara
1213,95377,Tanah Putih,71.06.06.2010,Likupang Barat,Kabupaten,Minahasa Utara,Sulawesi Utara
1214,95377,Tarabitan,71.06.06.2012,Likupang Barat,Kabupaten,Minahasa Utara,Sulawesi Utara
1215,95377,Termaal,71.06.06.2007,Likupang Barat,Kabupaten,Minahasa Utara,Sulawesi Utara
1216,95377,Wawunian,71.06.06.2018,Likupang Barat,Kabupaten,Minahasa Utara,Sulawesi Utara
1217,95551,Batukota,71.72.08.1010,Lembeh Utara,Kota,Bitung,Sulawesi Utara
1218,95558,Binuang,71.72.08.1003,Lembeh Utara,Kota,Bitung,Sulawesi Utara
1219,95551,Gunung Woka (Batu Woka),71.72.08.1009,Lembeh Utara,Kota,Bitung,Sulawesi Utara
1220,95551,Kareko,71.72.08.1008,Lembeh Utara,Kota,Bitung,Sulawesi Utara
1221,95559,Lirang,71.72.08.1005,Lembeh Utara,Kota,Bitung,Sulawesi Utara
1222,95555,Mawali,71.72.08.1001,Lembeh Utara,Kota,Bitung,Sulawesi Utara
1223,95559,Motto,71.72.08.1004,Lembeh Utara,Kota,Bitung,Sulawesi Utara
1224,95551,Nusu,71.72.08.1007,Lembeh Utara,Kota,Bitung,Sulawesi Utara
1225,95557,Pintukota,71.72.08.1002,Lembeh Utara,Kota,Bitung,Sulawesi Utara
1226,95551,Posokan,71.72.08.1006,Lembeh Utara,Kota,Bitung,Sulawesi Utara
1227,95552,Batulubang,71.72.01.1003,Lembeh Selatan (Bitung Selatan),Kota,Bitung,Sulawesi Utara
1228,95551,Dorbolaang (Dorbolaan),71.72.01.1011,Lembeh Selatan (Bitung Selatan),Kota,Bitung,Sulawesi Utara
1229,95558,Kelapa Dua,71.72.01.1016,Lembeh Selatan (Bitung Selatan),Kota,Bitung,Sulawesi Utara
1230,95556,Pancuran,71.72.01.1006,Lembeh Selatan (Bitung Selatan),Kota,Bitung,Sulawesi Utara
1231,95554,Papusungan,71.72.01.1004,Lembeh Selatan (Bitung Selatan),Kota,Bitung,Sulawesi Utara
1232,95553,Pasir Panjang (Pasirpanjang),71.72.01.1001,Lembeh Selatan (Bitung Selatan),Kota,Bitung,Sulawesi Utara
1233,95551,Paudean,71.72.01.1002,Lembeh Selatan (Bitung Selatan),Kota,Bitung,Sulawesi Utara
1234,95685,Atep Oki,71.02.05.2003,Lembean Timur,Kabupaten,Minahasa,Sulawesi Utara
1235,95685,Kaleosan,71.02.05.2005,Lembean Timur,Kabupaten,Minahasa,Sulawesi Utara
1236,95685,Kapataran,71.02.05.2001,Lembean Timur,Kabupaten,Minahasa,Sulawesi Utara
1237,95685,Kapataran Satu,71.02.05.2010,Lembean Timur,Kabupaten,Minahasa,Sulawesi Utara
1238,95685,Karor,71.02.05.2004,Lembean Timur,Kabupaten,Minahasa,Sulawesi Utara
1239,95685,Kayuroya,71.02.05.2007,Lembean Timur,Kabupaten,Minahasa,Sulawesi Utara
1240,95685,Parentek,71.02.05.2009,Lembean Timur,Kabupaten,Minahasa,Sulawesi Utara
1241,95685,Seretan,71.02.05.2002,Lembean Timur,Kabupaten,Minahasa,Sulawesi Utara
1242,95685,Seretan Timur,71.02.05.2008,Lembean Timur,Kabupaten,Minahasa,Sulawesi Utara
1243,95685,Watulaney,71.02.05.2006,Lembean Timur,Kabupaten,Minahasa,Sulawesi Utara
1244,95685,Watulaney Amian,71.02.05.2011,Lembean Timur,Kabupaten,Minahasa,Sulawesi Utara
1245,95697,Karumenga,71.02.19.2003,Langowan Utara,Kabupaten,Minahasa,Sulawesi Utara
1246,95697,Taraitak,71.02.19.2002,Langowan Utara,Kabupaten,Minahasa,Sulawesi Utara
1247,95697,Taraitak Satu,71.02.19.2008,Langowan Utara,Kabupaten,Minahasa,Sulawesi Utara
1248,95697,Tempang (Tempang I),71.02.19.2005,Langowan Utara,Kabupaten,Minahasa,Sulawesi Utara
1249,95697,Tempang II,71.02.19.2006,Langowan Utara,Kabupaten,Minahasa,Sulawesi Utara
1250,95697,Tempang III,71.02.19.2007,Langowan Utara,Kabupaten,Minahasa,Sulawesi Utara
1251,95697,Toraget,71.02.19.2004,Langowan Utara,Kabupaten,Minahasa,Sulawesi Utara
1252,95697,Walantakan,71.02.19.2001,Langowan Utara,Kabupaten,Minahasa,Sulawesi Utara
1253,95696,Amongena Dua (II),71.02.09.2009,Langowan Timur,Kabupaten,Minahasa,Sulawesi Utara
1254,95696,Amongena Satu (I),71.02.09.2008,Langowan Timur,Kabupaten,Minahasa,Sulawesi Utara
1255,95696,Amongena Tiga,71.02.09.2018,Langowan Timur,Kabupaten,Minahasa,Sulawesi Utara
1256,95696,Karondoran,71.02.09.2006,Langowan Timur,Kabupaten,Minahasa,Sulawesi Utara
1257,95696,Sumarayar,71.02.09.2010,Langowan Timur,Kabupaten,Minahasa,Sulawesi Utara
1258,95696,Teep,71.02.09.2005,Langowan Timur,Kabupaten,Minahasa,Sulawesi Utara
1259,95696,Waleure,71.02.09.2007,Langowan Timur,Kabupaten,Minahasa,Sulawesi Utara
1260,95696,Wolaang,71.02.09.2004,Langowan Timur,Kabupaten,Minahasa,Sulawesi Utara
1261,95695,Atep,71.02.17.2002,Langowan Selatan,Kabupaten,Minahasa,Sulawesi Utara
1262,95695,Atep Satu,71.02.17.2010,Langowan Selatan,Kabupaten,Minahasa,Sulawesi Utara
1263,95695,Kaayuran Atas,71.02.17.2007,Langowan Selatan,Kabupaten,Minahasa,Sulawesi Utara
1264,95695,Kaayuran Bawah,71.02.17.2008,Langowan Selatan,Kabupaten,Minahasa,Sulawesi Utara
1265,95695,Kawatak,71.02.17.2009,Langowan Selatan,Kabupaten,Minahasa,Sulawesi Utara
1266,95695,Manembo,71.02.17.2003,Langowan Selatan,Kabupaten,Minahasa,Sulawesi Utara
1267,95695,Palamba,71.02.17.2001,Langowan Selatan,Kabupaten,Minahasa,Sulawesi Utara
1268,95695,Rumbia,71.02.17.2005,Langowan Selatan,Kabupaten,Minahasa,Sulawesi Utara
1269,95695,Temboan,71.02.17.2004,Langowan Selatan,Kabupaten,Minahasa,Sulawesi Utara
1270,95695,Winebetan,71.02.17.2006,Langowan Selatan,Kabupaten,Minahasa,Sulawesi Utara
1271,95694,Ampreng,71.02.10.2005,Langowan Barat,Kabupaten,Minahasa,Sulawesi Utara
1272,95694,Kopiwangker,71.02.10.2014,Langowan Barat,Kabupaten,Minahasa,Sulawesi Utara
1273,95694,Koyawas,71.02.10.2001,Langowan Barat,Kabupaten,Minahasa,Sulawesi Utara
1274,95694,Lowian,71.02.10.2010,Langowan Barat,Kabupaten,Minahasa,Sulawesi Utara
1275,95694,Noongan (Noongan I),71.02.10.2003,Langowan Barat,Kabupaten,Minahasa,Sulawesi Utara
1276,95694,Noongan Dua (Noongan II),71.02.10.2015,Langowan Barat,Kabupaten,Minahasa,Sulawesi Utara
1277,95694,Noongan Tiga (Noongan III),71.02.10.2016,Langowan Barat,Kabupaten,Minahasa,Sulawesi Utara
1278,95694,Paslateh (Paslaten),71.02.10.2009,Langowan Barat,Kabupaten,Minahasa,Sulawesi Utara
1279,95694,Raranon,71.02.10.2018,Langowan Barat,Kabupaten,Minahasa,Sulawesi Utara
1280,95694,Raringis,71.02.10.2004,Langowan Barat,Kabupaten,Minahasa,Sulawesi Utara
1281,95694,Raringis Selatan,71.02.10.2020,Langowan Barat,Kabupaten,Minahasa,Sulawesi Utara
1282,95694,Raringis Utara,71.02.10.2019,Langowan Barat,Kabupaten,Minahasa,Sulawesi Utara
1283,95694,Tounelet,71.02.10.2011,Langowan Barat,Kabupaten,Minahasa,Sulawesi Utara
1284,95694,Tumaratas (Tumaratas I),71.02.10.2006,Langowan Barat,Kabupaten,Minahasa,Sulawesi Utara
1285,95694,Tumaratas Dua (Tumaratas II),71.02.10.2017,Langowan Barat,Kabupaten,Minahasa,Sulawesi Utara
1286,95694,Walewangko,71.02.10.2002,Langowan Barat,Kabupaten,Minahasa,Sulawesi Utara
1287,95956,Kumelembuai,71.05.15.2002,Kumelembuai,Kabupaten,Minahasa Selatan,Sulawesi Utara
1288,95956,Kumelembuai Atas,71.05.15.2003,Kumelembuai,Kabupaten,Minahasa Selatan,Sulawesi Utara
1289,95956,Kumelembuai Dua,71.05.15.2011,Kumelembuai,Kabupaten,Minahasa Selatan,Sulawesi Utara
1290,95956,Kumelembuai Satu,71.05.15.2004,Kumelembuai,Kabupaten,Minahasa Selatan,Sulawesi Utara
1291,95956,Lolombulan Makasili,71.05.15.2015,Kumelembuai,Kabupaten,Minahasa Selatan,Sulawesi Utara
1292,95956,Makasili,71.05.15.2007,Kumelembuai,Kabupaten,Minahasa Selatan,Sulawesi Utara
1293,95956,Malola,71.05.15.2005,Kumelembuai,Kabupaten,Minahasa Selatan,Sulawesi Utara
1294,95956,Malola I (Malola Satu),71.05.15.2006,Kumelembuai,Kabupaten,Minahasa Selatan,Sulawesi Utara
1295,95713,Biga,71.74.01.1005,Kotamobagu Utara,Kota,Kotamobagu,Sulawesi Utara
1296,95714,Bilalang Dua (Bilalang II),71.74.01.2002,Kotamobagu Utara,Kota,Kotamobagu,Sulawesi Utara
1297,95714,Bilalang Satu (Bilalang I),71.74.01.2001,Kotamobagu Utara,Kota,Kotamobagu,Sulawesi Utara
1298,95714,Genggulang,71.74.01.1007,Kotamobagu Utara,Kota,Kotamobagu,Sulawesi Utara
1299,95714,Pontodon,71.74.01.2003,Kotamobagu Utara,Kota,Kotamobagu,Sulawesi Utara
1300,95714,Pontodon Timur,71.74.01.2008,Kotamobagu Utara,Kota,Kotamobagu,Sulawesi Utara
1301,95714,Sia,71.74.01.2004,Kotamobagu Utara,Kota,Kotamobagu,Sulawesi Utara
1302,95714,Upai,71.74.01.1006,Kotamobagu Utara,Kota,Kotamobagu,Sulawesi Utara
1303,95719,Kobo Besar,71.74.02.1008,Kotamobagu Timur,Kota,Kotamobagu,Sulawesi Utara
1304,95719,Kobo Kecil,71.74.02.2002,Kotamobagu Timur,Kota,Kotamobagu,Sulawesi Utara
1305,95712,Kotobangun (Kotobangon / Kotabangon),71.74.02.1003,Kotamobagu Timur,Kota,Kotamobagu,Sulawesi Utara
1306,95718,Matali,71.74.02.1006,Kotamobagu Timur,Kota,Kotamobagu,Sulawesi Utara
1307,95719,Motoboi Besar,71.74.02.1007,Kotamobagu Timur,Kota,Kotamobagu,Sulawesi Utara
1308,95719,Moyag,71.74.02.2001,Kotamobagu Timur,Kota,Kotamobagu,Sulawesi Utara
1309,95719,Moyag Tampoan,71.74.02.2009,Kotamobagu Timur,Kota,Kotamobagu,Sulawesi Utara
1310,95719,Moyag Todulan,71.74.02.2010,Kotamobagu Timur,Kota,Kotamobagu,Sulawesi Utara
1311,95718,Sinindian,71.74.02.1005,Kotamobagu Timur,Kota,Kotamobagu,Sulawesi Utara
1312,95716,Tumubui / Tomobui (Tumobuy),71.74.02.1004,Kotamobagu Timur,Kota,Kotamobagu,Sulawesi Utara
1313,95717,Bungko,71.74.03.2004,Kotamobagu Selatan,Kota,Kotamobagu,Sulawesi Utara
1314,95717,Kopandakan Satu (Kopandakan I),71.74.03.2005,Kotamobagu Selatan,Kota,Kotamobagu,Sulawesi Utara
1315,95717,Mongondow,71.74.03.1008,Kotamobagu Selatan,Kota,Kotamobagu,Sulawesi Utara
1316,95717,Motoboi Kecil,71.74.03.1007,Kotamobagu Selatan,Kota,Kotamobagu,Sulawesi Utara
1317,95717,Pombundayan (Pobundayan),71.74.03.1009,Kotamobagu Selatan,Kota,Kotamobagu,Sulawesi Utara
1318,95717,Poyowa Besar Dua (Poyowa Besar II),71.74.03.2002,Kotamobagu Selatan,Kota,Kotamobagu,Sulawesi Utara
1319,95717,Poyowa Besar Satu (Poyowa Besar I),71.74.03.2001,Kotamobagu Selatan,Kota,Kotamobagu,Sulawesi Utara
1320,95717,Poyowa Kecil,71.74.03.2006,Kotamobagu Selatan,Kota,Kotamobagu,Sulawesi Utara
1321,95717,Tabang,71.74.03.2003,Kotamobagu Selatan,Kota,Kotamobagu,Sulawesi Utara
1322,95715,Gogagoman,71.74.04.1004,Kotamobagu Barat,Kota,Kotamobagu,Sulawesi Utara
1323,95711,Kotamobagu,71.74.04.1005,Kotamobagu Barat,Kota,Kotamobagu,Sulawesi Utara
1324,95716,Mogolaing,71.74.04.1003,Kotamobagu Barat,Kota,Kotamobagu,Sulawesi Utara
1325,95716,Molinow,71.74.04.1002,Kotamobagu Barat,Kota,Kotamobagu,Sulawesi Utara
1326,95716,Mongkonai,71.74.04.1001,Kotamobagu Barat,Kota,Kotamobagu,Sulawesi Utara
1327,95716,Mongkonai Barat,71.74.04.1006,Kotamobagu Barat,Kota,Kotamobagu,Sulawesi Utara
1328,95782,Bukaka,71.10.02.2005,Kotabunan,Kabupaten,Bolaang Mongondow Timur,Sulawesi Utara
1329,95782,Bulawan,71.10.02.2003,Kotabunan,Kabupaten,Bolaang Mongondow Timur,Sulawesi Utara
1330,95782,Bulawan Dua,71.10.02.2012,Kotabunan,Kabupaten,Bolaang Mongondow Timur,Sulawesi Utara
1331,95782,Bulawan Satu,71.10.02.2011,Kotabunan,Kabupaten,Bolaang Mongondow Timur,Sulawesi Utara
1332,95782,Buyat,71.10.02.2002,Kotabunan,Kabupaten,Bolaang Mongondow Timur,Sulawesi Utara
1333,95782,Buyat Barat,71.10.02.2010,Kotabunan,Kabupaten,Bolaang Mongondow Timur,Sulawesi Utara
1334,95782,Buyat I,71.10.02.2006,Kotabunan,Kabupaten,Bolaang Mongondow Timur,Sulawesi Utara
1335,95782,Buyat II,71.10.02.2007,Kotabunan,Kabupaten,Bolaang Mongondow Timur,Sulawesi Utara
1336,95782,Buyat Selatan,71.10.02.2008,Kotabunan,Kabupaten,Bolaang Mongondow Timur,Sulawesi Utara
1337,95782,Buyat Tengah,71.10.02.2009,Kotabunan,Kabupaten,Bolaang Mongondow Timur,Sulawesi Utara
1338,95782,Kotabunan,71.10.02.2001,Kotabunan,Kabupaten,Bolaang Mongondow Timur,Sulawesi Utara
1339,95782,Kotabunan Barat,71.10.02.2014,Kotabunan,Kabupaten,Bolaang Mongondow Timur,Sulawesi Utara
1340,95782,Kotabunan Selatan,71.10.02.2013,Kotabunan,Kabupaten,Bolaang Mongondow Timur,Sulawesi Utara
1341,95782,Paret,71.10.02.2004,Kotabunan,Kabupaten,Bolaang Mongondow Timur,Sulawesi Utara
1342,95782,Paret Timur,71.10.02.2015,Kotabunan,Kabupaten,Bolaang Mongondow Timur,Sulawesi Utara
1343,95684,Kalawiran,71.02.04.2011,Kombi,Kabupaten,Minahasa,Sulawesi Utara
1344,95684,Kayubesi (Kayu Besi),71.02.04.2003,Kombi,Kabupaten,Minahasa,Sulawesi Utara
1345,95684,Kinaselon (Kinaleosan),71.02.04.2009,Kombi,Kabupaten,Minahasa,Sulawesi Utara
1346,95684,Kolongan,71.02.04.2007,Kombi,Kabupaten,Minahasa,Sulawesi Utara
1347,95684,Kolongan I,71.02.04.2012,Kombi,Kabupaten,Minahasa,Sulawesi Utara
1348,95684,Kombi,71.02.04.2005,Kombi,Kabupaten,Minahasa,Sulawesi Utara
1349,95684,Lalumpe,71.02.04.2002,Kombi,Kabupaten,Minahasa,Sulawesi Utara
1350,95684,Makalisung,71.02.04.2010,Kombi,Kabupaten,Minahasa,Sulawesi Utara
1351,95684,Ranowangko II (Ranowangko Dua),71.02.04.2004,Kombi,Kabupaten,Minahasa,Sulawesi Utara
1352,95684,Rerer,71.02.04.2008,Kombi,Kabupaten,Minahasa,Sulawesi Utara
1353,95684,Rerer I,71.02.04.2013,Kombi,Kabupaten,Minahasa,Sulawesi Utara
1354,95684,Sawangan,71.02.04.2006,Kombi,Kabupaten,Minahasa,Sulawesi Utara
1355,95684,Tulap,71.02.04.2001,Kombi,Kabupaten,Minahasa,Sulawesi Utara
1356,95841,Kawio,71.03.25.2002,Kepulauan Marore,Kabupaten,Kepulauan Sangihe,Sulawesi Utara
1357,95841,Marore,71.03.25.2001,Kepulauan Marore,Kabupaten,Kepulauan Sangihe,Sulawesi Utara
1358,95841,Matutuang,71.03.25.2003,Kepulauan Marore,Kabupaten,Kepulauan Sangihe,Sulawesi Utara
1359,95852,Kawaluso,71.03.16.2008,Kendahe,Kabupaten,Kepulauan Sangihe,Sulawesi Utara
1360,95852,Kendahe I (Kendahe Satu),71.03.16.2001,Kendahe,Kabupaten,Kepulauan Sangihe,Sulawesi Utara
1361,95852,Kendahe II (Kendahe Dua),71.03.16.2002,Kendahe,Kabupaten,Kepulauan Sangihe,Sulawesi Utara
1362,95852,Lipang (Lipaeng),71.03.16.2007,Kendahe,Kabupaten,Kepulauan Sangihe,Sulawesi Utara
1363,95852,Mohong Sawang (Mohongsawang),71.03.16.2006,Kendahe,Kabupaten,Kepulauan Sangihe,Sulawesi Utara
1364,95852,Pempalaraeng,71.03.16.2005,Kendahe,Kabupaten,Kepulauan Sangihe,Sulawesi Utara
1365,95852,Talawid,71.03.16.2003,Kendahe,Kabupaten,Kepulauan Sangihe,Sulawesi Utara
1366,95852,Tariang Lama (Tarianglama),71.03.16.2004,Kendahe,Kabupaten,Kepulauan Sangihe,Sulawesi Utara
1367,95379,Kema I (Kema Satu),71.06.01.2007,Kema,Kabupaten,Minahasa Utara,Sulawesi Utara
1368,95379,Kema II (Kema Dua),71.06.01.2006,Kema,Kabupaten,Minahasa Utara,Sulawesi Utara
1369,95379,Kema III (Kema Tiga),71.06.01.2005,Kema,Kabupaten,Minahasa Utara,Sulawesi Utara
1370,95379,Lansot,71.06.01.2004,Kema,Kabupaten,Minahasa Utara,Sulawesi Utara
1371,95379,Lilang,71.06.01.2003,Kema,Kabupaten,Minahasa Utara,Sulawesi Utara
1372,95379,Makalisung,71.06.01.2001,Kema,Kabupaten,Minahasa Utara,Sulawesi Utara
1373,95379,Tontaalete Rok-rok,71.06.01.2009,Kema,Kabupaten,Minahasa Utara,Sulawesi Utara
1374,95379,Tontalete,71.06.01.2008,Kema,Kabupaten,Minahasa Utara,Sulawesi Utara
1375,95379,Waleo,71.06.01.2002,Kema,Kabupaten,Minahasa Utara,Sulawesi Utara
1376,95379,Waleo Dua,71.06.01.2010,Kema,Kabupaten,Minahasa Utara,Sulawesi Utara
1377,95699,Kiawa Dua,71.02.21.2008,Kawangkoan Utara,Kabupaten,Minahasa,Sulawesi Utara
1378,95699,Kiawa Dua Barat,71.02.21.2010,Kawangkoan Utara,Kabupaten,Minahasa,Sulawesi Utara
1379,95699,Kiawa Dua Timur,71.02.21.2009,Kawangkoan Utara,Kabupaten,Minahasa,Sulawesi Utara
1380,95699,Kiawa Satu,71.02.21.2005,Kawangkoan Utara,Kabupaten,Minahasa,Sulawesi Utara
1381,95699,Kiawa Satu Barat,71.02.21.2007,Kawangkoan Utara,Kabupaten,Minahasa,Sulawesi Utara
1382,95699,Kiawa Satu Utara,71.02.21.2006,Kawangkoan Utara,Kabupaten,Minahasa,Sulawesi Utara
1383,95699,Talikuran,71.02.21.1001,Kawangkoan Utara,Kabupaten,Minahasa,Sulawesi Utara
1384,95699,Talikuran Barat,71.02.21.1003,Kawangkoan Utara,Kabupaten,Minahasa,Sulawesi Utara
1385,95699,Talikuran Utara,71.02.21.1002,Kawangkoan Utara,Kabupaten,Minahasa,Sulawesi Utara
1386,95699,Uner,71.02.21.1004,Kawangkoan Utara,Kabupaten,Minahasa,Sulawesi Utara
1387,95692,Kanonang Dua,71.02.22.2004,Kawangkoan Barat,Kabupaten,Minahasa,Sulawesi Utara
1388,95692,Kanonang Empat,71.02.22.2005,Kawangkoan Barat,Kabupaten,Minahasa,Sulawesi Utara
1389,95692,Kanonang Lima,71.02.22.2006,Kawangkoan Barat,Kabupaten,Minahasa,Sulawesi Utara
1390,95692,Kanonang Satu,71.02.22.2003,Kawangkoan Barat,Kabupaten,Minahasa,Sulawesi Utara
1391,95692,Kayuum (Kayuuwi),71.02.22.2001,Kawangkoan Barat,Kabupaten,Minahasa,Sulawesi Utara
1392,95692,Kayuuwi Satu,71.02.22.2002,Kawangkoan Barat,Kabupaten,Minahasa,Sulawesi Utara
1393,95692,Ranolambot,71.02.22.2010,Kawangkoan Barat,Kabupaten,Minahasa,Sulawesi Utara
1394,95692,Tombasian Atas,71.02.22.2007,Kawangkoan Barat,Kabupaten,Minahasa,Sulawesi Utara
1395,95692,Tombasian Atas Satu,71.02.22.2008,Kawangkoan Barat,Kabupaten,Minahasa,Sulawesi Utara
1396,95692,Tombasian Bawah,71.02.22.2009,Kawangkoan Barat,Kabupaten,Minahasa,Sulawesi Utara
1397,95690,Kanonang Tiga,71.02.12.2016,Kawangkoan,Kabupaten,Minahasa,Sulawesi Utara
1398,95690,Kinali,71.02.12.1011,Kawangkoan,Kabupaten,Minahasa,Sulawesi Utara
1399,95690,Kinali Satu,71.02.12.1029,Kawangkoan,Kabupaten,Minahasa,Sulawesi Utara
1400,95690,Sendangan,71.02.12.1005,Kawangkoan,Kabupaten,Minahasa,Sulawesi Utara
1401,95690,Sendangan Selatan,71.02.12.1019,Kawangkoan,Kabupaten,Minahasa,Sulawesi Utara
1402,95690,Sendangan Tengah,71.02.12.1020,Kawangkoan,Kabupaten,Minahasa,Sulawesi Utara
1403,95690,Tondegesan,71.02.12.2012,Kawangkoan,Kabupaten,Minahasa,Sulawesi Utara
1404,95690,Tondegesan I,71.02.12.2030,Kawangkoan,Kabupaten,Minahasa,Sulawesi Utara
1405,95690,Tondegesan II,71.02.12.2031,Kawangkoan,Kabupaten,Minahasa,Sulawesi Utara
1406,95690,Uner Satu,71.02.12.1028,Kawangkoan,Kabupaten,Minahasa,Sulawesi Utara
1407,95372,Kaasar,71.06.02.2007,Kauditan,Kabupaten,Minahasa Utara,Sulawesi Utara
1408,95372,Kaima,71.06.02.2005,Kauditan,Kabupaten,Minahasa Utara,Sulawesi Utara
1409,95372,Karegesan,71.06.02.2006,Kauditan,Kabupaten,Minahasa Utara,Sulawesi Utara
1410,95372,Kauditan I (Kauditan Satu),71.06.02.2002,Kauditan,Kabupaten,Minahasa Utara,Sulawesi Utara
1411,95372,Kauditan II (Kauditan Dua),71.06.02.2001,Kauditan,Kabupaten,Minahasa Utara,Sulawesi Utara
1412,95372,Kawiley (Kawilei),71.06.02.2003,Kauditan,Kabupaten,Minahasa Utara,Sulawesi Utara
1413,95372,Lembean,71.06.02.2008,Kauditan,Kabupaten,Minahasa Utara,Sulawesi Utara
1414,95372,Paslaten,71.06.02.2009,Kauditan,Kabupaten,Minahasa Utara,Sulawesi Utara
1415,95372,Treman,71.06.02.2004,Kauditan,Kabupaten,Minahasa Utara,Sulawesi Utara
1416,95372,Tumaluntung,71.06.02.2010,Kauditan,Kabupaten,Minahasa Utara,Sulawesi Utara
1417,95372,Watudambo,71.06.02.2011,Kauditan,Kabupaten,Minahasa Utara,Sulawesi Utara
1418,95372,Watudambo Dua,71.06.02.2012,Kauditan,Kabupaten,Minahasa Utara,Sulawesi Utara
1419,95874,Alude,71.04.12.2004,Kalongan,Kabupaten,Kepulauan Talaud,Sulawesi Utara
1420,95874,Kalongan,71.04.12.2001,Kalongan,Kabupaten,Kepulauan Talaud,Sulawesi Utara
1421,95874,Kalongan Selatan,71.04.12.2003,Kalongan,Kabupaten,Kepulauan Talaud,Sulawesi Utara
1422,95874,Kalongan Utara,71.04.12.2002,Kalongan,Kabupaten,Kepulauan Talaud,Sulawesi Utara
1423,95874,Musi I,71.04.12.2005,Kalongan,Kabupaten,Kepulauan Talaud,Sulawesi Utara
1424,95378,Kalawat,71.06.08.2010,Kalawat,Kabupaten,Minahasa Utara,Sulawesi Utara
1425,95378,Kaleosan,71.06.08.2006,Kalawat,Kabupaten,Minahasa Utara,Sulawesi Utara
1426,95378,Kawangkoan,71.06.08.2003,Kalawat,Kabupaten,Minahasa Utara,Sulawesi Utara
1427,95378,Kawangkoan Baru,71.06.08.2009,Kalawat,Kabupaten,Minahasa Utara,Sulawesi Utara
1428,95378,Kolongan,71.06.08.2004,Kalawat,Kabupaten,Minahasa Utara,Sulawesi Utara
1429,95378,Kolongan Tetempangan,71.06.08.2008,Kalawat,Kabupaten,Minahasa Utara,Sulawesi Utara
1430,95378,Kuwil,71.06.08.2002,Kalawat,Kabupaten,Minahasa Utara,Sulawesi Utara
1431,95378,Maumbi,71.06.08.2005,Kalawat,Kabupaten,Minahasa Utara,Sulawesi Utara
1432,95378,Suwaan,71.06.08.2001,Kalawat,Kabupaten,Minahasa Utara,Sulawesi Utara
1433,95378,Watutumou (Watutumou I),71.06.08.2007,Kalawat,Kabupaten,Minahasa Utara,Sulawesi Utara
1434,95378,Watutumou Dua (Watutumou II),71.06.08.2011,Kalawat,Kabupaten,Minahasa Utara,Sulawesi Utara
1435,95378,Watutumou Tiga (Watutumou III),71.06.08.2012,Kalawat,Kabupaten,Minahasa Utara,Sulawesi Utara
1436,95682,Bukit Tinggi,71.02.20.2010,Kakas Barat,Kabupaten,Minahasa,Sulawesi Utara
1437,95682,Kalawiran,71.02.20.2006,Kakas Barat,Kabupaten,Minahasa,Sulawesi Utara
1438,95682,Panasen,71.02.20.2002,Kakas Barat,Kabupaten,Minahasa,Sulawesi Utara
1439,95682,Passo (Paso),71.02.20.2005,Kakas Barat,Kabupaten,Minahasa,Sulawesi Utara
1440,95682,Simbel,71.02.20.2008,Kakas Barat,Kabupaten,Minahasa,Sulawesi Utara
1441,95682,Totolan,71.02.20.2004,Kakas Barat,Kabupaten,Minahasa,Sulawesi Utara
1442,95682,Touliang,71.02.20.2007,Kakas Barat,Kabupaten,Minahasa,Sulawesi Utara
1443,95682,Tountimomor,71.02.20.2003,Kakas Barat,Kabupaten,Minahasa,Sulawesi Utara
1444,95682,Wailang,71.02.20.2009,Kakas Barat,Kabupaten,Minahasa,Sulawesi Utara
1445,95682,Wasian,71.02.20.2001,Kakas Barat,Kabupaten,Minahasa,Sulawesi Utara
1446,95680,Kaweng,71.02.06.2019,Kakas,Kabupaten,Minahasa,Sulawesi Utara
1447,95680,Kayuwatu,71.02.06.2003,Kakas,Kabupaten,Minahasa,Sulawesi Utara
1448,95680,Mahembang,71.02.06.2023,Kakas,Kabupaten,Minahasa,Sulawesi Utara
1449,95680,Makalelon,71.02.06.2021,Kakas,Kabupaten,Minahasa,Sulawesi Utara
1450,95680,Pahaleten,71.02.06.2015,Kakas,Kabupaten,Minahasa,Sulawesi Utara
1451,95680,Paslaten,71.02.06.2018,Kakas,Kabupaten,Minahasa,Sulawesi Utara
1452,95680,Rinondor,71.02.06.2005,Kakas,Kabupaten,Minahasa,Sulawesi Utara
1453,95680,Sendangan,71.02.06.2006,Kakas,Kabupaten,Minahasa,Sulawesi Utara
1454,95680,Talikuran,71.02.06.2016,Kakas,Kabupaten,Minahasa,Sulawesi Utara
1455,95680,Toulimembet,71.02.06.2020,Kakas,Kabupaten,Minahasa,Sulawesi Utara
1456,95680,Tounelet,71.02.06.2017,Kakas,Kabupaten,Minahasa,Sulawesi Utara
1457,95680,Tumpaan,71.02.06.2022,Kakas,Kabupaten,Minahasa,Sulawesi Utara
1458,95680,Wineru,71.02.06.2004,Kakas,Kabupaten,Minahasa,Sulawesi Utara
1459,95765,Bigo,71.08.05.2003,Kaidipang,Kabupaten,Bolaang Mongondow Utara,Sulawesi Utara
1460,95765,Bigo Selatan,71.08.05.2012,Kaidipang,Kabupaten,Bolaang Mongondow Utara,Sulawesi Utara
1461,95765,Boroko,71.08.05.2002,Kaidipang,Kabupaten,Bolaang Mongondow Utara,Sulawesi Utara
1462,95765,Boroko Timur,71.08.05.2008,Kaidipang,Kabupaten,Bolaang Mongondow Utara,Sulawesi Utara
1463,95765,Boroko Utara,71.08.05.2011,Kaidipang,Kabupaten,Bolaang Mongondow Utara,Sulawesi Utara
1464,95765,Gihang,71.08.05.2010,Kaidipang,Kabupaten,Bolaang Mongondow Utara,Sulawesi Utara
1465,95765,Inomunga,71.08.05.2006,Kaidipang,Kabupaten,Bolaang Mongondow Utara,Sulawesi Utara
1466,95765,Inomunga Utara,71.08.05.2014,Kaidipang,Kabupaten,Bolaang Mongondow Utara,Sulawesi Utara
1467,95765,Komus Dua (II),71.08.05.2007,Kaidipang,Kabupaten,Bolaang Mongondow Utara,Sulawesi Utara
1468,95765,Komus Dua Timur,71.08.05.2015,Kaidipang,Kabupaten,Bolaang Mongondow Utara,Sulawesi Utara
1469,95765,Kuala,71.08.05.2004,Kaidipang,Kabupaten,Bolaang Mongondow Utara,Sulawesi Utara
1470,95765,Kuala Utara,71.08.05.2009,Kaidipang,Kabupaten,Bolaang Mongondow Utara,Sulawesi Utara
1471,95765,Pontak,71.08.05.2005,Kaidipang,Kabupaten,Bolaang Mongondow Utara,Sulawesi Utara
1472,95765,Soligir,71.08.05.2013,Kaidipang,Kabupaten,Bolaang Mongondow Utara,Sulawesi Utara
1473,95765,Solo,71.08.05.2001,Kaidipang,Kabupaten,Bolaang Mongondow Utara,Sulawesi Utara
1474,95873,Bulude,71.04.06.2007,Kabaruan,Kabupaten,Kepulauan Talaud,Sulawesi Utara
1475,95873,Bulude Selatan,71.04.06.2020,Kabaruan,Kabupaten,Kepulauan Talaud,Sulawesi Utara
1476,95873,Kabaruan,71.04.06.2009,Kabaruan,Kabupaten,Kepulauan Talaud,Sulawesi Utara
1477,95873,Kabaruan Timur,71.04.06.2017,Kabaruan,Kabupaten,Kepulauan Talaud,Sulawesi Utara
1478,95873,Kordakel,71.04.06.2011,Kabaruan,Kabupaten,Kepulauan Talaud,Sulawesi Utara
1479,95873,Mangaran,71.04.06.2010,Kabaruan,Kabupaten,Kepulauan Talaud,Sulawesi Utara
1480,95873,Pangeran,71.04.06.2001,Kabaruan,Kabupaten,Kepulauan Talaud,Sulawesi Utara
1481,95873,Pannulan,71.04.06.2019,Kabaruan,Kabupaten,Kepulauan Talaud,Sulawesi Utara
1482,95873,Pantuge (Patuge),71.04.06.2008,Kabaruan,Kabupaten,Kepulauan Talaud,Sulawesi Utara
1483,95873,Pantuge Timur (Patuge Timur),71.04.06.2018,Kabaruan,Kabupaten,Kepulauan Talaud,Sulawesi Utara
1484,95873,Rarange,71.04.06.2012,Kabaruan,Kabupaten,Kepulauan Talaud,Sulawesi Utara
1485,95873,Taduna,71.04.06.2013,Kabaruan,Kabupaten,Kepulauan Talaud,Sulawesi Utara
1486,95779,Bakida,71.11.06.2007,Helumo,Kabupaten,Bolaang Mongondow Selatan,Sulawesi Utara
1487,95779,Biniha,71.11.06.2002,Helumo,Kabupaten,Bolaang Mongondow Selatan,Sulawesi Utara
1488,95779,Biniha Selatan,71.11.06.2003,Helumo,Kabupaten,Bolaang Mongondow Selatan,Sulawesi Utara
1489,95779,Biniha Timur,71.11.06.2001,Helumo,Kabupaten,Bolaang Mongondow Selatan,Sulawesi Utara
1490,95779,Duminanga,71.11.06.2004,Helumo,Kabupaten,Bolaang Mongondow Selatan,Sulawesi Utara
1491,95779,Halabolu,71.11.06.2005,Helumo,Kabupaten,Bolaang Mongondow Selatan,Sulawesi Utara
1492,95779,Motolohu,71.11.06.2011,Helumo,Kabupaten,Bolaang Mongondow Selatan,Sulawesi Utara
1493,95779,Pangia,71.11.06.2010,Helumo,Kabupaten,Bolaang Mongondow Selatan,Sulawesi Utara
1494,95779,Sinandaka,71.11.06.2008,Helumo,Kabupaten,Bolaang Mongondow Selatan,Sulawesi Utara
1495,95779,Soputa,71.11.06.2009,Helumo,Kabupaten,Bolaang Mongondow Selatan,Sulawesi Utara
1496,95779,Trans Patoa,71.11.06.2006,Helumo,Kabupaten,Bolaang Mongondow Selatan,Sulawesi Utara
1497,95544,Girian Atas,71.72.06.1001,Girian,Kota,Bitung,Sulawesi Utara
1498,95542,Girian Bawah,71.72.06.1003,Girian,Kota,Bitung,Sulawesi Utara
1499,95511,Girian Indah,71.72.06.1006,Girian,Kota,Bitung,Sulawesi Utara
1500,95511,Girian Permai,71.72.06.1004,Girian,Kota,Bitung,Sulawesi Utara
1501,95543,Girian Weru Dua (II),71.72.06.1005,Girian,Kota,Bitung,Sulawesi Utara
1502,95543,Girian Weru Satu (I),71.72.06.1002,Girian,Kota,Bitung,Sulawesi Utara
1503,95543,Wangurer,71.72.06.1007,Girian,Kota,Bitung,Sulawesi Utara
1504,95888,Apan,71.04.08.2007,Gemeh,Kabupaten,Kepulauan Talaud,Sulawesi Utara
1505,95888,Arangkaa,71.04.08.2005,Gemeh,Kabupaten,Kepulauan Talaud,Sulawesi Utara
1506,95888,Bambung,71.04.08.2002,Gemeh,Kabupaten,Kepulauan Talaud,Sulawesi Utara
1507,95888,Bambung Timur,71.04.08.2012,Gemeh,Kabupaten,Kepulauan Talaud,Sulawesi Utara
1508,95888,Bannada,71.04.08.2009,Gemeh,Kabupaten,Kepulauan Talaud,Sulawesi Utara
1509,95888,Gemeh,71.04.08.2004,Gemeh,Kabupaten,Kepulauan Talaud,Sulawesi Utara
1510,95888,Gemeh Rasmata (Gemeh Raamata),71.04.08.2010,Gemeh,Kabupaten,Kepulauan Talaud,Sulawesi Utara
1511,95888,Gemeh Wantane,71.04.08.2011,Gemeh,Kabupaten,Kepulauan Talaud,Sulawesi Utara
1512,95888,Lahu,71.04.08.2015,Gemeh,Kabupaten,Kepulauan Talaud,Sulawesi Utara
1513,95888,Malat,71.04.08.2006,Gemeh,Kabupaten,Kepulauan Talaud,Sulawesi Utara
1514,95888,Malat Utara,71.04.08.2013,Gemeh,Kabupaten,Kepulauan Talaud,Sulawesi Utara
1515,95888,Mamahan,71.04.08.2001,Gemeh,Kabupaten,Kepulauan Talaud,Sulawesi Utara
1516,95888,Mamahan Barat,71.04.08.2014,Gemeh,Kabupaten,Kepulauan Talaud,Sulawesi Utara
1517,95888,Taruan,71.04.08.2008,Gemeh,Kabupaten,Kepulauan Talaud,Sulawesi Utara
1518,95888,Taturan,71.04.08.2003,Gemeh,Kabupaten,Kepulauan Talaud,Sulawesi Utara
1519,95887,Ambia,71.04.19.2006,Essang Selatan,Kabupaten,Kepulauan Talaud,Sulawesi Utara
1520,95887,Ambia Utara,71.04.19.2007,Essang Selatan,Kabupaten,Kepulauan Talaud,Sulawesi Utara
1521,95887,Batumbalango,71.04.19.2005,Essang Selatan,Kabupaten,Kepulauan Talaud,Sulawesi Utara
1522,95887,Ensem,71.04.19.2003,Essang Selatan,Kabupaten,Kepulauan Talaud,Sulawesi Utara
1523,95887,Ensem I (Ensem Timur),71.04.19.2004,Essang Selatan,Kabupaten,Kepulauan Talaud,Sulawesi Utara
1524,95887,Kuma,71.04.19.2008,Essang Selatan,Kabupaten,Kepulauan Talaud,Sulawesi Utara
1525,95887,Kuma Selatan,71.04.19.2009,Essang Selatan,Kabupaten,Kepulauan Talaud,Sulawesi Utara
1526,95887,Sambuara,71.04.19.2002,Essang Selatan,Kabupaten,Kepulauan Talaud,Sulawesi Utara
1527,95887,Sambuara Satu,71.04.19.2001,Essang Selatan,Kabupaten,Kepulauan Talaud,Sulawesi Utara
1528,95883,Bulude,71.04.04.2008,Essang,Kabupaten,Kepulauan Talaud,Sulawesi Utara
1529,95883,Bulude Selatan,71.04.04.2019,Essang,Kabupaten,Kepulauan Talaud,Sulawesi Utara
1530,95883,Essang,71.04.04.2006,Essang,Kabupaten,Kepulauan Talaud,Sulawesi Utara
1531,95883,Essang Selatan,71.04.04.2018,Essang,Kabupaten,Kepulauan Talaud,Sulawesi Utara
1532,95883,Lalue,71.04.04.2007,Essang,Kabupaten,Kepulauan Talaud,Sulawesi Utara
1533,95883,Lalue Tengah,71.04.04.2020,Essang,Kabupaten,Kepulauan Talaud,Sulawesi Utara
1534,95883,Lalue Utara,71.04.04.2021,Essang,Kabupaten,Kepulauan Talaud,Sulawesi Utara
1535,95883,Maririk,71.04.04.2016,Essang,Kabupaten,Kepulauan Talaud,Sulawesi Utara
1536,95683,Eris,71.02.03.2003,Eris,Kabupaten,Minahasa,Sulawesi Utara
1537,95683,Maumbi,71.02.03.2004,Eris,Kabupaten,Minahasa,Sulawesi Utara
1538,95683,Ranomerut,71.02.03.2006,Eris,Kabupaten,Minahasa,Sulawesi Utara
1539,95683,Tandengan,71.02.03.2005,Eris,Kabupaten,Minahasa,Sulawesi Utara
1540,95683,Tandengan Satu,71.02.03.2008,Eris,Kabupaten,Minahasa,Sulawesi Utara
1541,95683,Telap,71.02.03.2001,Eris,Kabupaten,Minahasa,Sulawesi Utara
1542,95683,Touliang Oki,71.02.03.2007,Eris,Kabupaten,Minahasa,Sulawesi Utara
1543,95683,Watumea,71.02.03.2002,Eris,Kabupaten,Minahasa,Sulawesi Utara
1544,95734,Dondomon,71.01.11.2007,Dumoga Utara,Kabupaten,Bolaang Mongondow,Sulawesi Utara
1545,95734,Dondomon Selatan,71.01.11.2025,Dumoga Utara,Kabupaten,Bolaang Mongondow,Sulawesi Utara
1546,95734,Dondomon Utara,71.01.11.2024,Dumoga Utara,Kabupaten,Bolaang Mongondow,Sulawesi Utara
1547,95734,Mopugad Selatan,71.01.11.2003,Dumoga Utara,Kabupaten,Bolaang Mongondow,Sulawesi Utara
1548,95734,Mopugad Selatan Satu,71.01.11.2016,Dumoga Utara,Kabupaten,Bolaang Mongondow,Sulawesi Utara
1549,95734,Mopugad Utara,71.01.11.2002,Dumoga Utara,Kabupaten,Bolaang Mongondow,Sulawesi Utara
1550,95734,Mopugad Utara Dua,71.01.11.2015,Dumoga Utara,Kabupaten,Bolaang Mongondow,Sulawesi Utara
1551,95734,Mopugad Utara Satu,71.01.11.2014,Dumoga Utara,Kabupaten,Bolaang Mongondow,Sulawesi Utara
1552,95734,Mopuya Selatan,71.01.11.2005,Dumoga Utara,Kabupaten,Bolaang Mongondow,Sulawesi Utara
1553,95734,Mopuya Selatan Dua,71.01.11.2020,Dumoga Utara,Kabupaten,Bolaang Mongondow,Sulawesi Utara
1554,95734,Mopuya Selatan Satu,71.01.11.2019,Dumoga Utara,Kabupaten,Bolaang Mongondow,Sulawesi Utara
1555,95734,Mopuya Utara,71.01.11.2004,Dumoga Utara,Kabupaten,Bolaang Mongondow,Sulawesi Utara
1556,95734,Mopuya Utara Dua,71.01.11.2018,Dumoga Utara,Kabupaten,Bolaang Mongondow,Sulawesi Utara
1557,95734,Mopuya Utara Satu,71.01.11.2017,Dumoga Utara,Kabupaten,Bolaang Mongondow,Sulawesi Utara
1558,95734,Tumokang Baru,71.01.11.2001,Dumoga Utara,Kabupaten,Bolaang Mongondow,Sulawesi Utara
1559,95734,Tumokang Timur,71.01.11.2026,Dumoga Utara,Kabupaten,Bolaang Mongondow,Sulawesi Utara
1560,95736,Amertha Buana,71.01.10.2021,Dumoga Timur,Kabupaten,Bolaang Mongondow,Sulawesi Utara
1561,95736,Amertha Sari,71.01.10.2019,Dumoga Timur,Kabupaten,Bolaang Mongondow,Sulawesi Utara
1562,95736,Dumoga,71.01.10.2006,Dumoga Timur,Kabupaten,Bolaang Mongondow,Sulawesi Utara
1563,95736,Dumoga Empat,71.01.10.2026,Dumoga Timur,Kabupaten,Bolaang Mongondow,Sulawesi Utara
1564,95736,Dumoga II,71.01.10.2017,Dumoga Timur,Kabupaten,Bolaang Mongondow,Sulawesi Utara
1565,95736,Dumoga Tiga,71.01.10.2025,Dumoga Timur,Kabupaten,Bolaang Mongondow,Sulawesi Utara
1566,95736,Imandi,71.01.10.1003,Dumoga Timur,Kabupaten,Bolaang Mongondow,Sulawesi Utara
1567,95736,Kembang Mertha,71.01.10.2005,Dumoga Timur,Kabupaten,Bolaang Mongondow,Sulawesi Utara
1568,95736,Kembang Sari,71.01.10.2020,Dumoga Timur,Kabupaten,Bolaang Mongondow,Sulawesi Utara
1569,95736,Modomang,71.01.10.2004,Dumoga Timur,Kabupaten,Bolaang Mongondow,Sulawesi Utara
1570,95736,Mogoyunggung,71.01.10.2002,Dumoga Timur,Kabupaten,Bolaang Mongondow,Sulawesi Utara
1571,95736,Mogoyunggung Dua,71.01.10.2024,Dumoga Timur,Kabupaten,Bolaang Mongondow,Sulawesi Utara
1572,95736,Mogoyunggung Satu,71.01.10.2023,Dumoga Timur,Kabupaten,Bolaang Mongondow,Sulawesi Utara
1573,95736,Pinonobatuan,71.01.10.2013,Dumoga Timur,Kabupaten,Bolaang Mongondow,Sulawesi Utara
1574,95736,Pinonobatuan Barat,71.01.10.2018,Dumoga Timur,Kabupaten,Bolaang Mongondow,Sulawesi Utara
1575,95736,Tonom,71.01.10.2001,Dumoga Timur,Kabupaten,Bolaang Mongondow,Sulawesi Utara
1576,95735,Bonawang,71.01.34.2001,Dumoga Tenggara,Kabupaten,Bolaang Mongondow,Sulawesi Utara
1577,95735,Dumara,71.01.34.2010,Dumoga Tenggara,Kabupaten,Bolaang Mongondow,Sulawesi Utara
1578,95735,Ikuna,71.01.34.2009,Dumoga Tenggara,Kabupaten,Bolaang Mongondow,Sulawesi Utara
1579,95735,Konarom,71.01.34.2005,Dumoga Tenggara,Kabupaten,Bolaang Mongondow,Sulawesi Utara
1580,95735,Konarom Barat,71.01.34.2006,Dumoga Tenggara,Kabupaten,Bolaang Mongondow,Sulawesi Utara
1581,95735,Konarom Utara,71.01.34.2007,Dumoga Tenggara,Kabupaten,Bolaang Mongondow,Sulawesi Utara
1582,95735,Osion,71.01.34.2008,Dumoga Tenggara,Kabupaten,Bolaang Mongondow,Sulawesi Utara
1583,95735,Tapadaka Satu / I,71.01.34.2002,Dumoga Tenggara,Kabupaten,Bolaang Mongondow,Sulawesi Utara
1584,95735,Tapadaka Timur,71.01.34.2004,Dumoga Tenggara,Kabupaten,Bolaang Mongondow,Sulawesi Utara
1585,95735,Tapadaka Utara,71.01.34.2003,Dumoga Tenggara,Kabupaten,Bolaang Mongondow,Sulawesi Utara
1586,95732,Ibolian,71.01.35.2001,Dumoga Tengah,Kabupaten,Bolaang Mongondow,Sulawesi Utara
1587,95732,Ibolian Satu / I,71.01.35.2002,Dumoga Tengah,Kabupaten,Bolaang Mongondow,Sulawesi Utara
1588,95732,Kasio Barat,71.01.35.2006,Dumoga Tengah,Kabupaten,Bolaang Mongondow,Sulawesi Utara
1589,95732,Kinomaligan (Kinomalingan),71.01.35.2003,Dumoga Tengah,Kabupaten,Bolaang Mongondow,Sulawesi Utara
1590,95732,Kosio,71.01.35.2004,Dumoga Tengah,Kabupaten,Bolaang Mongondow,Sulawesi Utara
1591,95732,Kosio Timur,71.01.35.2005,Dumoga Tengah,Kabupaten,Bolaang Mongondow,Sulawesi Utara
1592,95732,Werdhi Agung,71.01.35.2007,Dumoga Tengah,Kabupaten,Bolaang Mongondow,Sulawesi Utara
1593,95732,Werdhi Agung Selatan,71.01.35.2008,Dumoga Tengah,Kabupaten,Bolaang Mongondow,Sulawesi Utara
1594,95732,Werdhi Agung Timur,71.01.35.2010,Dumoga Tengah,Kabupaten,Bolaang Mongondow,Sulawesi Utara
1595,95732,Werdhi Agung Utara,71.01.35.2009,Dumoga Tengah,Kabupaten,Bolaang Mongondow,Sulawesi Utara
1596,95731,Doloduo,71.01.09.2004,Dumoga Barat,Kabupaten,Bolaang Mongondow,Sulawesi Utara
1597,95731,Doloduo Dua,71.01.09.2019,Dumoga Barat,Kabupaten,Bolaang Mongondow,Sulawesi Utara
1598,95731,Doloduo Satu,71.01.09.2018,Dumoga Barat,Kabupaten,Bolaang Mongondow,Sulawesi Utara
1599,95731,Doloduo Tiga,71.01.09.2020,Dumoga Barat,Kabupaten,Bolaang Mongondow,Sulawesi Utara
1600,95731,Ikhwan,71.01.09.2003,Dumoga Barat,Kabupaten,Bolaang Mongondow,Sulawesi Utara
1601,95731,Matayangan,71.01.09.2001,Dumoga Barat,Kabupaten,Bolaang Mongondow,Sulawesi Utara
1602,95731,Mekaruo,71.01.09.2011,Dumoga Barat,Kabupaten,Bolaang Mongondow,Sulawesi Utara
1603,95731,Toraut Tengah,71.01.09.2022,Dumoga Barat,Kabupaten,Bolaang Mongondow,Sulawesi Utara
1604,95731,Toraut Utara,71.01.09.2017,Dumoga Barat,Kabupaten,Bolaang Mongondow,Sulawesi Utara
1605,95731,Totaut,71.01.09.2010,Dumoga Barat,Kabupaten,Bolaang Mongondow,Sulawesi Utara
1606,95731,Uuan,71.01.09.2002,Dumoga Barat,Kabupaten,Bolaang Mongondow,Sulawesi Utara
1607,95731,Wangga Baru,71.01.09.2005,Dumoga Barat,Kabupaten,Bolaang Mongondow,Sulawesi Utara
1608,95733,Bumbungon,71.01.33.2007,Dumoga,Kabupaten,Bolaang Mongondow,Sulawesi Utara
1609,95733,Dumoga Satu,71.01.33.2010,Dumoga,Kabupaten,Bolaang Mongondow,Sulawesi Utara
1610,95733,Kanaan,71.01.33.2002,Dumoga,Kabupaten,Bolaang Mongondow,Sulawesi Utara
1611,95733,Mototabian,71.01.33.2006,Dumoga,Kabupaten,Bolaang Mongondow,Sulawesi Utara
1612,95733,Ponompiaan,71.01.33.2005,Dumoga,Kabupaten,Bolaang Mongondow,Sulawesi Utara
1613,95733,Pusian,71.01.33.2004,Dumoga,Kabupaten,Bolaang Mongondow,Sulawesi Utara
1614,95733,Pusian Barat,71.01.33.2012,Dumoga,Kabupaten,Bolaang Mongondow,Sulawesi Utara
1615,95733,Pusian Selatan,71.01.33.2011,Dumoga,Kabupaten,Bolaang Mongondow,Sulawesi Utara
1616,95733,Serasi,71.01.33.2001,Dumoga,Kabupaten,Bolaang Mongondow,Sulawesi Utara
1617,95733,Siniyung,71.01.33.2008,Dumoga,Kabupaten,Bolaang Mongondow,Sulawesi Utara
1618,95733,Siniyung Satu,71.01.33.2009,Dumoga,Kabupaten,Bolaang Mongondow,Sulawesi Utara
1619,95733,Toruakat,71.01.33.2003,Dumoga,Kabupaten,Bolaang Mongondow,Sulawesi Utara
1620,95373,Dimembe,71.06.05.2016,Dimembe,Kabupaten,Minahasa Utara,Sulawesi Utara
1621,95373,Klabat,71.06.05.2005,Dimembe,Kabupaten,Minahasa Utara,Sulawesi Utara
1622,95373,Laikit,71.06.05.2004,Dimembe,Kabupaten,Minahasa Utara,Sulawesi Utara
1623,95373,Lumpias,71.06.05.2014,Dimembe,Kabupaten,Minahasa Utara,Sulawesi Utara
1624,95373,Matungkas,71.06.05.2003,Dimembe,Kabupaten,Minahasa Utara,Sulawesi Utara
1625,95373,Pinilih,71.06.05.2006,Dimembe,Kabupaten,Minahasa Utara,Sulawesi Utara
1626,95373,Tatelu,71.06.05.2007,Dimembe,Kabupaten,Minahasa Utara,Sulawesi Utara
1627,95373,Tatelu Rondor,71.06.05.2020,Dimembe,Kabupaten,Minahasa Utara,Sulawesi Utara
1628,95373,Tetey,71.06.05.2009,Dimembe,Kabupaten,Minahasa Utara,Sulawesi Utara
1629,95373,Warukapas,71.06.05.2008,Dimembe,Kabupaten,Minahasa Utara,Sulawesi Utara
1630,95373,Wasian,71.06.05.2013,Dimembe,Kabupaten,Minahasa Utara,Sulawesi Utara
1631,95872,Akas,71.04.09.2004,Damau (Damao),Kabupaten,Kepulauan Talaud,Sulawesi Utara
1632,95872,Akas Balane,71.04.09.2008,Damau (Damao),Kabupaten,Kepulauan Talaud,Sulawesi Utara
1633,95872,Birang,71.04.09.2003,Damau (Damao),Kabupaten,Kepulauan Talaud,Sulawesi Utara
1634,95872,Damau,71.04.09.2005,Damau (Damao),Kabupaten,Kepulauan Talaud,Sulawesi Utara
1635,95872,Damau Bowone (Damau Bawone),71.04.09.2006,Damau (Damao),Kabupaten,Kepulauan Talaud,Sulawesi Utara
1636,95872,Ighik,71.04.09.2002,Damau (Damao),Kabupaten,Kepulauan Talaud,Sulawesi Utara
1637,95872,Peret,71.04.09.2001,Damau (Damao),Kabupaten,Kepulauan Talaud,Sulawesi Utara
1638,95872,Taduwale,71.04.09.2007,Damau (Damao),Kabupaten,Kepulauan Talaud,Sulawesi Utara
1639,95231,Alung Banua,71.71.10.1004,Bunaken Kepulauan,Kota,Manado,Sulawesi Utara
1640,95246,Bunaken,71.71.10.1001,Bunaken Kepulauan,Kota,Manado,Sulawesi Utara
1641,95231,Manado Tua Dua,71.71.10.1003,Bunaken Kepulauan,Kota,Manado,Sulawesi Utara
1642,95231,Manado Tua Satu,71.71.10.1002,Bunaken Kepulauan,Kota,Manado,Sulawesi Utara
1643,95231,Bailang,71.71.01.1008,Bunaken,Kota,Manado,Sulawesi Utara
1644,95231,Meras,71.71.01.1007,Bunaken,Kota,Manado,Sulawesi Utara
1645,95231,Molas,71.71.01.1001,Bunaken,Kota,Manado,Sulawesi Utara
1646,95249,Pandu,71.71.01.1009,Bunaken,Kota,Manado,Sulawesi Utara
1647,95231,Tongkeina / Tongkaina,71.71.01.1006,Bunaken,Kota,Manado,Sulawesi Utara
1648,95767,Binjeita,71.08.03.2006,Bolangitang Timur (Bolang Itang Timur),Kabupaten,Bolaang Mongondow Utara,Sulawesi Utara
1649,95767,Binjeita I,71.08.03.2013,Bolangitang Timur (Bolang Itang Timur),Kabupaten,Bolaang Mongondow Utara,Sulawesi Utara
1650,95767,Binjeita II,71.08.03.2014,Bolangitang Timur (Bolang Itang Timur),Kabupaten,Bolaang Mongondow Utara,Sulawesi Utara
1651,95767,Binuanga,71.08.03.2010,Bolangitang Timur (Bolang Itang Timur),Kabupaten,Bolaang Mongondow Utara,Sulawesi Utara
1652,95767,Binuni,71.08.03.2017,Bolangitang Timur (Bolang Itang Timur),Kabupaten,Bolaang Mongondow Utara,Sulawesi Utara
1653,95767,Biontong,71.08.03.2007,Bolangitang Timur (Bolang Itang Timur),Kabupaten,Bolaang Mongondow Utara,Sulawesi Utara
1654,95767,Biontong I,71.08.03.2008,Bolangitang Timur (Bolang Itang Timur),Kabupaten,Bolaang Mongondow Utara,Sulawesi Utara
1655,95767,Biontong II,71.08.03.2009,Bolangitang Timur (Bolang Itang Timur),Kabupaten,Bolaang Mongondow Utara,Sulawesi Utara
1656,95767,Bohabak I,71.08.03.2004,Bolangitang Timur (Bolang Itang Timur),Kabupaten,Bolaang Mongondow Utara,Sulawesi Utara
1657,95767,Bohabak II,71.08.03.2005,Bolangitang Timur (Bolang Itang Timur),Kabupaten,Bolaang Mongondow Utara,Sulawesi Utara
1658,95767,Bohabak III,71.08.03.2011,Bolangitang Timur (Bolang Itang Timur),Kabupaten,Bolaang Mongondow Utara,Sulawesi Utara
1659,95767,Bohabak IV,71.08.03.2012,Bolangitang Timur (Bolang Itang Timur),Kabupaten,Bolaang Mongondow Utara,Sulawesi Utara
1660,95767,Lipu Bogu,71.08.03.2016,Bolangitang Timur (Bolang Itang Timur),Kabupaten,Bolaang Mongondow Utara,Sulawesi Utara
1661,95767,Mokoditek (Mookoditek),71.08.03.2001,Bolangitang Timur (Bolang Itang Timur),Kabupaten,Bolaang Mongondow Utara,Sulawesi Utara
1662,95767,Mokoditek I (Mookoditek I),71.08.03.2015,Bolangitang Timur (Bolang Itang Timur),Kabupaten,Bolaang Mongondow Utara,Sulawesi Utara
1663,95767,Nagara,71.08.03.2019,Bolangitang Timur (Bolang Itang Timur),Kabupaten,Bolaang Mongondow Utara,Sulawesi Utara
1664,95767,Nunuka (Nunukan),71.08.03.2002,Bolangitang Timur (Bolang Itang Timur),Kabupaten,Bolaang Mongondow Utara,Sulawesi Utara
1665,95767,Saleo,71.08.03.2003,Bolangitang Timur (Bolang Itang Timur),Kabupaten,Bolaang Mongondow Utara,Sulawesi Utara
1666,95767,Saleo Satu,71.08.03.2020,Bolangitang Timur (Bolang Itang Timur),Kabupaten,Bolaang Mongondow Utara,Sulawesi Utara
1667,95767,Tanjung Labou,71.08.03.2018,Bolangitang Timur (Bolang Itang Timur),Kabupaten,Bolaang Mongondow Utara,Sulawesi Utara
1668,95764,Bolangitang (Bolang Itang Barat),71.08.04.2006,Bolangitang Barat (Bolang Itang Barat),Kabupaten,Bolaang Mongondow Utara,Sulawesi Utara
1669,95764,Bolangitang I,71.08.04.2013,Bolangitang Barat (Bolang Itang Barat),Kabupaten,Bolaang Mongondow Utara,Sulawesi Utara
1670,95764,Bolangitang II,71.08.04.2014,Bolangitang Barat (Bolang Itang Barat),Kabupaten,Bolaang Mongondow Utara,Sulawesi Utara
1671,95764,Iyok,71.08.04.2008,Bolangitang Barat (Bolang Itang Barat),Kabupaten,Bolaang Mongondow Utara,Sulawesi Utara
1672,95764,Jambusarang (Jambu Sarang),71.08.04.2004,Bolangitang Barat (Bolang Itang Barat),Kabupaten,Bolaang Mongondow Utara,Sulawesi Utara
1673,95764,Keimanga,71.08.04.2017,Bolangitang Barat (Bolang Itang Barat),Kabupaten,Bolaang Mongondow Utara,Sulawesi Utara
1674,95764,Langi,71.08.04.2007,Bolangitang Barat (Bolang Itang Barat),Kabupaten,Bolaang Mongondow Utara,Sulawesi Utara
1675,95764,Ollot,71.08.04.2002,Bolangitang Barat (Bolang Itang Barat),Kabupaten,Bolaang Mongondow Utara,Sulawesi Utara
1676,95764,Ollot I,71.08.04.2011,Bolangitang Barat (Bolang Itang Barat),Kabupaten,Bolaang Mongondow Utara,Sulawesi Utara
1677,95764,Ollot II,71.08.04.2012,Bolangitang Barat (Bolang Itang Barat),Kabupaten,Bolaang Mongondow Utara,Sulawesi Utara
1678,95764,Paku,71.08.04.2001,Bolangitang Barat (Bolang Itang Barat),Kabupaten,Bolaang Mongondow Utara,Sulawesi Utara
1679,95764,Paku Selatan,71.08.04.2018,Bolangitang Barat (Bolang Itang Barat),Kabupaten,Bolaang Mongondow Utara,Sulawesi Utara
1680,95764,Sonuo,71.08.04.2003,Bolangitang Barat (Bolang Itang Barat),Kabupaten,Bolaang Mongondow Utara,Sulawesi Utara
1681,95764,Talaga,71.08.04.2015,Bolangitang Barat (Bolang Itang Barat),Kabupaten,Bolaang Mongondow Utara,Sulawesi Utara
1682,95764,Talaga Tomoagu (Talaga Tumoagu),71.08.04.2005,Bolangitang Barat (Bolang Itang Barat),Kabupaten,Bolaang Mongondow Utara,Sulawesi Utara
1683,95764,Tanjung Buaya,71.08.04.2016,Bolangitang Barat (Bolang Itang Barat),Kabupaten,Bolaang Mongondow Utara,Sulawesi Utara
1684,95764,Tote,71.08.04.2009,Bolangitang Barat (Bolang Itang Barat),Kabupaten,Bolaang Mongondow Utara,Sulawesi Utara
1685,95764,Wakat,71.08.04.2010,Bolangitang Barat (Bolang Itang Barat),Kabupaten,Bolaang Mongondow Utara,Sulawesi Utara
1686,95770,Dudepo,71.11.01.2013,Bolaang Uki,Kabupaten,Bolaang Mongondow Selatan,Sulawesi Utara
1687,95770,Dudepo Barat,71.11.01.2028,Bolaang Uki,Kabupaten,Bolaang Mongondow Selatan,Sulawesi Utara
1688,95770,Molibagu,71.11.01.2007,Bolaang Uki,Kabupaten,Bolaang Mongondow Selatan,Sulawesi Utara
1689,95770,Pinolantungan,71.11.01.2014,Bolaang Uki,Kabupaten,Bolaang Mongondow Selatan,Sulawesi Utara
1690,95770,Pintadia,71.11.01.2022,Bolaang Uki,Kabupaten,Bolaang Mongondow Selatan,Sulawesi Utara
1691,95770,Popodu,71.11.01.2008,Bolaang Uki,Kabupaten,Bolaang Mongondow Selatan,Sulawesi Utara
1692,95770,Salongo,71.11.01.2005,Bolaang Uki,Kabupaten,Bolaang Mongondow Selatan,Sulawesi Utara
1693,95770,Salongo Barat,71.11.01.2027,Bolaang Uki,Kabupaten,Bolaang Mongondow Selatan,Sulawesi Utara
1694,95770,Salongo Timur,71.11.01.2023,Bolaang Uki,Kabupaten,Bolaang Mongondow Selatan,Sulawesi Utara
1695,95770,Soguo,71.11.01.2020,Bolaang Uki,Kabupaten,Bolaang Mongondow Selatan,Sulawesi Utara
1696,95770,Sondana,71.11.01.2012,Bolaang Uki,Kabupaten,Bolaang Mongondow Selatan,Sulawesi Utara
1697,95770,Tabilaa,71.11.01.2010,Bolaang Uki,Kabupaten,Bolaang Mongondow Selatan,Sulawesi Utara
1698,95770,Tangagah,71.11.01.2004,Bolaang Uki,Kabupaten,Bolaang Mongondow Selatan,Sulawesi Utara
1699,95770,Tolondadu,71.11.01.2009,Bolaang Uki,Kabupaten,Bolaang Mongondow Selatan,Sulawesi Utara
1700,95770,Tolondadu I,71.11.01.2015,Bolaang Uki,Kabupaten,Bolaang Mongondow Selatan,Sulawesi Utara
1701,95770,Tolondadu II,71.11.01.2016,Bolaang Uki,Kabupaten,Bolaang Mongondow Selatan,Sulawesi Utara
1702,95770,Toluaya (Toluayu),71.11.01.2006,Bolaang Uki,Kabupaten,Bolaang Mongondow Selatan,Sulawesi Utara
1703,95754,Ambang I,71.01.31.2001,Bolaang Timur,Kabupaten,Bolaang Mongondow,Sulawesi Utara
1704,95754,Ambang II,71.01.31.2002,Bolaang Timur,Kabupaten,Bolaang Mongondow,Sulawesi Utara
1705,95754,Bantik,71.01.31.2005,Bolaang Timur,Kabupaten,Bolaang Mongondow,Sulawesi Utara
1706,95754,Bolaang,71.01.31.2004,Bolaang Timur,Kabupaten,Bolaang Mongondow,Sulawesi Utara
1707,95754,Bolaang Satu,71.01.31.2008,Bolaang Timur,Kabupaten,Bolaang Mongondow,Sulawesi Utara
1708,95754,Lolan,71.01.31.2006,Bolaang Timur,Kabupaten,Bolaang Mongondow,Sulawesi Utara
1709,95754,Lolan Dua,71.01.31.2009,Bolaang Timur,Kabupaten,Bolaang Mongondow,Sulawesi Utara
1710,95754,Tadoy,71.01.31.2003,Bolaang Timur,Kabupaten,Bolaang Mongondow,Sulawesi Utara
1711,95754,Tadoy I,71.01.31.2007,Bolaang Timur,Kabupaten,Bolaang Mongondow,Sulawesi Utara
1712,95752,Bangomulunow (Bangomolunow),71.01.13.2004,Bolaang,Kabupaten,Bolaang Mongondow,Sulawesi Utara
1713,95752,Inobonto,71.01.13.2014,Bolaang,Kabupaten,Bolaang Mongondow,Sulawesi Utara
1714,95752,Inobonto (Kelurahan Inobonto),71.01.13.1006,Bolaang,Kabupaten,Bolaang Mongondow,Sulawesi Utara
1715,95752,Inobonto II (Inobonto Dua),71.01.13.2007,Bolaang,Kabupaten,Bolaang Mongondow,Sulawesi Utara
1716,95752,Komangaan,71.01.13.2001,Bolaang,Kabupaten,Bolaang Mongondow,Sulawesi Utara
1717,95752,Langagon,71.01.13.2005,Bolaang,Kabupaten,Bolaang Mongondow,Sulawesi Utara
1718,95752,Langagon Dua,71.01.13.2016,Bolaang,Kabupaten,Bolaang Mongondow,Sulawesi Utara
1719,95752,Langagon Satu,71.01.13.2015,Bolaang,Kabupaten,Bolaang Mongondow,Sulawesi Utara
1720,95752,Solimandungan Baru,71.01.13.2017,Bolaang,Kabupaten,Bolaang Mongondow,Sulawesi Utara
1721,95752,Solimandungan I (Solimandungan Satu),71.01.13.2003,Bolaang,Kabupaten,Bolaang Mongondow,Sulawesi Utara
1722,95752,Solimandungan II (Solimandungan Dua),71.01.13.2002,Bolaang,Kabupaten,Bolaang Mongondow,Sulawesi Utara
1723,95763,Batulintik,71.08.02.2009,Bintauna,Kabupaten,Bolaang Mongondow Utara,Sulawesi Utara
1724,95763,Bintauna,71.08.02.1001,Bintauna,Kabupaten,Bolaang Mongondow Utara,Sulawesi Utara
1725,95763,Bintauna Pantai/Pante,71.08.02.2010,Bintauna,Kabupaten,Bolaang Mongondow Utara,Sulawesi Utara
1726,95763,Bunia,71.08.02.2007,Bintauna,Kabupaten,Bolaang Mongondow Utara,Sulawesi Utara
1727,95763,Bunong,71.08.02.2014,Bintauna,Kabupaten,Bolaang Mongondow Utara,Sulawesi Utara
1728,95763,Huntuk,71.08.02.2002,Bintauna,Kabupaten,Bolaang Mongondow Utara,Sulawesi Utara
1729,95763,Kopi,71.08.02.2012,Bintauna,Kabupaten,Bolaang Mongondow Utara,Sulawesi Utara
1730,95763,Kuhanga,71.08.02.2004,Bintauna,Kabupaten,Bolaang Mongondow Utara,Sulawesi Utara
1731,95763,Minanga,71.08.02.2011,Bintauna,Kabupaten,Bolaang Mongondow Utara,Sulawesi Utara
1732,95763,Mome,71.08.02.2003,Bintauna,Kabupaten,Bolaang Mongondow Utara,Sulawesi Utara
1733,95763,Padang,71.08.02.2005,Bintauna,Kabupaten,Bolaang Mongondow Utara,Sulawesi Utara
1734,95763,Padang Barat,71.08.02.2015,Bintauna,Kabupaten,Bolaang Mongondow Utara,Sulawesi Utara
1735,95763,Pimpi,71.08.02.2006,Bintauna,Kabupaten,Bolaang Mongondow Utara,Sulawesi Utara
1736,95763,Talaga,71.08.02.2008,Bintauna,Kabupaten,Bolaang Mongondow Utara,Sulawesi Utara
1737,95763,Vahuta,71.08.02.2016,Bintauna,Kabupaten,Bolaang Mongondow Utara,Sulawesi Utara
1738,95763,Voa'a (Voa A),71.08.02.2013,Bintauna,Kabupaten,Bolaang Mongondow Utara,Sulawesi Utara
1739,95755,Apado,71.01.32.2008,Bilalang,Kabupaten,Bolaang Mongondow,Sulawesi Utara
1740,95755,Bilalang Baru,71.01.32.2007,Bilalang,Kabupaten,Bolaang Mongondow,Sulawesi Utara
1741,95755,Bilalang III,71.01.32.2001,Bilalang,Kabupaten,Bolaang Mongondow,Sulawesi Utara
1742,95755,Bilalang III Utara,71.01.32.2006,Bilalang,Kabupaten,Bolaang Mongondow,Sulawesi Utara
1743,95755,Bilalang IV,71.01.32.2002,Bilalang,Kabupaten,Bolaang Mongondow,Sulawesi Utara
1744,95755,Kolinganga'an,71.01.32.2005,Bilalang,Kabupaten,Bolaang Mongondow,Sulawesi Utara
1745,95755,Tudu Aog,71.01.32.2003,Bilalang,Kabupaten,Bolaang Mongondow,Sulawesi Utara
1746,95755,Tudu Aog Baru,71.01.32.2004,Bilalang,Kabupaten,Bolaang Mongondow,Sulawesi Utara
1747,95864,Buang,71.09.07.2001,Biaro,Kabupaten,Kepulauan Siau Tagulandang Biaro (Sitaro),Sulawesi Utara
1748,95864,Dalinsaheng,71.09.07.2004,Biaro,Kabupaten,Kepulauan Siau Tagulandang Biaro (Sitaro),Sulawesi Utara
1749,95864,Karungo,71.09.07.2002,Biaro,Kabupaten,Kepulauan Siau Tagulandang Biaro (Sitaro),Sulawesi Utara
1750,95864,Lamanggo,71.09.07.2003,Biaro,Kabupaten,Kepulauan Siau Tagulandang Biaro (Sitaro),Sulawesi Utara
1751,95864,Tope,71.09.07.2005,Biaro,Kabupaten,Kepulauan Siau Tagulandang Biaro (Sitaro),Sulawesi Utara
1752,95881,Awit,71.04.14.2003,Beo Utara,Kabupaten,Kepulauan Talaud,Sulawesi Utara
1753,95881,Awit Selatan,71.04.14.2004,Beo Utara,Kabupaten,Kepulauan Talaud,Sulawesi Utara
1754,95881,Lobbo,71.04.14.2007,Beo Utara,Kabupaten,Kepulauan Talaud,Sulawesi Utara
1755,95881,Lobbo I,71.04.14.2008,Beo Utara,Kabupaten,Kepulauan Talaud,Sulawesi Utara
1756,95881,Makatara,71.04.14.1001,Beo Utara,Kabupaten,Kepulauan Talaud,Sulawesi Utara
1757,95881,Makatara Timur,71.04.14.1002,Beo Utara,Kabupaten,Kepulauan Talaud,Sulawesi Utara
1758,95881,Rae,71.04.14.2005,Beo Utara,Kabupaten,Kepulauan Talaud,Sulawesi Utara
1759,95881,Rae Selatan,71.04.14.2006,Beo Utara,Kabupaten,Kepulauan Talaud,Sulawesi Utara
1760,95877,Matahit,71.04.18.2007,Beo Selatan,Kabupaten,Kepulauan Talaud,Sulawesi Utara
1761,95877,Niampak,71.04.18.2003,Beo Selatan,Kabupaten,Kepulauan Talaud,Sulawesi Utara
1762,95877,Niampak Utara,71.04.18.2004,Beo Selatan,Kabupaten,Kepulauan Talaud,Sulawesi Utara
1763,95877,Pampalu (Papmpalu),71.04.18.2001,Beo Selatan,Kabupaten,Kepulauan Talaud,Sulawesi Utara
1764,95877,Rusoh (Russoh/Ruso),71.04.18.2002,Beo Selatan,Kabupaten,Kepulauan Talaud,Sulawesi Utara
1765,95877,Tarohan,71.04.18.2005,Beo Selatan,Kabupaten,Kepulauan Talaud,Sulawesi Utara
1766,95877,Tarohan Selatan,71.04.18.2006,Beo Selatan,Kabupaten,Kepulauan Talaud,Sulawesi Utara
1767,95876,Bantik (Beo Bantik),71.04.02.2011,Beo,Kabupaten,Kepulauan Talaud,Sulawesi Utara
1768,95876,Bantik Lama,71.04.02.2020,Beo,Kabupaten,Kepulauan Talaud,Sulawesi Utara
1769,95876,Bengel,71.04.02.2019,Beo,Kabupaten,Kepulauan Talaud,Sulawesi Utara
1770,95876,Beo,71.04.02.1005,Beo,Kabupaten,Kepulauan Talaud,Sulawesi Utara
1771,95876,Beo Barat,71.04.02.1018,Beo,Kabupaten,Kepulauan Talaud,Sulawesi Utara
1772,95876,Beo Timur,71.04.02.1017,Beo,Kabupaten,Kepulauan Talaud,Sulawesi Utara
1773,95992,Belang,71.07.03.2003,Belang,Kabupaten,Minahasa Tenggara,Sulawesi Utara
1774,95992,Beringin (Beringing),71.07.03.2005,Belang,Kabupaten,Minahasa Tenggara,Sulawesi Utara
1775,95992,Borgo,71.07.03.2002,Belang,Kabupaten,Minahasa Tenggara,Sulawesi Utara
1776,95992,Borgo Satu,71.07.03.2020,Belang,Kabupaten,Minahasa Tenggara,Sulawesi Utara
1777,95992,Buku,71.07.03.2004,Belang,Kabupaten,Minahasa Tenggara,Sulawesi Utara
1778,95992,Buku Selatan,71.07.03.2010,Belang,Kabupaten,Minahasa Tenggara,Sulawesi Utara
1779,95992,Buku Tengah,71.07.03.2016,Belang,Kabupaten,Minahasa Tenggara,Sulawesi Utara
1780,95992,Buku Tenggara,71.07.03.2018,Belang,Kabupaten,Minahasa Tenggara,Sulawesi Utara
1781,95992,Buku Utara,71.07.03.2009,Belang,Kabupaten,Minahasa Tenggara,Sulawesi Utara
1782,95992,Mangkit,71.07.03.2001,Belang,Kabupaten,Minahasa Tenggara,Sulawesi Utara
1783,95992,Molompar,71.07.03.2008,Belang,Kabupaten,Minahasa Tenggara,Sulawesi Utara
1784,95992,Molompar Timur,71.07.03.2014,Belang,Kabupaten,Minahasa Tenggara,Sulawesi Utara
1785,95992,Molompar Utara,71.07.03.2013,Belang,Kabupaten,Minahasa Tenggara,Sulawesi Utara
1786,95992,Ponosakan Belang,71.07.03.2019,Belang,Kabupaten,Minahasa Tenggara,Sulawesi Utara
1787,95992,Ponosakan Indah,71.07.03.2017,Belang,Kabupaten,Minahasa Tenggara,Sulawesi Utara
1788,95992,Tababo,71.07.03.2006,Belang,Kabupaten,Minahasa Tenggara,Sulawesi Utara
1789,95992,Tababo Selatan,71.07.03.2015,Belang,Kabupaten,Minahasa Tenggara,Sulawesi Utara
1790,95992,Watuliney,71.07.03.2007,Belang,Kabupaten,Minahasa Tenggara,Sulawesi Utara
1791,95992,Watuliney Indah,71.07.03.2012,Belang,Kabupaten,Minahasa Tenggara,Sulawesi Utara
1792,95992,Watuliney Tengah,71.07.03.2011,Belang,Kabupaten,Minahasa Tenggara,Sulawesi Utara
1793,95954,Kota Menara,71.05.18.2005,Amurang Timur,Kabupaten,Minahasa Selatan,Sulawesi Utara
1794,95954,Lopana,71.05.18.2001,Amurang Timur,Kabupaten,Minahasa Selatan,Sulawesi Utara
1795,95954,Lopana Satu,71.05.18.2010,Amurang Timur,Kabupaten,Minahasa Selatan,Sulawesi Utara
1796,95954,Malenos Baru,71.05.18.2008,Amurang Timur,Kabupaten,Minahasa Selatan,Sulawesi Utara
1797,95954,Maliku,71.05.18.2006,Amurang Timur,Kabupaten,Minahasa Selatan,Sulawesi Utara
1798,95954,Maliku Satu,71.05.18.2009,Amurang Timur,Kabupaten,Minahasa Selatan,Sulawesi Utara
1799,95954,Pinaling,71.05.18.2004,Amurang Timur,Kabupaten,Minahasa Selatan,Sulawesi Utara
1800,95954,Pondang,71.05.18.1002,Amurang Timur,Kabupaten,Minahasa Selatan,Sulawesi Utara
1801,95954,Ranomea,71.05.18.1003,Amurang Timur,Kabupaten,Minahasa Selatan,Sulawesi Utara
1802,95954,Ritey,71.05.18.2007,Amurang Timur,Kabupaten,Minahasa Selatan,Sulawesi Utara
1803,95955,Elusan,71.05.17.2007,Amurang Barat,Kabupaten,Minahasa Selatan,Sulawesi Utara
1804,95955,Kapitu,71.05.17.2001,Amurang Barat,Kabupaten,Minahasa Selatan,Sulawesi Utara
1805,95955,Kawangkoan Bawah,71.05.17.1002,Amurang Barat,Kabupaten,Minahasa Selatan,Sulawesi Utara
1806,95955,Pondos,71.05.17.2006,Amurang Barat,Kabupaten,Minahasa Selatan,Sulawesi Utara
1807,95955,Rumoong Bawah,71.05.17.2004,Amurang Barat,Kabupaten,Minahasa Selatan,Sulawesi Utara
1808,95955,Rumoong Bawah (Kelurahan Rumoong Bawah),71.05.17.1003,Amurang Barat,Kabupaten,Minahasa Selatan,Sulawesi Utara
1809,95955,Teep,71.05.17.2008,Amurang Barat,Kabupaten,Minahasa Selatan,Sulawesi Utara
1810,95955,Teep Trans,71.05.17.2010,Amurang Barat,Kabupaten,Minahasa Selatan,Sulawesi Utara
1811,95955,Tewasen,71.05.17.2005,Amurang Barat,Kabupaten,Minahasa Selatan,Sulawesi Utara
1812,95955,Wakan,71.05.17.2009,Amurang Barat,Kabupaten,Minahasa Selatan,Sulawesi Utara
1813,95957,Bitung,71.05.10.1010,Amurang,Kabupaten,Minahasa Selatan,Sulawesi Utara
1814,95957,Buyungon,71.05.10.1004,Amurang,Kabupaten,Minahasa Selatan,Sulawesi Utara
1815,95957,Kilometer 3 (Kilometer Tiga),71.05.10.2018,Amurang,Kabupaten,Minahasa Selatan,Sulawesi Utara
1816,95957,Lewet,71.05.10.1008,Amurang,Kabupaten,Minahasa Selatan,Sulawesi Utara
1817,95957,Ranoketang Tua,71.05.10.2009,Amurang,Kabupaten,Minahasa Selatan,Sulawesi Utara
1818,95957,Ranoyapo,71.05.10.1005,Amurang,Kabupaten,Minahasa Selatan,Sulawesi Utara
1819,95957,Uwuran I (Uwuran Satu),71.05.10.1006,Amurang,Kabupaten,Minahasa Selatan,Sulawesi Utara
1820,95957,Uwuran II (Uwuran Dua),71.05.10.1007,Amurang,Kabupaten,Minahasa Selatan,Sulawesi Utara
1821,95371,Airmadidi Atas,71.06.03.1008,Airmadidi,Kabupaten,Minahasa Utara,Sulawesi Utara
1822,95371,Airmadidi Bawah,71.06.03.1005,Airmadidi,Kabupaten,Minahasa Utara,Sulawesi Utara
1823,95371,Rap-Rap,71.06.03.1006,Airmadidi,Kabupaten,Minahasa Utara,Sulawesi Utara
1824,95371,Sampiri,71.06.03.2003,Airmadidi,Kabupaten,Minahasa Utara,Sulawesi Utara
1825,95371,Sarongsong II (Sarongsong Dua),71.06.03.1011,Airmadidi,Kabupaten,Minahasa Utara,Sulawesi Utara
1826,95371,Saronsong I (Sarongsong Satu),71.06.03.1007,Airmadidi,Kabupaten,Minahasa Utara,Sulawesi Utara
1827,95371,Sawangan,71.06.03.2004,Airmadidi,Kabupaten,Minahasa Utara,Sulawesi Utara
1828,95371,Sukur,71.06.03.1009,Airmadidi,Kabupaten,Minahasa Utara,Sulawesi Utara
1829,95371,Tanggari,71.06.03.2002,Airmadidi,Kabupaten,Minahasa Utara,Sulawesi Utara
1830,95526,Aertembaga Dua (II),71.72.04.1014,Aertembaga (Bitung Timur),Kota,Bitung,Sulawesi Utara
1831,95526,Aertembaga Satu (I),71.72.04.1005,Aertembaga (Bitung Timur),Kota,Bitung,Sulawesi Utara
1832,95521,Kasawari,71.72.04.1013,Aertembaga (Bitung Timur),Kota,Bitung,Sulawesi Utara
1833,95528,Makawidey,71.72.04.1007,Aertembaga (Bitung Timur),Kota,Bitung,Sulawesi Utara
1834,95524,Peteten Dua (II),71.72.04.1011,Aertembaga (Bitung Timur),Kota,Bitung,Sulawesi Utara
1835,95524,Peteten Satu (I),71.72.04.1003,Aertembaga (Bitung Timur),Kota,Bitung,Sulawesi Utara
1836,95529,Pinangunian,71.72.04.1008,Aertembaga (Bitung Timur),Kota,Bitung,Sulawesi Utara
1837,95527,Tandurusa (Tandu Rusa),71.72.04.1006,Aertembaga (Bitung Timur),Kota,Bitung,Sulawesi Utara
1838,95525,Winenet Dua (II),71.72.04.1012,Aertembaga (Bitung Timur),Kota,Bitung,Sulawesi Utara
1839,95525,Winenet Satu (I),71.72.04.1004,Aertembaga (Bitung Timur),Kota,Bitung,Sulawesi Utara