no,postal_code,urban,area_code,sub_district,dt2,city,province
1,94978,Bumi Harapan,72.06.12.2010,Wita Ponda,Kabupaten,Morowali,Sulawesi Tengah
2,94978,Emea,72.06.12.2002,Wita Ponda,Kabupaten,Morowali,Sulawesi Tengah
3,94978,Lantula Jaya,72.06.12.2008,Wita Ponda,Kabupaten,Morowali,Sulawesi Tengah
4,94978,Moahino,72.06.12.2006,Wita Ponda,Kabupaten,Morowali,Sulawesi Tengah
5,94978,Puntari Makmur,72.06.12.2009,Wita Ponda,Kabupaten,Morowali,Sulawesi Tengah
6,94978,Sampeantaba,72.06.12.2001,Wita Ponda,Kabupaten,Morowali,Sulawesi Tengah
7,94978,Solonsa,72.06.12.2007,Wita Ponda,Kabupaten,Morowali,Sulawesi Tengah
8,94978,Solonsa Jaya,72.06.12.2011,Wita Ponda,Kabupaten,Morowali,Sulawesi Tengah
9,94978,Ungkaya,72.06.12.2012,Wita Ponda,Kabupaten,Morowali,Sulawesi Tengah
10,94694,Dolong A,72.09.03.2010,Walea Kepulauan,Kabupaten,Tojo Una Una,Sulawesi Tengah
11,94694,Dolong B,72.09.03.2008,Walea Kepulauan,Kabupaten,Tojo Una Una,Sulawesi Tengah
12,94694,Kolami,72.09.03.2018,Walea Kepulauan,Kabupaten,Tojo Una Una,Sulawesi Tengah
13,94694,Loe,72.09.03.2023,Walea Kepulauan,Kabupaten,Tojo Una Una,Sulawesi Tengah
14,94694,Luok,72.09.03.2016,Walea Kepulauan,Kabupaten,Tojo Una Una,Sulawesi Tengah
15,94694,Olilan,72.09.03.2020,Walea Kepulauan,Kabupaten,Tojo Una Una,Sulawesi Tengah
16,94694,Popolii,72.09.03.2007,Walea Kepulauan,Kabupaten,Tojo Una Una,Sulawesi Tengah
17,94694,Tiga Pulau,72.09.03.2006,Walea Kepulauan,Kabupaten,Tojo Una Una,Sulawesi Tengah
18,94694,Tutung,72.09.03.2009,Walea Kepulauan,Kabupaten,Tojo Una Una,Sulawesi Tengah
19,94693,Biga,72.09.09.2001,Walea Besar,Kabupaten,Tojo Una Una,Sulawesi Tengah
20,94693,Katogop (Kotogop),72.09.09.2007,Walea Besar,Kabupaten,Tojo Una Una,Sulawesi Tengah
21,94693,Kondongan,72.09.09.2006,Walea Besar,Kabupaten,Tojo Una Una,Sulawesi Tengah
22,94693,Malapo,72.09.09.2004,Walea Besar,Kabupaten,Tojo Una Una,Sulawesi Tengah
23,94693,Pasokan,72.09.09.2005,Walea Besar,Kabupaten,Tojo Una Una,Sulawesi Tengah
24,94693,Salinggoha,72.09.09.2002,Walea Besar,Kabupaten,Tojo Una Una,Sulawesi Tengah
25,94693,Tingki,72.09.09.2003,Walea Besar,Kabupaten,Tojo Una Una,Sulawesi Tengah
26,94693,Tongidon,72.09.09.2008,Walea Besar,Kabupaten,Tojo Una Una,Sulawesi Tengah
27,94690,Bambu,72.09.01.2006,Una Una,Kabupaten,Tojo Una Una,Sulawesi Tengah
28,94690,Binanguna,72.09.01.2015,Una Una,Kabupaten,Tojo Una Una,Sulawesi Tengah
29,94690,Cendana,72.09.01.2014,Una Una,Kabupaten,Tojo Una Una,Sulawesi Tengah
30,94690,Kavetan,72.09.01.2017,Una Una,Kabupaten,Tojo Una Una,Sulawesi Tengah
31,94690,Lembanya,72.09.01.2010,Una Una,Kabupaten,Tojo Una Una,Sulawesi Tengah
32,94690,Luangon,72.09.01.2019,Una Una,Kabupaten,Tojo Una Una,Sulawesi Tengah
33,94690,Tanimpo,72.09.01.2018,Una Una,Kabupaten,Tojo Una Una,Sulawesi Tengah
34,94690,Taningkola,72.09.01.2005,Una Una,Kabupaten,Tojo Una Una,Sulawesi Tengah
35,94690,Tanjung Pude,72.09.01.2009,Una Una,Kabupaten,Tojo Una Una,Sulawesi Tengah
36,94690,Una-Una,72.09.01.2008,Una Una,Kabupaten,Tojo Una Una,Sulawesi Tengah
37,94690,Wakai,72.09.01.2007,Una Una,Kabupaten,Tojo Una Una,Sulawesi Tengah
38,94228,Buluri,72.71.05.1001,Ulujadi,Kota,Palu,Sulawesi Tengah
39,94226,Donggala Kodi,72.71.05.1002,Ulujadi,Kota,Palu,Sulawesi Tengah
40,94227,Kabonena,72.71.05.1003,Ulujadi,Kota,Palu,Sulawesi Tengah
41,94227,Silae,72.71.05.1004,Ulujadi,Kota,Palu,Sulawesi Tengah
42,94228,Tipo,72.71.05.1006,Ulujadi,Kota,Palu,Sulawesi Tengah
43,94229,Watusampu,72.71.05.1005,Ulujadi,Kota,Palu,Sulawesi Tengah
44,94682,Bonebae I,72.09.06.2008,Ulubongka,Kabupaten,Tojo Una Una,Sulawesi Tengah
45,94682,Bonebae II,72.09.06.2002,Ulubongka,Kabupaten,Tojo Una Una,Sulawesi Tengah
46,94682,Boneveto (Bonevoto),72.09.06.2016,Ulubongka,Kabupaten,Tojo Una Una,Sulawesi Tengah
47,94682,Bongka Makmur,72.09.06.2013,Ulubongka,Kabupaten,Tojo Una Una,Sulawesi Tengah
48,94682,Bongkakoy (Bongka Koy / Koi),72.09.06.2017,Ulubongka,Kabupaten,Tojo Una Una,Sulawesi Tengah
49,94682,Borneang,72.09.06.2012,Ulubongka,Kabupaten,Tojo Una Una,Sulawesi Tengah
50,94682,Cempa,72.09.06.2015,Ulubongka,Kabupaten,Tojo Una Una,Sulawesi Tengah
51,94682,Kasiala,72.09.06.2019,Ulubongka,Kabupaten,Tojo Una Una,Sulawesi Tengah
52,94682,Marowo,72.09.06.2011,Ulubongka,Kabupaten,Tojo Una Una,Sulawesi Tengah
53,94682,Mire,72.09.06.2010,Ulubongka,Kabupaten,Tojo Una Una,Sulawesi Tengah
54,94682,Paranonge,72.09.06.2007,Ulubongka,Kabupaten,Tojo Una Una,Sulawesi Tengah
55,94682,Rompi,72.09.06.2004,Ulubongka,Kabupaten,Tojo Una Una,Sulawesi Tengah
56,94682,Takibangke,72.09.06.2018,Ulubongka,Kabupaten,Tojo Una Una,Sulawesi Tengah
57,94682,Tampanombo,72.09.06.2001,Ulubongka,Kabupaten,Tojo Una Una,Sulawesi Tengah
58,94682,Tobamau (Tobamawu),72.09.06.2003,Ulubongka,Kabupaten,Tojo Una Una,Sulawesi Tengah
59,94682,Uekambuno,72.09.06.2006,Ulubongka,Kabupaten,Tojo Una Una,Sulawesi Tengah
60,94682,Uematopa,72.09.06.2005,Ulubongka,Kabupaten,Tojo Una Una,Sulawesi Tengah
61,94682,Watusongu,72.09.06.2009,Ulubongka,Kabupaten,Tojo Una Una,Sulawesi Tengah
62,94887,Kalumbatan,72.07.15.2001,Totikum Selatan,Kabupaten,Banggai Kepulauan,Sulawesi Tengah
63,94887,Kanali,72.07.15.2006,Totikum Selatan,Kabupaten,Banggai Kepulauan,Sulawesi Tengah
64,94887,Lobuton,72.07.15.2008,Totikum Selatan,Kabupaten,Banggai Kepulauan,Sulawesi Tengah
65,94887,Mata,72.07.15.2007,Totikum Selatan,Kabupaten,Banggai Kepulauan,Sulawesi Tengah
66,94887,Nulion,72.07.15.2004,Totikum Selatan,Kabupaten,Banggai Kepulauan,Sulawesi Tengah
67,94887,Peley,72.07.15.2005,Totikum Selatan,Kabupaten,Banggai Kepulauan,Sulawesi Tengah
68,94887,Tobungku,72.07.15.2003,Totikum Selatan,Kabupaten,Banggai Kepulauan,Sulawesi Tengah
69,94887,Tonuson,72.07.15.2002,Totikum Selatan,Kabupaten,Banggai Kepulauan,Sulawesi Tengah
70,94884,Abason,72.07.03.2015,Totikum (Totikung),Kabupaten,Banggai Kepulauan,Sulawesi Tengah
71,94884,Batang Babasal,72.07.03.2009,Totikum (Totikung),Kabupaten,Banggai Kepulauan,Sulawesi Tengah
72,94884,Bolonan,72.07.03.2008,Totikum (Totikung),Kabupaten,Banggai Kepulauan,Sulawesi Tengah
73,94884,Kombutokan,72.07.03.2017,Totikum (Totikung),Kabupaten,Banggai Kepulauan,Sulawesi Tengah
74,94884,Lopito,72.07.03.2016,Totikum (Totikung),Kabupaten,Banggai Kepulauan,Sulawesi Tengah
75,94884,Sakay,72.07.03.2013,Totikum (Totikung),Kabupaten,Banggai Kepulauan,Sulawesi Tengah
76,94884,Salangano,72.07.03.2011,Totikum (Totikung),Kabupaten,Banggai Kepulauan,Sulawesi Tengah
77,94884,Sambiut,72.07.03.2012,Totikum (Totikung),Kabupaten,Banggai Kepulauan,Sulawesi Tengah
78,94884,Sampaka,72.07.03.2010,Totikum (Totikung),Kabupaten,Banggai Kepulauan,Sulawesi Tengah
79,94884,Sobonon,72.07.03.2007,Totikum (Totikung),Kabupaten,Banggai Kepulauan,Sulawesi Tengah
80,94884,Tone,72.07.03.2014,Totikum (Totikung),Kabupaten,Banggai Kepulauan,Sulawesi Tengah
81,94470,Astina,72.08.09.2003,Torue,Kabupaten,Parigi Moutong,Sulawesi Tengah
82,94470,Purwosari,72.08.09.2004,Torue,Kabupaten,Parigi Moutong,Sulawesi Tengah
83,94470,Tanalanto (Tanah Lanto),72.08.09.2001,Torue,Kabupaten,Parigi Moutong,Sulawesi Tengah
84,94470,Tolai,72.08.09.2005,Torue,Kabupaten,Parigi Moutong,Sulawesi Tengah
85,94470,Tolai Barat,72.08.09.2006,Torue,Kabupaten,Parigi Moutong,Sulawesi Tengah
86,94470,Tolai Timur,72.08.09.2007,Torue,Kabupaten,Parigi Moutong,Sulawesi Tengah
87,94470,Torue,72.08.09.2002,Torue,Kabupaten,Parigi Moutong,Sulawesi Tengah
88,94466,Pinotu,72.08.13.2004,Toribulu,Kabupaten,Parigi Moutong,Sulawesi Tengah
89,94466,Sibalago (Sibolago),72.08.13.2007,Toribulu,Kabupaten,Parigi Moutong,Sulawesi Tengah
90,94466,Sienjo,72.08.13.2003,Toribulu,Kabupaten,Parigi Moutong,Sulawesi Tengah
91,94466,Singura,72.08.13.2005,Toribulu,Kabupaten,Parigi Moutong,Sulawesi Tengah
92,94466,Tomoli,72.08.13.2001,Toribulu,Kabupaten,Parigi Moutong,Sulawesi Tengah
93,94466,Tomoli Selatan (Tomili Selatan),72.08.13.2006,Toribulu,Kabupaten,Parigi Moutong,Sulawesi Tengah
94,94466,Tomoli Utara,72.08.13.2009,Toribulu,Kabupaten,Parigi Moutong,Sulawesi Tengah
95,94466,Toribulu,72.08.13.2002,Toribulu,Kabupaten,Parigi Moutong,Sulawesi Tengah
96,94466,Toribulu Selatan,72.08.13.2008,Toribulu,Kabupaten,Parigi Moutong,Sulawesi Tengah
97,94478,Ambesia,72.08.05.2008,Tomini,Kabupaten,Parigi Moutong,Sulawesi Tengah
98,94478,Ambesia Barat,72.08.05.2027,Tomini,Kabupaten,Parigi Moutong,Sulawesi Tengah
99,94478,Ambesia Selatan,72.08.05.2022,Tomini,Kabupaten,Parigi Moutong,Sulawesi Tengah
100,94478,Biga,72.08.05.2023,Tomini,Kabupaten,Parigi Moutong,Sulawesi Tengah
101,94478,Ogotumubu,72.08.05.2007,Tomini,Kabupaten,Parigi Moutong,Sulawesi Tengah
102,94478,Ogotumubu Barat,72.08.05.2030,Tomini,Kabupaten,Parigi Moutong,Sulawesi Tengah
103,94478,Sipontan,72.08.05.2028,Tomini,Kabupaten,Parigi Moutong,Sulawesi Tengah
104,94478,Supilopong,72.08.05.2026,Tomini,Kabupaten,Parigi Moutong,Sulawesi Tengah
105,94478,Ta'aniuge,72.08.05.2029,Tomini,Kabupaten,Parigi Moutong,Sulawesi Tengah
106,94478,Tilung,72.08.05.2009,Tomini,Kabupaten,Parigi Moutong,Sulawesi Tengah
107,94478,Tingkulang,72.08.05.2005,Tomini,Kabupaten,Parigi Moutong,Sulawesi Tengah
108,94478,Tomini,72.08.05.2006,Tomini,Kabupaten,Parigi Moutong,Sulawesi Tengah
109,94478,Tomini Barat,72.08.05.2025,Tomini,Kabupaten,Parigi Moutong,Sulawesi Tengah
110,94478,Tomini Utara,72.08.05.2024,Tomini,Kabupaten,Parigi Moutong,Sulawesi Tengah
111,94560,Binontoan,72.04.09.2010,Toli-Toli Utara (Tolitoli Utara),Kabupaten,Toli Toli,Sulawesi Tengah
112,94560,Diule,72.04.09.2008,Toli-Toli Utara (Tolitoli Utara),Kabupaten,Toli Toli,Sulawesi Tengah
113,94560,Gio,72.04.09.2014,Toli-Toli Utara (Tolitoli Utara),Kabupaten,Toli Toli,Sulawesi Tengah
114,94560,Lakuan Tolitoli (Lakuan Toli Toli),72.04.09.2011,Toli-Toli Utara (Tolitoli Utara),Kabupaten,Toli Toli,Sulawesi Tengah
115,94560,Laulalang,72.04.09.2006,Toli-Toli Utara (Tolitoli Utara),Kabupaten,Toli Toli,Sulawesi Tengah
116,94560,Pinjan,72.04.09.2009,Toli-Toli Utara (Tolitoli Utara),Kabupaten,Toli Toli,Sulawesi Tengah
117,94560,Salumpaga,72.04.09.2007,Toli-Toli Utara (Tolitoli Utara),Kabupaten,Toli Toli,Sulawesi Tengah
118,94560,Santigi,72.04.09.2005,Toli-Toli Utara (Tolitoli Utara),Kabupaten,Toli Toli,Sulawesi Tengah
119,94560,Teluk Jaya,72.04.09.2013,Toli-Toli Utara (Tolitoli Utara),Kabupaten,Toli Toli,Sulawesi Tengah
120,94560,Timbolo,72.04.09.2012,Toli-Toli Utara (Tolitoli Utara),Kabupaten,Toli Toli,Sulawesi Tengah
121,94680,Bambalo,72.09.07.2003,Tojo Barat,Kabupaten,Tojo Una Una,Sulawesi Tengah
122,94680,Galuga,72.09.07.2004,Tojo Barat,Kabupaten,Tojo Una Una,Sulawesi Tengah
123,94680,Kabalo,72.09.07.2010,Tojo Barat,Kabupaten,Tojo Una Una,Sulawesi Tengah
124,94680,Malei Tojo,72.09.07.2001,Tojo Barat,Kabupaten,Tojo Una Una,Sulawesi Tengah
125,94680,Malewa,72.09.07.2012,Tojo Barat,Kabupaten,Tojo Una Una,Sulawesi Tengah
126,94680,Matako,72.09.07.2002,Tojo Barat,Kabupaten,Tojo Una Una,Sulawesi Tengah
127,94680,Mawomba,72.09.07.2013,Tojo Barat,Kabupaten,Tojo Una Una,Sulawesi Tengah
128,94680,Nggawia,72.09.07.2007,Tojo Barat,Kabupaten,Tojo Una Una,Sulawesi Tengah
129,94680,Tanamawau,72.09.07.2011,Tojo Barat,Kabupaten,Tojo Una Una,Sulawesi Tengah
130,94680,Tatari,72.09.07.2009,Tojo Barat,Kabupaten,Tojo Una Una,Sulawesi Tengah
131,94680,Toliba,72.09.07.2005,Tojo Barat,Kabupaten,Tojo Una Una,Sulawesi Tengah
132,94680,Tombiano,72.09.07.2008,Tojo Barat,Kabupaten,Tojo Una Una,Sulawesi Tengah
133,94680,Ujung Tibu,72.09.07.2006,Tojo Barat,Kabupaten,Tojo Una Una,Sulawesi Tengah
134,94681,Bahari,72.09.08.2016,Tojo,Kabupaten,Tojo Una Una,Sulawesi Tengah
135,94681,Banano,72.09.08.2015,Tojo,Kabupaten,Tojo Una Una,Sulawesi Tengah
136,94681,Betaua,72.09.08.2005,Tojo,Kabupaten,Tojo Una Una,Sulawesi Tengah
137,94681,Buyuntaripa,72.09.08.2017,Tojo,Kabupaten,Tojo Una Una,Sulawesi Tengah
138,94681,Dataran Bugi,72.09.08.2012,Tojo,Kabupaten,Tojo Una Una,Sulawesi Tengah
139,94681,Kalemba,72.09.08.2018,Tojo,Kabupaten,Tojo Una Una,Sulawesi Tengah
140,94681,Korondoda,72.09.08.2002,Tojo,Kabupaten,Tojo Una Una,Sulawesi Tengah
141,94681,Lemoro,72.09.08.2001,Tojo,Kabupaten,Tojo Una Una,Sulawesi Tengah
142,94681,Pancuma,72.09.08.2009,Tojo,Kabupaten,Tojo Una Una,Sulawesi Tengah
143,94681,Podi,72.09.08.2011,Tojo,Kabupaten,Tojo Una Una,Sulawesi Tengah
144,94681,Sandada,72.09.08.2007,Tojo,Kabupaten,Tojo Una Una,Sulawesi Tengah
145,94681,Tayawa,72.09.08.2003,Tojo,Kabupaten,Tojo Una Una,Sulawesi Tengah
146,94681,Tojo,72.09.08.2008,Tojo,Kabupaten,Tojo Una Una,Sulawesi Tengah
147,94681,Tongku,72.09.08.2010,Tojo,Kabupaten,Tojo Una Una,Sulawesi Tengah
148,94681,Uedele,72.09.08.2006,Tojo,Kabupaten,Tojo Una Una,Sulawesi Tengah
149,94681,Uekuli,72.09.08.2004,Tojo,Kabupaten,Tojo Una Una,Sulawesi Tengah
150,94766,Bukit Makarti,72.01.12.2013,Toili Barat,Kabupaten,Banggai,Sulawesi Tengah
151,94766,Bumi Harapan,72.01.12.2015,Toili Barat,Kabupaten,Banggai,Sulawesi Tengah
152,94766,Dongin,72.01.12.2001,Toili Barat,Kabupaten,Banggai,Sulawesi Tengah
153,94766,Gunung Kramat,72.01.12.2010,Toili Barat,Kabupaten,Banggai,Sulawesi Tengah
154,94766,Kami Wangi,72.01.12.2003,Toili Barat,Kabupaten,Banggai,Sulawesi Tengah
155,94766,Karya Makmur,72.01.12.2006,Toili Barat,Kabupaten,Banggai,Sulawesi Tengah
156,94766,Lembah Kramat,72.01.12.2011,Toili Barat,Kabupaten,Banggai,Sulawesi Tengah
157,94766,Makapa,72.01.12.2005,Toili Barat,Kabupaten,Banggai,Sulawesi Tengah
158,94766,Mantawa,72.01.12.2007,Toili Barat,Kabupaten,Banggai,Sulawesi Tengah
159,94766,Mantawa Bonebae (Bonebai),72.01.12.2009,Toili Barat,Kabupaten,Banggai,Sulawesi Tengah
160,94766,Mekar Jaya,72.01.12.2017,Toili Barat,Kabupaten,Banggai,Sulawesi Tengah
161,94766,Mekar Sari,72.01.12.2016,Toili Barat,Kabupaten,Banggai,Sulawesi Tengah
162,94766,Pandan Wangi,72.01.12.2002,Toili Barat,Kabupaten,Banggai,Sulawesi Tengah
163,94766,Pasir Lamba,72.01.12.2008,Toili Barat,Kabupaten,Banggai,Sulawesi Tengah
164,94766,Rata,72.01.12.2012,Toili Barat,Kabupaten,Banggai,Sulawesi Tengah
165,94766,Sindang Sari,72.01.12.2004,Toili Barat,Kabupaten,Banggai,Sulawesi Tengah
166,94766,Uwe Lolu (Uwelolu),72.01.12.2014,Toili Barat,Kabupaten,Banggai,Sulawesi Tengah
167,94764,Benteng (Bentang),72.01.09.2038,Toili,Kabupaten,Banggai,Sulawesi Tengah
168,94764,Bukit Jaya,72.01.09.2027,Toili,Kabupaten,Banggai,Sulawesi Tengah
169,94764,Cendana,72.01.09.1054,Toili,Kabupaten,Banggai,Sulawesi Tengah
170,94764,Cendana Pura (Cendanapura),72.01.09.2001,Toili,Kabupaten,Banggai,Sulawesi Tengah
171,94764,Jaya Kencana,72.01.09.2047,Toili,Kabupaten,Banggai,Sulawesi Tengah
172,94764,Mansahang,72.01.09.2039,Toili,Kabupaten,Banggai,Sulawesi Tengah
173,94764,Marga Kencana,72.01.09.2049,Toili,Kabupaten,Banggai,Sulawesi Tengah
174,94764,Mekar Kencana,72.01.09.2048,Toili,Kabupaten,Banggai,Sulawesi Tengah
175,94764,Mulya Sari,72.01.09.2055,Toili,Kabupaten,Banggai,Sulawesi Tengah
176,94764,Piondo,72.01.09.2016,Toili,Kabupaten,Banggai,Sulawesi Tengah
177,94764,Rusa Kencana,72.01.09.2026,Toili,Kabupaten,Banggai,Sulawesi Tengah
178,94764,Samalore,72.01.09.2036,Toili,Kabupaten,Banggai,Sulawesi Tengah
179,94764,Sari Buana,72.01.09.2050,Toili,Kabupaten,Banggai,Sulawesi Tengah
180,94764,Sentral Sari,72.01.09.2011,Toili,Kabupaten,Banggai,Sulawesi Tengah
181,94764,Sentral Timur,72.01.09.2051,Toili,Kabupaten,Banggai,Sulawesi Tengah
182,94764,Sidomukti,72.01.09.2057,Toili,Kabupaten,Banggai,Sulawesi Tengah
183,94764,Sindang Baru,72.01.09.2041,Toili,Kabupaten,Banggai,Sulawesi Tengah
184,94764,Singkoyo,72.01.09.2014,Toili,Kabupaten,Banggai,Sulawesi Tengah
185,94764,Tanah Abang,72.01.09.2045,Toili,Kabupaten,Banggai,Sulawesi Tengah
186,94764,Tirta Jaya,72.01.09.2056,Toili,Kabupaten,Banggai,Sulawesi Tengah
187,94764,Tirta Kencana,72.01.09.2013,Toili,Kabupaten,Banggai,Sulawesi Tengah
188,94764,Tirta Sari,72.01.09.2017,Toili,Kabupaten,Banggai,Sulawesi Tengah
189,94764,Tohiti Sari,72.01.09.2012,Toili,Kabupaten,Banggai,Sulawesi Tengah
190,94764,Tolisu,72.01.09.2015,Toili,Kabupaten,Banggai,Sulawesi Tengah
191,94764,Ue Mea (Uwe Mea),72.01.09.2037,Toili,Kabupaten,Banggai,Sulawesi Tengah
192,94686,Awo,72.09.02.2007,Togean,Kabupaten,Tojo Una Una,Sulawesi Tengah
193,94686,Bangkagi,72.09.02.2003,Togean,Kabupaten,Tojo Una Una,Sulawesi Tengah
194,94686,Baulu,72.09.02.2013,Togean,Kabupaten,Tojo Una Una,Sulawesi Tengah
195,94686,Benteng,72.09.02.2002,Togean,Kabupaten,Tojo Una Una,Sulawesi Tengah
196,94686,Bungayo,72.09.02.2001,Togean,Kabupaten,Tojo Una Una,Sulawesi Tengah
197,94686,Katupat,72.09.02.2006,Togean,Kabupaten,Tojo Una Una,Sulawesi Tengah
198,94686,Kololio,72.09.02.2008,Togean,Kabupaten,Tojo Una Una,Sulawesi Tengah
199,94686,Lebiti,72.09.02.2011,Togean,Kabupaten,Tojo Una Una,Sulawesi Tengah
200,94686,Lembanato,72.09.02.2010,Togean,Kabupaten,Tojo Una Una,Sulawesi Tengah
201,94686,Motobiai,72.09.02.2014,Togean,Kabupaten,Tojo Una Una,Sulawesi Tengah
202,94686,Pulau Enam,72.09.02.2005,Togean,Kabupaten,Tojo Una Una,Sulawesi Tengah
203,94686,Sampobae,72.09.02.2015,Togean,Kabupaten,Tojo Una Una,Sulawesi Tengah
204,94686,Titiri'i,72.09.02.2016,Togean,Kabupaten,Tojo Una Una,Sulawesi Tengah
205,94686,Tobil,72.09.02.2012,Togean,Kabupaten,Tojo Una Una,Sulawesi Tengah
206,94686,Tongkabo,72.09.02.2004,Togean,Kabupaten,Tojo Una Una,Sulawesi Tengah
207,94686,Urulepe,72.09.02.2009,Togean,Kabupaten,Tojo Una Una,Sulawesi Tengah
208,94468,Khatulistiwa,72.08.10.2010,Tinombo Selatan,Kabupaten,Parigi Moutong,Sulawesi Tengah
209,94468,Malanggo,72.08.10.2005,Tinombo Selatan,Kabupaten,Parigi Moutong,Sulawesi Tengah
210,94468,Malanggo Pesisir,72.08.10.2015,Tinombo Selatan,Kabupaten,Parigi Moutong,Sulawesi Tengah
211,94468,Maninili,72.08.10.2003,Tinombo Selatan,Kabupaten,Parigi Moutong,Sulawesi Tengah
212,94468,Maninili Barat,72.08.10.2016,Tinombo Selatan,Kabupaten,Parigi Moutong,Sulawesi Tengah
213,94468,Maninili Utara,72.08.10.2017,Tinombo Selatan,Kabupaten,Parigi Moutong,Sulawesi Tengah
214,94468,Oncone Raya,72.08.10.2020,Tinombo Selatan,Kabupaten,Parigi Moutong,Sulawesi Tengah
215,94468,Poly (Polly),72.08.10.2011,Tinombo Selatan,Kabupaten,Parigi Moutong,Sulawesi Tengah
216,94468,Siaga,72.08.10.2009,Tinombo Selatan,Kabupaten,Parigi Moutong,Sulawesi Tengah
217,94468,Sigega Bersehati,72.08.10.2008,Tinombo Selatan,Kabupaten,Parigi Moutong,Sulawesi Tengah
218,94468,Sigenti,72.08.10.2004,Tinombo Selatan,Kabupaten,Parigi Moutong,Sulawesi Tengah
219,94468,Sigenti Barat,72.08.10.2014,Tinombo Selatan,Kabupaten,Parigi Moutong,Sulawesi Tengah
220,94468,Sigenti Selatan,72.08.10.2012,Tinombo Selatan,Kabupaten,Parigi Moutong,Sulawesi Tengah
221,94468,Silutung,72.08.10.2006,Tinombo Selatan,Kabupaten,Parigi Moutong,Sulawesi Tengah
222,94468,Sinei,72.08.10.2002,Tinombo Selatan,Kabupaten,Parigi Moutong,Sulawesi Tengah
223,94468,Siney Tengah,72.08.10.2018,Tinombo Selatan,Kabupaten,Parigi Moutong,Sulawesi Tengah
224,94468,Tada,72.08.10.2001,Tinombo Selatan,Kabupaten,Parigi Moutong,Sulawesi Tengah
225,94468,Tada Selatan,72.08.10.2007,Tinombo Selatan,Kabupaten,Parigi Moutong,Sulawesi Tengah
226,94468,Tada Timur,72.08.10.2013,Tinombo Selatan,Kabupaten,Parigi Moutong,Sulawesi Tengah
227,94468,Tada Utara,72.08.10.2019,Tinombo Selatan,Kabupaten,Parigi Moutong,Sulawesi Tengah
228,94465,Ambason Mekar,72.08.03.2029,Tinombo,Kabupaten,Parigi Moutong,Sulawesi Tengah
229,94465,Bainaa,72.08.03.2008,Tinombo,Kabupaten,Parigi Moutong,Sulawesi Tengah
230,94465,Bainaa Barat,72.08.03.2019,Tinombo,Kabupaten,Parigi Moutong,Sulawesi Tengah
231,94465,Dongkas,72.08.03.2009,Tinombo,Kabupaten,Parigi Moutong,Sulawesi Tengah
232,94465,Dusunan,72.08.03.2012,Tinombo,Kabupaten,Parigi Moutong,Sulawesi Tengah
233,94465,Dusunan Barat,72.08.03.2030,Tinombo,Kabupaten,Parigi Moutong,Sulawesi Tengah
234,94465,Lombok,72.08.03.2011,Tinombo,Kabupaten,Parigi Moutong,Sulawesi Tengah
235,94465,Lombok Barat,72.08.03.2022,Tinombo,Kabupaten,Parigi Moutong,Sulawesi Tengah
236,94465,Ogoalas,72.08.03.2021,Tinombo,Kabupaten,Parigi Moutong,Sulawesi Tengah
237,94465,Patingke,72.08.03.2031,Tinombo,Kabupaten,Parigi Moutong,Sulawesi Tengah
238,94465,Siavu,72.08.03.2028,Tinombo,Kabupaten,Parigi Moutong,Sulawesi Tengah
239,94465,Silabia,72.08.03.2027,Tinombo,Kabupaten,Parigi Moutong,Sulawesi Tengah
240,94465,Taipaobal,72.08.03.2033,Tinombo,Kabupaten,Parigi Moutong,Sulawesi Tengah
241,94465,Tibu,72.08.03.2013,Tinombo,Kabupaten,Parigi Moutong,Sulawesi Tengah
242,94465,Tinombo,72.08.03.2010,Tinombo,Kabupaten,Parigi Moutong,Sulawesi Tengah
243,94886,Bampanga,72.07.19.2006,Tinangkung Utara,Kabupaten,Banggai Kepulauan,Sulawesi Tengah
244,94886,Lalong,72.07.19.2002,Tinangkung Utara,Kabupaten,Banggai Kepulauan,Sulawesi Tengah
245,94886,Luksagu (Luk Sagu),72.07.19.2004,Tinangkung Utara,Kabupaten,Banggai Kepulauan,Sulawesi Tengah
246,94886,Palam,72.07.19.2005,Tinangkung Utara,Kabupaten,Banggai Kepulauan,Sulawesi Tengah
247,94886,Ponding-Ponding,72.07.19.2003,Tinangkung Utara,Kabupaten,Banggai Kepulauan,Sulawesi Tengah
248,94886,Tatakalai,72.07.19.2001,Tinangkung Utara,Kabupaten,Banggai Kepulauan,Sulawesi Tengah
249,94885,Bobu,72.07.11.2009,Tinangkung Selatan,Kabupaten,Banggai Kepulauan,Sulawesi Tengah
250,94885,Gansal,72.07.11.2008,Tinangkung Selatan,Kabupaten,Banggai Kepulauan,Sulawesi Tengah
251,94714,Kampung Baru,72.07.11.2006,Tinangkung Selatan,Kabupaten,Banggai Kepulauan,Sulawesi Tengah
252,94885,Mansamat A,72.07.11.2004,Tinangkung Selatan,Kabupaten,Banggai Kepulauan,Sulawesi Tengah
253,94885,Mansamat B,72.07.11.2005,Tinangkung Selatan,Kabupaten,Banggai Kepulauan,Sulawesi Tengah
254,94885,Paisumusoni (Paisumosoni),72.07.11.2002,Tinangkung Selatan,Kabupaten,Banggai Kepulauan,Sulawesi Tengah
255,94885,Tinangkung,72.07.11.2007,Tinangkung Selatan,Kabupaten,Banggai Kepulauan,Sulawesi Tengah
256,94885,Tobing,72.07.11.2001,Tinangkung Selatan,Kabupaten,Banggai Kepulauan,Sulawesi Tengah
257,94885,Tobungin,72.07.11.2003,Tinangkung Selatan,Kabupaten,Banggai Kepulauan,Sulawesi Tengah
258,94885,Ambelang,72.07.04.2010,Tinangkung,Kabupaten,Banggai Kepulauan,Sulawesi Tengah
259,94885,Baka,72.07.04.2014,Tinangkung,Kabupaten,Banggai Kepulauan,Sulawesi Tengah
260,94885,Bakalan,72.07.04.2017,Tinangkung,Kabupaten,Banggai Kepulauan,Sulawesi Tengah
261,94885,Bongganan,72.07.04.2013,Tinangkung,Kabupaten,Banggai Kepulauan,Sulawesi Tengah
262,94885,Bulungkobit,72.07.04.2016,Tinangkung,Kabupaten,Banggai Kepulauan,Sulawesi Tengah
263,94885,Bungin,72.07.04.2022,Tinangkung,Kabupaten,Banggai Kepulauan,Sulawesi Tengah
264,94885,Kautu,72.07.04.2018,Tinangkung,Kabupaten,Banggai Kepulauan,Sulawesi Tengah
265,94885,Manggalai,72.07.04.2009,Tinangkung,Kabupaten,Banggai Kepulauan,Sulawesi Tengah
266,94885,Saiyong,72.07.04.2011,Tinangkung,Kabupaten,Banggai Kepulauan,Sulawesi Tengah
267,94885,Salakan,72.07.04.1015,Tinangkung,Kabupaten,Banggai Kepulauan,Sulawesi Tengah
268,94885,Tompudau,72.07.04.2012,Tinangkung,Kabupaten,Banggai Kepulauan,Sulawesi Tengah
269,94566,Air Terang (Airterang),72.05.07.2003,Tiloan,Kabupaten,Buol,Sulawesi Tengah
270,94566,Balau,72.05.07.2007,Tiloan,Kabupaten,Buol,Sulawesi Tengah
271,94566,Boilan,72.05.07.2001,Tiloan,Kabupaten,Buol,Sulawesi Tengah
272,94566,Jatimulya (Jatimulyo),72.05.07.2005,Tiloan,Kabupaten,Buol,Sulawesi Tengah
273,94566,Kokobuka,72.05.07.2002,Tiloan,Kabupaten,Buol,Sulawesi Tengah
274,94566,Lomuli,72.05.07.2006,Tiloan,Kabupaten,Buol,Sulawesi Tengah
275,94566,Maniala,72.05.07.2008,Tiloan,Kabupaten,Buol,Sulawesi Tengah
276,94566,Monggonit,72.05.07.2009,Tiloan,Kabupaten,Buol,Sulawesi Tengah
277,94566,Panilan Jaya,72.05.07.2004,Tiloan,Kabupaten,Buol,Sulawesi Tengah
278,94142,Baiya,72.71.07.1003,Tawaeli,Kota,Palu,Sulawesi Tengah
279,94141,Lambara,72.71.07.1004,Tawaeli,Kota,Palu,Sulawesi Tengah
280,94141,Panawu (Panau),72.71.07.1005,Tawaeli,Kota,Palu,Sulawesi Tengah
281,94143,Pantoloan,72.71.07.1001,Tawaeli,Kota,Palu,Sulawesi Tengah
282,94143,Pantoloan Boya,72.71.07.1002,Tawaeli,Kota,Palu,Sulawesi Tengah
283,94221,Boyaoge,72.71.06.1006,Tatanga,Kota,Palu,Sulawesi Tengah
284,94225,Duyu,72.71.06.1005,Tatanga,Kota,Palu,Sulawesi Tengah
285,94222,Nunu,72.71.06.1001,Tatanga,Kota,Palu,Sulawesi Tengah
286,94238,Palupi,72.71.06.1002,Tatanga,Kota,Palu,Sulawesi Tengah
287,94239,Pengawu,72.71.06.1004,Tatanga,Kota,Palu,Sulawesi Tengah
288,94237,Tawanjuka,72.71.06.1003,Tatanga,Kota,Palu,Sulawesi Tengah
289,94483,Bilalea,72.08.14.2008,Taopa,Kabupaten,Parigi Moutong,Sulawesi Tengah
290,94483,Karya Abadi,72.08.14.2011,Taopa,Kabupaten,Parigi Moutong,Sulawesi Tengah
291,94483,Karya Agung,72.08.14.2001,Taopa,Kabupaten,Parigi Moutong,Sulawesi Tengah
292,94483,Nunurantai,72.08.14.2002,Taopa,Kabupaten,Parigi Moutong,Sulawesi Tengah
293,94483,Palapi,72.08.14.2003,Taopa,Kabupaten,Parigi Moutong,Sulawesi Tengah
294,94483,Paria,72.08.14.2010,Taopa,Kabupaten,Parigi Moutong,Sulawesi Tengah
295,94483,Taopa,72.08.14.2004,Taopa,Kabupaten,Parigi Moutong,Sulawesi Tengah
296,94483,Taopa Barat,72.08.14.2009,Taopa,Kabupaten,Parigi Moutong,Sulawesi Tengah
297,94483,Taopa Utara,72.08.14.2007,Taopa,Kabupaten,Parigi Moutong,Sulawesi Tengah
298,94483,Tompo,72.08.14.2006,Taopa,Kabupaten,Parigi Moutong,Sulawesi Tengah
299,94483,Tuladenggi Sibatang,72.08.14.2005,Taopa,Kabupaten,Parigi Moutong,Sulawesi Tengah
300,94342,Bale,72.03.19.2006,Tanantovea,Kabupaten,Donggala,Sulawesi Tengah
301,94342,Guntarano,72.03.19.2005,Tanantovea,Kabupaten,Donggala,Sulawesi Tengah
302,94342,Nupa Bomba,72.03.19.2003,Tanantovea,Kabupaten,Donggala,Sulawesi Tengah
303,94342,Wani Dua / II,72.03.19.2002,Tanantovea,Kabupaten,Donggala,Sulawesi Tengah
304,94342,Wani Lumbumpetigo,72.03.19.2010,Tanantovea,Kabupaten,Donggala,Sulawesi Tengah
305,94342,Wani Satu / I,72.03.19.2001,Tanantovea,Kabupaten,Donggala,Sulawesi Tengah
306,94342,Wani Tiga,72.03.19.2009,Tanantovea,Kabupaten,Donggala,Sulawesi Tengah
307,94342,Wombo,72.03.19.2004,Tanantovea,Kabupaten,Donggala,Sulawesi Tengah
308,94342,Wombo Kalonggo,72.03.19.2008,Tanantovea,Kabupaten,Donggala,Sulawesi Tengah
309,94342,Wombo Mpanau (Panau),72.03.19.2007,Tanantovea,Kabupaten,Donggala,Sulawesi Tengah
310,94368,Lambara,72.10.10.2001,Tanambulava,Kabupaten,Sigi,Sulawesi Tengah
311,94368,Sibalaya Barat,72.10.10.2005,Tanambulava,Kabupaten,Sigi,Sulawesi Tengah
312,94368,Sibalaya Selatan,72.10.10.2002,Tanambulava,Kabupaten,Sigi,Sulawesi Tengah
313,94368,Sibalaya Utara,72.10.10.2003,Tanambulava,Kabupaten,Sigi,Sulawesi Tengah
314,94368,Sibowi,72.10.10.2004,Tanambulava,Kabupaten,Sigi,Sulawesi Tengah
315,94692,Kabalutan,72.09.12.2005,Talatako,Kabupaten,Tojo Una Una,Sulawesi Tengah
316,94692,Kadoda,72.09.12.2006,Talatako,Kabupaten,Tojo Una Una,Sulawesi Tengah
317,94692,Kalia,72.09.12.2001,Talatako,Kabupaten,Tojo Una Una,Sulawesi Tengah
318,94692,Malenge,72.09.12.2002,Talatako,Kabupaten,Tojo Una Una,Sulawesi Tengah
319,94692,Pautu,72.09.12.2003,Talatako,Kabupaten,Tojo Una Una,Sulawesi Tengah
320,94692,Tumotok,72.09.12.2004,Talatako,Kabupaten,Tojo Una Una,Sulawesi Tengah
321,94969,Bau,72.12.07.2007,Soyo Jaya,Kabupaten,Morowali Utara,Sulawesi Tengah
322,94969,Lembah Sumara (Lembasumara),72.12.07.2001,Soyo Jaya,Kabupaten,Morowali Utara,Sulawesi Tengah
323,94969,Malino,72.12.07.2004,Soyo Jaya,Kabupaten,Morowali Utara,Sulawesi Tengah
324,94969,Malino Jaya,72.12.07.2008,Soyo Jaya,Kabupaten,Morowali Utara,Sulawesi Tengah
325,94969,Panca Makmur,72.12.07.2005,Soyo Jaya,Kabupaten,Morowali Utara,Sulawesi Tengah
326,94969,Sumara Jaya,72.12.07.2002,Soyo Jaya,Kabupaten,Morowali Utara,Sulawesi Tengah
327,94969,Tamainusi,72.12.07.2006,Soyo Jaya,Kabupaten,Morowali Utara,Sulawesi Tengah
328,94969,Tambayoli,72.12.07.2003,Soyo Jaya,Kabupaten,Morowali Utara,Sulawesi Tengah
329,94969,Tandoyondo,72.12.07.2010,Soyo Jaya,Kabupaten,Morowali Utara,Sulawesi Tengah
330,94969,Toddopoli Uebangke (Toddopuli Uebangke),72.12.07.2009,Soyo Jaya,Kabupaten,Morowali Utara,Sulawesi Tengah
331,94358,Bengkoli,72.03.30.2005,Sojol Utara,Kabupaten,Donggala,Sulawesi Tengah
332,94358,Lenju,72.03.30.2003,Sojol Utara,Kabupaten,Donggala,Sulawesi Tengah
333,94358,Ogoamas I,72.03.30.2001,Sojol Utara,Kabupaten,Donggala,Sulawesi Tengah
334,94358,Ogoamas II,72.03.30.2002,Sojol Utara,Kabupaten,Donggala,Sulawesi Tengah
335,94358,Pesik,72.03.30.2004,Sojol Utara,Kabupaten,Donggala,Sulawesi Tengah
336,94357,Balukang,72.03.14.2001,Sojol,Kabupaten,Donggala,Sulawesi Tengah
337,94357,Balukang II,72.03.14.2014,Sojol,Kabupaten,Donggala,Sulawesi Tengah
338,94357,Bou,72.03.14.2005,Sojol,Kabupaten,Donggala,Sulawesi Tengah
339,94357,Bukit Harapan,72.03.14.2012,Sojol,Kabupaten,Donggala,Sulawesi Tengah
340,94357,Pangalasiang (Panggalasiang / Pangalaseang),72.03.14.2013,Sojol,Kabupaten,Donggala,Sulawesi Tengah
341,94357,Samalili,72.03.14.2011,Sojol,Kabupaten,Donggala,Sulawesi Tengah
342,94357,Siboalong (Siboang),72.03.14.2003,Sojol,Kabupaten,Donggala,Sulawesi Tengah
343,94357,Siwalempu,72.03.14.2002,Sojol,Kabupaten,Donggala,Sulawesi Tengah
344,94357,Tonggolobibi,72.03.14.2004,Sojol,Kabupaten,Donggala,Sulawesi Tengah
345,94354,Balintuma,72.03.11.2007,Sirenja,Kabupaten,Donggala,Sulawesi Tengah
346,94354,Dampal,72.03.11.2004,Sirenja,Kabupaten,Donggala,Sulawesi Tengah
347,94354,Jonooge,72.03.11.2003,Sirenja,Kabupaten,Donggala,Sulawesi Tengah
348,94354,Lende,72.03.11.2011,Sirenja,Kabupaten,Donggala,Sulawesi Tengah
349,94354,Lende Tovea,72.03.11.2012,Sirenja,Kabupaten,Donggala,Sulawesi Tengah
350,94354,Lompio,72.03.11.2010,Sirenja,Kabupaten,Donggala,Sulawesi Tengah
351,94354,Ombo,72.03.11.2001,Sirenja,Kabupaten,Donggala,Sulawesi Tengah
352,94354,Sibado,72.03.11.2008,Sirenja,Kabupaten,Donggala,Sulawesi Tengah
353,94354,Sipi,72.03.11.2005,Sirenja,Kabupaten,Donggala,Sulawesi Tengah
354,94354,Tanjung Padang,72.03.11.2006,Sirenja,Kabupaten,Donggala,Sulawesi Tengah
355,94354,Tompe,72.03.11.2009,Sirenja,Kabupaten,Donggala,Sulawesi Tengah
356,94354,Tondo,72.03.11.2002,Sirenja,Kabupaten,Donggala,Sulawesi Tengah
357,94354,Ujumbou. (Ujumbo),72.03.11.2013,Sirenja,Kabupaten,Donggala,Sulawesi Tengah
358,94467,Marantale,72.08.17.2001,Siniu,Kabupaten,Parigi Moutong,Sulawesi Tengah
359,94467,Silanga,72.08.17.2003,Siniu,Kabupaten,Parigi Moutong,Sulawesi Tengah
360,94467,Silanga Barat,72.08.17.2009,Siniu,Kabupaten,Parigi Moutong,Sulawesi Tengah
361,94467,Siniu,72.08.17.2004,Siniu,Kabupaten,Parigi Moutong,Sulawesi Tengah
362,94467,Siniu Sayogindano,72.08.17.2008,Siniu,Kabupaten,Parigi Moutong,Sulawesi Tengah
363,94467,Tandaigi,72.08.17.2002,Siniu,Kabupaten,Parigi Moutong,Sulawesi Tengah
364,94467,Toraranga,72.08.17.2006,Siniu,Kabupaten,Parigi Moutong,Sulawesi Tengah
365,94467,Towera,72.08.17.2005,Siniu,Kabupaten,Parigi Moutong,Sulawesi Tengah
366,94467,Uevolo,72.08.17.2007,Siniu,Kabupaten,Parigi Moutong,Sulawesi Tengah
367,94344,Batusuya,72.03.24.2003,Sindue Tombusabora,Kabupaten,Donggala,Sulawesi Tengah
368,94344,Batusuya Go'o,72.03.24.2005,Sindue Tombusabora,Kabupaten,Donggala,Sulawesi Tengah
369,94344,Kaliburu,72.03.24.2002,Sindue Tombusabora,Kabupaten,Donggala,Sulawesi Tengah
370,94344,Kaliburu Kata,72.03.24.2006,Sindue Tombusabora,Kabupaten,Donggala,Sulawesi Tengah
371,94344,Saloya,72.03.24.2004,Sindue Tombusabora,Kabupaten,Donggala,Sulawesi Tengah
372,94344,Tibo,72.03.24.2001,Sindue Tombusabora,Kabupaten,Donggala,Sulawesi Tengah
373,94343,Alindau,72.03.25.2002,Sindue Tobata,Kabupaten,Donggala,Sulawesi Tengah
374,94343,Oti,72.03.25.2003,Sindue Tobata,Kabupaten,Donggala,Sulawesi Tengah
375,94343,Sikara Tobata,72.03.25.2001,Sindue Tobata,Kabupaten,Donggala,Sulawesi Tengah
376,94343,Sindosa,72.03.25.2006,Sindue Tobata,Kabupaten,Donggala,Sulawesi Tengah
377,94343,Sipeso,72.03.25.2005,Sindue Tobata,Kabupaten,Donggala,Sulawesi Tengah
378,94343,Tamarenja,72.03.25.2004,Sindue Tobata,Kabupaten,Donggala,Sulawesi Tengah
379,94353,Ape Maliko (Amal),72.03.10.2019,Sindue,Kabupaten,Donggala,Sulawesi Tengah
380,94353,Dalaka,72.03.10.2001,Sindue,Kabupaten,Donggala,Sulawesi Tengah
381,94353,Enu,72.03.10.2008,Sindue,Kabupaten,Donggala,Sulawesi Tengah
382,94353,Gumbasa (Kumbasa),72.03.10.2018,Sindue,Kabupaten,Donggala,Sulawesi Tengah
383,94353,Kavaya,72.03.10.2020,Sindue,Kabupaten,Donggala,Sulawesi Tengah
384,94353,Lero,72.03.10.2002,Sindue,Kabupaten,Donggala,Sulawesi Tengah
385,94353,Lero Tatari,72.03.10.2016,Sindue,Kabupaten,Donggala,Sulawesi Tengah
386,94353,Marana,72.03.10.2007,Sindue,Kabupaten,Donggala,Sulawesi Tengah
387,94353,Masaingi,72.03.10.2006,Sindue,Kabupaten,Donggala,Sulawesi Tengah
388,94353,Sumari,72.03.10.2004,Sindue,Kabupaten,Donggala,Sulawesi Tengah
389,94353,Taripa,72.03.10.2003,Sindue,Kabupaten,Donggala,Sulawesi Tengah
390,94353,Toaya,72.03.10.2005,Sindue,Kabupaten,Donggala,Sulawesi Tengah
391,94353,Toaya Vunta/Funta,72.03.10.2017,Sindue,Kabupaten,Donggala,Sulawesi Tengah
392,94755,Beringin Jaya,72.01.17.2001,Simpang Raya,Kabupaten,Banggai,Sulawesi Tengah
393,94755,Doda Bunta,72.01.17.2006,Simpang Raya,Kabupaten,Banggai,Sulawesi Tengah
394,94755,Dowiwi,72.01.17.2009,Simpang Raya,Kabupaten,Banggai,Sulawesi Tengah
395,94755,Dwipa Karya,72.01.17.2011,Simpang Raya,Kabupaten,Banggai,Sulawesi Tengah
396,94755,Gonohop,72.01.17.2004,Simpang Raya,Kabupaten,Banggai,Sulawesi Tengah
397,94755,Koninis,72.01.17.2003,Simpang Raya,Kabupaten,Banggai,Sulawesi Tengah
398,94755,Lokait,72.01.17.2012,Simpang Raya,Kabupaten,Banggai,Sulawesi Tengah
399,94755,Mantan A,72.01.17.2010,Simpang Raya,Kabupaten,Banggai,Sulawesi Tengah
400,94755,Rantau Jaya,72.01.17.2002,Simpang Raya,Kabupaten,Banggai,Sulawesi Tengah
401,94755,Simpang Dua,72.01.17.2008,Simpang Raya,Kabupaten,Banggai,Sulawesi Tengah
402,94755,Simpang Satu,72.01.17.2007,Simpang Raya,Kabupaten,Banggai,Sulawesi Tengah
403,94755,Sumber Mulia,72.01.17.2005,Simpang Raya,Kabupaten,Banggai,Sulawesi Tengah
404,94367,Bora,72.10.01.2003,Sigi Biromaru,Kabupaten,Sigi,Sulawesi Tengah
405,94367,Jono Oge,72.10.01.2008,Sigi Biromaru,Kabupaten,Sigi,Sulawesi Tengah
406,94367,Kalukubula,72.10.01.2009,Sigi Biromaru,Kabupaten,Sigi,Sulawesi Tengah
407,94367,Lolu,72.10.01.2010,Sigi Biromaru,Kabupaten,Sigi,Sulawesi Tengah
408,94367,Loru,72.10.01.2012,Sigi Biromaru,Kabupaten,Sigi,Sulawesi Tengah
409,94367,Maranatha,72.10.01.2015,Sigi Biromaru,Kabupaten,Sigi,Sulawesi Tengah
410,94367,Mpanau,72.10.01.2013,Sigi Biromaru,Kabupaten,Sigi,Sulawesi Tengah
411,94367,Ngatabaru,72.10.01.2014,Sigi Biromaru,Kabupaten,Sigi,Sulawesi Tengah
412,94367,Olobuju,72.10.01.2005,Sigi Biromaru,Kabupaten,Sigi,Sulawesi Tengah
413,94367,Pombewe,72.10.01.2011,Sigi Biromaru,Kabupaten,Sigi,Sulawesi Tengah
414,94367,Sidera,72.10.01.2007,Sigi Biromaru,Kabupaten,Sigi,Sulawesi Tengah
415,94367,Sidondo I,72.10.01.2002,Sigi Biromaru,Kabupaten,Sigi,Sulawesi Tengah
416,94367,Sidondo II,72.10.01.2001,Sigi Biromaru,Kabupaten,Sigi,Sulawesi Tengah
417,94367,Sidondo III,72.10.01.2016,Sigi Biromaru,Kabupaten,Sigi,Sulawesi Tengah
418,94367,Sidondo IV,72.10.01.2017,Sigi Biromaru,Kabupaten,Sigi,Sulawesi Tengah
419,94367,Soulowe,72.10.01.2006,Sigi Biromaru,Kabupaten,Sigi,Sulawesi Tengah
420,94367,Watunonju,72.10.01.2004,Sigi Biromaru,Kabupaten,Sigi,Sulawesi Tengah
421,94475,Bainaa Selatan,72.08.23.2010,Sidoan,Kabupaten,Parigi Moutong,Sulawesi Tengah
422,94475,Bondoyong,72.08.23.2003,Sidoan,Kabupaten,Parigi Moutong,Sulawesi Tengah
423,94475,Lado,72.08.23.2001,Sidoan,Kabupaten,Parigi Moutong,Sulawesi Tengah
424,94475,Muara Jaya,72.08.23.2009,Sidoan,Kabupaten,Parigi Moutong,Sulawesi Tengah
425,94475,Ogobagis,72.08.23.2008,Sidoan,Kabupaten,Parigi Moutong,Sulawesi Tengah
426,94475,Sidoan,72.08.23.2006,Sidoan,Kabupaten,Parigi Moutong,Sulawesi Tengah
427,94475,Sidoan Barat,72.08.23.2007,Sidoan,Kabupaten,Parigi Moutong,Sulawesi Tengah
428,94475,Sidoan Selatan,72.08.23.2004,Sidoan,Kabupaten,Parigi Moutong,Sulawesi Tengah
429,94475,Sidoan Timur,72.08.23.2005,Sidoan,Kabupaten,Parigi Moutong,Sulawesi Tengah
430,94475,Sintuwu Raya,72.08.23.2011,Sidoan,Kabupaten,Parigi Moutong,Sulawesi Tengah
431,94475,Sipayo,72.08.23.2002,Sidoan,Kabupaten,Parigi Moutong,Sulawesi Tengah
432,94472,Maleali (Maleyali),72.08.06.2010,Sausu,Kabupaten,Parigi Moutong,Sulawesi Tengah
433,94472,Sausu Auma,72.08.06.2019,Sausu,Kabupaten,Parigi Moutong,Sulawesi Tengah
434,94472,Sausu Gandasari,72.08.06.2015,Sausu,Kabupaten,Parigi Moutong,Sulawesi Tengah
435,94472,Sausu Pakareme,72.08.06.2013,Sausu,Kabupaten,Parigi Moutong,Sulawesi Tengah
436,94472,Sausu Peore (Sausu Piore),72.08.06.2009,Sausu,Kabupaten,Parigi Moutong,Sulawesi Tengah
437,94472,Sausu Salubanga,72.08.06.2016,Sausu,Kabupaten,Parigi Moutong,Sulawesi Tengah
438,94472,Sausu Tambu,72.08.06.2018,Sausu,Kabupaten,Parigi Moutong,Sulawesi Tengah
439,94472,Sausu Torono,72.08.06.2012,Sausu,Kabupaten,Parigi Moutong,Sulawesi Tengah
440,94472,Sausu Trans,72.08.06.2011,Sausu,Kabupaten,Parigi Moutong,Sulawesi Tengah
441,94472,Taliabo (Sausu Taliabo),72.08.06.2017,Sausu,Kabupaten,Parigi Moutong,Sulawesi Tengah
442,94346,Bonemarawa,72.03.04.2002,Rio Pakava,Kabupaten,Donggala,Sulawesi Tengah
443,94346,Bukit Indah,72.03.04.2013,Rio Pakava,Kabupaten,Donggala,Sulawesi Tengah
444,94346,Lalundu,72.03.04.2004,Rio Pakava,Kabupaten,Donggala,Sulawesi Tengah
445,94346,Mbulawa (Mbulava),72.03.04.2014,Rio Pakava,Kabupaten,Donggala,Sulawesi Tengah
446,94346,Minti Makmur,72.03.04.2006,Rio Pakava,Kabupaten,Donggala,Sulawesi Tengah
447,94346,Ngovi (Ngovi Vacava),72.03.04.2012,Rio Pakava,Kabupaten,Donggala,Sulawesi Tengah
448,94346,Pakava (Vacava),72.03.04.2015,Rio Pakava,Kabupaten,Donggala,Sulawesi Tengah
449,94346,Panca Mukti,72.03.04.2010,Rio Pakava,Kabupaten,Donggala,Sulawesi Tengah
450,94346,Pantolobete (Pantalobete),72.03.04.2001,Rio Pakava,Kabupaten,Donggala,Sulawesi Tengah
451,94346,Polando Jaya,72.03.04.2008,Rio Pakava,Kabupaten,Donggala,Sulawesi Tengah
452,94346,Polanto Jaya,72.03.04.2007,Rio Pakava,Kabupaten,Donggala,Sulawesi Tengah
453,94346,Rio Mukti,72.03.04.2009,Rio Pakava,Kabupaten,Donggala,Sulawesi Tengah
454,94346,Tinauka,72.03.04.2003,Rio Pakava,Kabupaten,Donggala,Sulawesi Tengah
455,94346,Toviora (Towiora),72.03.04.2005,Rio Pakava,Kabupaten,Donggala,Sulawesi Tengah
456,94685,Dondo,72.09.10.1003,Ratolindo,Kabupaten,Tojo Una Una,Sulawesi Tengah
457,94683,Dondo Barat,72.09.10.1008,Ratolindo,Kabupaten,Tojo Una Una,Sulawesi Tengah
458,94685,Labuan,72.09.10.2006,Ratolindo,Kabupaten,Tojo Una Una,Sulawesi Tengah
459,94683,Muara Toba,72.09.10.1009,Ratolindo,Kabupaten,Tojo Una Una,Sulawesi Tengah
460,94683,Patingko,72.09.10.2010,Ratolindo,Kabupaten,Tojo Una Una,Sulawesi Tengah
461,94685,Sabulira Toba,72.09.10.2005,Ratolindo,Kabupaten,Tojo Una Una,Sulawesi Tengah
462,94685,Sumoli,72.09.10.2004,Ratolindo,Kabupaten,Tojo Una Una,Sulawesi Tengah
463,94683,Uamalingku,72.09.10.1007,Ratolindo,Kabupaten,Tojo Una Una,Sulawesi Tengah
464,94685,Uentanaga Atas,72.09.10.1002,Ratolindo,Kabupaten,Tojo Una Una,Sulawesi Tengah
465,94685,Uentanaga Bawah,72.09.10.1001,Ratolindo,Kabupaten,Tojo Una Una,Sulawesi Tengah
466,94651,Bakti Agung,72.02.18.2007,Poso Pesisir Utara,Kabupaten,Poso,Sulawesi Tengah
467,94651,Kalora,72.02.18.2003,Poso Pesisir Utara,Kabupaten,Poso,Sulawesi Tengah
468,94651,Kawende,72.02.18.2002,Poso Pesisir Utara,Kabupaten,Poso,Sulawesi Tengah
469,94651,Kilo,72.02.18.2001,Poso Pesisir Utara,Kabupaten,Poso,Sulawesi Tengah
470,94651,Maranda,72.02.18.2011,Poso Pesisir Utara,Kabupaten,Poso,Sulawesi Tengah
471,94651,Membuke,72.02.18.2010,Poso Pesisir Utara,Kabupaten,Poso,Sulawesi Tengah
472,94651,Tambarana,72.02.18.2004,Poso Pesisir Utara,Kabupaten,Poso,Sulawesi Tengah
473,94651,Tobe,72.02.18.2009,Poso Pesisir Utara,Kabupaten,Poso,Sulawesi Tengah
474,94651,Tri Mulya,72.02.18.2006,Poso Pesisir Utara,Kabupaten,Poso,Sulawesi Tengah
475,94651,Tumora,72.02.18.2005,Poso Pesisir Utara,Kabupaten,Poso,Sulawesi Tengah
476,94650,Betalemba,72.02.19.2006,Poso Pesisir Selatan,Kabupaten,Poso,Sulawesi Tengah
477,94650,Dewua,72.02.19.2001,Poso Pesisir Selatan,Kabupaten,Poso,Sulawesi Tengah
478,94650,Malitu,72.02.19.2004,Poso Pesisir Selatan,Kabupaten,Poso,Sulawesi Tengah
479,94650,Padalembara,72.02.19.2008,Poso Pesisir Selatan,Kabupaten,Poso,Sulawesi Tengah
480,94650,Pantangolemba,72.02.19.2007,Poso Pesisir Selatan,Kabupaten,Poso,Sulawesi Tengah
481,94650,Patiwunga,72.02.19.2005,Poso Pesisir Selatan,Kabupaten,Poso,Sulawesi Tengah
482,94650,Sangginora,72.02.19.2002,Poso Pesisir Selatan,Kabupaten,Poso,Sulawesi Tengah
483,94650,Tangkura,72.02.19.2003,Poso Pesisir Selatan,Kabupaten,Poso,Sulawesi Tengah
484,94650,Taunca,72.02.19.2009,Poso Pesisir Selatan,Kabupaten,Poso,Sulawesi Tengah
485,94652,Bega,72.02.02.2012,Poso Pesisir,Kabupaten,Poso,Sulawesi Tengah
486,94652,Betania,72.02.02.2007,Poso Pesisir,Kabupaten,Poso,Sulawesi Tengah
487,94652,Kasinguncu,72.02.02.1008,Poso Pesisir,Kabupaten,Poso,Sulawesi Tengah
488,94652,Lanto Jaya,72.02.02.2027,Poso Pesisir,Kabupaten,Poso,Sulawesi Tengah
489,94652,Lape,72.02.02.2028,Poso Pesisir,Kabupaten,Poso,Sulawesi Tengah
490,94652,Mapane,72.02.02.1009,Poso Pesisir,Kabupaten,Poso,Sulawesi Tengah
491,94652,Masamba,72.02.02.2013,Poso Pesisir,Kabupaten,Poso,Sulawesi Tengah
492,94652,Masani,72.02.02.2016,Poso Pesisir,Kabupaten,Poso,Sulawesi Tengah
493,94652,Pinedapa,72.02.02.2015,Poso Pesisir,Kabupaten,Poso,Sulawesi Tengah
494,94652,Saatu,72.02.02.2014,Poso Pesisir,Kabupaten,Poso,Sulawesi Tengah
495,94652,Tabalu,72.02.02.1031,Poso Pesisir,Kabupaten,Poso,Sulawesi Tengah
496,94652,Tiwaa,72.02.02.2018,Poso Pesisir,Kabupaten,Poso,Sulawesi Tengah
497,94652,Toini,72.02.02.2010,Poso Pesisir,Kabupaten,Poso,Sulawesi Tengah
498,94652,Tokorondo,72.02.02.2017,Poso Pesisir,Kabupaten,Poso,Sulawesi Tengah
499,94652,Towu,72.02.02.2029,Poso Pesisir,Kabupaten,Poso,Sulawesi Tengah
500,94652,Ueralulu,72.02.02.2030,Poso Pesisir,Kabupaten,Poso,Sulawesi Tengah
501,94616,Bonesompe,72.02.22.1001,Poso Kota Utara,Kabupaten,Poso,Sulawesi Tengah
502,94611,Kasintuwu,72.02.22.1002,Poso Kota Utara,Kabupaten,Poso,Sulawesi Tengah
503,94615,Lawanga,72.02.22.1004,Poso Kota Utara,Kabupaten,Poso,Sulawesi Tengah
504,94615,Lawanga Tawongan,72.02.22.1007,Poso Kota Utara,Kabupaten,Poso,Sulawesi Tengah
505,94612,Lombogia (Lombugia),72.02.22.1003,Poso Kota Utara,Kabupaten,Poso,Sulawesi Tengah
506,94614,Madale,72.02.22.1006,Poso Kota Utara,Kabupaten,Poso,Sulawesi Tengah
507,94615,Tegalrejo (Tegal Rejo),72.02.22.1005,Poso Kota Utara,Kabupaten,Poso,Sulawesi Tengah
508,94614,Bukit Bambu,72.02.21.1002,Poso Kota Selatan,Kabupaten,Poso,Sulawesi Tengah
509,94619,Kawua,72.02.21.1003,Poso Kota Selatan,Kabupaten,Poso,Sulawesi Tengah
510,94617,Lembamawo (Lembomawo),72.02.21.1005,Poso Kota Selatan,Kabupaten,Poso,Sulawesi Tengah
511,94619,Ronononcu (Ranononcu),72.02.21.1004,Poso Kota Selatan,Kabupaten,Poso,Sulawesi Tengah
512,94613,Sayo,72.02.21.1001,Poso Kota Selatan,Kabupaten,Poso,Sulawesi Tengah
513,94619,Gebangrejo,72.02.01.1007,Poso Kota,Kabupaten,Poso,Sulawesi Tengah
514,94619,Gebangrejo Barat,72.02.01.1017,Poso Kota,Kabupaten,Poso,Sulawesi Tengah
515,94619,Gebangrejo Timur,72.02.01.1016,Poso Kota,Kabupaten,Poso,Sulawesi Tengah
516,94617,Kayamanya,72.02.01.1003,Poso Kota,Kabupaten,Poso,Sulawesi Tengah
517,94617,Kayamanya Sentral,72.02.01.1018,Poso Kota,Kabupaten,Poso,Sulawesi Tengah
518,94618,Moengko Baru,72.02.01.1002,Poso Kota,Kabupaten,Poso,Sulawesi Tengah
519,94618,Moengko Lama,72.02.01.1001,Poso Kota,Kabupaten,Poso,Sulawesi Tengah
520,94370,Banasu,72.10.07.2008,Pipikoro,Kabupaten,Sigi,Sulawesi Tengah
521,94370,Kalamanta,72.10.07.2002,Pipikoro,Kabupaten,Sigi,Sulawesi Tengah
522,94370,Kantewu,72.10.07.2005,Pipikoro,Kabupaten,Sigi,Sulawesi Tengah
523,94370,Kantewu II,72.10.07.2012,Pipikoro,Kabupaten,Sigi,Sulawesi Tengah
524,94370,Koja,72.10.07.2001,Pipikoro,Kabupaten,Sigi,Sulawesi Tengah
525,94370,Lawe,72.10.07.2010,Pipikoro,Kabupaten,Sigi,Sulawesi Tengah
526,94370,Lonebasa,72.10.07.2009,Pipikoro,Kabupaten,Sigi,Sulawesi Tengah
527,94370,Mamu,72.10.07.2003,Pipikoro,Kabupaten,Sigi,Sulawesi Tengah
528,94370,Mapahi,72.10.07.2007,Pipikoro,Kabupaten,Sigi,Sulawesi Tengah
529,94370,Masewo,72.10.07.2018,Pipikoro,Kabupaten,Sigi,Sulawesi Tengah
530,94370,Morui,72.10.07.2011,Pipikoro,Kabupaten,Sigi,Sulawesi Tengah
531,94370,Morui II,72.10.07.2016,Pipikoro,Kabupaten,Sigi,Sulawesi Tengah
532,94370,Onu,72.10.07.2006,Pipikoro,Kabupaten,Sigi,Sulawesi Tengah
533,94370,Peana,72.10.07.2004,Pipikoro,Kabupaten,Sigi,Sulawesi Tengah
534,94370,Pelempea,72.10.07.2015,Pipikoro,Kabupaten,Sigi,Sulawesi Tengah
535,94370,Poluroa,72.10.07.2017,Pipikoro,Kabupaten,Sigi,Sulawesi Tengah
536,94370,Porelea,72.10.07.2013,Pipikoro,Kabupaten,Sigi,Sulawesi Tengah
537,94370,Porelea II,72.10.07.2019,Pipikoro,Kabupaten,Sigi,Sulawesi Tengah
538,94370,Tuwo Tanijaya,72.10.07.2014,Pipikoro,Kabupaten,Sigi,Sulawesi Tengah
539,94345,Bambakaenu,72.03.21.2005,Pinembani (Panembani),Kabupaten,Donggala,Sulawesi Tengah
540,94345,Bambakanini,72.03.21.2004,Pinembani (Panembani),Kabupaten,Donggala,Sulawesi Tengah
541,94345,Dangara'a (Dangaraa),72.03.21.2003,Pinembani (Panembani),Kabupaten,Donggala,Sulawesi Tengah
542,94345,Gimpubia,72.03.21.2002,Pinembani (Panembani),Kabupaten,Donggala,Sulawesi Tengah
543,94345,Kanagalongga,72.03.21.2007,Pinembani (Panembani),Kabupaten,Donggala,Sulawesi Tengah
544,94345,Karavia,72.03.21.2008,Pinembani (Panembani),Kabupaten,Donggala,Sulawesi Tengah
545,94345,Palintuma,72.03.21.2001,Pinembani (Panembani),Kabupaten,Donggala,Sulawesi Tengah
546,94345,Tavanggeli,72.03.21.2009,Pinembani (Panembani),Kabupaten,Donggala,Sulawesi Tengah
547,94345,Tomodo (Tamodo),72.03.21.2006,Pinembani (Panembani),Kabupaten,Donggala,Sulawesi Tengah
548,94963,Bimor Jaya,72.12.02.2008,Petasia Timur,Kabupaten,Morowali Utara,Sulawesi Tengah
549,94963,Bungintimbe,72.12.02.2003,Petasia Timur,Kabupaten,Morowali Utara,Sulawesi Tengah
550,94963,Bunta,72.12.02.2001,Petasia Timur,Kabupaten,Morowali Utara,Sulawesi Tengah
551,94963,Keuno,72.12.02.2010,Petasia Timur,Kabupaten,Morowali Utara,Sulawesi Tengah
552,94963,Mohoni,72.12.02.2006,Petasia Timur,Kabupaten,Morowali Utara,Sulawesi Tengah
553,94963,Molino (Malino),72.12.02.2005,Petasia Timur,Kabupaten,Morowali Utara,Sulawesi Tengah
554,94963,Molores,72.12.02.2009,Petasia Timur,Kabupaten,Morowali Utara,Sulawesi Tengah
555,94963,Peboa,72.12.02.2012,Petasia Timur,Kabupaten,Morowali Utara,Sulawesi Tengah
556,94963,Tompira,72.12.02.2002,Petasia Timur,Kabupaten,Morowali Utara,Sulawesi Tengah
557,94963,Towara,72.12.02.2004,Petasia Timur,Kabupaten,Morowali Utara,Sulawesi Tengah
558,94963,Towara Pantai,72.12.02.2011,Petasia Timur,Kabupaten,Morowali Utara,Sulawesi Tengah
559,94963,Ungkea,72.12.02.2007,Petasia Timur,Kabupaten,Morowali Utara,Sulawesi Tengah
560,94970,Maralee,72.12.10.2004,Petasia Barat,Kabupaten,Morowali Utara,Sulawesi Tengah
561,94970,Moleono,72.12.10.2007,Petasia Barat,Kabupaten,Morowali Utara,Sulawesi Tengah
562,94970,Mondowe,72.12.10.2005,Petasia Barat,Kabupaten,Morowali Utara,Sulawesi Tengah
563,94970,Onepute,72.12.10.2008,Petasia Barat,Kabupaten,Morowali Utara,Sulawesi Tengah
564,94970,Sampalowo,72.12.10.2006,Petasia Barat,Kabupaten,Morowali Utara,Sulawesi Tengah
565,94970,Tadaku Jaya,72.12.10.2010,Petasia Barat,Kabupaten,Morowali Utara,Sulawesi Tengah
566,94970,Tiu,72.12.10.2001,Petasia Barat,Kabupaten,Morowali Utara,Sulawesi Tengah
567,94970,Togo Mulyo (Togomulyo),72.12.10.2003,Petasia Barat,Kabupaten,Morowali Utara,Sulawesi Tengah
568,94970,Tontowea,72.12.10.2002,Petasia Barat,Kabupaten,Morowali Utara,Sulawesi Tengah
569,94970,Ulu Laa,72.12.10.2009,Petasia Barat,Kabupaten,Morowali Utara,Sulawesi Tengah
570,94971,Bahontula,72.12.01.1002,Petasia,Kabupaten,Morowali Utara,Sulawesi Tengah
571,94971,Bahoue,72.12.01.1003,Petasia,Kabupaten,Morowali Utara,Sulawesi Tengah
572,94971,Ganda Ganda,72.12.01.2004,Petasia,Kabupaten,Morowali Utara,Sulawesi Tengah
573,94971,Gililana,72.12.01.2006,Petasia,Kabupaten,Morowali Utara,Sulawesi Tengah
574,94971,Kolonodale,72.12.01.1001,Petasia,Kabupaten,Morowali Utara,Sulawesi Tengah
575,94971,Korololaki,72.12.01.2008,Petasia,Kabupaten,Morowali Utara,Sulawesi Tengah
576,94971,Korololama,72.12.01.2009,Petasia,Kabupaten,Morowali Utara,Sulawesi Tengah
577,94971,Koromatantu,72.12.01.2010,Petasia,Kabupaten,Morowali Utara,Sulawesi Tengah
578,94971,Koya,72.12.01.2005,Petasia,Kabupaten,Morowali Utara,Sulawesi Tengah
579,94971,Tanauge,72.12.01.2007,Petasia,Kabupaten,Morowali Utara,Sulawesi Tengah
580,94888,Alakasing,72.07.16.2005,Peling Tengah,Kabupaten,Banggai Kepulauan,Sulawesi Tengah
581,94888,Balombong,72.07.16.2002,Peling Tengah,Kabupaten,Banggai Kepulauan,Sulawesi Tengah
582,94888,Kolak,72.07.16.2003,Peling Tengah,Kabupaten,Banggai Kepulauan,Sulawesi Tengah
583,94888,Koyobunga,72.07.16.2004,Peling Tengah,Kabupaten,Banggai Kepulauan,Sulawesi Tengah
584,94888,Labibi,72.07.16.2008,Peling Tengah,Kabupaten,Banggai Kepulauan,Sulawesi Tengah
585,94888,Luk,72.07.16.2007,Peling Tengah,Kabupaten,Banggai Kepulauan,Sulawesi Tengah
586,94888,Patukuki,72.07.16.2001,Peling Tengah,Kabupaten,Banggai Kepulauan,Sulawesi Tengah
587,94888,Popisi,72.07.16.2009,Peling Tengah,Kabupaten,Banggai Kepulauan,Sulawesi Tengah
588,94888,Tolulos,72.07.16.2010,Peling Tengah,Kabupaten,Banggai Kepulauan,Sulawesi Tengah
589,94888,Tombos,72.07.16.2006,Peling Tengah,Kabupaten,Banggai Kepulauan,Sulawesi Tengah
590,94888,Tunggaling,72.07.16.2011,Peling Tengah,Kabupaten,Banggai Kepulauan,Sulawesi Tengah
591,94463,Avolua,72.08.19.2001,Parigi Utara,Kabupaten,Parigi Moutong,Sulawesi Tengah
592,94463,Pangi,72.08.19.2004,Parigi Utara,Kabupaten,Parigi Moutong,Sulawesi Tengah
593,94463,Sakinah Jaya (Sakina Jaya),72.08.19.2005,Parigi Utara,Kabupaten,Parigi Moutong,Sulawesi Tengah
594,94463,Toboli,72.08.19.2002,Parigi Utara,Kabupaten,Parigi Moutong,Sulawesi Tengah
595,94463,Toboli Barat,72.08.19.2003,Parigi Utara,Kabupaten,Parigi Moutong,Sulawesi Tengah
596,94462,Binangga,72.08.20.2003,Parigi Tengah,Kabupaten,Parigi Moutong,Sulawesi Tengah
597,94462,Jononunu,72.08.20.2004,Parigi Tengah,Kabupaten,Parigi Moutong,Sulawesi Tengah
598,94462,Matolele,72.08.20.2005,Parigi Tengah,Kabupaten,Parigi Moutong,Sulawesi Tengah
599,94462,Pelawa,72.08.20.2002,Parigi Tengah,Kabupaten,Parigi Moutong,Sulawesi Tengah
600,94462,Pelawa Baru,72.08.20.2001,Parigi Tengah,Kabupaten,Parigi Moutong,Sulawesi Tengah
601,94462,Petapa,72.08.20.2006,Parigi Tengah,Kabupaten,Parigi Moutong,Sulawesi Tengah
602,94461,Boyantongo,72.08.11.2003,Parigi Selatan,Kabupaten,Parigi Moutong,Sulawesi Tengah
603,94461,Dolago,72.08.11.2004,Parigi Selatan,Kabupaten,Parigi Moutong,Sulawesi Tengah
604,94461,Dolago Padang,72.08.11.2010,Parigi Selatan,Kabupaten,Parigi Moutong,Sulawesi Tengah
605,94461,Gangga,72.08.11.2009,Parigi Selatan,Kabupaten,Parigi Moutong,Sulawesi Tengah
606,94461,Lemusa,72.08.11.2001,Parigi Selatan,Kabupaten,Parigi Moutong,Sulawesi Tengah
607,94461,Masari,72.08.11.2005,Parigi Selatan,Kabupaten,Parigi Moutong,Sulawesi Tengah
608,94461,Nambaru,72.08.11.2007,Parigi Selatan,Kabupaten,Parigi Moutong,Sulawesi Tengah
609,94461,Olobaru,72.08.11.2002,Parigi Selatan,Kabupaten,Parigi Moutong,Sulawesi Tengah
610,94461,Sumbersari,72.08.11.2006,Parigi Selatan,Kabupaten,Parigi Moutong,Sulawesi Tengah
611,94461,Tindaki,72.08.11.2008,Parigi Selatan,Kabupaten,Parigi Moutong,Sulawesi Tengah
612,94460,Air Panas,72.08.16.2005,Parigi Barat,Kabupaten,Parigi Moutong,Sulawesi Tengah
613,94460,Baliara,72.08.16.2002,Parigi Barat,Kabupaten,Parigi Moutong,Sulawesi Tengah
614,94460,Jono Kalora,72.08.16.2004,Parigi Barat,Kabupaten,Parigi Moutong,Sulawesi Tengah
615,94460,Kayuboko,72.08.16.2003,Parigi Barat,Kabupaten,Parigi Moutong,Sulawesi Tengah
616,94460,Lobu Mandiri,72.08.16.2006,Parigi Barat,Kabupaten,Parigi Moutong,Sulawesi Tengah
617,94460,Parigimpu'u,72.08.16.2001,Parigi Barat,Kabupaten,Parigi Moutong,Sulawesi Tengah
618,94471,Bambalemo,72.08.01.2022,Parigi,Kabupaten,Parigi Moutong,Sulawesi Tengah
619,94471,Bambalemo Ranomaisi,72.08.01.2035,Parigi,Kabupaten,Parigi Moutong,Sulawesi Tengah
620,94471,Bantaya,72.08.01.1020,Parigi,Kabupaten,Parigi Moutong,Sulawesi Tengah
621,94471,Kampal,72.08.01.1021,Parigi,Kabupaten,Parigi Moutong,Sulawesi Tengah
622,94471,Lebo,72.08.01.2023,Parigi,Kabupaten,Parigi Moutong,Sulawesi Tengah
623,94471,Loji,72.08.01.1019,Parigi,Kabupaten,Parigi Moutong,Sulawesi Tengah
624,94471,Maesa,72.08.01.1018,Parigi,Kabupaten,Parigi Moutong,Sulawesi Tengah
625,94471,Masigi,72.08.01.1017,Parigi,Kabupaten,Parigi Moutong,Sulawesi Tengah
626,94471,Mertasari,72.08.01.2013,Parigi,Kabupaten,Parigi Moutong,Sulawesi Tengah
627,94471,Olaya,72.08.01.2011,Parigi,Kabupaten,Parigi Moutong,Sulawesi Tengah
628,94471,Pombalowo (Pembalowo),72.08.01.2012,Parigi,Kabupaten,Parigi Moutong,Sulawesi Tengah
629,94667,Kuku,72.02.27.2004,Pamona Utara,Kabupaten,Poso,Sulawesi Tengah
630,94667,Lena,72.02.27.2007,Pamona Utara,Kabupaten,Poso,Sulawesi Tengah
631,94667,Panjoka,72.02.27.2005,Pamona Utara,Kabupaten,Poso,Sulawesi Tengah
632,94667,Petirodongi,72.02.27.1009,Pamona Utara,Kabupaten,Poso,Sulawesi Tengah
633,94667,Sangira,72.02.27.2003,Pamona Utara,Kabupaten,Poso,Sulawesi Tengah
634,94667,Saojo,72.02.27.2001,Pamona Utara,Kabupaten,Poso,Sulawesi Tengah
635,94667,Sawidago,72.02.27.1008,Pamona Utara,Kabupaten,Poso,Sulawesi Tengah
636,94667,Sulewana,72.02.27.2002,Pamona Utara,Kabupaten,Poso,Sulawesi Tengah
637,94667,Tendeadongi,72.02.27.1010,Pamona Utara,Kabupaten,Poso,Sulawesi Tengah
638,94667,Uelincu,72.02.27.2006,Pamona Utara,Kabupaten,Poso,Sulawesi Tengah
639,94666,Didiri,72.02.05.2007,Pamona Timur,Kabupaten,Poso,Sulawesi Tengah
640,94666,Kamba,72.02.05.2006,Pamona Timur,Kabupaten,Poso,Sulawesi Tengah
641,94666,Kancuu,72.02.05.2012,Pamona Timur,Kabupaten,Poso,Sulawesi Tengah
642,94666,Kelei,72.02.05.2008,Pamona Timur,Kabupaten,Poso,Sulawesi Tengah
643,94666,Magapu,72.02.05.2013,Pamona Timur,Kabupaten,Poso,Sulawesi Tengah
644,94666,Masewe,72.02.05.2010,Pamona Timur,Kabupaten,Poso,Sulawesi Tengah
645,94666,Matialemba,72.02.05.2011,Pamona Timur,Kabupaten,Poso,Sulawesi Tengah
646,94666,Olumokunde,72.02.05.2005,Pamona Timur,Kabupaten,Poso,Sulawesi Tengah
647,94666,Pancasila,72.02.05.2004,Pamona Timur,Kabupaten,Poso,Sulawesi Tengah
648,94666,Petiro,72.02.05.2003,Pamona Timur,Kabupaten,Poso,Sulawesi Tengah
649,94666,Poleganyara,72.02.05.2009,Pamona Timur,Kabupaten,Poso,Sulawesi Tengah
650,94666,Taripa,72.02.05.2001,Pamona Timur,Kabupaten,Poso,Sulawesi Tengah
651,94666,Tiu,72.02.05.2002,Pamona Timur,Kabupaten,Poso,Sulawesi Tengah
652,94665,Barati,72.02.26.2009,Pamona Tenggara,Kabupaten,Poso,Sulawesi Tengah
653,94665,Korobono,72.02.26.2001,Pamona Tenggara,Kabupaten,Poso,Sulawesi Tengah
654,94665,Omporiwo (Amporiwo),72.02.26.2002,Pamona Tenggara,Kabupaten,Poso,Sulawesi Tengah
655,94665,Salindu,72.02.26.2008,Pamona Tenggara,Kabupaten,Poso,Sulawesi Tengah
656,94665,Singkona,72.02.26.2007,Pamona Tenggara,Kabupaten,Poso,Sulawesi Tengah
657,94665,Tindoli,72.02.26.2005,Pamona Tenggara,Kabupaten,Poso,Sulawesi Tengah
658,94665,Tokilo,72.02.26.2004,Pamona Tenggara,Kabupaten,Poso,Sulawesi Tengah
659,94665,Tolambo,72.02.26.2006,Pamona Tenggara,Kabupaten,Poso,Sulawesi Tengah
660,94665,Wayura,72.02.26.2003,Pamona Tenggara,Kabupaten,Poso,Sulawesi Tengah
661,94664,Bancea,72.02.06.2003,Pamona Selatan,Kabupaten,Poso,Sulawesi Tengah
662,94664,Bangunjaya (Bangun Jaya),72.02.06.2021,Pamona Selatan,Kabupaten,Poso,Sulawesi Tengah
663,94664,Boe,72.02.06.2004,Pamona Selatan,Kabupaten,Poso,Sulawesi Tengah
664,94664,Mayajaya (Maya Jaya),72.02.06.2020,Pamona Selatan,Kabupaten,Poso,Sulawesi Tengah
665,94664,Mayasari (Maya Sari),72.02.06.2018,Pamona Selatan,Kabupaten,Poso,Sulawesi Tengah
666,94664,Mayoa,72.02.06.2007,Pamona Selatan,Kabupaten,Poso,Sulawesi Tengah
667,94664,Pandajaya (Panda Jaya),72.02.06.2019,Pamona Selatan,Kabupaten,Poso,Sulawesi Tengah
668,94664,Pandayora,72.02.06.2006,Pamona Selatan,Kabupaten,Poso,Sulawesi Tengah
669,94664,Panjo,72.02.06.2022,Pamona Selatan,Kabupaten,Poso,Sulawesi Tengah
670,94664,Pasir Putih,72.02.06.2023,Pamona Selatan,Kabupaten,Poso,Sulawesi Tengah
671,94664,Pendolo,72.02.06.2005,Pamona Selatan,Kabupaten,Poso,Sulawesi Tengah
672,94664,Uelene,72.02.06.2008,Pamona Selatan,Kabupaten,Poso,Sulawesi Tengah
673,94663,Buyumpondoli,72.02.04.2005,Pamona Puselemba,Kabupaten,Poso,Sulawesi Tengah
674,94663,Dulumai,72.02.04.2010,Pamona Puselemba,Kabupaten,Poso,Sulawesi Tengah
675,94663,Leboni,72.02.04.2021,Pamona Puselemba,Kabupaten,Poso,Sulawesi Tengah
676,94663,Mayakeli,72.02.04.2004,Pamona Puselemba,Kabupaten,Poso,Sulawesi Tengah
677,94663,Pamona,72.02.04.1006,Pamona Puselemba,Kabupaten,Poso,Sulawesi Tengah
678,94663,Peura,72.02.04.2009,Pamona Puselemba,Kabupaten,Poso,Sulawesi Tengah
679,94663,Sangele,72.02.04.1008,Pamona Puselemba,Kabupaten,Poso,Sulawesi Tengah
680,94663,Soe,72.02.04.2019,Pamona Puselemba,Kabupaten,Poso,Sulawesi Tengah
681,94663,Tentena,72.02.04.1001,Pamona Puselemba,Kabupaten,Poso,Sulawesi Tengah
682,94663,Tonusu,72.02.04.2003,Pamona Puselemba,Kabupaten,Poso,Sulawesi Tengah
683,94663,Wera,72.02.04.2022,Pamona Puselemba,Kabupaten,Poso,Sulawesi Tengah
684,94662,Meko,72.02.20.2002,Pamona Barat,Kabupaten,Poso,Sulawesi Tengah
685,94662,Owini,72.02.20.2006,Pamona Barat,Kabupaten,Poso,Sulawesi Tengah
686,94662,Salukaia,72.02.20.2004,Pamona Barat,Kabupaten,Poso,Sulawesi Tengah
687,94662,Taipa,72.02.20.2001,Pamona Barat,Kabupaten,Poso,Sulawesi Tengah
688,94662,Toinasa,72.02.20.2003,Pamona Barat,Kabupaten,Poso,Sulawesi Tengah
689,94662,Uranosari,72.02.20.2005,Pamona Barat,Kabupaten,Poso,Sulawesi Tengah
690,94146,Kayumalue Ngapa,72.71.04.1003,Palu Utara,Kota,Palu,Sulawesi Tengah
691,94145,Kayumalue Pajeko,72.71.04.1004,Palu Utara,Kota,Palu,Sulawesi Tengah
692,94148,Mamboro,72.71.04.1001,Palu Utara,Kota,Palu,Sulawesi Tengah
693,94148,Mamboro Barat,72.71.04.1010,Palu Utara,Kota,Palu,Sulawesi Tengah
694,94147,Taipa,72.71.04.1002,Palu Utara,Kota,Palu,Sulawesi Tengah
695,94111,Besusu Barat,72.71.01.1004,Palu Timur,Kota,Palu,Sulawesi Tengah
696,94111,Besusu Tengah,72.71.01.1006,Palu Timur,Kota,Palu,Sulawesi Tengah
697,94111,Besusu Timur,72.71.01.1007,Palu Timur,Kota,Palu,Sulawesi Tengah
698,94235,Lolu Selatan,72.71.01.1009,Palu Timur,Kota,Palu,Sulawesi Tengah
699,94235,Lolu Utara,72.71.01.1010,Palu Timur,Kota,Palu,Sulawesi Tengah
700,94231,Birobuli Selatan,72.71.03.1011,Palu Selatan,Kota,Palu,Sulawesi Tengah
701,94231,Birobuli Utara,72.71.03.1002,Palu Selatan,Kota,Palu,Sulawesi Tengah
702,94232,Petobo,72.71.03.1003,Palu Selatan,Kota,Palu,Sulawesi Tengah
703,94236,Tatura Selatan,72.71.03.1012,Palu Selatan,Kota,Palu,Sulawesi Tengah
704,94236,Tatura Utara,72.71.03.1001,Palu Selatan,Kota,Palu,Sulawesi Tengah
705,94226,Balaroa,72.71.02.1005,Palu Barat,Kota,Palu,Sulawesi Tengah
706,94221,Baru,72.71.02.1008,Palu Barat,Kota,Palu,Sulawesi Tengah
707,94223,Kamonji,72.71.02.1007,Palu Barat,Kota,Palu,Sulawesi Tengah
708,94221,Lere,72.71.02.1009,Palu Barat,Kota,Palu,Sulawesi Tengah
709,94221,Siranindi,72.71.02.1015,Palu Barat,Kota,Palu,Sulawesi Tengah
710,94222,Ujuna,72.71.02.1002,Palu Barat,Kota,Palu,Sulawesi Tengah
711,94366,Ampera,72.10.02.2007,Palolo,Kabupaten,Sigi,Sulawesi Tengah
712,94366,Bahagia,72.10.02.2012,Palolo,Kabupaten,Sigi,Sulawesi Tengah
713,94366,Bakubakulu,72.10.02.2011,Palolo,Kabupaten,Sigi,Sulawesi Tengah
714,94366,Berdikari,72.10.02.2005,Palolo,Kabupaten,Sigi,Sulawesi Tengah
715,94366,Bobo,72.10.02.2001,Palolo,Kabupaten,Sigi,Sulawesi Tengah
716,94366,Bunga,72.10.02.2002,Palolo,Kabupaten,Sigi,Sulawesi Tengah
717,94366,Kapirowe (Kapiroe),72.10.02.2003,Palolo,Kabupaten,Sigi,Sulawesi Tengah
718,94366,Karunia,72.10.02.2021,Palolo,Kabupaten,Sigi,Sulawesi Tengah
719,94366,Lembantongoa,72.10.02.2017,Palolo,Kabupaten,Sigi,Sulawesi Tengah
720,94366,Makmur,72.10.02.2004,Palolo,Kabupaten,Sigi,Sulawesi Tengah
721,94366,Patimbe (Petimbe),72.10.02.2006,Palolo,Kabupaten,Sigi,Sulawesi Tengah
722,94366,Rahmat,72.10.02.2013,Palolo,Kabupaten,Sigi,Sulawesi Tengah
723,94366,Ranteleda,72.10.02.2015,Palolo,Kabupaten,Sigi,Sulawesi Tengah
724,94366,Rejeki,72.10.02.2008,Palolo,Kabupaten,Sigi,Sulawesi Tengah
725,94366,Sarumana,72.10.02.2022,Palolo,Kabupaten,Sigi,Sulawesi Tengah
726,94366,Sejahtera,72.10.02.2019,Palolo,Kabupaten,Sigi,Sulawesi Tengah
727,94366,Sigimpu,72.10.02.2010,Palolo,Kabupaten,Sigi,Sulawesi Tengah
728,94366,Sintuwu,72.10.02.2009,Palolo,Kabupaten,Sigi,Sulawesi Tengah
729,94366,Tanah Harapan,72.10.02.2014,Palolo,Kabupaten,Sigi,Sulawesi Tengah
730,94366,Tongoa,72.10.02.2016,Palolo,Kabupaten,Sigi,Sulawesi Tengah
731,94366,Ue rani,72.10.02.2020,Palolo,Kabupaten,Sigi,Sulawesi Tengah
732,94366,Uwe Nuni,72.10.02.2018,Palolo,Kabupaten,Sigi,Sulawesi Tengah
733,94574,Bodi,72.05.11.2001,Paleleh Barat,Kabupaten,Buol,Sulawesi Tengah
734,94574,Harmoni,72.05.11.2003,Paleleh Barat,Kabupaten,Buol,Sulawesi Tengah
735,94574,Hulubalang,72.05.11.2007,Paleleh Barat,Kabupaten,Buol,Sulawesi Tengah
736,94574,Lunguto,72.05.11.2004,Paleleh Barat,Kabupaten,Buol,Sulawesi Tengah
737,94574,Oyak,72.05.11.2006,Paleleh Barat,Kabupaten,Buol,Sulawesi Tengah
738,94574,Tayokan,72.05.11.2002,Paleleh Barat,Kabupaten,Buol,Sulawesi Tengah
739,94574,Timbulon,72.05.11.2005,Paleleh Barat,Kabupaten,Buol,Sulawesi Tengah
740,94569,Baturata (Batu Rata),72.05.05.2005,Paleleh,Kabupaten,Buol,Sulawesi Tengah
741,94569,Dopalak,72.05.05.2017,Paleleh,Kabupaten,Buol,Sulawesi Tengah
742,94569,Dotuno (Dutuno),72.05.05.2018,Paleleh,Kabupaten,Buol,Sulawesi Tengah
743,94569,Kwalabesar (Kuala Besar),72.05.05.2006,Paleleh,Kabupaten,Buol,Sulawesi Tengah
744,94569,Lilito,72.05.05.2003,Paleleh,Kabupaten,Buol,Sulawesi Tengah
745,94569,Lintidu,72.05.05.2009,Paleleh,Kabupaten,Buol,Sulawesi Tengah
746,94569,Mulangato,72.05.05.2002,Paleleh,Kabupaten,Buol,Sulawesi Tengah
747,94569,Paleleh,72.05.05.2008,Paleleh,Kabupaten,Buol,Sulawesi Tengah
748,94569,Pionoto,72.05.05.2014,Paleleh,Kabupaten,Buol,Sulawesi Tengah
749,94569,Talaki,72.05.05.2004,Paleleh,Kabupaten,Buol,Sulawesi Tengah
750,94569,Tolau,72.05.05.2007,Paleleh,Kabupaten,Buol,Sulawesi Tengah
751,94569,Umu,72.05.05.2001,Paleleh,Kabupaten,Buol,Sulawesi Tengah
752,94477,Bambasiang,72.08.18.2009,Palasa,Kabupaten,Parigi Moutong,Sulawesi Tengah
753,94477,Beau,72.08.18.2010,Palasa,Kabupaten,Parigi Moutong,Sulawesi Tengah
754,94477,Bobalo,72.08.18.2001,Palasa,Kabupaten,Parigi Moutong,Sulawesi Tengah
755,94477,Dongkalan,72.08.18.2002,Palasa,Kabupaten,Parigi Moutong,Sulawesi Tengah
756,94477,Eeya,72.08.18.2003,Palasa,Kabupaten,Parigi Moutong,Sulawesi Tengah
757,94477,Ogoansam,72.08.18.2011,Palasa,Kabupaten,Parigi Moutong,Sulawesi Tengah
758,94477,Palasa Lambori,72.08.18.2007,Palasa,Kabupaten,Parigi Moutong,Sulawesi Tengah
759,94477,Palasa Tangki,72.08.18.2005,Palasa,Kabupaten,Parigi Moutong,Sulawesi Tengah
760,94477,Palasa Tengah,72.08.18.2006,Palasa,Kabupaten,Parigi Moutong,Sulawesi Tengah
761,94477,Pebounang,72.08.18.2008,Palasa,Kabupaten,Parigi Moutong,Sulawesi Tengah
762,94477,Ulatan,72.08.18.2004,Palasa,Kabupaten,Parigi Moutong,Sulawesi Tengah
763,94751,Ampera,72.01.07.2043,Pagimana,Kabupaten,Banggai,Sulawesi Tengah
764,94751,Asaan,72.01.07.2010,Pagimana,Kabupaten,Banggai,Sulawesi Tengah
765,94751,Bajo Poat,72.01.07.2013,Pagimana,Kabupaten,Banggai,Sulawesi Tengah
766,94751,Balai Gondi,72.01.07.2012,Pagimana,Kabupaten,Banggai,Sulawesi Tengah
767,94751,Baloa Doda (Baloadoda),72.01.07.2001,Pagimana,Kabupaten,Banggai,Sulawesi Tengah
768,94751,Basabungan,72.01.07.1022,Pagimana,Kabupaten,Banggai,Sulawesi Tengah
769,94751,Bondat,72.01.07.2037,Pagimana,Kabupaten,Banggai,Sulawesi Tengah
770,94751,Bulu,72.01.07.2039,Pagimana,Kabupaten,Banggai,Sulawesi Tengah
771,94751,Bungawon,72.01.07.2033,Pagimana,Kabupaten,Banggai,Sulawesi Tengah
772,94751,Dongkalan,72.01.07.2044,Pagimana,Kabupaten,Banggai,Sulawesi Tengah
773,94751,Gomuo,72.01.07.2014,Pagimana,Kabupaten,Banggai,Sulawesi Tengah
774,94751,Hohudongan,72.01.07.2019,Pagimana,Kabupaten,Banggai,Sulawesi Tengah
775,94751,Huhak,72.01.07.2034,Pagimana,Kabupaten,Banggai,Sulawesi Tengah
776,94751,Jaya Bakti,72.01.07.2021,Pagimana,Kabupaten,Banggai,Sulawesi Tengah
777,94751,Lambangan,72.01.07.2024,Pagimana,Kabupaten,Banggai,Sulawesi Tengah
778,94751,Lamo,72.01.07.2016,Pagimana,Kabupaten,Banggai,Sulawesi Tengah
779,94751,Nain,72.01.07.2015,Pagimana,Kabupaten,Banggai,Sulawesi Tengah
780,94751,Pagimana,72.01.07.1018,Pagimana,Kabupaten,Banggai,Sulawesi Tengah
781,94751,Pakowa,72.01.07.1011,Pagimana,Kabupaten,Banggai,Sulawesi Tengah
782,94751,Pinapuan,72.01.07.2027,Pagimana,Kabupaten,Banggai,Sulawesi Tengah
783,94751,Pisou,72.01.07.2023,Pagimana,Kabupaten,Banggai,Sulawesi Tengah
784,94751,Poh,72.01.07.2035,Pagimana,Kabupaten,Banggai,Sulawesi Tengah
785,94751,Sammajatem (Sama Jatem),72.01.07.2038,Pagimana,Kabupaten,Banggai,Sulawesi Tengah
786,94751,Sepa (Sepak),72.01.07.2029,Pagimana,Kabupaten,Banggai,Sulawesi Tengah
787,94751,Sinampangnyo,72.01.07.2020,Pagimana,Kabupaten,Banggai,Sulawesi Tengah
788,94751,Siuna,72.01.07.2026,Pagimana,Kabupaten,Banggai,Sulawesi Tengah
789,94751,Taloyon,72.01.07.2030,Pagimana,Kabupaten,Banggai,Sulawesi Tengah
790,94751,Tampe,72.01.07.2002,Pagimana,Kabupaten,Banggai,Sulawesi Tengah
791,94751,Tintingan,72.01.07.2032,Pagimana,Kabupaten,Banggai,Sulawesi Tengah
792,94751,Toipan,72.01.07.2025,Pagimana,Kabupaten,Banggai,Sulawesi Tengah
793,94751,Tombang,72.01.07.2041,Pagimana,Kabupaten,Banggai,Sulawesi Tengah
794,94751,Tongkonunuk,72.01.07.2017,Pagimana,Kabupaten,Banggai,Sulawesi Tengah
795,94751,Uwedaka,72.01.07.2031,Pagimana,Kabupaten,Banggai,Sulawesi Tengah
796,94482,Bosagon Jaya,72.08.22.2010,Ongka Malino,Kabupaten,Parigi Moutong,Sulawesi Tengah
797,94482,Karya Mandiri,72.08.22.2007,Ongka Malino,Kabupaten,Parigi Moutong,Sulawesi Tengah
798,94482,Kayu Jati,72.08.22.2008,Ongka Malino,Kabupaten,Parigi Moutong,Sulawesi Tengah
799,94482,Lambanau,72.08.22.2009,Ongka Malino,Kabupaten,Parigi Moutong,Sulawesi Tengah
800,94482,Malino,72.08.22.2002,Ongka Malino,Kabupaten,Parigi Moutong,Sulawesi Tengah
801,94482,Ongka,72.08.22.2001,Ongka Malino,Kabupaten,Parigi Moutong,Sulawesi Tengah
802,94482,Ongka Persatuan,72.08.22.2017,Ongka Malino,Kabupaten,Parigi Moutong,Sulawesi Tengah
803,94482,Ongka Trimuspasari,72.08.22.2013,Ongka Malino,Kabupaten,Parigi Moutong,Sulawesi Tengah
804,94482,Padaelo,72.08.22.2016,Ongka Malino,Kabupaten,Parigi Moutong,Sulawesi Tengah
805,94482,Persatuan Sejati,72.08.22.2004,Ongka Malino,Kabupaten,Parigi Moutong,Sulawesi Tengah
806,94482,Persatuan Utara,72.08.22.2011,Ongka Malino,Kabupaten,Parigi Moutong,Sulawesi Tengah
807,94482,Santigi,72.08.22.2003,Ongka Malino,Kabupaten,Parigi Moutong,Sulawesi Tengah
808,94482,Tabolobolo,72.08.22.2005,Ongka Malino,Kabupaten,Parigi Moutong,Sulawesi Tengah
809,94482,Tinombala,72.08.22.2006,Ongka Malino,Kabupaten,Parigi Moutong,Sulawesi Tengah
810,94482,Tinombala Barat,72.08.22.2015,Ongka Malino,Kabupaten,Parigi Moutong,Sulawesi Tengah
811,94482,Tinombala Jaya,72.08.22.2012,Ongka Malino,Kabupaten,Parigi Moutong,Sulawesi Tengah
812,94482,Tinombala Sejati,72.08.22.2014,Ongka Malino,Kabupaten,Parigi Moutong,Sulawesi Tengah
813,94516,Bambalaga,72.04.05.2011,Ogodeide,Kabupaten,Toli Toli,Sulawesi Tengah
814,94516,Batuilo,72.04.05.2002,Ogodeide,Kabupaten,Toli Toli,Sulawesi Tengah
815,94516,Bilo,72.04.05.2005,Ogodeide,Kabupaten,Toli Toli,Sulawesi Tengah
816,94516,Buga,72.04.05.2001,Ogodeide,Kabupaten,Toli Toli,Sulawesi Tengah
817,94516,Kabetan,72.04.05.2009,Ogodeide,Kabupaten,Toli Toli,Sulawesi Tengah
818,94516,Kamalu,72.04.05.2003,Ogodeide,Kabupaten,Toli Toli,Sulawesi Tengah
819,94516,Labuan Lobo,72.04.05.2006,Ogodeide,Kabupaten,Toli Toli,Sulawesi Tengah
820,94516,Muara Besar,72.04.05.2004,Ogodeide,Kabupaten,Toli Toli,Sulawesi Tengah
821,94516,Pagaitan,72.04.05.2010,Ogodeide,Kabupaten,Toli Toli,Sulawesi Tengah
822,94516,Pulias,72.04.05.2008,Ogodeide,Kabupaten,Toli Toli,Sulawesi Tengah
823,94516,Sambujan,72.04.05.2007,Ogodeide,Kabupaten,Toli Toli,Sulawesi Tengah
824,94754,Balaan (Balaang),72.01.13.2003,Nuhon,Kabupaten,Banggai,Sulawesi Tengah
825,94754,Bangketa,72.01.13.2001,Nuhon,Kabupaten,Banggai,Sulawesi Tengah
826,94754,Batu Hitam,72.01.13.2016,Nuhon,Kabupaten,Banggai,Sulawesi Tengah
827,94754,Bella,72.01.13.2010,Nuhon,Kabupaten,Banggai,Sulawesi Tengah
828,94754,Binohu,72.01.13.2011,Nuhon,Kabupaten,Banggai,Sulawesi Tengah
829,94754,Bolobungkang,72.01.13.2008,Nuhon,Kabupaten,Banggai,Sulawesi Tengah
830,94754,Damai Makmur,72.01.13.2012,Nuhon,Kabupaten,Banggai,Sulawesi Tengah
831,94754,Jaya Makmur,72.01.13.2013,Nuhon,Kabupaten,Banggai,Sulawesi Tengah
832,94754,Kabua Bua (Kabua Dua),72.01.13.2017,Nuhon,Kabupaten,Banggai,Sulawesi Tengah
833,94754,Mantan B,72.01.13.2004,Nuhon,Kabupaten,Banggai,Sulawesi Tengah
834,94754,Obo Balingara (Obok Balingara),72.01.13.2019,Nuhon,Kabupaten,Banggai,Sulawesi Tengah
835,94754,Pakowa Bunta (Pokowa Bunta),72.01.13.2006,Nuhon,Kabupaten,Banggai,Sulawesi Tengah
836,94754,Petak,72.01.13.2009,Nuhon,Kabupaten,Banggai,Sulawesi Tengah
837,94754,Pimbombo (Pibombo),72.01.13.2007,Nuhon,Kabupaten,Banggai,Sulawesi Tengah
838,94754,Pulo Dalagan,72.01.13.2018,Nuhon,Kabupaten,Banggai,Sulawesi Tengah
839,94754,Saiti,72.01.13.2014,Nuhon,Kabupaten,Banggai,Sulawesi Tengah
840,94754,Sumber Agung,72.01.13.2015,Nuhon,Kabupaten,Banggai,Sulawesi Tengah
841,94754,Temeang (Tomeang),72.01.13.2005,Nuhon,Kabupaten,Banggai,Sulawesi Tengah
842,94754,Tetesulu,72.01.13.2020,Nuhon,Kabupaten,Banggai,Sulawesi Tengah
843,94754,Tobelombang,72.01.13.2002,Nuhon,Kabupaten,Banggai,Sulawesi Tengah
844,94365,Bulili,72.10.03.2005,Nokilalaki,Kabupaten,Sigi,Sulawesi Tengah
845,94365,Kadidia,72.10.03.2003,Nokilalaki,Kabupaten,Sigi,Sulawesi Tengah
846,94365,Kamarora A,72.10.03.2001,Nokilalaki,Kabupaten,Sigi,Sulawesi Tengah
847,94365,Kamarora B,72.10.03.2002,Nokilalaki,Kabupaten,Sigi,Sulawesi Tengah
848,94365,Sopu,72.10.03.2004,Nokilalaki,Kabupaten,Sigi,Sulawesi Tengah
849,94760,Koyoan,72.01.23.2001,Nambo,Kabupaten,Banggai,Sulawesi Tengah
850,94760,Koyoan Permai,72.01.23.2002,Nambo,Kabupaten,Banggai,Sulawesi Tengah
851,94760,Lontio,72.01.23.1007,Nambo,Kabupaten,Banggai,Sulawesi Tengah
852,94760,Lontio Baru,72.01.23.1008,Nambo,Kabupaten,Banggai,Sulawesi Tengah
853,94760,Lumbe,72.01.23.2011,Nambo,Kabupaten,Banggai,Sulawesi Tengah
854,94760,Nambo Bosaa,72.01.23.1004,Nambo,Kabupaten,Banggai,Sulawesi Tengah
855,94760,Nambo Lempek,72.01.23.1005,Nambo,Kabupaten,Banggai,Sulawesi Tengah
856,94760,Nambo Lempek Baru,72.01.23.1006,Nambo,Kabupaten,Banggai,Sulawesi Tengah
857,94760,Nambo Padang,72.01.23.1003,Nambo,Kabupaten,Banggai,Sulawesi Tengah
858,94760,Padungnyo,72.01.23.2009,Nambo,Kabupaten,Banggai,Sulawesi Tengah
859,94760,Sayambongin (Sayangbongin),72.01.23.2010,Nambo,Kabupaten,Banggai,Sulawesi Tengah
860,94481,Aedan Raya,72.08.04.2028,Moutong,Kabupaten,Parigi Moutong,Sulawesi Tengah
861,94481,Boloung Olonggata (Bolaung Olonggata),72.08.04.2030,Moutong,Kabupaten,Parigi Moutong,Sulawesi Tengah
862,94481,Gio,72.08.04.2006,Moutong,Kabupaten,Parigi Moutong,Sulawesi Tengah
863,94481,Gio Barat,72.08.04.2038,Moutong,Kabupaten,Parigi Moutong,Sulawesi Tengah
864,94481,Gio Timur,72.08.04.2037,Moutong,Kabupaten,Parigi Moutong,Sulawesi Tengah
865,94481,Labuan,72.08.04.2031,Moutong,Kabupaten,Parigi Moutong,Sulawesi Tengah
866,94481,Lobu,72.08.04.2024,Moutong,Kabupaten,Parigi Moutong,Sulawesi Tengah
867,94481,Mbelang Mbelang,72.08.04.2032,Moutong,Kabupaten,Parigi Moutong,Sulawesi Tengah
868,94481,Moutong Barat,72.08.04.2002,Moutong,Kabupaten,Parigi Moutong,Sulawesi Tengah
869,94481,Moutong Tengah,72.08.04.2003,Moutong,Kabupaten,Parigi Moutong,Sulawesi Tengah
870,94481,Moutong Timur,72.08.04.2001,Moutong,Kabupaten,Parigi Moutong,Sulawesi Tengah
871,94481,Moutong Utara,72.08.04.2034,Moutong,Kabupaten,Parigi Moutong,Sulawesi Tengah
872,94481,Olonggata,72.08.04.2036,Moutong,Kabupaten,Parigi Moutong,Sulawesi Tengah
873,94481,Pande,72.08.04.2033,Moutong,Kabupaten,Parigi Moutong,Sulawesi Tengah
874,94481,Pendelalap,72.08.04.2025,Moutong,Kabupaten,Parigi Moutong,Sulawesi Tengah
875,94481,Salepae,72.08.04.2035,Moutong,Kabupaten,Parigi Moutong,Sulawesi Tengah
876,94481,Salumpengut,72.08.04.2029,Moutong,Kabupaten,Parigi Moutong,Sulawesi Tengah
877,94481,Sejoli,72.08.04.2026,Moutong,Kabupaten,Parigi Moutong,Sulawesi Tengah
878,94481,Sialopa,72.08.04.2039,Moutong,Kabupaten,Parigi Moutong,Sulawesi Tengah
879,94481,Tuladenggi Pantai,72.08.04.2004,Moutong,Kabupaten,Parigi Moutong,Sulawesi Tengah
880,94964,Era,72.12.06.2001,Mori Utara,Kabupaten,Morowali Utara,Sulawesi Tengah
881,94964,Lembontonara,72.12.06.2006,Mori Utara,Kabupaten,Morowali Utara,Sulawesi Tengah
882,94964,Mayumba,72.12.06.2004,Mori Utara,Kabupaten,Morowali Utara,Sulawesi Tengah
883,94964,Peleru,72.12.06.2002,Mori Utara,Kabupaten,Morowali Utara,Sulawesi Tengah
884,94964,Tabarano,72.12.06.2007,Mori Utara,Kabupaten,Morowali Utara,Sulawesi Tengah
885,94964,Tamonjengi,72.12.06.2003,Mori Utara,Kabupaten,Morowali Utara,Sulawesi Tengah
886,94964,Tiwa'a (Tiwaa),72.12.06.2005,Mori Utara,Kabupaten,Morowali Utara,Sulawesi Tengah
887,94964,Wawondula (Wawondul),72.12.06.2008,Mori Utara,Kabupaten,Morowali Utara,Sulawesi Tengah
888,94965,Ensa,72.12.05.2004,Mori Atas,Kabupaten,Morowali Utara,Sulawesi Tengah
889,94965,Gontara,72.12.05.2008,Mori Atas,Kabupaten,Morowali Utara,Sulawesi Tengah
890,94965,Kasingoli,72.12.05.2011,Mori Atas,Kabupaten,Morowali Utara,Sulawesi Tengah
891,94965,Kolaka,72.12.05.2005,Mori Atas,Kabupaten,Morowali Utara,Sulawesi Tengah
892,94965,Lanumor,72.12.05.2007,Mori Atas,Kabupaten,Morowali Utara,Sulawesi Tengah
893,94965,Lee,72.12.05.2009,Mori Atas,Kabupaten,Morowali Utara,Sulawesi Tengah
894,94965,Londi,72.12.05.2002,Mori Atas,Kabupaten,Morowali Utara,Sulawesi Tengah
895,94965,Pambarea,72.12.05.2014,Mori Atas,Kabupaten,Morowali Utara,Sulawesi Tengah
896,94965,Peonea,72.12.05.2006,Mori Atas,Kabupaten,Morowali Utara,Sulawesi Tengah
897,94965,Saemba,72.12.05.2010,Mori Atas,Kabupaten,Morowali Utara,Sulawesi Tengah
898,94965,Saemba Walati,72.12.05.2013,Mori Atas,Kabupaten,Morowali Utara,Sulawesi Tengah
899,94965,Taende,72.12.05.2003,Mori Atas,Kabupaten,Morowali Utara,Sulawesi Tengah
900,94965,Tomata,72.12.05.2001,Mori Atas,Kabupaten,Morowali Utara,Sulawesi Tengah
901,94965,Tomui Karya,72.12.05.2012,Mori Atas,Kabupaten,Morowali Utara,Sulawesi Tengah
902,94565,Guamonial,72.05.01.2010,Momunu,Kabupaten,Buol,Sulawesi Tengah
903,94565,Lamadong I,72.05.01.2011,Momunu,Kabupaten,Buol,Sulawesi Tengah
904,94565,Lamadong II,72.05.01.2008,Momunu,Kabupaten,Buol,Sulawesi Tengah
905,94565,Mangubi,72.05.01.2023,Momunu,Kabupaten,Buol,Sulawesi Tengah
906,94565,Momunu,72.05.01.2001,Momunu,Kabupaten,Buol,Sulawesi Tengah
907,94565,Pajeko,72.05.01.2012,Momunu,Kabupaten,Buol,Sulawesi Tengah
908,94565,Panimbul,72.05.01.2006,Momunu,Kabupaten,Buol,Sulawesi Tengah
909,94565,Pinamula,72.05.01.2002,Momunu,Kabupaten,Buol,Sulawesi Tengah
910,94565,Pinamula Baru,72.05.01.2022,Momunu,Kabupaten,Buol,Sulawesi Tengah
911,94565,Pomayagon,72.05.01.2009,Momunu,Kabupaten,Buol,Sulawesi Tengah
912,94565,Potugu,72.05.01.2005,Momunu,Kabupaten,Buol,Sulawesi Tengah
913,94565,Pujimulyo,72.05.01.2003,Momunu,Kabupaten,Buol,Sulawesi Tengah
914,94565,Soraya,72.05.01.2021,Momunu,Kabupaten,Buol,Sulawesi Tengah
915,94565,Taluan,72.05.01.2004,Momunu,Kabupaten,Buol,Sulawesi Tengah
916,94565,Tongon,72.05.01.2007,Momunu,Kabupaten,Buol,Sulawesi Tengah
917,94565,Wakat,72.05.01.2020,Momunu,Kabupaten,Buol,Sulawesi Tengah
918,94765,Arga Kencana,72.01.14.2009,Moilong,Kabupaten,Banggai,Sulawesi Tengah
919,94765,Argo Mulyo,72.01.14.2015,Moilong,Kabupaten,Banggai,Sulawesi Tengah
920,94765,Bumi Harjo,72.01.14.2006,Moilong,Kabupaten,Banggai,Sulawesi Tengah
921,94765,Karang Anyar,72.01.14.2011,Moilong,Kabupaten,Banggai,Sulawesi Tengah
922,94765,Karya Jaya,72.01.14.2013,Moilong,Kabupaten,Banggai,Sulawesi Tengah
923,94765,Minahaki,72.01.14.2008,Moilong,Kabupaten,Banggai,Sulawesi Tengah
924,94765,Minakarya,72.01.14.2007,Moilong,Kabupaten,Banggai,Sulawesi Tengah
925,94765,Moilong,72.01.14.2010,Moilong,Kabupaten,Banggai,Sulawesi Tengah
926,94765,Mulyoharjo (Mulio Harjo),72.01.14.2004,Moilong,Kabupaten,Banggai,Sulawesi Tengah
927,94765,Saluan,72.01.14.2001,Moilong,Kabupaten,Banggai,Sulawesi Tengah
928,94765,Selamet Raharjo,72.01.14.2003,Moilong,Kabupaten,Banggai,Sulawesi Tengah
929,94765,Sido Makmur,72.01.14.2016,Moilong,Kabupaten,Banggai,Sulawesi Tengah
930,94765,Sidoharjo,72.01.14.2005,Moilong,Kabupaten,Banggai,Sulawesi Tengah
931,94765,Sumber Harjo,72.01.14.2012,Moilong,Kabupaten,Banggai,Sulawesi Tengah
932,94765,Toili,72.01.14.2002,Moilong,Kabupaten,Banggai,Sulawesi Tengah
933,94765,Tou,72.01.14.2014,Moilong,Kabupaten,Banggai,Sulawesi Tengah
934,94476,Bugis,72.08.12.2007,Mepanga,Kabupaten,Parigi Moutong,Sulawesi Tengah
935,94476,Bugis Utara,72.08.12.2016,Mepanga,Kabupaten,Parigi Moutong,Sulawesi Tengah
936,94476,Gurinda,72.08.12.2017,Mepanga,Kabupaten,Parigi Moutong,Sulawesi Tengah
937,94476,Kayu Agung,72.08.12.2001,Mepanga,Kabupaten,Parigi Moutong,Sulawesi Tengah
938,94479,Kota Raya Selatan,72.08.12.2012,Mepanga,Kabupaten,Parigi Moutong,Sulawesi Tengah
939,94476,Kota Raya Timur (Kotaraya Timur),72.08.12.2010,Mepanga,Kabupaten,Parigi Moutong,Sulawesi Tengah
940,94476,Kotaraya,72.08.12.2003,Mepanga,Kabupaten,Parigi Moutong,Sulawesi Tengah
941,94479,Kotaraya Barat,72.08.12.2015,Mepanga,Kabupaten,Parigi Moutong,Sulawesi Tengah
942,94476,Kotaraya Tenggara,72.08.12.2018,Mepanga,Kabupaten,Parigi Moutong,Sulawesi Tengah
943,94479,Malalan,72.08.12.2011,Mepanga,Kabupaten,Parigi Moutong,Sulawesi Tengah
944,94479,Maranti,72.08.12.2013,Mepanga,Kabupaten,Parigi Moutong,Sulawesi Tengah
945,94476,Mensung,72.08.12.2006,Mepanga,Kabupaten,Parigi Moutong,Sulawesi Tengah
946,94476,Mepanga,72.08.12.2004,Mepanga,Kabupaten,Parigi Moutong,Sulawesi Tengah
947,94476,Moubang,72.08.12.2008,Mepanga,Kabupaten,Parigi Moutong,Sulawesi Tengah
948,94476,Ogobayas,72.08.12.2009,Mepanga,Kabupaten,Parigi Moutong,Sulawesi Tengah
949,94479,Ogomolos,72.08.12.2014,Mepanga,Kabupaten,Parigi Moutong,Sulawesi Tengah
950,94476,Ogotion,72.08.12.2005,Mepanga,Kabupaten,Parigi Moutong,Sulawesi Tengah
951,94476,Sumber Agung,72.08.12.2002,Mepanga,Kabupaten,Parigi Moutong,Sulawesi Tengah
952,94975,Buranga,72.06.07.2017,Menui Kepulauan,Kabupaten,Morowali,Sulawesi Tengah
953,94975,Dongkalan,72.06.07.2018,Menui Kepulauan,Kabupaten,Morowali,Sulawesi Tengah
954,94975,Kofalagadi,72.06.07.2006,Menui Kepulauan,Kabupaten,Morowali,Sulawesi Tengah
955,94975,Masadian,72.06.07.2011,Menui Kepulauan,Kabupaten,Morowali,Sulawesi Tengah
956,94975,Matano,72.06.07.2013,Menui Kepulauan,Kabupaten,Morowali,Sulawesi Tengah
957,94975,Matarape,72.06.07.2014,Menui Kepulauan,Kabupaten,Morowali,Sulawesi Tengah
958,94975,Mbokitta,72.06.07.2021,Menui Kepulauan,Kabupaten,Morowali,Sulawesi Tengah
959,94975,Morompaitonga,72.06.07.2005,Menui Kepulauan,Kabupaten,Morowali,Sulawesi Tengah
960,94975,Ngapaea,72.06.07.2003,Menui Kepulauan,Kabupaten,Morowali,Sulawesi Tengah
961,94975,Padalaa,72.06.07.2004,Menui Kepulauan,Kabupaten,Morowali,Sulawesi Tengah
962,94975,Padei Darat,72.06.07.2009,Menui Kepulauan,Kabupaten,Morowali,Sulawesi Tengah
963,94975,Padei Laut,72.06.07.2008,Menui Kepulauan,Kabupaten,Morowali,Sulawesi Tengah
964,94975,Pulau Tengah,72.06.07.2020,Menui Kepulauan,Kabupaten,Morowali,Sulawesi Tengah
965,94975,Pulau Tiga,72.06.07.2012,Menui Kepulauan,Kabupaten,Morowali,Sulawesi Tengah
966,94975,Samarengga,72.06.07.2010,Menui Kepulauan,Kabupaten,Morowali,Sulawesi Tengah
967,94975,Tafagapi,72.06.07.2019,Menui Kepulauan,Kabupaten,Morowali,Sulawesi Tengah
968,94975,Tanjung Harapan,72.06.07.2024,Menui Kepulauan,Kabupaten,Morowali,Sulawesi Tengah
969,94975,Tanjung Tiram,72.06.07.2022,Menui Kepulauan,Kabupaten,Morowali,Sulawesi Tengah
970,94975,Tanona,72.06.07.2023,Menui Kepulauan,Kabupaten,Morowali,Sulawesi Tengah
971,94975,Terebino,72.06.07.2001,Menui Kepulauan,Kabupaten,Morowali,Sulawesi Tengah
972,94975,Torukuno (Torukune),72.06.07.2002,Menui Kepulauan,Kabupaten,Morowali,Sulawesi Tengah
973,94975,Ulunambo,72.06.07.1007,Menui Kepulauan,Kabupaten,Morowali,Sulawesi Tengah
974,94975,Ulunipa,72.06.07.2015,Menui Kepulauan,Kabupaten,Morowali,Sulawesi Tengah
975,94975,Wawangkolono,72.06.07.2016,Menui Kepulauan,Kabupaten,Morowali,Sulawesi Tengah
976,94772,Cemerlang,72.01.10.2012,Masama,Kabupaten,Banggai,Sulawesi Tengah
977,94772,Duata Karya,72.01.10.2010,Masama,Kabupaten,Banggai,Sulawesi Tengah
978,94772,Eteng,72.01.10.2003,Masama,Kabupaten,Banggai,Sulawesi Tengah
979,94772,Kembang Mentha (Merta/Menta),72.01.10.2007,Masama,Kabupaten,Banggai,Sulawesi Tengah
980,94772,Kospa Duatakarya (Buata Karya / Dwata Karya),72.01.10.2005,Masama,Kabupaten,Banggai,Sulawesi Tengah
981,94772,Minang Andala (Minangandala),72.01.10.2004,Masama,Kabupaten,Banggai,Sulawesi Tengah
982,94772,Padangon (Padangan),72.01.10.2013,Masama,Kabupaten,Banggai,Sulawesi Tengah
983,94772,Purwo Agung,72.01.10.2006,Masama,Kabupaten,Banggai,Sulawesi Tengah
984,94772,Rangga-Rangga,72.01.10.2014,Masama,Kabupaten,Banggai,Sulawesi Tengah
985,94772,Serese (Seresa),72.01.10.2011,Masama,Kabupaten,Banggai,Sulawesi Tengah
986,94772,Simpangan,72.01.10.2008,Masama,Kabupaten,Banggai,Sulawesi Tengah
987,94772,Tangabean (Tangeban),72.01.10.2001,Masama,Kabupaten,Banggai,Sulawesi Tengah
988,94772,Taugi,72.01.10.2002,Masama,Kabupaten,Banggai,Sulawesi Tengah
989,94772,Tompotika Makmur,72.01.10.2009,Masama,Kabupaten,Banggai,Sulawesi Tengah
990,94374,Dombu,72.10.15.2005,Marawola Barat,Kabupaten,Sigi,Sulawesi Tengah
991,94374,Lemosiranindi,72.10.15.2012,Marawola Barat,Kabupaten,Sigi,Sulawesi Tengah
992,94374,Lewara,72.10.15.2004,Marawola Barat,Kabupaten,Sigi,Sulawesi Tengah
993,94374,Matantimali,72.10.15.2003,Marawola Barat,Kabupaten,Sigi,Sulawesi Tengah
994,94374,Ongulero,72.10.15.2009,Marawola Barat,Kabupaten,Sigi,Sulawesi Tengah
995,94374,Panasibaja,72.10.15.2008,Marawola Barat,Kabupaten,Sigi,Sulawesi Tengah
996,94374,Soi,72.10.15.2006,Marawola Barat,Kabupaten,Sigi,Sulawesi Tengah
997,94374,Taipanggabe,72.10.15.2002,Marawola Barat,Kabupaten,Sigi,Sulawesi Tengah
998,94374,Wawujai,72.10.15.2011,Marawola Barat,Kabupaten,Sigi,Sulawesi Tengah
999,94374,Wayu,72.10.15.2001,Marawola Barat,Kabupaten,Sigi,Sulawesi Tengah
1000,94374,Wiapore,72.10.15.2010,Marawola Barat,Kabupaten,Sigi,Sulawesi Tengah
1001,94374,Wugaga,72.10.15.2007,Marawola Barat,Kabupaten,Sigi,Sulawesi Tengah
1002,94372,Baliase,72.10.14.2008,Marawola,Kabupaten,Sigi,Sulawesi Tengah
1003,94372,Beka,72.10.14.2003,Marawola,Kabupaten,Sigi,Sulawesi Tengah
1004,94372,Binangga,72.10.14.2009,Marawola,Kabupaten,Sigi,Sulawesi Tengah
1005,94372,Bomba,72.10.14.2002,Marawola,Kabupaten,Sigi,Sulawesi Tengah
1006,94372,Boyabaliase,72.10.14.2010,Marawola,Kabupaten,Sigi,Sulawesi Tengah
1007,94372,Lebanu,72.10.14.2001,Marawola,Kabupaten,Sigi,Sulawesi Tengah
1008,94372,Padende,72.10.14.2005,Marawola,Kabupaten,Sigi,Sulawesi Tengah
1009,94372,Sibedi,72.10.14.2004,Marawola,Kabupaten,Sigi,Sulawesi Tengah
1010,94372,Sunju,72.10.14.2006,Marawola,Kabupaten,Sigi,Sulawesi Tengah
1011,94372,Tinggede,72.10.14.2007,Marawola,Kabupaten,Sigi,Sulawesi Tengah
1012,94372,Tinggede Selatan,72.10.14.2011,Marawola,Kabupaten,Sigi,Sulawesi Tengah
1013,94770,Binotik,72.01.22.2004,Mantoh,Kabupaten,Banggai,Sulawesi Tengah
1014,94770,Bollo (Bolla),72.01.22.2006,Mantoh,Kabupaten,Banggai,Sulawesi Tengah
1015,94770,Bombongan,72.01.22.2010,Mantoh,Kabupaten,Banggai,Sulawesi Tengah
1016,94770,Boras,72.01.22.2008,Mantoh,Kabupaten,Banggai,Sulawesi Tengah
1017,94770,Garuga,72.01.22.2005,Mantoh,Kabupaten,Banggai,Sulawesi Tengah
1018,94770,Lonas,72.01.22.2009,Mantoh,Kabupaten,Banggai,Sulawesi Tengah
1019,94770,Pondan (Pondang),72.01.22.2001,Mantoh,Kabupaten,Banggai,Sulawesi Tengah
1020,94770,Sobol,72.01.22.2002,Mantoh,Kabupaten,Banggai,Sulawesi Tengah
1021,94770,Sobol Baru,72.01.22.2003,Mantoh,Kabupaten,Banggai,Sulawesi Tengah
1022,94770,Sulubombong,72.01.22.2007,Mantoh,Kabupaten,Banggai,Sulawesi Tengah
1023,94233,Kawatuna,72.71.08.1007,Mantikulore,Kota,Palu,Sulawesi Tengah
1024,94116,Lasoani,72.71.08.1005,Mantikulore,Kota,Palu,Sulawesi Tengah
1025,94111,Layana Indah,72.71.08.1001,Mantikulore,Kota,Palu,Sulawesi Tengah
1026,94115,Poboya,72.71.08.1006,Mantikulore,Kota,Palu,Sulawesi Tengah
1027,94118,Talise,72.71.08.1003,Mantikulore,Kota,Palu,Sulawesi Tengah
1028,94118,Talise Valangguni,72.71.08.1008,Mantikulore,Kota,Palu,Sulawesi Tengah
1029,94234,Tanamodindi,72.71.08.1004,Mantikulore,Kota,Palu,Sulawesi Tengah
1030,94119,Tondo,72.71.08.1002,Mantikulore,Kota,Palu,Sulawesi Tengah
1031,94968,Girimulya,72.12.09.2010,Mamosalato,Kabupaten,Morowali Utara,Sulawesi Tengah
1032,94968,Kolo Atas,72.12.09.2003,Mamosalato,Kabupaten,Morowali Utara,Sulawesi Tengah
1033,94968,Kolo Bawah,72.12.09.2002,Mamosalato,Kabupaten,Morowali Utara,Sulawesi Tengah
1034,94968,Lijo,72.12.09.2007,Mamosalato,Kabupaten,Morowali Utara,Sulawesi Tengah
1035,94968,Menyo'e (Manyoe),72.12.09.2014,Mamosalato,Kabupaten,Morowali Utara,Sulawesi Tengah
1036,94968,Momo,72.12.09.2004,Mamosalato,Kabupaten,Morowali Utara,Sulawesi Tengah
1037,94968,Pandauke,72.12.09.2001,Mamosalato,Kabupaten,Morowali Utara,Sulawesi Tengah
1038,94968,Parangisi,72.12.09.2009,Mamosalato,Kabupaten,Morowali Utara,Sulawesi Tengah
1039,94968,Sea,72.12.09.2013,Mamosalato,Kabupaten,Morowali Utara,Sulawesi Tengah
1040,94968,Tambale,72.12.09.2012,Mamosalato,Kabupaten,Morowali Utara,Sulawesi Tengah
1041,94968,Tananagaya (Tanangaya),72.12.09.2005,Mamosalato,Kabupaten,Morowali Utara,Sulawesi Tengah
1042,94968,Tanasumpu,72.12.09.2008,Mamosalato,Kabupaten,Morowali Utara,Sulawesi Tengah
1043,94968,Uepakatu (Uepaku),72.12.09.2006,Mamosalato,Kabupaten,Morowali Utara,Sulawesi Tengah
1044,94968,Winangobino (Winangabino),72.12.09.2011,Mamosalato,Kabupaten,Morowali Utara,Sulawesi Tengah
1045,94711,Awu,72.01.21.2008,Luwuk Utara,Kabupaten,Banggai,Sulawesi Tengah
1046,94711,Biak,72.01.21.2001,Luwuk Utara,Kabupaten,Banggai,Sulawesi Tengah
1047,94711,Boyou,72.01.21.2007,Luwuk Utara,Kabupaten,Banggai,Sulawesi Tengah
1048,94711,Bumi Beringin,72.01.21.2009,Luwuk Utara,Kabupaten,Banggai,Sulawesi Tengah
1049,94711,Bunga,72.01.21.2002,Luwuk Utara,Kabupaten,Banggai,Sulawesi Tengah
1050,94711,Buon Mandiri,72.01.21.2006,Luwuk Utara,Kabupaten,Banggai,Sulawesi Tengah
1051,94711,Kamumu,72.01.21.2003,Luwuk Utara,Kabupaten,Banggai,Sulawesi Tengah
1052,94711,Kilongan,72.01.21.1010,Luwuk Utara,Kabupaten,Banggai,Sulawesi Tengah
1053,94711,Kilongan Permai,72.01.21.1011,Luwuk Utara,Kabupaten,Banggai,Sulawesi Tengah
1054,94711,Lenyek,72.01.21.2005,Luwuk Utara,Kabupaten,Banggai,Sulawesi Tengah
1055,94711,Salodik,72.01.21.2004,Luwuk Utara,Kabupaten,Banggai,Sulawesi Tengah
1056,94723,Bantayan,72.01.11.2006,Luwuk Timur,Kabupaten,Banggai,Sulawesi Tengah
1057,94723,Baya,72.01.11.2004,Luwuk Timur,Kabupaten,Banggai,Sulawesi Tengah
1058,94723,Boitan,72.01.11.2008,Luwuk Timur,Kabupaten,Banggai,Sulawesi Tengah
1059,94723,Bukit Mulya,72.01.11.2013,Luwuk Timur,Kabupaten,Banggai,Sulawesi Tengah
1060,94723,Hunduhon,72.01.11.2003,Luwuk Timur,Kabupaten,Banggai,Sulawesi Tengah
1061,94723,Indang Sari,72.01.11.2012,Luwuk Timur,Kabupaten,Banggai,Sulawesi Tengah
1062,94723,Kayutanyo,72.01.11.2001,Luwuk Timur,Kabupaten,Banggai,Sulawesi Tengah
1063,94723,Lauwon,72.01.11.2007,Luwuk Timur,Kabupaten,Banggai,Sulawesi Tengah
1064,94723,Lontos,72.01.11.2011,Luwuk Timur,Kabupaten,Banggai,Sulawesi Tengah
1065,94723,Louk,72.01.11.2010,Luwuk Timur,Kabupaten,Banggai,Sulawesi Tengah
1066,94723,Molino,72.01.11.2009,Luwuk Timur,Kabupaten,Banggai,Sulawesi Tengah
1067,94723,Pohi,72.01.11.2002,Luwuk Timur,Kabupaten,Banggai,Sulawesi Tengah
1068,94723,Uwedikan,72.01.11.2005,Luwuk Timur,Kabupaten,Banggai,Sulawesi Tengah
1069,94717,Bubung,72.01.20.2001,Luwuk Selatan,Kabupaten,Banggai,Sulawesi Tengah
1070,94717,Bukit Mambual (Bukit Membual),72.01.20.1007,Luwuk Selatan,Kabupaten,Banggai,Sulawesi Tengah
1071,94717,Hanga Hanga,72.01.20.1003,Luwuk Selatan,Kabupaten,Banggai,Sulawesi Tengah
1072,94717,Hanga-Hanga Permai,72.01.20.1005,Luwuk Selatan,Kabupaten,Banggai,Sulawesi Tengah
1073,94717,Jole,72.01.20.1004,Luwuk Selatan,Kabupaten,Banggai,Sulawesi Tengah
1074,94717,Kompo,72.01.20.1006,Luwuk Selatan,Kabupaten,Banggai,Sulawesi Tengah
1075,94717,Maahas,72.01.20.1009,Luwuk Selatan,Kabupaten,Banggai,Sulawesi Tengah
1076,94717,Simpong,72.01.20.1002,Luwuk Selatan,Kabupaten,Banggai,Sulawesi Tengah
1077,94717,Tanjung Tuwis,72.01.20.1010,Luwuk Selatan,Kabupaten,Banggai,Sulawesi Tengah
1078,94717,Tombang Permai,72.01.20.1008,Luwuk Selatan,Kabupaten,Banggai,Sulawesi Tengah
1079,94711,Baru,72.01.04.1010,Luwuk,Kabupaten,Banggai,Sulawesi Tengah
1080,94712,Bungin,72.01.04.1012,Luwuk,Kabupaten,Banggai,Sulawesi Tengah
1081,94712,Bungin Timur,72.01.04.1034,Luwuk,Kabupaten,Banggai,Sulawesi Tengah
1082,94713,Kaleke (Keleke),72.01.04.1033,Luwuk,Kabupaten,Banggai,Sulawesi Tengah
1083,94711,Karaton (Keraton),72.01.04.1031,Luwuk,Kabupaten,Banggai,Sulawesi Tengah
1084,94711,Lumpoknyo,72.01.04.2013,Luwuk,Kabupaten,Banggai,Sulawesi Tengah
1085,94711,Luwuk,72.01.04.1009,Luwuk,Kabupaten,Banggai,Sulawesi Tengah
1086,94711,Mangkio Baru-Hanga Permai (Mangkio Baru),72.01.04.1035,Luwuk,Kabupaten,Banggai,Sulawesi Tengah
1087,94713,Soho,72.01.04.1011,Luwuk,Kabupaten,Banggai,Sulawesi Tengah
1088,94711,Tontouan,72.01.04.2008,Luwuk,Kabupaten,Banggai,Sulawesi Tengah
1089,94658,Alitupu,72.02.07.2009,Lore Utara,Kabupaten,Poso,Sulawesi Tengah
1090,94658,Bumi Banyusari,72.02.07.2016,Lore Utara,Kabupaten,Poso,Sulawesi Tengah
1091,94658,Dodolo,72.02.07.2001,Lore Utara,Kabupaten,Poso,Sulawesi Tengah
1092,94658,Kaduwaa,72.02.07.2006,Lore Utara,Kabupaten,Poso,Sulawesi Tengah
1093,94658,Sedoa,72.02.07.2008,Lore Utara,Kabupaten,Poso,Sulawesi Tengah
1094,94658,Watumaeta,72.02.07.2007,Lore Utara,Kabupaten,Poso,Sulawesi Tengah
1095,94658,Wuasa,72.02.07.2014,Lore Utara,Kabupaten,Poso,Sulawesi Tengah
1096,94657,Kalemago,72.02.24.2005,Lore Timur,Kabupaten,Poso,Sulawesi Tengah
1097,94657,Maholo,72.02.24.2002,Lore Timur,Kabupaten,Poso,Sulawesi Tengah
1098,94657,Mekarsari,72.02.24.2004,Lore Timur,Kabupaten,Poso,Sulawesi Tengah
1099,94657,Tamadue,72.02.24.2003,Lore Timur,Kabupaten,Poso,Sulawesi Tengah
1100,94657,Winowanga,72.02.24.2001,Lore Timur,Kabupaten,Poso,Sulawesi Tengah
1101,94656,Baleura (Baliura),72.02.08.2008,Lore Tengah,Kabupaten,Poso,Sulawesi Tengah
1102,94656,Bariri,72.02.08.2004,Lore Tengah,Kabupaten,Poso,Sulawesi Tengah
1103,94656,Doda,72.02.08.2003,Lore Tengah,Kabupaten,Poso,Sulawesi Tengah
1104,94656,Hangira (Hanggira),72.02.08.2001,Lore Tengah,Kabupaten,Poso,Sulawesi Tengah
1105,94656,Katu,72.02.08.2006,Lore Tengah,Kabupaten,Poso,Sulawesi Tengah
1106,94656,Lempe,72.02.08.2002,Lore Tengah,Kabupaten,Poso,Sulawesi Tengah
1107,94656,Rompo,72.02.08.2007,Lore Tengah,Kabupaten,Poso,Sulawesi Tengah
1108,94656,Torire,72.02.08.2005,Lore Tengah,Kabupaten,Poso,Sulawesi Tengah
1109,94655,Badangkaiya (Badangkaia),72.02.09.2007,Lore Selatan,Kabupaten,Poso,Sulawesi Tengah
1110,94655,Bakekau,72.02.09.2008,Lore Selatan,Kabupaten,Poso,Sulawesi Tengah
1111,94655,Bewa,72.02.09.2010,Lore Selatan,Kabupaten,Poso,Sulawesi Tengah
1112,94655,Bomba,72.02.09.2012,Lore Selatan,Kabupaten,Poso,Sulawesi Tengah
1113,94655,Bulili,72.02.09.2009,Lore Selatan,Kabupaten,Poso,Sulawesi Tengah
1114,94655,Gintu,72.02.09.2005,Lore Selatan,Kabupaten,Poso,Sulawesi Tengah
1115,94655,Pada,72.02.09.2011,Lore Selatan,Kabupaten,Poso,Sulawesi Tengah
1116,94655,Runde,72.02.09.2006,Lore Selatan,Kabupaten,Poso,Sulawesi Tengah
1117,94653,Betue,72.02.25.2002,Lore Piore,Kabupaten,Poso,Sulawesi Tengah
1118,94653,Siliwanga,72.02.25.2005,Lore Piore,Kabupaten,Poso,Sulawesi Tengah
1119,94653,Talabosa,72.02.25.2003,Lore Piore,Kabupaten,Poso,Sulawesi Tengah
1120,94653,Wanga,72.02.25.2004,Lore Piore,Kabupaten,Poso,Sulawesi Tengah
1121,94653,Watutau,72.02.25.2001,Lore Piore,Kabupaten,Poso,Sulawesi Tengah
1122,94654,Kageroa,72.02.23.2002,Lore Barat,Kabupaten,Poso,Sulawesi Tengah
1123,94654,Kolori,72.02.23.2005,Lore Barat,Kabupaten,Poso,Sulawesi Tengah
1124,94654,Lelio,72.02.23.2006,Lore Barat,Kabupaten,Poso,Sulawesi Tengah
1125,94654,Lengkeka,72.02.23.2004,Lore Barat,Kabupaten,Poso,Sulawesi Tengah
1126,94654,Tomehipi,72.02.23.2003,Lore Barat,Kabupaten,Poso,Sulawesi Tengah
1127,94654,Tuare,72.02.23.2001,Lore Barat,Kabupaten,Poso,Sulawesi Tengah
1128,94750,Bahingin,72.01.16.2006,Lobu,Kabupaten,Banggai,Sulawesi Tengah
1129,94750,Balean,72.01.16.2008,Lobu,Kabupaten,Banggai,Sulawesi Tengah
1130,94750,Bolobungkang,72.01.16.2002,Lobu,Kabupaten,Banggai,Sulawesi Tengah
1131,94750,Dolom,72.01.16.2009,Lobu,Kabupaten,Banggai,Sulawesi Tengah
1132,94750,Kadodi,72.01.16.2004,Lobu,Kabupaten,Banggai,Sulawesi Tengah
1133,94750,Lambuli,72.01.16.2010,Lobu,Kabupaten,Banggai,Sulawesi Tengah
1134,94750,Lobu,72.01.16.2001,Lobu,Kabupaten,Banggai,Sulawesi Tengah
1135,94750,Niubulan,72.01.16.2003,Lobu,Kabupaten,Banggai,Sulawesi Tengah
1136,94750,Uha Uhangon,72.01.16.2005,Lobu,Kabupaten,Banggai,Sulawesi Tengah
1137,94750,Uwe Daka-Daka,72.01.16.2007,Lobu,Kabupaten,Banggai,Sulawesi Tengah
1138,94369,Anca,72.10.04.2004,Lindu,Kabupaten,Sigi,Sulawesi Tengah
1139,94369,Langko,72.10.04.2002,Lindu,Kabupaten,Sigi,Sulawesi Tengah
1140,94369,Olu,72.10.04.2005,Lindu,Kabupaten,Sigi,Sulawesi Tengah
1141,94369,Puroo,72.10.04.2001,Lindu,Kabupaten,Sigi,Sulawesi Tengah
1142,94369,Tomado,72.10.04.2003,Lindu,Kabupaten,Sigi,Sulawesi Tengah
1143,94883,Apal,72.07.05.2018,Liang,Kabupaten,Banggai Kepulauan,Sulawesi Tengah
1144,94883,Bajo,72.07.05.2012,Liang,Kabupaten,Banggai Kepulauan,Sulawesi Tengah
1145,94883,Balayon,72.07.05.2013,Liang,Kabupaten,Banggai Kepulauan,Sulawesi Tengah
1146,94883,Basosol,72.07.05.2016,Liang,Kabupaten,Banggai Kepulauan,Sulawesi Tengah
1147,94883,Binuntuli,72.07.05.2002,Liang,Kabupaten,Banggai Kepulauan,Sulawesi Tengah
1148,94883,Boyoumoute (Boyomoute),72.07.05.2017,Liang,Kabupaten,Banggai Kepulauan,Sulawesi Tengah
1149,94883,Kindandal,72.07.05.2006,Liang,Kabupaten,Banggai Kepulauan,Sulawesi Tengah
1150,94883,Liang,72.07.05.2011,Liang,Kabupaten,Banggai Kepulauan,Sulawesi Tengah
1151,94883,Loolong,72.07.05.2026,Liang,Kabupaten,Banggai Kepulauan,Sulawesi Tengah
1152,94883,Mamulusan,72.07.05.2007,Liang,Kabupaten,Banggai Kepulauan,Sulawesi Tengah
1153,94883,Okumel,72.07.05.2004,Liang,Kabupaten,Banggai Kepulauan,Sulawesi Tengah
1154,94883,Popidolon,72.07.05.2003,Liang,Kabupaten,Banggai Kepulauan,Sulawesi Tengah
1155,94883,Saleati,72.07.05.2010,Liang,Kabupaten,Banggai Kepulauan,Sulawesi Tengah
1156,94883,Selekan,72.07.05.2025,Liang,Kabupaten,Banggai Kepulauan,Sulawesi Tengah
1157,94883,Tangkop,72.07.05.2001,Liang,Kabupaten,Banggai Kepulauan,Sulawesi Tengah
1158,94883,Tomboniki,72.07.05.2005,Liang,Kabupaten,Banggai Kepulauan,Sulawesi Tengah
1159,94967,Bintangor Mukti,72.12.03.2009,Lembo Raya,Kabupaten,Morowali Utara,Sulawesi Tengah
1160,94967,Dolupo Karya (Dalupo Karya),72.12.03.2001,Lembo Raya,Kabupaten,Morowali Utara,Sulawesi Tengah
1161,94967,Jamor Jaya (Jamur Jaya),72.12.03.2006,Lembo Raya,Kabupaten,Morowali Utara,Sulawesi Tengah
1162,94967,Lembobelala,72.12.03.2008,Lembo Raya,Kabupaten,Morowali Utara,Sulawesi Tengah
1163,94967,Mandula,72.12.03.2010,Lembo Raya,Kabupaten,Morowali Utara,Sulawesi Tengah
1164,94967,Pa'awaru,72.12.03.2007,Lembo Raya,Kabupaten,Morowali Utara,Sulawesi Tengah
1165,94967,Petumbea,72.12.03.2003,Lembo Raya,Kabupaten,Morowali Utara,Sulawesi Tengah
1166,94967,Po'ona,72.12.03.2002,Lembo Raya,Kabupaten,Morowali Utara,Sulawesi Tengah
1167,94967,Pontangoa,72.12.03.2005,Lembo Raya,Kabupaten,Morowali Utara,Sulawesi Tengah
1168,94967,Ronta,72.12.03.2004,Lembo Raya,Kabupaten,Morowali Utara,Sulawesi Tengah
1169,94966,Beteleme,72.12.04.2001,Lembo,Kabupaten,Morowali Utara,Sulawesi Tengah
1170,94966,Korobonde,72.12.04.2014,Lembo,Kabupaten,Morowali Utara,Sulawesi Tengah
1171,94966,Korompeeli (Korompeli),72.12.04.2010,Lembo,Kabupaten,Morowali Utara,Sulawesi Tengah
1172,94966,Korowalelo (Koro Walelo),72.12.04.2007,Lembo,Kabupaten,Morowali Utara,Sulawesi Tengah
1173,94966,Korowou,72.12.04.2012,Lembo,Kabupaten,Morowali Utara,Sulawesi Tengah
1174,94966,Kumpi,72.12.04.2009,Lembo,Kabupaten,Morowali Utara,Sulawesi Tengah
1175,94966,Lembobaru (Lembo Baru),72.12.04.2013,Lembo,Kabupaten,Morowali Utara,Sulawesi Tengah
1176,94966,Lemboroma,72.12.04.2011,Lembo,Kabupaten,Morowali Utara,Sulawesi Tengah
1177,94966,Mora,72.12.04.2003,Lembo,Kabupaten,Morowali Utara,Sulawesi Tengah
1178,94966,Tingkeao,72.12.04.2005,Lembo,Kabupaten,Morowali Utara,Sulawesi Tengah
1179,94966,Tinompo,72.12.04.2008,Lembo,Kabupaten,Morowali Utara,Sulawesi Tengah
1180,94966,Uluanso,72.12.04.2002,Lembo,Kabupaten,Morowali Utara,Sulawesi Tengah
1181,94966,Waraa,72.12.04.2004,Lembo,Kabupaten,Morowali Utara,Sulawesi Tengah
1182,94966,Wawopada,72.12.04.2006,Lembo,Kabupaten,Morowali Utara,Sulawesi Tengah
1183,94518,Janja,72.04.06.2001,Lampasio,Kabupaten,Toli Toli,Sulawesi Tengah
1184,94517,Lampasio,72.04.06.2004,Lampasio,Kabupaten,Toli Toli,Sulawesi Tengah
1185,94518,Maibua,72.04.06.2007,Lampasio,Kabupaten,Toli Toli,Sulawesi Tengah
1186,94518,Mulya Sari (Mulyasari / Mulia Sari),72.04.06.2008,Lampasio,Kabupaten,Toli Toli,Sulawesi Tengah
1187,94517,Ogomatanang,72.04.06.2009,Lampasio,Kabupaten,Toli Toli,Sulawesi Tengah
1188,94518,Oyom,72.04.06.2002,Lampasio,Kabupaten,Toli Toli,Sulawesi Tengah
1189,94518,Salugan,72.04.06.2003,Lampasio,Kabupaten,Toli Toli,Sulawesi Tengah
1190,94518,Sibea,72.04.06.2006,Lampasio,Kabupaten,Toli Toli,Sulawesi Tengah
1191,94517,Tinading,72.04.06.2005,Lampasio,Kabupaten,Toli Toli,Sulawesi Tengah
1192,94771,Bahari Makmur,72.01.05.2027,Lamala,Kabupaten,Banggai,Sulawesi Tengah
1193,94771,Baruga,72.01.05.2015,Lamala,Kabupaten,Banggai,Sulawesi Tengah
1194,94771,Bonebobakal,72.01.05.2014,Lamala,Kabupaten,Banggai,Sulawesi Tengah
1195,94771,Kagitakan,72.01.05.2010,Lamala,Kabupaten,Banggai,Sulawesi Tengah
1196,94771,Kota Raya,72.01.05.2028,Lamala,Kabupaten,Banggai,Sulawesi Tengah
1197,94771,Kotabaru,72.01.05.2016,Lamala,Kabupaten,Banggai,Sulawesi Tengah
1198,94771,Labotan,72.01.05.2017,Lamala,Kabupaten,Banggai,Sulawesi Tengah
1199,94771,Lomba,72.01.05.2013,Lamala,Kabupaten,Banggai,Sulawesi Tengah
1200,94771,Nipa,72.01.05.2009,Lamala,Kabupaten,Banggai,Sulawesi Tengah
1201,94771,Poroan,72.01.05.2012,Lamala,Kabupaten,Banggai,Sulawesi Tengah
1202,94771,Sirom (Sirong),72.01.05.2011,Lamala,Kabupaten,Banggai,Sulawesi Tengah
1203,94771,Tinonda,72.01.05.2023,Lamala,Kabupaten,Banggai,Sulawesi Tengah
1204,94573,Bukaan,72.05.02.2017,Lakea (Lipunoto),Kabupaten,Buol,Sulawesi Tengah
1205,94573,Ilambe,72.05.02.2019,Lakea (Lipunoto),Kabupaten,Buol,Sulawesi Tengah
1206,94573,Lakea I (Leok 1),72.05.02.2011,Lakea (Lipunoto),Kabupaten,Buol,Sulawesi Tengah
1207,94573,Lakea II (Leok II),72.05.02.2010,Lakea (Lipunoto),Kabupaten,Buol,Sulawesi Tengah
1208,94573,Lakuan Buol (Buol),72.05.02.2012,Lakea (Lipunoto),Kabupaten,Buol,Sulawesi Tengah
1209,94573,Ngune,72.05.02.2018,Lakea (Lipunoto),Kabupaten,Buol,Sulawesi Tengah
1210,94573,Tuinan,72.05.02.2009,Lakea (Lipunoto),Kabupaten,Buol,Sulawesi Tengah
1211,94661,Bategencu,72.02.03.2009,Lage,Kabupaten,Poso,Sulawesi Tengah
1212,94661,Labuadago,72.02.03.2015,Lage,Kabupaten,Poso,Sulawesi Tengah
1213,94661,Labuan,72.02.03.2014,Lage,Kabupaten,Poso,Sulawesi Tengah
1214,94661,Malei,72.02.03.2012,Lage,Kabupaten,Poso,Sulawesi Tengah
1215,94661,Maliwuko,72.02.03.2006,Lage,Kabupaten,Poso,Sulawesi Tengah
1216,94661,Pandiri,72.02.03.2002,Lage,Kabupaten,Poso,Sulawesi Tengah
1217,94661,Rato'ombu,72.02.03.2017,Lage,Kabupaten,Poso,Sulawesi Tengah
1218,94661,Sepe,72.02.03.2008,Lage,Kabupaten,Poso,Sulawesi Tengah
1219,94661,Silanca,72.02.03.2007,Lage,Kabupaten,Poso,Sulawesi Tengah
1220,94661,Sintuwulemba,72.02.03.2013,Lage,Kabupaten,Poso,Sulawesi Tengah
1221,94661,Tagolu,72.02.03.2005,Lage,Kabupaten,Poso,Sulawesi Tengah
1222,94661,Tambaro,72.02.03.2004,Lage,Kabupaten,Poso,Sulawesi Tengah
1223,94661,Tampemadoro,72.02.03.2001,Lage,Kabupaten,Poso,Sulawesi Tengah
1224,94661,Tongko,72.02.03.2011,Lage,Kabupaten,Poso,Sulawesi Tengah
1225,94661,Toyado,72.02.03.2010,Lage,Kabupaten,Poso,Sulawesi Tengah
1226,94661,Watuawu,72.02.03.2003,Lage,Kabupaten,Poso,Sulawesi Tengah
1227,94352,Labuan (Labuan Induk),72.03.09.2001,Labuan,Kabupaten,Donggala,Sulawesi Tengah
1228,94352,Labuan Kungguma,72.03.09.2011,Labuan,Kabupaten,Donggala,Sulawesi Tengah
1229,94352,Labuan Lelea,72.03.09.2010,Labuan,Kabupaten,Donggala,Sulawesi Tengah
1230,94352,Labuan Lumbubaka,72.03.09.2013,Labuan,Kabupaten,Donggala,Sulawesi Tengah
1231,94352,Labuan Panimba,72.03.09.2009,Labuan,Kabupaten,Donggala,Sulawesi Tengah
1232,94352,Labuan Salumbone,72.03.09.2008,Labuan,Kabupaten,Donggala,Sulawesi Tengah
1233,94352,Labuan Toposo,72.03.09.2012,Labuan,Kabupaten,Donggala,Sulawesi Tengah
1234,94893,Alasan,72.11.05.2004,Labobo,Kabupaten,Banggai Laut,Sulawesi Tengah
1235,94893,Bontosi,72.11.05.2006,Labobo,Kabupaten,Banggai Laut,Sulawesi Tengah
1236,94893,Lalong,72.11.05.2001,Labobo,Kabupaten,Banggai Laut,Sulawesi Tengah
1237,94893,Lipu Talas (Liputalas),72.11.05.2007,Labobo,Kabupaten,Banggai Laut,Sulawesi Tengah
1238,94893,Lipulalongo,72.11.05.2002,Labobo,Kabupaten,Banggai Laut,Sulawesi Tengah
1239,94893,Mansalean,72.11.05.2005,Labobo,Kabupaten,Banggai Laut,Sulawesi Tengah
1240,94893,Padingkian,72.11.05.2008,Labobo,Kabupaten,Banggai Laut,Sulawesi Tengah
1241,94893,Paisulamo,72.11.05.2003,Labobo,Kabupaten,Banggai Laut,Sulawesi Tengah
1242,94373,Gimpu,72.10.06.2002,Kulawi Selatan,Kabupaten,Sigi,Sulawesi Tengah
1243,94373,Lawua,72.10.06.2005,Kulawi Selatan,Kabupaten,Sigi,Sulawesi Tengah
1244,94373,Lempelero,72.10.06.2001,Kulawi Selatan,Kabupaten,Sigi,Sulawesi Tengah
1245,94373,Moa,72.10.06.2010,Kulawi Selatan,Kabupaten,Sigi,Sulawesi Tengah
1246,94373,O'o Parese (O'o),72.10.06.2008,Kulawi Selatan,Kabupaten,Sigi,Sulawesi Tengah
1247,94373,Palamaki,72.10.06.2012,Kulawi Selatan,Kabupaten,Sigi,Sulawesi Tengah
1248,94373,Palimakijawa (Pilimakujawa/Makujawa),72.10.06.2009,Kulawi Selatan,Kabupaten,Sigi,Sulawesi Tengah
1249,94373,Salutome,72.10.06.2007,Kulawi Selatan,Kabupaten,Sigi,Sulawesi Tengah
1250,94373,Tompi Bugis,72.10.06.2004,Kulawi Selatan,Kabupaten,Sigi,Sulawesi Tengah
1251,94373,Tomua,72.10.06.2003,Kulawi Selatan,Kabupaten,Sigi,Sulawesi Tengah
1252,94373,Wangka,72.10.06.2011,Kulawi Selatan,Kabupaten,Sigi,Sulawesi Tengah
1253,94373,Watukilo,72.10.06.2006,Kulawi Selatan,Kabupaten,Sigi,Sulawesi Tengah
1254,94363,Banggaiba,72.10.05.2002,Kulawi,Kabupaten,Sigi,Sulawesi Tengah
1255,94363,Boladangko,72.10.05.2004,Kulawi,Kabupaten,Sigi,Sulawesi Tengah
1256,94363,Bolapapu,72.10.05.2010,Kulawi,Kabupaten,Sigi,Sulawesi Tengah
1257,94363,Lonca,72.10.05.2005,Kulawi,Kabupaten,Sigi,Sulawesi Tengah
1258,94363,Marena,72.10.05.2015,Kulawi,Kabupaten,Sigi,Sulawesi Tengah
1259,94363,Mataue,72.10.05.2011,Kulawi,Kabupaten,Sigi,Sulawesi Tengah
1260,94363,Namo,72.10.05.2014,Kulawi,Kabupaten,Sigi,Sulawesi Tengah
1261,94363,Poleroa Makuhi,72.10.05.2016,Kulawi,Kabupaten,Sigi,Sulawesi Tengah
1262,94363,Rantewulu,72.10.05.2006,Kulawi,Kabupaten,Sigi,Sulawesi Tengah
1263,94363,Salua,72.10.05.2013,Kulawi,Kabupaten,Sigi,Sulawesi Tengah
1264,94363,Siwongi,72.10.05.2001,Kulawi,Kabupaten,Sigi,Sulawesi Tengah
1265,94363,Sungku,72.10.05.2009,Kulawi,Kabupaten,Sigi,Sulawesi Tengah
1266,94363,Tangkulowi,72.10.05.2003,Kulawi,Kabupaten,Sigi,Sulawesi Tengah
1267,94363,Toro,72.10.05.2012,Kulawi,Kabupaten,Sigi,Sulawesi Tengah
1268,94363,Towulu,72.10.05.2007,Kulawi,Kabupaten,Sigi,Sulawesi Tengah
1269,94363,Winatu,72.10.05.2008,Kulawi,Kabupaten,Sigi,Sulawesi Tengah
1270,94761,Babang Buyangge,72.01.03.2013,Kintom,Kabupaten,Banggai,Sulawesi Tengah
1271,94761,Dimpalon,72.01.03.2008,Kintom,Kabupaten,Banggai,Sulawesi Tengah
1272,94761,Dimpalon Baru,72.01.03.2019,Kintom,Kabupaten,Banggai,Sulawesi Tengah
1273,94761,Kalolos,72.01.03.2001,Kintom,Kabupaten,Banggai,Sulawesi Tengah
1274,94761,Kintom,72.01.03.1006,Kintom,Kabupaten,Banggai,Sulawesi Tengah
1275,94761,Manyula,72.01.03.2004,Kintom,Kabupaten,Banggai,Sulawesi Tengah
1276,94761,Mendono,72.01.03.1010,Kintom,Kabupaten,Banggai,Sulawesi Tengah
1277,94761,Mondonun,72.01.03.1017,Kintom,Kabupaten,Banggai,Sulawesi Tengah
1278,94761,Padang,72.01.03.2003,Kintom,Kabupaten,Banggai,Sulawesi Tengah
1279,94761,Samadoya,72.01.03.2007,Kintom,Kabupaten,Banggai,Sulawesi Tengah
1280,94761,Solan,72.01.03.2009,Kintom,Kabupaten,Banggai,Sulawesi Tengah
1281,94761,Solan Baru,72.01.03.2015,Kintom,Kabupaten,Banggai,Sulawesi Tengah
1282,94761,Tangkiang,72.01.03.2002,Kintom,Kabupaten,Banggai,Sulawesi Tengah
1283,94761,Uling,72.01.03.2005,Kintom,Kabupaten,Banggai,Sulawesi Tengah
1284,94362,Balane,72.10.13.2002,Kinovaro,Kabupaten,Sigi,Sulawesi Tengah
1285,94362,Bolobia,72.10.13.2005,Kinovaro,Kabupaten,Sigi,Sulawesi Tengah
1286,94362,Daenggune,72.10.13.2009,Kinovaro,Kabupaten,Sigi,Sulawesi Tengah
1287,94362,Doda,72.10.13.2006,Kinovaro,Kabupaten,Sigi,Sulawesi Tengah
1288,94362,Kalora,72.10.13.2007,Kinovaro,Kabupaten,Sigi,Sulawesi Tengah
1289,94362,Kanuna,72.10.13.2008,Kinovaro,Kabupaten,Sigi,Sulawesi Tengah
1290,94362,Kayumpia,72.10.13.2010,Kinovaro,Kabupaten,Sigi,Sulawesi Tengah
1291,94362,Porame,72.10.13.2001,Kinovaro,Kabupaten,Sigi,Sulawesi Tengah
1292,94362,Rondingo,72.10.13.2004,Kinovaro,Kabupaten,Sigi,Sulawesi Tengah
1293,94362,Uwemanje,72.10.13.2003,Kinovaro,Kabupaten,Sigi,Sulawesi Tengah
1294,94464,Agodopi Kasimbar,72.08.08.2014,Kasimbar,Kabupaten,Parigi Moutong,Sulawesi Tengah
1295,94464,Donggulu,72.08.08.2004,Kasimbar,Kabupaten,Parigi Moutong,Sulawesi Tengah
1296,94464,Donggulu Selatan,72.08.08.2009,Kasimbar,Kabupaten,Parigi Moutong,Sulawesi Tengah
1297,94464,Kasimbar,72.08.08.2001,Kasimbar,Kabupaten,Parigi Moutong,Sulawesi Tengah
1298,94464,Kasimbar Barat,72.08.08.2006,Kasimbar,Kabupaten,Parigi Moutong,Sulawesi Tengah
1299,94464,Kasimbar Palapi,72.08.08.2011,Kasimbar,Kabupaten,Parigi Moutong,Sulawesi Tengah
1300,94464,Kasimbar Selatan,72.08.08.2005,Kasimbar,Kabupaten,Parigi Moutong,Sulawesi Tengah
1301,94464,Kasimbar Utara,72.08.08.2016,Kasimbar,Kabupaten,Parigi Moutong,Sulawesi Tengah
1302,94464,Labuan Donggulu,72.08.08.2010,Kasimbar,Kabupaten,Parigi Moutong,Sulawesi Tengah
1303,94464,Laemanta,72.08.08.2003,Kasimbar,Kabupaten,Parigi Moutong,Sulawesi Tengah
1304,94464,Laemanta Utara,72.08.08.2013,Kasimbar,Kabupaten,Parigi Moutong,Sulawesi Tengah
1305,94464,Peningka,72.08.08.2012,Kasimbar,Kabupaten,Parigi Moutong,Sulawesi Tengah
1306,94464,Posona,72.08.08.2002,Kasimbar,Kabupaten,Parigi Moutong,Sulawesi Tengah
1307,94464,Posona Atas,72.08.08.2017,Kasimbar,Kabupaten,Parigi Moutong,Sulawesi Tengah
1308,94464,Sendana,72.08.08.2015,Kasimbar,Kabupaten,Parigi Moutong,Sulawesi Tengah
1309,94464,Silampayang,72.08.08.2007,Kasimbar,Kabupaten,Parigi Moutong,Sulawesi Tengah
1310,94464,Sumber Tani,72.08.08.2018,Kasimbar,Kabupaten,Parigi Moutong,Sulawesi Tengah
1311,94464,Tovalo (Tavalo),72.08.08.2008,Kasimbar,Kabupaten,Parigi Moutong,Sulawesi Tengah
1312,94572,Baruga,72.05.10.2003,Karamat,Kabupaten,Buol,Sulawesi Tengah
1313,94572,Busak I,72.05.10.2005,Karamat,Kabupaten,Buol,Sulawesi Tengah
1314,94572,Busak II,72.05.10.2006,Karamat,Kabupaten,Buol,Sulawesi Tengah
1315,94572,Lamakan,72.05.10.2007,Karamat,Kabupaten,Buol,Sulawesi Tengah
1316,94572,Mendaan,72.05.10.2002,Karamat,Kabupaten,Buol,Sulawesi Tengah
1317,94572,Mokupo,72.05.10.2001,Karamat,Kabupaten,Buol,Sulawesi Tengah
1318,94572,Monano,72.05.10.2004,Karamat,Kabupaten,Buol,Sulawesi Tengah
1319,94364,Kalawara,72.10.08.2006,Gumbasa,Kabupaten,Sigi,Sulawesi Tengah
1320,94364,Omu,72.10.08.2002,Gumbasa,Kabupaten,Sigi,Sulawesi Tengah
1321,94364,Pakuli,72.10.08.2004,Gumbasa,Kabupaten,Sigi,Sulawesi Tengah
1322,94364,Pakuli Utara,72.10.08.2007,Gumbasa,Kabupaten,Sigi,Sulawesi Tengah
1323,94364,Pandere,72.10.08.2005,Gumbasa,Kabupaten,Sigi,Sulawesi Tengah
1324,94364,Simoro,72.10.08.2003,Gumbasa,Kabupaten,Sigi,Sulawesi Tengah
1325,94364,Tuwa,72.10.08.2001,Gumbasa,Kabupaten,Sigi,Sulawesi Tengah
1326,94561,Aung,72.04.08.2012,Galang,Kabupaten,Toli Toli,Sulawesi Tengah
1327,94561,Bajugan,72.04.08.2011,Galang,Kabupaten,Toli Toli,Sulawesi Tengah
1328,94561,Ginunggung,72.04.08.2007,Galang,Kabupaten,Toli Toli,Sulawesi Tengah
1329,94561,Kalangkangan,72.04.08.2003,Galang,Kabupaten,Toli Toli,Sulawesi Tengah
1330,94561,Kinopasan,72.04.08.2014,Galang,Kabupaten,Toli Toli,Sulawesi Tengah
1331,94561,Lakatan,72.04.08.2005,Galang,Kabupaten,Toli Toli,Sulawesi Tengah
1332,94561,Lalos,72.04.08.2008,Galang,Kabupaten,Toli Toli,Sulawesi Tengah
1333,94561,Lantapan,72.04.08.2004,Galang,Kabupaten,Toli Toli,Sulawesi Tengah
1334,94561,Malangga,72.04.08.2013,Galang,Kabupaten,Toli Toli,Sulawesi Tengah
1335,94561,Ogomoli,72.04.08.2001,Galang,Kabupaten,Toli Toli,Sulawesi Tengah
1336,94561,Sabang,72.04.08.2010,Galang,Kabupaten,Toli Toli,Sulawesi Tengah
1337,94561,Sandana,72.04.08.2002,Galang,Kabupaten,Toli Toli,Sulawesi Tengah
1338,94561,Tende,72.04.08.2009,Galang,Kabupaten,Toli Toli,Sulawesi Tengah
1339,94561,Tinigi,72.04.08.2006,Galang,Kabupaten,Toli Toli,Sulawesi Tengah
1340,94568,Bulagidun,72.05.09.2006,Gadung,Kabupaten,Buol,Sulawesi Tengah
1341,94568,Bulogidon Tanjung (Bulagidun Tanjung),72.05.09.2010,Gadung,Kabupaten,Buol,Sulawesi Tengah
1342,94568,Diapati (Diapatih),72.05.09.2007,Gadung,Kabupaten,Buol,Sulawesi Tengah
1343,94568,Labuton,72.05.09.2005,Gadung,Kabupaten,Buol,Sulawesi Tengah
1344,94568,Lipubogu,72.05.09.2009,Gadung,Kabupaten,Buol,Sulawesi Tengah
1345,94568,Lokodidi,72.05.09.2001,Gadung,Kabupaten,Buol,Sulawesi Tengah
1346,94568,Lokodoka,72.05.09.2004,Gadung,Kabupaten,Buol,Sulawesi Tengah
1347,94568,Matinan,72.05.09.2002,Gadung,Kabupaten,Buol,Sulawesi Tengah
1348,94568,Nandu,72.05.09.2008,Gadung,Kabupaten,Buol,Sulawesi Tengah
1349,94568,Pandangan,72.05.09.2011,Gadung,Kabupaten,Buol,Sulawesi Tengah
1350,94568,Taat,72.05.09.2003,Gadung,Kabupaten,Buol,Sulawesi Tengah
1351,94551,Anggasan,72.04.03.2012,Dondo,Kabupaten,Toli Toli,Sulawesi Tengah
1352,94551,Bambapun,72.04.03.2003,Dondo,Kabupaten,Toli Toli,Sulawesi Tengah
1353,94551,Betengon,72.04.03.2013,Dondo,Kabupaten,Toli Toli,Sulawesi Tengah
1354,94551,Lais,72.04.03.2005,Dondo,Kabupaten,Toli Toli,Sulawesi Tengah
1355,94551,Lobuo,72.04.03.2016,Dondo,Kabupaten,Toli Toli,Sulawesi Tengah
1356,94551,Luok Manipi,72.04.03.2001,Dondo,Kabupaten,Toli Toli,Sulawesi Tengah
1357,94551,Malala,72.04.03.2011,Dondo,Kabupaten,Toli Toli,Sulawesi Tengah
1358,94551,Malomba,72.04.03.2007,Dondo,Kabupaten,Toli Toli,Sulawesi Tengah
1359,94551,Malulu,72.04.03.2010,Dondo,Kabupaten,Toli Toli,Sulawesi Tengah
1360,94551,Ogogasang,72.04.03.2006,Dondo,Kabupaten,Toli Toli,Sulawesi Tengah
1361,94551,Ogogili,72.04.03.2008,Dondo,Kabupaten,Toli Toli,Sulawesi Tengah
1362,94551,Ogowele,72.04.03.2004,Dondo,Kabupaten,Toli Toli,Sulawesi Tengah
1363,94551,Ogowele Buga,72.04.03.2015,Dondo,Kabupaten,Toli Toli,Sulawesi Tengah
1364,94551,Pangkung,72.04.03.2014,Dondo,Kabupaten,Toli Toli,Sulawesi Tengah
1365,94551,Salumbia,72.04.03.2002,Dondo,Kabupaten,Toli Toli,Sulawesi Tengah
1366,94551,Tinabogan,72.04.03.2009,Dondo,Kabupaten,Toli Toli,Sulawesi Tengah
1367,94371,Balongga,72.10.09.2007,Dolo Selatan,Kabupaten,Sigi,Sulawesi Tengah
1368,94371,Baluase,72.10.09.2004,Dolo Selatan,Kabupaten,Sigi,Sulawesi Tengah
1369,94371,Bangga,72.10.09.2001,Dolo Selatan,Kabupaten,Sigi,Sulawesi Tengah
1370,94371,Bulubete,72.10.09.2003,Dolo Selatan,Kabupaten,Sigi,Sulawesi Tengah
1371,94371,Jono,72.10.09.2010,Dolo Selatan,Kabupaten,Sigi,Sulawesi Tengah
1372,94371,Poi,72.10.09.2011,Dolo Selatan,Kabupaten,Sigi,Sulawesi Tengah
1373,94371,Pulu,72.10.09.2006,Dolo Selatan,Kabupaten,Sigi,Sulawesi Tengah
1374,94371,Ramba,72.10.09.2012,Dolo Selatan,Kabupaten,Sigi,Sulawesi Tengah
1375,94371,Rogo,72.10.09.2005,Dolo Selatan,Kabupaten,Sigi,Sulawesi Tengah
1376,94371,Sambo,72.10.09.2008,Dolo Selatan,Kabupaten,Sigi,Sulawesi Tengah
1377,94371,Walatana,72.10.09.2002,Dolo Selatan,Kabupaten,Sigi,Sulawesi Tengah
1378,94371,Wisolo,72.10.09.2009,Dolo Selatan,Kabupaten,Sigi,Sulawesi Tengah
1379,94360,Balamoa,72.10.11.2007,Dolo Barat,Kabupaten,Sigi,Sulawesi Tengah
1380,94360,Balaroa Pewenu,72.10.11.2011,Dolo Barat,Kabupaten,Sigi,Sulawesi Tengah
1381,94360,Balumpewa,72.10.11.2006,Dolo Barat,Kabupaten,Sigi,Sulawesi Tengah
1382,94360,Bobo,72.10.11.2010,Dolo Barat,Kabupaten,Sigi,Sulawesi Tengah
1383,94360,Kaleke,72.10.11.2004,Dolo Barat,Kabupaten,Sigi,Sulawesi Tengah
1384,94360,Kaluku Tinggu,72.10.11.2002,Dolo Barat,Kabupaten,Sigi,Sulawesi Tengah
1385,94360,Luku,72.10.11.2012,Dolo Barat,Kabupaten,Sigi,Sulawesi Tengah
1386,94360,Mantikole,72.10.11.2009,Dolo Barat,Kabupaten,Sigi,Sulawesi Tengah
1387,94360,Pesaku,72.10.11.2008,Dolo Barat,Kabupaten,Sigi,Sulawesi Tengah
1388,94360,Pewunu,72.10.11.2003,Dolo Barat,Kabupaten,Sigi,Sulawesi Tengah
1389,94360,Rarampadende,72.10.11.2005,Dolo Barat,Kabupaten,Sigi,Sulawesi Tengah
1390,94360,Sibonu,72.10.11.2001,Dolo Barat,Kabupaten,Sigi,Sulawesi Tengah
1391,94361,Kabobona,72.10.12.2011,Dolo,Kabupaten,Sigi,Sulawesi Tengah
1392,94361,Karawana,72.10.12.2005,Dolo,Kabupaten,Sigi,Sulawesi Tengah
1393,94361,Kotapulu (Kota Pulu),72.10.12.2006,Dolo,Kabupaten,Sigi,Sulawesi Tengah
1394,94361,Kotarindau,72.10.12.2007,Dolo,Kabupaten,Sigi,Sulawesi Tengah
1395,94361,Langleso (Langaleso),72.10.12.2002,Dolo,Kabupaten,Sigi,Sulawesi Tengah
1396,94361,Maku,72.10.12.2009,Dolo,Kabupaten,Sigi,Sulawesi Tengah
1397,94361,Panturabate (Waturalele),72.10.12.2008,Dolo,Kabupaten,Sigi,Sulawesi Tengah
1398,94361,Potoya,72.10.12.2010,Dolo,Kabupaten,Sigi,Sulawesi Tengah
1399,94361,Soulowe,72.10.12.2004,Dolo,Kabupaten,Sigi,Sulawesi Tengah
1400,94361,Tulo,72.10.12.2001,Dolo,Kabupaten,Sigi,Sulawesi Tengah
1401,94361,Watubula,72.10.12.2003,Dolo,Kabupaten,Sigi,Sulawesi Tengah
1402,94356,Budi Mukti (Budimukti),72.03.06.2009,Dampelas,Kabupaten,Donggala,Sulawesi Tengah
1403,94356,Karya Mukti (Karyamukti),72.03.06.2014,Dampelas,Kabupaten,Donggala,Sulawesi Tengah
1404,94356,Kembayang (Kambayang),72.03.06.2001,Dampelas,Kabupaten,Donggala,Sulawesi Tengah
1405,94356,Lembah Mukti (Lemba Mukti),72.03.06.2010,Dampelas,Kabupaten,Donggala,Sulawesi Tengah
1406,94356,Long,72.03.06.2015,Dampelas,Kabupaten,Donggala,Sulawesi Tengah
1407,94356,Malonas,72.03.06.2011,Dampelas,Kabupaten,Donggala,Sulawesi Tengah
1408,94356,Pani'i (Panii),72.03.06.2005,Dampelas,Kabupaten,Donggala,Sulawesi Tengah
1409,94356,Parisan Agung,72.03.06.2013,Dampelas,Kabupaten,Donggala,Sulawesi Tengah
1410,94356,Ponggerang,72.03.06.2006,Dampelas,Kabupaten,Donggala,Sulawesi Tengah
1411,94356,Rerang,72.03.06.2007,Dampelas,Kabupaten,Donggala,Sulawesi Tengah
1412,94356,Sabang,72.03.06.2003,Dampelas,Kabupaten,Donggala,Sulawesi Tengah
1413,94356,Sioyong,72.03.06.2004,Dampelas,Kabupaten,Donggala,Sulawesi Tengah
1414,94356,Talaga,72.03.06.2002,Dampelas,Kabupaten,Donggala,Sulawesi Tengah
1415,94553,Balaroa,72.04.02.2011,Dampal Utara,Kabupaten,Toli Toli,Sulawesi Tengah
1416,94553,Bambapula,72.04.02.2005,Dampal Utara,Kabupaten,Toli Toli,Sulawesi Tengah
1417,94553,Banagan,72.04.02.2001,Dampal Utara,Kabupaten,Toli Toli,Sulawesi Tengah
1418,94553,Kabinuang,72.04.02.2002,Dampal Utara,Kabupaten,Toli Toli,Sulawesi Tengah
1419,94553,Malambigu,72.04.02.2006,Dampal Utara,Kabupaten,Toli Toli,Sulawesi Tengah
1420,94553,Ogolali,72.04.02.2010,Dampal Utara,Kabupaten,Toli Toli,Sulawesi Tengah
1421,94553,Ogotua,72.04.02.2003,Dampal Utara,Kabupaten,Toli Toli,Sulawesi Tengah
1422,94553,Sese,72.04.02.2009,Dampal Utara,Kabupaten,Toli Toli,Sulawesi Tengah
1423,94553,Simatang Tanjung,72.04.02.2007,Dampal Utara,Kabupaten,Toli Toli,Sulawesi Tengah
1424,94553,Simatang Utara,72.04.02.2008,Dampal Utara,Kabupaten,Toli Toli,Sulawesi Tengah
1425,94553,Stadong,72.04.02.2012,Dampal Utara,Kabupaten,Toli Toli,Sulawesi Tengah
1426,94553,Tompoh,72.04.02.2004,Dampal Utara,Kabupaten,Toli Toli,Sulawesi Tengah
1427,94554,Abbajareng,72.04.01.2009,Dampal Selatan,Kabupaten,Toli Toli,Sulawesi Tengah
1428,94554,Bangkir,72.04.01.2004,Dampal Selatan,Kabupaten,Toli Toli,Sulawesi Tengah
1429,94554,Dongko,72.04.01.2005,Dampal Selatan,Kabupaten,Toli Toli,Sulawesi Tengah
1430,94554,Kombo,72.04.01.2001,Dampal Selatan,Kabupaten,Toli Toli,Sulawesi Tengah
1431,94554,Lemba Harapan,72.04.01.2013,Dampal Selatan,Kabupaten,Toli Toli,Sulawesi Tengah
1432,94554,Lempe,72.04.01.2007,Dampal Selatan,Kabupaten,Toli Toli,Sulawesi Tengah
1433,94554,Mimbala,72.04.01.2006,Dampal Selatan,Kabupaten,Toli Toli,Sulawesi Tengah
1434,94554,Paddumpu,72.04.01.2008,Dampal Selatan,Kabupaten,Toli Toli,Sulawesi Tengah
1435,94554,Pallakawe,72.04.01.2011,Dampal Selatan,Kabupaten,Toli Toli,Sulawesi Tengah
1436,94554,Puse,72.04.01.2010,Dampal Selatan,Kabupaten,Toli Toli,Sulawesi Tengah
1437,94554,Simuntu,72.04.01.2012,Dampal Selatan,Kabupaten,Toli Toli,Sulawesi Tengah
1438,94554,Soni,72.04.01.2003,Dampal Selatan,Kabupaten,Toli Toli,Sulawesi Tengah
1439,94554,Tampiala,72.04.01.2002,Dampal Selatan,Kabupaten,Toli Toli,Sulawesi Tengah
1440,94562,Dungingis,72.04.10.2002,Dako Pemean (Dako Pamean),Kabupaten,Toli Toli,Sulawesi Tengah
1441,94562,Galumpang,72.04.10.2001,Dako Pemean (Dako Pamean),Kabupaten,Toli Toli,Sulawesi Tengah
1442,94562,Kapas,72.04.10.2003,Dako Pemean (Dako Pamean),Kabupaten,Toli Toli,Sulawesi Tengah
1443,94562,Lingadan,72.04.10.2004,Dako Pemean (Dako Pamean),Kabupaten,Toli Toli,Sulawesi Tengah
1444,94753,Balanga,72.01.02.2042,Bunta,Kabupaten,Banggai,Sulawesi Tengah
1445,94753,Bohotokong,72.01.02.2015,Bunta,Kabupaten,Banggai,Sulawesi Tengah
1446,94753,Bunta I,72.01.02.1014,Bunta,Kabupaten,Banggai,Sulawesi Tengah
1447,94753,Bunta II,72.01.02.1025,Bunta,Kabupaten,Banggai,Sulawesi Tengah
1448,94753,Demangan Jaya,72.01.02.2041,Bunta,Kabupaten,Banggai,Sulawesi Tengah
1449,94753,Dondo Soboli (Dondo Simoli),72.01.02.2016,Bunta,Kabupaten,Banggai,Sulawesi Tengah
1450,94753,Hion,72.01.02.2023,Bunta,Kabupaten,Banggai,Sulawesi Tengah
1451,94753,Huhak,72.01.02.2031,Bunta,Kabupaten,Banggai,Sulawesi Tengah
1452,94753,Kalaka,72.01.02.1048,Bunta,Kabupaten,Banggai,Sulawesi Tengah
1453,94753,Kalumbangan,72.01.02.2044,Bunta,Kabupaten,Banggai,Sulawesi Tengah
1454,94753,Koili,72.01.02.2049,Bunta,Kabupaten,Banggai,Sulawesi Tengah
1455,94753,Laonggo,72.01.02.2017,Bunta,Kabupaten,Banggai,Sulawesi Tengah
1456,94753,Longgolian,72.01.02.2043,Bunta,Kabupaten,Banggai,Sulawesi Tengah
1457,94753,Lontio,72.01.02.2032,Bunta,Kabupaten,Banggai,Sulawesi Tengah
1458,94753,Matabas,72.01.02.2030,Bunta,Kabupaten,Banggai,Sulawesi Tengah
1459,94753,Nanga-Nangaon,72.01.02.2028,Bunta,Kabupaten,Banggai,Sulawesi Tengah
1460,94753,Polo,72.01.02.2045,Bunta,Kabupaten,Banggai,Sulawesi Tengah
1461,94753,Pongian,72.01.02.2026,Bunta,Kabupaten,Banggai,Sulawesi Tengah
1462,94753,Salabenda,72.01.02.1047,Bunta,Kabupaten,Banggai,Sulawesi Tengah
1463,94753,Toima,72.01.02.2029,Bunta,Kabupaten,Banggai,Sulawesi Tengah
1464,94753,Tombongan Ulos,72.01.02.2024,Bunta,Kabupaten,Banggai,Sulawesi Tengah
1465,94753,Tuntung,72.01.02.2027,Bunta,Kabupaten,Banggai,Sulawesi Tengah
1466,94567,Botugolu,72.05.04.2003,Bunobogu,Kabupaten,Buol,Sulawesi Tengah
1467,94567,Bunobogu (Bonobogu),72.05.04.2004,Bunobogu,Kabupaten,Buol,Sulawesi Tengah
1468,94567,Bunobogu Selatan,72.05.04.2016,Bunobogu,Kabupaten,Buol,Sulawesi Tengah
1469,94567,Domag Mekar,72.05.04.2015,Bunobogu,Kabupaten,Buol,Sulawesi Tengah
1470,94567,Inalatan,72.05.04.2007,Bunobogu,Kabupaten,Buol,Sulawesi Tengah
1471,94567,Kenamukan (Konamukan),72.05.04.2005,Bunobogu,Kabupaten,Buol,Sulawesi Tengah
1472,94567,Lonu,72.05.04.2001,Bunobogu,Kabupaten,Buol,Sulawesi Tengah
1473,94567,Pokobo,72.05.04.2017,Bunobogu,Kabupaten,Buol,Sulawesi Tengah
1474,94567,Ponipingan,72.05.04.2006,Bunobogu,Kabupaten,Buol,Sulawesi Tengah
1475,94567,Tamit,72.05.04.2002,Bunobogu,Kabupaten,Buol,Sulawesi Tengah
1476,94972,Baturube,72.12.08.2001,Bungku Utara,Kabupaten,Morowali Utara,Sulawesi Tengah
1477,94972,Boba,72.12.08.2016,Bungku Utara,Kabupaten,Morowali Utara,Sulawesi Tengah
1478,94972,Kalombang,72.12.08.2017,Bungku Utara,Kabupaten,Morowali Utara,Sulawesi Tengah
1479,94972,Lemo,72.12.08.2009,Bungku Utara,Kabupaten,Morowali Utara,Sulawesi Tengah
1480,94972,Lemowalia,72.12.08.2020,Bungku Utara,Kabupaten,Morowali Utara,Sulawesi Tengah
1481,94972,Matube,72.12.08.2019,Bungku Utara,Kabupaten,Morowali Utara,Sulawesi Tengah
1482,94972,Opo,72.12.08.2012,Bungku Utara,Kabupaten,Morowali Utara,Sulawesi Tengah
1483,94972,Pokeang,72.12.08.2023,Bungku Utara,Kabupaten,Morowali Utara,Sulawesi Tengah
1484,94972,Posangke,72.12.08.2002,Bungku Utara,Kabupaten,Morowali Utara,Sulawesi Tengah
1485,94972,Salubiro,72.12.08.2010,Bungku Utara,Kabupaten,Morowali Utara,Sulawesi Tengah
1486,94972,Siliti,72.12.08.2008,Bungku Utara,Kabupaten,Morowali Utara,Sulawesi Tengah
1487,94972,Tambarobone,72.12.08.2014,Bungku Utara,Kabupaten,Morowali Utara,Sulawesi Tengah
1488,94972,Tanakuraya,72.12.08.2013,Bungku Utara,Kabupaten,Morowali Utara,Sulawesi Tengah
1489,94972,Taronggo,72.12.08.2003,Bungku Utara,Kabupaten,Morowali Utara,Sulawesi Tengah
1490,94972,Tirongan Atas,72.12.08.2007,Bungku Utara,Kabupaten,Morowali Utara,Sulawesi Tengah
1491,94972,Tirongan Bawah,72.12.08.2006,Bungku Utara,Kabupaten,Morowali Utara,Sulawesi Tengah
1492,94972,Tokala Atas,72.12.08.2022,Bungku Utara,Kabupaten,Morowali Utara,Sulawesi Tengah
1493,94972,Tokonanaka,72.12.08.2018,Bungku Utara,Kabupaten,Morowali Utara,Sulawesi Tengah
1494,94972,Uemasi,72.12.08.2011,Bungku Utara,Kabupaten,Morowali Utara,Sulawesi Tengah
1495,94972,Uempanapa,72.12.08.2021,Bungku Utara,Kabupaten,Morowali Utara,Sulawesi Tengah
1496,94972,Ueruru,72.12.08.2004,Bungku Utara,Kabupaten,Morowali Utara,Sulawesi Tengah
1497,94972,Uewajo,72.12.08.2005,Bungku Utara,Kabupaten,Morowali Utara,Sulawesi Tengah
1498,94972,Woomparigi (Womparigi),72.12.08.2015,Bungku Utara,Kabupaten,Morowali Utara,Sulawesi Tengah
1499,94980,Bahomoahi,72.06.18.2003,Bungku Timur,Kabupaten,Morowali,Sulawesi Tengah
1500,94980,Bahomotefe,72.06.18.2002,Bungku Timur,Kabupaten,Morowali,Sulawesi Tengah
1501,94980,Geresa,72.06.18.2006,Bungku Timur,Kabupaten,Morowali,Sulawesi Tengah
1502,94980,Kolono,72.06.18.2005,Bungku Timur,Kabupaten,Morowali,Sulawesi Tengah
1503,94980,Lahuafu,72.06.18.2010,Bungku Timur,Kabupaten,Morowali,Sulawesi Tengah
1504,94980,Laroue,72.06.18.2007,Bungku Timur,Kabupaten,Morowali,Sulawesi Tengah
1505,94980,Nambo,72.06.18.2008,Bungku Timur,Kabupaten,Morowali,Sulawesi Tengah
1506,94980,Oneputeh Jaya,72.06.18.2001,Bungku Timur,Kabupaten,Morowali,Sulawesi Tengah
1507,94980,Ululere,72.06.18.2004,Bungku Timur,Kabupaten,Morowali,Sulawesi Tengah
1508,94980,Unsongi,72.06.18.2009,Bungku Timur,Kabupaten,Morowali,Sulawesi Tengah
1509,94973,Bahomante,72.06.05.2026,Bungku Tengah,Kabupaten,Morowali,Sulawesi Tengah
1510,94973,Bahomohoni,72.06.05.2024,Bungku Tengah,Kabupaten,Morowali,Sulawesi Tengah
1511,94973,Bahomoleo (Bahomoko),72.06.05.2025,Bungku Tengah,Kabupaten,Morowali,Sulawesi Tengah
1512,94973,Bahontobungku,72.06.05.2011,Bungku Tengah,Kabupaten,Morowali,Sulawesi Tengah
1513,94973,Bahoruru,72.06.05.2021,Bungku Tengah,Kabupaten,Morowali,Sulawesi Tengah
1514,94973,Bente,72.06.05.2022,Bungku Tengah,Kabupaten,Morowali,Sulawesi Tengah
1515,94973,Bungi (Obungi),72.06.05.1020,Bungku Tengah,Kabupaten,Morowali,Sulawesi Tengah
1516,94973,Ipi,72.06.05.2023,Bungku Tengah,Kabupaten,Morowali,Sulawesi Tengah
1517,94973,Lamberea,72.06.05.1015,Bungku Tengah,Kabupaten,Morowali,Sulawesi Tengah
1518,94973,Lanona,72.06.05.2027,Bungku Tengah,Kabupaten,Morowali,Sulawesi Tengah
1519,94973,Marsaoleh,72.06.05.1017,Bungku Tengah,Kabupaten,Morowali,Sulawesi Tengah
1520,94973,Matano,72.06.05.1018,Bungku Tengah,Kabupaten,Morowali,Sulawesi Tengah
1521,94973,Matansala,72.06.05.2019,Bungku Tengah,Kabupaten,Morowali,Sulawesi Tengah
1522,94973,Mendui (Menlui),72.06.05.1014,Bungku Tengah,Kabupaten,Morowali,Sulawesi Tengah
1523,94973,Puungkoilu,72.06.05.2010,Bungku Tengah,Kabupaten,Morowali,Sulawesi Tengah
1524,94973,Sakita,72.06.05.2013,Bungku Tengah,Kabupaten,Morowali,Sulawesi Tengah
1525,94973,Tofoiso,72.06.05.1016,Bungku Tengah,Kabupaten,Morowali,Sulawesi Tengah
1526,94973,Tofuti,72.06.05.2012,Bungku Tengah,Kabupaten,Morowali,Sulawesi Tengah
1527,94973,Tudua,72.06.05.2029,Bungku Tengah,Kabupaten,Morowali,Sulawesi Tengah
1528,94979,Bakala,72.06.06.2005,Bungku Selatan,Kabupaten,Morowali,Sulawesi Tengah
1529,94979,Boelimau,72.06.06.2045,Bungku Selatan,Kabupaten,Morowali,Sulawesi Tengah
1530,94979,Buajangka,72.06.06.2013,Bungku Selatan,Kabupaten,Morowali,Sulawesi Tengah
1531,94979,Bungingkela,72.06.06.2011,Bungku Selatan,Kabupaten,Morowali,Sulawesi Tengah
1532,94979,Bungintende,72.06.06.2041,Bungku Selatan,Kabupaten,Morowali,Sulawesi Tengah
1533,94979,Buton,72.06.06.2008,Bungku Selatan,Kabupaten,Morowali,Sulawesi Tengah
1534,94979,Jawi-Jawi,72.06.06.2009,Bungku Selatan,Kabupaten,Morowali,Sulawesi Tengah
1535,94979,Kaleroang,72.06.06.2010,Bungku Selatan,Kabupaten,Morowali,Sulawesi Tengah
1536,94979,Koburu,72.06.06.2007,Bungku Selatan,Kabupaten,Morowali,Sulawesi Tengah
1537,94979,Lalemo,72.06.06.2018,Bungku Selatan,Kabupaten,Morowali,Sulawesi Tengah
1538,94979,Lamontoli,72.06.06.2019,Bungku Selatan,Kabupaten,Morowali,Sulawesi Tengah
1539,94979,Lokombulo,72.06.06.2012,Bungku Selatan,Kabupaten,Morowali,Sulawesi Tengah
1540,94979,Padabale,72.06.06.2015,Bungku Selatan,Kabupaten,Morowali,Sulawesi Tengah
1541,94979,Pado-Pado,72.06.06.2016,Bungku Selatan,Kabupaten,Morowali,Sulawesi Tengah
1542,94979,Paku,72.06.06.2006,Bungku Selatan,Kabupaten,Morowali,Sulawesi Tengah
1543,94979,Panimbawang,72.06.06.2043,Bungku Selatan,Kabupaten,Morowali,Sulawesi Tengah
1544,94979,Po'o,72.06.06.2044,Bungku Selatan,Kabupaten,Morowali,Sulawesi Tengah
1545,94979,Poaro,72.06.06.2046,Bungku Selatan,Kabupaten,Morowali,Sulawesi Tengah
1546,94979,Polewali,72.06.06.2002,Bungku Selatan,Kabupaten,Morowali,Sulawesi Tengah
1547,94979,Pulau Dua,72.06.06.2004,Bungku Selatan,Kabupaten,Morowali,Sulawesi Tengah
1548,94979,Pulau Dua Darat,72.06.06.2048,Bungku Selatan,Kabupaten,Morowali,Sulawesi Tengah
1549,94979,Pulaubapa,72.06.06.2017,Bungku Selatan,Kabupaten,Morowali,Sulawesi Tengah
1550,94979,Sainoa,72.06.06.2001,Bungku Selatan,Kabupaten,Morowali,Sulawesi Tengah
1551,94979,Umbele,72.06.06.2003,Bungku Selatan,Kabupaten,Morowali,Sulawesi Tengah
1552,94979,Umbele Lama,72.06.06.2047,Bungku Selatan,Kabupaten,Morowali,Sulawesi Tengah
1553,94979,Waru-Waru,72.06.06.2014,Bungku Selatan,Kabupaten,Morowali,Sulawesi Tengah
1554,94981,Buleleng,72.06.15.2007,Bungku Pesisir,Kabupaten,Morowali,Sulawesi Tengah
1555,94981,Lafeu,72.06.15.2005,Bungku Pesisir,Kabupaten,Morowali,Sulawesi Tengah
1556,94981,Laroenai,72.06.15.2008,Bungku Pesisir,Kabupaten,Morowali,Sulawesi Tengah
1557,94981,One Ete,72.06.15.2003,Bungku Pesisir,Kabupaten,Morowali,Sulawesi Tengah
1558,94981,Puungkeu,72.06.15.2001,Bungku Pesisir,Kabupaten,Morowali,Sulawesi Tengah
1559,94981,Sambalagi,72.06.15.2009,Bungku Pesisir,Kabupaten,Morowali,Sulawesi Tengah
1560,94981,Tandaoleo,72.06.15.2004,Bungku Pesisir,Kabupaten,Morowali,Sulawesi Tengah
1561,94981,Tangofa,72.06.15.2002,Bungku Pesisir,Kabupaten,Morowali,Sulawesi Tengah
1562,94981,Torete,72.06.15.2006,Bungku Pesisir,Kabupaten,Morowali,Sulawesi Tengah
1563,94981,Were'a,72.06.15.2010,Bungku Pesisir,Kabupaten,Morowali,Sulawesi Tengah
1564,94977,Ambunu,72.06.08.2007,Bungku Barat,Kabupaten,Morowali,Sulawesi Tengah
1565,94977,Bahoea Reko Reko,72.06.08.2001,Bungku Barat,Kabupaten,Morowali,Sulawesi Tengah
1566,94977,Larobenu,72.06.08.2003,Bungku Barat,Kabupaten,Morowali,Sulawesi Tengah
1567,94977,Marga Mulya,72.06.08.2029,Bungku Barat,Kabupaten,Morowali,Sulawesi Tengah
1568,94977,Tondo,72.06.08.2005,Bungku Barat,Kabupaten,Morowali,Sulawesi Tengah
1569,94977,Topogaro (Tofogaro),72.06.08.2006,Bungku Barat,Kabupaten,Morowali,Sulawesi Tengah
1570,94977,Uedago,72.06.08.2012,Bungku Barat,Kabupaten,Morowali,Sulawesi Tengah
1571,94977,Umpanga,72.06.08.2004,Bungku Barat,Kabupaten,Morowali,Sulawesi Tengah
1572,94977,Wata,72.06.08.2008,Bungku Barat,Kabupaten,Morowali,Sulawesi Tengah
1573,94977,Wosu,72.06.08.2002,Bungku Barat,Kabupaten,Morowali,Sulawesi Tengah
1574,94976,Atananga,72.06.09.2003,Bumi Raya,Kabupaten,Morowali,Sulawesi Tengah
1575,94976,Bahonsuai,72.06.09.2002,Bumi Raya,Kabupaten,Morowali,Sulawesi Tengah
1576,94976,Beringin Jaya,72.06.09.2008,Bumi Raya,Kabupaten,Morowali,Sulawesi Tengah
1577,94976,Harapan Jaya,72.06.09.2011,Bumi Raya,Kabupaten,Morowali,Sulawesi Tengah
1578,94976,Karaupa,72.06.09.2013,Bumi Raya,Kabupaten,Morowali,Sulawesi Tengah
1579,94976,Lambelu,72.06.09.2006,Bumi Raya,Kabupaten,Morowali,Sulawesi Tengah
1580,94976,Lasampi,72.06.09.2010,Bumi Raya,Kabupaten,Morowali,Sulawesi Tengah
1581,94976,Limbo Makmur,72.06.09.2007,Bumi Raya,Kabupaten,Morowali,Sulawesi Tengah
1582,94976,Parilangke,72.06.09.2001,Bumi Raya,Kabupaten,Morowali,Sulawesi Tengah
1583,94976,Pebatae,72.06.09.2004,Bumi Raya,Kabupaten,Morowali,Sulawesi Tengah
1584,94976,Pebotoa,72.06.09.2012,Bumi Raya,Kabupaten,Morowali,Sulawesi Tengah
1585,94976,Samarenda,72.06.09.2009,Bumi Raya,Kabupaten,Morowali,Sulawesi Tengah
1586,94976,Umbele,72.06.09.2005,Bumi Raya,Kabupaten,Morowali,Sulawesi Tengah
1587,94889,Bakalinga,72.07.17.2006,Bulagi Utara,Kabupaten,Banggai Kepulauan,Sulawesi Tengah
1588,94889,Bangunemo,72.07.17.2002,Bulagi Utara,Kabupaten,Banggai Kepulauan,Sulawesi Tengah
1589,94889,Bolubung,72.07.17.2005,Bulagi Utara,Kabupaten,Banggai Kepulauan,Sulawesi Tengah
1590,94889,Koyobunga,72.07.17.2008,Bulagi Utara,Kabupaten,Banggai Kepulauan,Sulawesi Tengah
1591,94889,Lukpanenteng (Luk Panenteng),72.07.17.2007,Bulagi Utara,Kabupaten,Banggai Kepulauan,Sulawesi Tengah
1592,94889,Mandok,72.07.17.2012,Bulagi Utara,Kabupaten,Banggai Kepulauan,Sulawesi Tengah
1593,94889,Minanga,72.07.17.2011,Bulagi Utara,Kabupaten,Banggai Kepulauan,Sulawesi Tengah
1594,94889,Montop,72.07.17.2004,Bulagi Utara,Kabupaten,Banggai Kepulauan,Sulawesi Tengah
1595,94889,Ombuli,72.07.17.2010,Bulagi Utara,Kabupaten,Banggai Kepulauan,Sulawesi Tengah
1596,94889,Paisuluno,72.07.17.2003,Bulagi Utara,Kabupaten,Banggai Kepulauan,Sulawesi Tengah
1597,94889,Sabang,72.07.17.1009,Bulagi Utara,Kabupaten,Banggai Kepulauan,Sulawesi Tengah
1598,94889,Sambulangan,72.07.17.2001,Bulagi Utara,Kabupaten,Banggai Kepulauan,Sulawesi Tengah
1599,94882,Alasan Nggolobuton,72.07.09.2019,Bulagi Selatan,Kabupaten,Banggai Kepulauan,Sulawesi Tengah
1600,94882,Babang,72.07.09.2015,Bulagi Selatan,Kabupaten,Banggai Kepulauan,Sulawesi Tengah
1601,94882,Balalon,72.07.09.2006,Bulagi Selatan,Kabupaten,Banggai Kepulauan,Sulawesi Tengah
1602,94882,Boluni,72.07.09.2017,Bulagi Selatan,Kabupaten,Banggai Kepulauan,Sulawesi Tengah
1603,94882,Bonepuso,72.07.09.2001,Bulagi Selatan,Kabupaten,Banggai Kepulauan,Sulawesi Tengah
1604,94882,Labotankandi (Labotakandi),72.07.09.2018,Bulagi Selatan,Kabupaten,Banggai Kepulauan,Sulawesi Tengah
1605,94882,Lemelu,72.07.09.2014,Bulagi Selatan,Kabupaten,Banggai Kepulauan,Sulawesi Tengah
1606,94882,Lolantang,72.07.09.2009,Bulagi Selatan,Kabupaten,Banggai Kepulauan,Sulawesi Tengah
1607,94882,Mangais,72.07.09.2012,Bulagi Selatan,Kabupaten,Banggai Kepulauan,Sulawesi Tengah
1608,94882,Momotan,72.07.09.2016,Bulagi Selatan,Kabupaten,Banggai Kepulauan,Sulawesi Tengah
1609,94882,Osan,72.07.09.2005,Bulagi Selatan,Kabupaten,Banggai Kepulauan,Sulawesi Tengah
1610,94882,Palabatu I (Palabatu Satu),72.07.09.2011,Bulagi Selatan,Kabupaten,Banggai Kepulauan,Sulawesi Tengah
1611,94882,Palabatu II (Palabatu Dua),72.07.09.2002,Bulagi Selatan,Kabupaten,Banggai Kepulauan,Sulawesi Tengah
1612,94882,Pandaluk,72.07.09.2004,Bulagi Selatan,Kabupaten,Banggai Kepulauan,Sulawesi Tengah
1613,94882,Pipilogot Paipaisu,72.07.09.2020,Bulagi Selatan,Kabupaten,Banggai Kepulauan,Sulawesi Tengah
1614,94882,Sabelak,72.07.09.2007,Bulagi Selatan,Kabupaten,Banggai Kepulauan,Sulawesi Tengah
1615,94882,Suit,72.07.09.2008,Bulagi Selatan,Kabupaten,Banggai Kepulauan,Sulawesi Tengah
1616,94882,Tatarandang,72.07.09.2003,Bulagi Selatan,Kabupaten,Banggai Kepulauan,Sulawesi Tengah
1617,94882,Toi-Toi (Toy-Toy),72.07.09.2010,Bulagi Selatan,Kabupaten,Banggai Kepulauan,Sulawesi Tengah
1618,94882,Unu,72.07.09.2013,Bulagi Selatan,Kabupaten,Banggai Kepulauan,Sulawesi Tengah
1619,94882,Alul,72.07.06.2035,Bulagi,Kabupaten,Banggai Kepulauan,Sulawesi Tengah
1620,94882,Boloi (Boloy),72.07.06.2020,Bulagi,Kabupaten,Banggai Kepulauan,Sulawesi Tengah
1621,94882,Bulagi I (Bulagi Satu),72.07.06.1018,Bulagi,Kabupaten,Banggai Kepulauan,Sulawesi Tengah
1622,94882,Bulagi II (Bulagi Dua),72.07.06.2019,Bulagi,Kabupaten,Banggai Kepulauan,Sulawesi Tengah
1623,94882,Kambal,72.07.06.2039,Bulagi,Kabupaten,Banggai Kepulauan,Sulawesi Tengah
1624,94882,Kayubet,72.07.06.2040,Bulagi,Kabupaten,Banggai Kepulauan,Sulawesi Tengah
1625,94882,Komba-Komba,72.07.06.2025,Bulagi,Kabupaten,Banggai Kepulauan,Sulawesi Tengah
1626,94882,Lalandai (Lalanday),72.07.06.2015,Bulagi,Kabupaten,Banggai Kepulauan,Sulawesi Tengah
1627,94882,Meselesek,72.07.06.2021,Bulagi,Kabupaten,Banggai Kepulauan,Sulawesi Tengah
1628,94882,Montomisan,72.07.06.2016,Bulagi,Kabupaten,Banggai Kepulauan,Sulawesi Tengah
1629,94882,Oluno,72.07.06.2022,Bulagi,Kabupaten,Banggai Kepulauan,Sulawesi Tengah
1630,94882,Pelingseasa (Peling Seasa),72.07.06.2024,Bulagi,Kabupaten,Banggai Kepulauan,Sulawesi Tengah
1631,94882,Sosom,72.07.06.2017,Bulagi,Kabupaten,Banggai Kepulauan,Sulawesi Tengah
1632,94882,Sumondung,72.07.06.2023,Bulagi,Kabupaten,Banggai Kepulauan,Sulawesi Tengah
1633,94882,Tolo,72.07.06.2014,Bulagi,Kabupaten,Banggai Kepulauan,Sulawesi Tengah
1634,94882,Toolon,72.07.06.2038,Bulagi,Kabupaten,Banggai Kepulauan,Sulawesi Tengah
1635,94880,Apal,72.07.18.2009,Buko Selatan,Kabupaten,Banggai Kepulauan,Sulawesi Tengah
1636,94880,Buko,72.07.18.2004,Buko Selatan,Kabupaten,Banggai Kepulauan,Sulawesi Tengah
1637,94880,Kambani,72.07.18.2002,Buko Selatan,Kabupaten,Banggai Kepulauan,Sulawesi Tengah
1638,94880,Labangun,72.07.18.2006,Buko Selatan,Kabupaten,Banggai Kepulauan,Sulawesi Tengah
1639,94880,Landonan Bebeau,72.07.18.2011,Buko Selatan,Kabupaten,Banggai Kepulauan,Sulawesi Tengah
1640,94880,Lelang Matamaling,72.07.18.2008,Buko Selatan,Kabupaten,Banggai Kepulauan,Sulawesi Tengah
1641,94880,Lumbi-Lumbia,72.07.18.2001,Buko Selatan,Kabupaten,Banggai Kepulauan,Sulawesi Tengah
1642,94880,Palapat,72.07.18.2005,Buko Selatan,Kabupaten,Banggai Kepulauan,Sulawesi Tengah
1643,94880,Sapelang,72.07.18.2010,Buko Selatan,Kabupaten,Banggai Kepulauan,Sulawesi Tengah
1644,94880,Seano,72.07.18.2007,Buko Selatan,Kabupaten,Banggai Kepulauan,Sulawesi Tengah
1645,94880,Tatabau,72.07.18.2003,Buko Selatan,Kabupaten,Banggai Kepulauan,Sulawesi Tengah
1646,94881,Batangono,72.07.07.2009,Buko,Kabupaten,Banggai Kepulauan,Sulawesi Tengah
1647,94881,Labasiano,72.07.07.2012,Buko,Kabupaten,Banggai Kepulauan,Sulawesi Tengah
1648,94881,Lalengan,72.07.07.2010,Buko,Kabupaten,Banggai Kepulauan,Sulawesi Tengah
1649,94881,Leme-Leme Bungin,72.07.07.2015,Buko,Kabupaten,Banggai Kepulauan,Sulawesi Tengah
1650,94881,Leme-Leme Darat,72.07.07.2016,Buko,Kabupaten,Banggai Kepulauan,Sulawesi Tengah
1651,94881,Malanggong,72.07.07.2014,Buko,Kabupaten,Banggai Kepulauan,Sulawesi Tengah
1652,94881,Okulo Potil,72.07.07.2018,Buko,Kabupaten,Banggai Kepulauan,Sulawesi Tengah
1653,94881,Olusi,72.07.07.2020,Buko,Kabupaten,Banggai Kepulauan,Sulawesi Tengah
1654,94881,Paisubatu,72.07.07.2008,Buko,Kabupaten,Banggai Kepulauan,Sulawesi Tengah
1655,94881,Peling Lalomo,72.07.07.2011,Buko,Kabupaten,Banggai Kepulauan,Sulawesi Tengah
1656,94881,Talas-talas,72.07.07.2017,Buko,Kabupaten,Banggai Kepulauan,Sulawesi Tengah
1657,94881,Tataba,72.07.07.2013,Buko,Kabupaten,Banggai Kepulauan,Sulawesi Tengah
1658,94881,Tatendeng,72.07.07.2019,Buko,Kabupaten,Banggai Kepulauan,Sulawesi Tengah
1659,94571,Biau,72.05.08.2001,Bukal,Kabupaten,Buol,Sulawesi Tengah
1660,94571,Binuang,72.05.08.2010,Bukal,Kabupaten,Buol,Sulawesi Tengah
1661,94571,Bukal,72.05.08.2014,Bukal,Kabupaten,Buol,Sulawesi Tengah
1662,94571,Bungkudu,72.05.08.2002,Bukal,Kabupaten,Buol,Sulawesi Tengah
1663,94571,Diat,72.05.08.2008,Bukal,Kabupaten,Buol,Sulawesi Tengah
1664,94571,Modo I (Modo),72.05.08.2005,Bukal,Kabupaten,Buol,Sulawesi Tengah
1665,94571,Mooyong,72.05.08.2012,Bukal,Kabupaten,Buol,Sulawesi Tengah
1666,94571,Mopu,72.05.08.2007,Bukal,Kabupaten,Buol,Sulawesi Tengah
1667,94571,Mulat,72.05.08.2013,Bukal,Kabupaten,Buol,Sulawesi Tengah
1668,94571,Potangoan,72.05.08.2009,Bukal,Kabupaten,Buol,Sulawesi Tengah
1669,94571,Rantemaranu,72.05.08.2003,Bukal,Kabupaten,Buol,Sulawesi Tengah
1670,94571,Unone,72.05.08.2006,Bukal,Kabupaten,Buol,Sulawesi Tengah
1671,94571,Winangun,72.05.08.2004,Bukal,Kabupaten,Buol,Sulawesi Tengah
1672,94571,Yugut,72.05.08.2011,Bukal,Kabupaten,Buol,Sulawesi Tengah
1673,94752,Bima Karya,72.01.08.2015,Bualemo (Boalemo),Kabupaten,Banggai,Sulawesi Tengah
1674,94752,Binsil (Binsil Ch),72.01.08.2011,Bualemo (Boalemo),Kabupaten,Banggai,Sulawesi Tengah
1675,94752,Binsil Padang,72.01.08.2012,Bualemo (Boalemo),Kabupaten,Banggai,Sulawesi Tengah
1676,94752,Bualemo A,72.01.08.2001,Bualemo (Boalemo),Kabupaten,Banggai,Sulawesi Tengah
1677,94752,Bualemo B,72.01.08.2007,Bualemo (Boalemo),Kabupaten,Banggai,Sulawesi Tengah
1678,94752,Dwi Karya,72.01.08.2020,Bualemo (Boalemo),Kabupaten,Banggai,Sulawesi Tengah
1679,94752,Lembah Makmur,72.01.08.2019,Bualemo (Boalemo),Kabupaten,Banggai,Sulawesi Tengah
1680,94752,Lembah Tompotika,72.01.08.2013,Bualemo (Boalemo),Kabupaten,Banggai,Sulawesi Tengah
1681,94752,Longkoga Barat,72.01.08.2005,Bualemo (Boalemo),Kabupaten,Banggai,Sulawesi Tengah
1682,94752,Longkoga Timur,72.01.08.2006,Bualemo (Boalemo),Kabupaten,Banggai,Sulawesi Tengah
1683,94752,Malik,72.01.08.2010,Bualemo (Boalemo),Kabupaten,Banggai,Sulawesi Tengah
1684,94752,Malik Makmur,72.01.08.2018,Bualemo (Boalemo),Kabupaten,Banggai,Sulawesi Tengah
1685,94752,Mayayap,72.01.08.2014,Bualemo (Boalemo),Kabupaten,Banggai,Sulawesi Tengah
1686,94752,Nipa Kaleman / Kalemoan,72.01.08.2017,Bualemo (Boalemo),Kabupaten,Banggai,Sulawesi Tengah
1687,94752,Salipi,72.01.08.2016,Bualemo (Boalemo),Kabupaten,Banggai,Sulawesi Tengah
1688,94752,Sampaka,72.01.08.2009,Bualemo (Boalemo),Kabupaten,Banggai,Sulawesi Tengah
1689,94752,Taima,72.01.08.2008,Bualemo (Boalemo),Kabupaten,Banggai,Sulawesi Tengah
1690,94752,Tikupan (Tikupon),72.01.08.2002,Bualemo (Boalemo),Kabupaten,Banggai,Sulawesi Tengah
1691,94752,Toiba,72.01.08.2004,Bualemo (Boalemo),Kabupaten,Banggai,Sulawesi Tengah
1692,94752,Trans Mayayap,72.01.08.2003,Bualemo (Boalemo),Kabupaten,Banggai,Sulawesi Tengah
1693,94480,Anutapura,72.08.07.2033,Bolano Lambunu,Kabupaten,Parigi Moutong,Sulawesi Tengah
1694,94480,Bukit Makmur,72.08.07.2036,Bolano Lambunu,Kabupaten,Parigi Moutong,Sulawesi Tengah
1695,94480,Ganongol Sari,72.08.07.2038,Bolano Lambunu,Kabupaten,Parigi Moutong,Sulawesi Tengah
1696,94480,Gunungsari,72.08.07.2021,Bolano Lambunu,Kabupaten,Parigi Moutong,Sulawesi Tengah
1697,94480,Kotanagaya,72.08.07.2005,Bolano Lambunu,Kabupaten,Parigi Moutong,Sulawesi Tengah
1698,94480,Lambunu,72.08.07.2001,Bolano Lambunu,Kabupaten,Parigi Moutong,Sulawesi Tengah
1699,94480,Lambunu Timur,72.08.07.2035,Bolano Lambunu,Kabupaten,Parigi Moutong,Sulawesi Tengah
1700,94480,Lambunu Utara,72.08.07.2017,Bolano Lambunu,Kabupaten,Parigi Moutong,Sulawesi Tengah
1701,94480,Margapura,72.08.07.2006,Bolano Lambunu,Kabupaten,Parigi Moutong,Sulawesi Tengah
1702,94480,Ogorandu,72.08.07.2037,Bolano Lambunu,Kabupaten,Parigi Moutong,Sulawesi Tengah
1703,94480,Petunasugi,72.08.07.2007,Bolano Lambunu,Kabupaten,Parigi Moutong,Sulawesi Tengah
1704,94480,Siendeng,72.08.07.2016,Bolano Lambunu,Kabupaten,Parigi Moutong,Sulawesi Tengah
1705,94480,Tirtanagaya,72.08.07.2031,Bolano Lambunu,Kabupaten,Parigi Moutong,Sulawesi Tengah
1706,94480,Wanagading,72.08.07.2004,Bolano Lambunu,Kabupaten,Parigi Moutong,Sulawesi Tengah
1707,94479,Bajo,72.08.21.2005,Bolano,Kabupaten,Parigi Moutong,Sulawesi Tengah
1708,94479,Beringin Jaya,72.08.21.2007,Bolano,Kabupaten,Parigi Moutong,Sulawesi Tengah
1709,94479,Bolano,72.08.21.2001,Bolano,Kabupaten,Parigi Moutong,Sulawesi Tengah
1710,94479,Bolano Barat,72.08.21.2003,Bolano,Kabupaten,Parigi Moutong,Sulawesi Tengah
1711,94479,Bolano Tengah,72.08.21.2002,Bolano,Kabupaten,Parigi Moutong,Sulawesi Tengah
1712,94479,Bolano Utara,72.08.21.2004,Bolano,Kabupaten,Parigi Moutong,Sulawesi Tengah
1713,94479,Lembah Bomban,72.08.21.2010,Bolano,Kabupaten,Parigi Moutong,Sulawesi Tengah
1714,94479,Sama Bahari,72.08.21.2013,Bolano,Kabupaten,Parigi Moutong,Sulawesi Tengah
1715,94479,Sidomukti,72.08.21.2011,Bolano,Kabupaten,Parigi Moutong,Sulawesi Tengah
1716,94479,Sritabaang,72.08.21.2006,Bolano,Kabupaten,Parigi Moutong,Sulawesi Tengah
1717,94479,Wanamukti,72.08.21.2008,Bolano,Kabupaten,Parigi Moutong,Sulawesi Tengah
1718,94479,Wanamukti Barat,72.08.21.2012,Bolano,Kabupaten,Parigi Moutong,Sulawesi Tengah
1719,94479,Wanamukti Utara,72.08.21.2009,Bolano,Kabupaten,Parigi Moutong,Sulawesi Tengah
1720,94564,Bokat,72.05.03.2018,Bokat,Kabupaten,Buol,Sulawesi Tengah
1721,94564,Bokat IV,72.05.03.2015,Bokat,Kabupaten,Buol,Sulawesi Tengah
1722,94564,Bongo,72.05.03.2003,Bokat,Kabupaten,Buol,Sulawesi Tengah
1723,94564,Bukamog,72.05.03.2021,Bokat,Kabupaten,Buol,Sulawesi Tengah
1724,94564,Butukan,72.05.03.2019,Bokat,Kabupaten,Buol,Sulawesi Tengah
1725,94564,Doulan,72.05.03.2004,Bokat,Kabupaten,Buol,Sulawesi Tengah
1726,94564,Duamayo (Duwamayo),72.05.03.2023,Bokat,Kabupaten,Buol,Sulawesi Tengah
1727,94564,Kantanan,72.05.03.2010,Bokat,Kabupaten,Buol,Sulawesi Tengah
1728,94564,Kodolagon,72.05.03.2011,Bokat,Kabupaten,Buol,Sulawesi Tengah
1729,94564,Langudon,72.05.03.2024,Bokat,Kabupaten,Buol,Sulawesi Tengah
1730,94564,Negeri Lama,72.05.03.2014,Bokat,Kabupaten,Buol,Sulawesi Tengah
1731,94564,Poongan,72.05.03.2002,Bokat,Kabupaten,Buol,Sulawesi Tengah
1732,94564,Tang,72.05.03.2022,Bokat,Kabupaten,Buol,Sulawesi Tengah
1733,94564,Tayadun,72.05.03.2001,Bokat,Kabupaten,Buol,Sulawesi Tengah
1734,94564,Tikopo,72.05.03.2020,Bokat,Kabupaten,Buol,Sulawesi Tengah
1735,94894,Bolokut,72.11.03.2015,Bokan Kepulauan,Kabupaten,Banggai Laut,Sulawesi Tengah
1736,94894,Bungin,72.11.03.2004,Bokan Kepulauan,Kabupaten,Banggai Laut,Sulawesi Tengah
1737,94894,Kasuari,72.11.03.2010,Bokan Kepulauan,Kabupaten,Banggai Laut,Sulawesi Tengah
1738,94894,Kaukes,72.11.03.2003,Bokan Kepulauan,Kabupaten,Banggai Laut,Sulawesi Tengah
1739,94894,Keak,72.11.03.2016,Bokan Kepulauan,Kabupaten,Banggai Laut,Sulawesi Tengah
1740,94894,Kokudang,72.11.03.2002,Bokan Kepulauan,Kabupaten,Banggai Laut,Sulawesi Tengah
1741,94894,Mandel,72.11.03.2013,Bokan Kepulauan,Kabupaten,Banggai Laut,Sulawesi Tengah
1742,94894,Mbuang Mbuang,72.11.03.2008,Bokan Kepulauan,Kabupaten,Banggai Laut,Sulawesi Tengah
1743,94894,Minanga,72.11.03.2014,Bokan Kepulauan,Kabupaten,Banggai Laut,Sulawesi Tengah
1744,94894,Ndindibung,72.11.03.2006,Bokan Kepulauan,Kabupaten,Banggai Laut,Sulawesi Tengah
1745,94894,Nggasuang,72.11.03.2007,Bokan Kepulauan,Kabupaten,Banggai Laut,Sulawesi Tengah
1746,94894,Paisubebe,72.11.03.2012,Bokan Kepulauan,Kabupaten,Banggai Laut,Sulawesi Tengah
1747,94894,Panapat,72.11.03.2005,Bokan Kepulauan,Kabupaten,Banggai Laut,Sulawesi Tengah
1748,94894,Sonit,72.11.03.2011,Bokan Kepulauan,Kabupaten,Banggai Laut,Sulawesi Tengah
1749,94894,Timpaus,72.11.03.2009,Bokan Kepulauan,Kabupaten,Banggai Laut,Sulawesi Tengah
1750,94894,Toropot,72.11.03.2001,Bokan Kepulauan,Kabupaten,Banggai Laut,Sulawesi Tengah
1751,94563,Bugis,72.05.06.1007,Biau,Kabupaten,Buol,Sulawesi Tengah
1752,94563,Buol,72.05.06.1001,Biau,Kabupaten,Buol,Sulawesi Tengah
1753,94563,Kali,72.05.06.1002,Biau,Kabupaten,Buol,Sulawesi Tengah
1754,94563,Kulango,72.05.06.1006,Biau,Kabupaten,Buol,Sulawesi Tengah
1755,94563,Kumaligon,72.05.06.1005,Biau,Kabupaten,Buol,Sulawesi Tengah
1756,94563,Leok I,72.05.06.1004,Biau,Kabupaten,Buol,Sulawesi Tengah
1757,94563,Leok II,72.05.06.1003,Biau,Kabupaten,Buol,Sulawesi Tengah
1758,94763,Bonebalantak,72.01.15.2008,Batui Selatan,Kabupaten,Banggai,Sulawesi Tengah
1759,94763,Gori-Gori,72.01.15.2002,Batui Selatan,Kabupaten,Banggai,Sulawesi Tengah
1760,94763,Maasing,72.01.15.2001,Batui Selatan,Kabupaten,Banggai,Sulawesi Tengah
1761,94763,Maleo Jaya,72.01.15.2010,Batui Selatan,Kabupaten,Banggai,Sulawesi Tengah
1762,94763,Masungkang,72.01.15.2009,Batui Selatan,Kabupaten,Banggai,Sulawesi Tengah
1763,94763,Ombolu,72.01.15.2007,Batui Selatan,Kabupaten,Banggai,Sulawesi Tengah
1764,94763,Paisu Buloli,72.01.15.2006,Batui Selatan,Kabupaten,Banggai,Sulawesi Tengah
1765,94763,Sinorang,72.01.15.2003,Batui Selatan,Kabupaten,Banggai,Sulawesi Tengah
1766,94763,Sukamaju,72.01.15.2004,Batui Selatan,Kabupaten,Banggai,Sulawesi Tengah
1767,94763,Sukamaju Satu,72.01.15.2005,Batui Selatan,Kabupaten,Banggai,Sulawesi Tengah
1768,94762,Bakung,72.01.01.1023,Batui,Kabupaten,Banggai,Sulawesi Tengah
1769,94762,Balantang,72.01.01.1007,Batui,Kabupaten,Banggai,Sulawesi Tengah
1770,94762,Batui,72.01.01.1008,Batui,Kabupaten,Banggai,Sulawesi Tengah
1771,94762,Bugis,72.01.01.1006,Batui,Kabupaten,Banggai,Sulawesi Tengah
1772,94762,Honbola,72.01.01.2011,Batui,Kabupaten,Banggai,Sulawesi Tengah
1773,94762,Kayowa,72.01.01.2003,Batui,Kabupaten,Banggai,Sulawesi Tengah
1774,94762,Lamo,72.01.01.1010,Batui,Kabupaten,Banggai,Sulawesi Tengah
1775,94762,Nonong,72.01.01.2002,Batui,Kabupaten,Banggai,Sulawesi Tengah
1776,94762,Ondo-Ondolu,72.01.01.2005,Batui,Kabupaten,Banggai,Sulawesi Tengah
1777,94762,Ondo-Ondolu I,72.01.01.2016,Batui,Kabupaten,Banggai,Sulawesi Tengah
1778,94762,Sisipan,72.01.01.1017,Batui,Kabupaten,Banggai,Sulawesi Tengah
1779,94762,Tolando,72.01.01.1009,Batui,Kabupaten,Banggai,Sulawesi Tengah
1780,94762,Uso,72.01.01.2012,Batui,Kabupaten,Banggai,Sulawesi Tengah
1781,94691,Bomba,72.09.11.2001,Batudaka,Kabupaten,Tojo Una Una,Sulawesi Tengah
1782,94691,Kambutu,72.09.11.2007,Batudaka,Kabupaten,Tojo Una Una,Sulawesi Tengah
1783,94691,Kulingkinari,72.09.11.2004,Batudaka,Kabupaten,Tojo Una Una,Sulawesi Tengah
1784,94690,Lindo,72.09.11.2008,Batudaka,Kabupaten,Tojo Una Una,Sulawesi Tengah
1785,94691,Malino,72.09.11.2003,Batudaka,Kabupaten,Tojo Una Una,Sulawesi Tengah
1786,94691,Molowagu,72.09.11.2002,Batudaka,Kabupaten,Tojo Una Una,Sulawesi Tengah
1787,94690,Patoyan,72.09.11.2009,Batudaka,Kabupaten,Tojo Una Una,Sulawesi Tengah
1788,94691,Siatu,72.09.11.2006,Batudaka,Kabupaten,Tojo Una Una,Sulawesi Tengah
1789,94691,Tumbulawa,72.09.11.2005,Batudaka,Kabupaten,Tojo Una Una,Sulawesi Tengah
1790,94552,Basi,72.04.04.2010,Basidondo,Kabupaten,Toli Toli,Sulawesi Tengah
1791,94552,Galandau,72.04.04.2008,Basidondo,Kabupaten,Toli Toli,Sulawesi Tengah
1792,94552,Kayu Lompa,72.04.04.2002,Basidondo,Kabupaten,Toli Toli,Sulawesi Tengah
1793,94552,Kinapasan,72.04.04.2005,Basidondo,Kabupaten,Toli Toli,Sulawesi Tengah
1794,94552,Kongkomos,72.04.04.2006,Basidondo,Kabupaten,Toli Toli,Sulawesi Tengah
1795,94552,Labonu,72.04.04.2003,Basidondo,Kabupaten,Toli Toli,Sulawesi Tengah
1796,94552,Marisa,72.04.04.2009,Basidondo,Kabupaten,Toli Toli,Sulawesi Tengah
1797,94552,Ogosipat,72.04.04.2007,Basidondo,Kabupaten,Toli Toli,Sulawesi Tengah
1798,94552,Sibaluton,72.04.04.2001,Basidondo,Kabupaten,Toli Toli,Sulawesi Tengah
1799,94552,Silondou,72.04.04.2004,Basidondo,Kabupaten,Toli Toli,Sulawesi Tengah
1800,94514,Baru,72.04.07.1005,Baolan,Kabupaten,Toli Toli,Sulawesi Tengah
1801,94517,Buntuna,72.04.07.2008,Baolan,Kabupaten,Toli Toli,Sulawesi Tengah
1802,94517,Dadakitan,72.04.07.2002,Baolan,Kabupaten,Toli Toli,Sulawesi Tengah
1803,94515,Lelean Nono,72.04.07.2009,Baolan,Kabupaten,Toli Toli,Sulawesi Tengah
1804,94513,Nalu,72.04.07.1004,Baolan,Kabupaten,Toli Toli,Sulawesi Tengah
1805,94511,Panasakan,72.04.07.1006,Baolan,Kabupaten,Toli Toli,Sulawesi Tengah
1806,94517,Pangi,72.04.07.2010,Baolan,Kabupaten,Toli Toli,Sulawesi Tengah
1807,94512,Sidoarjo,72.04.07.1007,Baolan,Kabupaten,Toli Toli,Sulawesi Tengah
1808,94516,Tambun,72.04.07.1001,Baolan,Kabupaten,Toli Toli,Sulawesi Tengah
1809,94515,Tuweley,72.04.07.1003,Baolan,Kabupaten,Toli Toli,Sulawesi Tengah
1810,94892,Bone Bone,72.11.04.2006,Bangkurung,Kabupaten,Banggai Laut,Sulawesi Tengah
1811,94892,Bungin Lawean (Bungin Luean),72.11.04.2010,Bangkurung,Kabupaten,Banggai Laut,Sulawesi Tengah
1812,94892,Dungkean,72.11.04.2012,Bangkurung,Kabupaten,Banggai Laut,Sulawesi Tengah
1813,94892,Kalupapi,72.11.04.2005,Bangkurung,Kabupaten,Banggai Laut,Sulawesi Tengah
1814,94892,Kanari,72.11.04.2003,Bangkurung,Kabupaten,Banggai Laut,Sulawesi Tengah
1815,94892,Lalong,72.11.04.2011,Bangkurung,Kabupaten,Banggai Laut,Sulawesi Tengah
1816,94892,Lantibung,72.11.04.2004,Bangkurung,Kabupaten,Banggai Laut,Sulawesi Tengah
1817,94892,Mbeleang,72.11.04.2007,Bangkurung,Kabupaten,Banggai Laut,Sulawesi Tengah
1818,94892,Sasabobok,72.11.04.2009,Bangkurung,Kabupaten,Banggai Laut,Sulawesi Tengah
1819,94892,Tabulang,72.11.04.2008,Bangkurung,Kabupaten,Banggai Laut,Sulawesi Tengah
1820,94892,Taduno,72.11.04.2002,Bangkurung,Kabupaten,Banggai Laut,Sulawesi Tengah
1821,94892,Togong Sagu,72.11.04.2001,Bangkurung,Kabupaten,Banggai Laut,Sulawesi Tengah
1822,94896,Bone Baru,72.11.02.2006,Banggai Utara,Kabupaten,Banggai Laut,Sulawesi Tengah
1823,94896,Kendek,72.11.02.2001,Banggai Utara,Kabupaten,Banggai Laut,Sulawesi Tengah
1824,94896,Lokotoy (Lokotoi),72.11.02.2002,Banggai Utara,Kabupaten,Banggai Laut,Sulawesi Tengah
1825,94896,Paisumosoni,72.11.02.2004,Banggai Utara,Kabupaten,Banggai Laut,Sulawesi Tengah
1826,94896,Popisi,72.11.02.2003,Banggai Utara,Kabupaten,Banggai Laut,Sulawesi Tengah
1827,94896,Tolisetubono (Tolise Tubono),72.11.02.2005,Banggai Utara,Kabupaten,Banggai Laut,Sulawesi Tengah
1828,94895,Adean,72.11.07.2001,Banggai Tengah,Kabupaten,Banggai Laut,Sulawesi Tengah
1829,94895,Badumpayan,72.11.07.2002,Banggai Tengah,Kabupaten,Banggai Laut,Sulawesi Tengah
1830,94895,Gonggong,72.11.07.2005,Banggai Tengah,Kabupaten,Banggai Laut,Sulawesi Tengah
1831,94895,Mominit,72.11.07.2004,Banggai Tengah,Kabupaten,Banggai Laut,Sulawesi Tengah
1832,94895,Monsongan,72.11.07.2006,Banggai Tengah,Kabupaten,Banggai Laut,Sulawesi Tengah
1833,94895,Pososlalongo (Posos Lalongo),72.11.07.2008,Banggai Tengah,Kabupaten,Banggai Laut,Sulawesi Tengah
1834,94895,Timbong,72.11.07.2003,Banggai Tengah,Kabupaten,Banggai Laut,Sulawesi Tengah
1835,94895,Tintingo,72.11.07.2007,Banggai Tengah,Kabupaten,Banggai Laut,Sulawesi Tengah
1836,94890,Bentean,72.11.06.2003,Banggai Selatan,Kabupaten,Banggai Laut,Sulawesi Tengah
1837,94890,Kelapa Lima,72.11.06.2005,Banggai Selatan,Kabupaten,Banggai Laut,Sulawesi Tengah
1838,94890,Labuan Kapelak,72.11.06.2006,Banggai Selatan,Kabupaten,Banggai Laut,Sulawesi Tengah
1839,94890,Malino Padas,72.11.06.2004,Banggai Selatan,Kabupaten,Banggai Laut,Sulawesi Tengah
1840,94890,Matanga,72.11.06.2001,Banggai Selatan,Kabupaten,Banggai Laut,Sulawesi Tengah
1841,94890,Tolokibit,72.11.06.2002,Banggai Selatan,Kabupaten,Banggai Laut,Sulawesi Tengah
1842,94891,Dangkalan,72.11.01.2009,Banggai,Kabupaten,Banggai Laut,Sulawesi Tengah
1843,94891,Dodung,72.11.01.1007,Banggai,Kabupaten,Banggai Laut,Sulawesi Tengah
1844,94891,Kokini,72.11.01.2002,Banggai,Kabupaten,Banggai Laut,Sulawesi Tengah
1845,94891,Lambako,72.11.01.2001,Banggai,Kabupaten,Banggai Laut,Sulawesi Tengah
1846,94891,Lampa,72.11.01.2003,Banggai,Kabupaten,Banggai Laut,Sulawesi Tengah
1847,94891,Lompio,72.11.01.1005,Banggai,Kabupaten,Banggai Laut,Sulawesi Tengah
1848,94891,Pasir Putih,72.11.01.2010,Banggai,Kabupaten,Banggai Laut,Sulawesi Tengah
1849,94891,Potil Pololoba,72.11.01.2008,Banggai,Kabupaten,Banggai Laut,Sulawesi Tengah
1850,94891,Tano Bununungan (Tano Bonunungan),72.11.01.1006,Banggai,Kabupaten,Banggai Laut,Sulawesi Tengah
1851,94891,Tinakin Laut,72.11.01.2004,Banggai,Kabupaten,Banggai Laut,Sulawesi Tengah
1852,94341,Kola-Kola,72.03.27.2003,Banawa Tengah,Kabupaten,Donggala,Sulawesi Tengah
1853,94341,Lampo,72.03.27.2008,Banawa Tengah,Kabupaten,Donggala,Sulawesi Tengah
1854,94341,Limboro,72.03.27.2004,Banawa Tengah,Kabupaten,Donggala,Sulawesi Tengah
1855,94341,Lumbudolo,72.03.27.2002,Banawa Tengah,Kabupaten,Donggala,Sulawesi Tengah
1856,94341,Mekar Baru,72.03.27.2007,Banawa Tengah,Kabupaten,Donggala,Sulawesi Tengah
1857,94341,Powelua,72.03.27.2001,Banawa Tengah,Kabupaten,Donggala,Sulawesi Tengah
1858,94341,Salubomba,72.03.27.2006,Banawa Tengah,Kabupaten,Donggala,Sulawesi Tengah
1859,94341,Towale,72.03.27.2005,Banawa Tengah,Kabupaten,Donggala,Sulawesi Tengah
1860,94350,Bambarimi,72.03.18.2007,Banawa Selatan,Kabupaten,Donggala,Sulawesi Tengah
1861,94350,Lalombi,72.03.18.2005,Banawa Selatan,Kabupaten,Donggala,Sulawesi Tengah
1862,94350,Lembasada,72.03.18.2016,Banawa Selatan,Kabupaten,Donggala,Sulawesi Tengah
1863,94350,Lumbu Tarombo,72.03.18.2012,Banawa Selatan,Kabupaten,Donggala,Sulawesi Tengah
1864,94350,Lumbulama,72.03.18.2013,Banawa Selatan,Kabupaten,Donggala,Sulawesi Tengah
1865,94350,Lumbumamara,72.03.18.2009,Banawa Selatan,Kabupaten,Donggala,Sulawesi Tengah
1866,94350,Malino,72.03.18.2015,Banawa Selatan,Kabupaten,Donggala,Sulawesi Tengah
1867,94350,Mbuwu,72.03.18.2001,Banawa Selatan,Kabupaten,Donggala,Sulawesi Tengah
1868,94350,Ongulara,72.03.18.2014,Banawa Selatan,Kabupaten,Donggala,Sulawesi Tengah
1869,94350,Salumpaku,72.03.18.2002,Banawa Selatan,Kabupaten,Donggala,Sulawesi Tengah
1870,94350,Salungkaenu,72.03.18.2008,Banawa Selatan,Kabupaten,Donggala,Sulawesi Tengah
1871,94350,Salusumpu,72.03.18.2018,Banawa Selatan,Kabupaten,Donggala,Sulawesi Tengah
1872,94350,Sarombaya,72.03.18.2017,Banawa Selatan,Kabupaten,Donggala,Sulawesi Tengah
1873,94350,Surumana,72.03.18.2004,Banawa Selatan,Kabupaten,Donggala,Sulawesi Tengah
1874,94350,Tanamea (Tanahmea),72.03.18.2006,Banawa Selatan,Kabupaten,Donggala,Sulawesi Tengah
1875,94350,Tanampulu,72.03.18.2019,Banawa Selatan,Kabupaten,Donggala,Sulawesi Tengah
1876,94350,Tolongano,72.03.18.2010,Banawa Selatan,Kabupaten,Donggala,Sulawesi Tengah
1877,94350,Tosale,72.03.18.2011,Banawa Selatan,Kabupaten,Donggala,Sulawesi Tengah
1878,94350,Watatu,72.03.18.2003,Banawa Selatan,Kabupaten,Donggala,Sulawesi Tengah
1879,94351,Boneoge,72.03.08.1028,Banawa,Kabupaten,Donggala,Sulawesi Tengah
1880,94351,Boya,72.03.08.1026,Banawa,Kabupaten,Donggala,Sulawesi Tengah
1881,94351,Ganti,72.03.08.1020,Banawa,Kabupaten,Donggala,Sulawesi Tengah
1882,94351,Gunung Bale,72.03.08.1023,Banawa,Kabupaten,Donggala,Sulawesi Tengah
1883,94351,Kabonga Besar,72.03.08.1021,Banawa,Kabupaten,Donggala,Sulawesi Tengah
1884,94351,Kabonga Kecil,72.03.08.1022,Banawa,Kabupaten,Donggala,Sulawesi Tengah
1885,94351,Labuan Bajo,72.03.08.1027,Banawa,Kabupaten,Donggala,Sulawesi Tengah
1886,94351,Loli Dondo,72.03.08.2030,Banawa,Kabupaten,Donggala,Sulawesi Tengah
1887,94351,Loli Oge (Lolioge),72.03.08.2012,Banawa,Kabupaten,Donggala,Sulawesi Tengah
1888,94351,Loli Pesua,72.03.08.2029,Banawa,Kabupaten,Donggala,Sulawesi Tengah
1889,94351,Loli Saluran,72.03.08.2031,Banawa,Kabupaten,Donggala,Sulawesi Tengah
1890,94351,Loli Tasibori (Tasiburi),72.03.08.2013,Banawa,Kabupaten,Donggala,Sulawesi Tengah
1891,94351,Maleni,72.03.08.1024,Banawa,Kabupaten,Donggala,Sulawesi Tengah
1892,94351,Tanjung Batu,72.03.08.1025,Banawa,Kabupaten,Donggala,Sulawesi Tengah
1893,94473,Balinggi,72.08.15.2003,Balinggi,Kabupaten,Parigi Moutong,Sulawesi Tengah
1894,94473,Balinggi Jati,72.08.15.2002,Balinggi,Kabupaten,Parigi Moutong,Sulawesi Tengah
1895,94473,Beraban,72.08.15.2006,Balinggi,Kabupaten,Parigi Moutong,Sulawesi Tengah
1896,94473,Catur Karya,72.08.15.2009,Balinggi,Kabupaten,Parigi Moutong,Sulawesi Tengah
1897,94473,Lebagu,72.08.15.2007,Balinggi,Kabupaten,Parigi Moutong,Sulawesi Tengah
1898,94473,Malakosa,72.08.15.2001,Balinggi,Kabupaten,Parigi Moutong,Sulawesi Tengah
1899,94473,Suli,72.08.15.2004,Balinggi,Kabupaten,Parigi Moutong,Sulawesi Tengah
1900,94473,Suli Indah,72.08.15.2005,Balinggi,Kabupaten,Parigi Moutong,Sulawesi Tengah
1901,94473,Tumpapa Indah,72.08.15.2008,Balinggi,Kabupaten,Parigi Moutong,Sulawesi Tengah
1902,94775,Batu Mandi,72.01.19.2007,Balantak Utara,Kabupaten,Banggai,Sulawesi Tengah
1903,94775,Batu Simpang,72.01.19.2006,Balantak Utara,Kabupaten,Banggai,Sulawesi Tengah
1904,94775,Kampangar,72.01.19.2001,Balantak Utara,Kabupaten,Banggai,Sulawesi Tengah
1905,94775,Kuntang,72.01.19.2002,Balantak Utara,Kabupaten,Banggai,Sulawesi Tengah
1906,94775,Ondoliang,72.01.19.2005,Balantak Utara,Kabupaten,Banggai,Sulawesi Tengah
1907,94775,Pangkalaseang,72.01.19.2008,Balantak Utara,Kabupaten,Banggai,Sulawesi Tengah
1908,94775,Pangkalaseang Baru,72.01.19.2009,Balantak Utara,Kabupaten,Banggai,Sulawesi Tengah
1909,94775,Pulau Dua,72.01.19.2003,Balantak Utara,Kabupaten,Banggai,Sulawesi Tengah
1910,94775,Teku,72.01.19.2004,Balantak Utara,Kabupaten,Banggai,Sulawesi Tengah
1911,94775,Toweer,72.01.19.2010,Balantak Utara,Kabupaten,Banggai,Sulawesi Tengah
1912,94774,Booy,72.01.18.2004,Balantak Selatan,Kabupaten,Banggai,Sulawesi Tengah
1913,94774,Dondo,72.01.18.2002,Balantak Selatan,Kabupaten,Banggai,Sulawesi Tengah
1914,94774,Giwang,72.01.18.2007,Balantak Selatan,Kabupaten,Banggai,Sulawesi Tengah
1915,94774,Gorontalo,72.01.18.2009,Balantak Selatan,Kabupaten,Banggai,Sulawesi Tengah
1916,94774,Poyang,72.01.18.2010,Balantak Selatan,Kabupaten,Banggai,Sulawesi Tengah
1917,94774,Resarna,72.01.18.2006,Balantak Selatan,Kabupaten,Banggai,Sulawesi Tengah
1918,94774,Sepe,72.01.18.2003,Balantak Selatan,Kabupaten,Banggai,Sulawesi Tengah
1919,94774,Tanggawas,72.01.18.2011,Balantak Selatan,Kabupaten,Banggai,Sulawesi Tengah
1920,94774,Tintingon (Tintingan),72.01.18.2005,Balantak Selatan,Kabupaten,Banggai,Sulawesi Tengah
1921,94774,Tombos,72.01.18.2001,Balantak Selatan,Kabupaten,Banggai,Sulawesi Tengah
1922,94774,Tongke,72.01.18.2008,Balantak Selatan,Kabupaten,Banggai,Sulawesi Tengah
1923,94773,Balantak,72.01.06.1020,Balantak,Kabupaten,Banggai,Sulawesi Tengah
1924,94773,Boloak,72.01.06.2027,Balantak,Kabupaten,Banggai,Sulawesi Tengah
1925,94773,Dale-Dale,72.01.06.1030,Balantak,Kabupaten,Banggai,Sulawesi Tengah
1926,94773,Dolom,72.01.06.2013,Balantak,Kabupaten,Banggai,Sulawesi Tengah
1927,94773,Kiloma,72.01.06.2014,Balantak,Kabupaten,Banggai,Sulawesi Tengah
1928,94773,Luok,72.01.06.2021,Balantak,Kabupaten,Banggai,Sulawesi Tengah
1929,94773,Mamping,72.01.06.2018,Balantak,Kabupaten,Banggai,Sulawesi Tengah
1930,94773,Padang,72.01.06.2017,Balantak,Kabupaten,Banggai,Sulawesi Tengah
1931,94773,Ra'u,72.01.06.2015,Balantak,Kabupaten,Banggai,Sulawesi Tengah
1932,94773,Talang Batu,72.01.06.1031,Balantak,Kabupaten,Banggai,Sulawesi Tengah
1933,94773,Talima A,72.01.06.2009,Balantak,Kabupaten,Banggai,Sulawesi Tengah
1934,94773,Talima B,72.01.06.2010,Balantak,Kabupaten,Banggai,Sulawesi Tengah
1935,94773,Tanotu,72.01.06.2016,Balantak,Kabupaten,Banggai,Sulawesi Tengah
1936,94359,Kamonji,72.03.31.2003,Balaesang Tanjung,Kabupaten,Donggala,Sulawesi Tengah
1937,94359,Ketong,72.03.31.2004,Balaesang Tanjung,Kabupaten,Donggala,Sulawesi Tengah
1938,94359,Malei,72.03.31.2002,Balaesang Tanjung,Kabupaten,Donggala,Sulawesi Tengah
1939,94359,Manimbaya,72.03.31.2008,Balaesang Tanjung,Kabupaten,Donggala,Sulawesi Tengah
1940,94359,Palau,72.03.31.2007,Balaesang Tanjung,Kabupaten,Donggala,Sulawesi Tengah
1941,94359,Pomolulu,72.03.31.2006,Balaesang Tanjung,Kabupaten,Donggala,Sulawesi Tengah
1942,94359,Rano,72.03.31.2005,Balaesang Tanjung,Kabupaten,Donggala,Sulawesi Tengah
1943,94359,Walandano,72.03.31.2001,Balaesang Tanjung,Kabupaten,Donggala,Sulawesi Tengah
1944,94355,Kampung Baru Sibayu,72.03.12.2020,Balaesang,Kabupaten,Donggala,Sulawesi Tengah
1945,94355,Labean,72.03.12.2006,Balaesang,Kabupaten,Donggala,Sulawesi Tengah
1946,94355,Lombonga,72.03.12.2007,Balaesang,Kabupaten,Donggala,Sulawesi Tengah
1947,94355,Malino,72.03.12.2015,Balaesang,Kabupaten,Donggala,Sulawesi Tengah
1948,94355,Mapane Tambu,72.03.12.2016,Balaesang,Kabupaten,Donggala,Sulawesi Tengah
1949,94355,Meli,72.03.12.2008,Balaesang,Kabupaten,Donggala,Sulawesi Tengah
1950,94355,Sibayu,72.03.12.2012,Balaesang,Kabupaten,Donggala,Sulawesi Tengah
1951,94355,Sibualong,72.03.12.2011,Balaesang,Kabupaten,Donggala,Sulawesi Tengah
1952,94355,Simagaya,72.03.12.2021,Balaesang,Kabupaten,Donggala,Sulawesi Tengah
1953,94355,Sipure,72.03.12.2019,Balaesang,Kabupaten,Donggala,Sulawesi Tengah
1954,94355,Siweli,72.03.12.2010,Balaesang,Kabupaten,Donggala,Sulawesi Tengah
1955,94355,Tambu,72.03.12.2009,Balaesang,Kabupaten,Donggala,Sulawesi Tengah
1956,94355,Tovia Tambu,72.03.12.2017,Balaesang,Kabupaten,Donggala,Sulawesi Tengah
1957,94974,Baho Makmur (Bahomakmur),72.06.10.2011,Bahodopi,Kabupaten,Morowali,Sulawesi Tengah
1958,94974,Bahodopi,72.06.10.2006,Bahodopi,Kabupaten,Morowali,Sulawesi Tengah
1959,94974,Bete Bete,72.06.10.2001,Bahodopi,Kabupaten,Morowali,Sulawesi Tengah
1960,94974,Dampala,72.06.10.2009,Bahodopi,Kabupaten,Morowali,Sulawesi Tengah
1961,94974,Fatufia,72.06.10.2004,Bahodopi,Kabupaten,Morowali,Sulawesi Tengah
1962,94974,Keurea,72.06.10.2005,Bahodopi,Kabupaten,Morowali,Sulawesi Tengah
1963,94974,Labota,72.06.10.2003,Bahodopi,Kabupaten,Morowali,Sulawesi Tengah
1964,94974,Lalampu,72.06.10.2007,Bahodopi,Kabupaten,Morowali,Sulawesi Tengah
1965,94974,Le-Le,72.06.10.2010,Bahodopi,Kabupaten,Morowali,Sulawesi Tengah
1966,94974,Makartijaya (Makarti Jaya),72.06.10.2012,Bahodopi,Kabupaten,Morowali,Sulawesi Tengah
1967,94974,Padabahao (Padabaho),72.06.10.2002,Bahodopi,Kabupaten,Morowali,Sulawesi Tengah
1968,94974,Siumbatu,72.06.10.2008,Bahodopi,Kabupaten,Morowali,Sulawesi Tengah
1969,94474,Aloo,72.08.02.2028,Ampibabo,Kabupaten,Parigi Moutong,Sulawesi Tengah
1970,94474,Ampibabo,72.08.02.2009,Ampibabo,Kabupaten,Parigi Moutong,Sulawesi Tengah
1971,94474,Ampibabo Timur,72.08.02.2029,Ampibabo,Kabupaten,Parigi Moutong,Sulawesi Tengah
1972,94474,Ampibabo Utara,72.08.02.2024,Ampibabo,Kabupaten,Parigi Moutong,Sulawesi Tengah
1973,94474,Buranga,72.08.02.2011,Ampibabo,Kabupaten,Parigi Moutong,Sulawesi Tengah
1974,94474,Lemo,72.08.02.2010,Ampibabo,Kabupaten,Parigi Moutong,Sulawesi Tengah
1975,94474,Lemo Tengah,72.08.02.2033,Ampibabo,Kabupaten,Parigi Moutong,Sulawesi Tengah
1976,94474,Lemo Utara,72.08.02.2026,Ampibabo,Kabupaten,Parigi Moutong,Sulawesi Tengah
1977,94474,Ogolugus,72.08.02.2025,Ampibabo,Kabupaten,Parigi Moutong,Sulawesi Tengah
1978,94474,Pangku,72.08.02.2031,Ampibabo,Kabupaten,Parigi Moutong,Sulawesi Tengah
1979,94474,Paranggi,72.08.02.2008,Ampibabo,Kabupaten,Parigi Moutong,Sulawesi Tengah
1980,94474,Sidole,72.08.02.2007,Ampibabo,Kabupaten,Parigi Moutong,Sulawesi Tengah
1981,94474,Sidole Barat,72.08.02.2027,Ampibabo,Kabupaten,Parigi Moutong,Sulawesi Tengah
1982,94474,Sidole Timur,72.08.02.2030,Ampibabo,Kabupaten,Parigi Moutong,Sulawesi Tengah
1983,94474,Tanampedagi (Tamanpedagi),72.08.02.2021,Ampibabo,Kabupaten,Parigi Moutong,Sulawesi Tengah
1984,94474,Toga,72.08.02.2006,Ampibabo,Kabupaten,Parigi Moutong,Sulawesi Tengah
1985,94474,Tolole,72.08.02.2005,Ampibabo,Kabupaten,Parigi Moutong,Sulawesi Tengah
1986,94474,Tolole Raya,72.08.02.2032,Ampibabo,Kabupaten,Parigi Moutong,Sulawesi Tengah
1987,94474,Tombi,72.08.02.2022,Ampibabo,Kabupaten,Parigi Moutong,Sulawesi Tengah
1988,94684,Balanggala,72.09.04.2008,Ampana Tete,Kabupaten,Tojo Una Una,Sulawesi Tengah
1989,94684,Balingara,72.09.04.2013,Ampana Tete,Kabupaten,Tojo Una Una,Sulawesi Tengah
1990,94684,Bantuga,72.09.04.2006,Ampana Tete,Kabupaten,Tojo Una Una,Sulawesi Tengah
1991,94684,Borone,72.09.04.2007,Ampana Tete,Kabupaten,Tojo Una Una,Sulawesi Tengah
1992,94684,Bulan Jaya,72.09.04.2014,Ampana Tete,Kabupaten,Tojo Una Una,Sulawesi Tengah
1993,94684,Giri Mulyo,72.09.04.2015,Ampana Tete,Kabupaten,Tojo Una Una,Sulawesi Tengah
1994,94684,Kajulangko,72.09.04.2019,Ampana Tete,Kabupaten,Tojo Una Una,Sulawesi Tengah
1995,94684,Longge,72.09.04.2010,Ampana Tete,Kabupaten,Tojo Una Una,Sulawesi Tengah
1996,94684,Mantangisi,72.09.04.2005,Ampana Tete,Kabupaten,Tojo Una Una,Sulawesi Tengah
1997,94684,Mpoa,72.09.04.2021,Ampana Tete,Kabupaten,Tojo Una Una,Sulawesi Tengah
1998,94684,Pusungi,72.09.04.2001,Ampana Tete,Kabupaten,Tojo Una Una,Sulawesi Tengah
1999,94684,Sabo,72.09.04.2009,Ampana Tete,Kabupaten,Tojo Una Una,Sulawesi Tengah
2000,94684,Sukamaju,72.09.04.2022,Ampana Tete,Kabupaten,Tojo Una Una,Sulawesi Tengah
2001,94684,Tampabatu,72.09.04.2011,Ampana Tete,Kabupaten,Tojo Una Una,Sulawesi Tengah
2002,94684,Tete A (Tete Atas),72.09.04.2003,Ampana Tete,Kabupaten,Tojo Una Una,Sulawesi Tengah
2003,94684,Tete B (Tete Bawah),72.09.04.2002,Ampana Tete,Kabupaten,Tojo Una Una,Sulawesi Tengah
2004,94684,Uebone,72.09.04.2004,Ampana Tete,Kabupaten,Tojo Una Una,Sulawesi Tengah
2005,94684,Uemakuni,72.09.04.2020,Ampana Tete,Kabupaten,Tojo Una Una,Sulawesi Tengah
2006,94684,Urundaka,72.09.04.2012,Ampana Tete,Kabupaten,Tojo Una Una,Sulawesi Tengah
2007,94684,Wanasari,72.09.04.2017,Ampana Tete,Kabupaten,Tojo Una Una,Sulawesi Tengah
2008,94683,Ampana,72.09.05.1004,Ampana Kota,Kabupaten,Tojo Una Una,Sulawesi Tengah
2009,94683,Bailo,72.09.05.1003,Ampana Kota,Kabupaten,Tojo Una Una,Sulawesi Tengah
2010,94683,Bailo Baru,72.09.05.1013,Ampana Kota,Kabupaten,Tojo Una Una,Sulawesi Tengah
2011,94683,Bone Rato,72.09.05.1012,Ampana Kota,Kabupaten,Tojo Una Una,Sulawesi Tengah
2012,94683,Buntongi,72.09.05.2019,Ampana Kota,Kabupaten,Tojo Una Una,Sulawesi Tengah
2013,94683,Labiabae,72.09.05.1014,Ampana Kota,Kabupaten,Tojo Una Una,Sulawesi Tengah
2014,94683,Malotong,72.09.05.1002,Ampana Kota,Kabupaten,Tojo Una Una,Sulawesi Tengah
2015,94683,Padang Tumbuo,72.09.05.2011,Ampana Kota,Kabupaten,Tojo Una Una,Sulawesi Tengah
2016,94683,Saluaba,72.09.05.2018,Ampana Kota,Kabupaten,Tojo Una Una,Sulawesi Tengah
2017,94683,Sansarino,72.09.05.2001,Ampana Kota,Kabupaten,Tojo Una Una,Sulawesi Tengah