no,postal_code,urban,area_code,sub_district,dt2,city,province
1,93560,19 Nopember,74.01.01.1001,Wundulako,Kabupaten,Kolaka,Sulawesi Tenggara
2,93560,Bende,74.01.01.2007,Wundulako,Kabupaten,Kolaka,Sulawesi Tenggara
3,93560,Kowioha,74.01.01.1004,Wundulako,Kabupaten,Kolaka,Sulawesi Tenggara
4,93560,Lamekongga,74.01.01.1003,Wundulako,Kabupaten,Kolaka,Sulawesi Tenggara
5,93560,Ngapa,74.01.01.1011,Wundulako,Kabupaten,Kolaka,Sulawesi Tenggara
6,93560,Sabiona (Sabiano),74.01.01.2010,Wundulako,Kabupaten,Kolaka,Sulawesi Tenggara
7,93560,Silea,74.01.01.1005,Wundulako,Kabupaten,Kolaka,Sulawesi Tenggara
8,93560,Tikonu,74.01.01.2009,Wundulako,Kabupaten,Kolaka,Sulawesi Tenggara
9,93560,Towua (Towua I),74.01.01.2006,Wundulako,Kabupaten,Kolaka,Sulawesi Tenggara
10,93560,Unamendaa (Una Mendaa),74.01.01.2008,Wundulako,Kabupaten,Kolaka,Sulawesi Tenggara
11,93560,Wundulako,74.01.01.1002,Wundulako,Kabupaten,Kolaka,Sulawesi Tenggara
12,93118,Anawai,74.71.07.1004,Wua-Wua,Kota,Kendari,Sulawesi Tenggara
13,93118,Bonggoeya,74.71.07.1002,Wua-Wua,Kota,Kendari,Sulawesi Tenggara
14,93118,Mataiwoi,74.71.07.1003,Wua-Wua,Kota,Kendari,Sulawesi Tenggara
15,93117,Wua Wua,74.71.07.1001,Wua-Wua,Kota,Kendari,Sulawesi Tenggara
16,93469,Ambuuwiu (Ambuwiu),74.02.41.2008,Wonggeduku Barat,Kabupaten,Konawe,Sulawesi Tenggara
17,93469,Anggadola,74.02.41.2014,Wonggeduku Barat,Kabupaten,Konawe,Sulawesi Tenggara
18,93469,Baruga,74.02.41.2006,Wonggeduku Barat,Kabupaten,Konawe,Sulawesi Tenggara
19,93469,Kasukia,74.02.41.2005,Wonggeduku Barat,Kabupaten,Konawe,Sulawesi Tenggara
20,93469,Lahotutu,74.02.41.2011,Wonggeduku Barat,Kabupaten,Konawe,Sulawesi Tenggara
21,93469,Lambangi,74.02.41.2010,Wonggeduku Barat,Kabupaten,Konawe,Sulawesi Tenggara
22,93469,Lamokuni,74.02.41.2012,Wonggeduku Barat,Kabupaten,Konawe,Sulawesi Tenggara
23,93469,Linonggasai (Linonggasay),74.02.41.2009,Wonggeduku Barat,Kabupaten,Konawe,Sulawesi Tenggara
24,93469,Puday,74.02.41.2002,Wonggeduku Barat,Kabupaten,Konawe,Sulawesi Tenggara
25,93469,Ranotundobu,74.02.41.2013,Wonggeduku Barat,Kabupaten,Konawe,Sulawesi Tenggara
26,93469,Teteona,74.02.41.2007,Wonggeduku Barat,Kabupaten,Konawe,Sulawesi Tenggara
27,93469,Tobimeita,74.02.41.2004,Wonggeduku Barat,Kabupaten,Konawe,Sulawesi Tenggara
28,93469,Waturay,74.02.41.2003,Wonggeduku Barat,Kabupaten,Konawe,Sulawesi Tenggara
29,93469,Wonggeduku,74.02.41.2001,Wonggeduku Barat,Kabupaten,Konawe,Sulawesi Tenggara
30,93468,Anggoro,74.02.19.2028,Wonggeduku,Kabupaten,Konawe,Sulawesi Tenggara
31,93468,Bendewuta,74.02.19.2017,Wonggeduku,Kabupaten,Konawe,Sulawesi Tenggara
32,93468,Dawi-dawi,74.02.19.2016,Wonggeduku,Kabupaten,Konawe,Sulawesi Tenggara
33,93468,Duriaasi,74.02.19.2004,Wonggeduku,Kabupaten,Konawe,Sulawesi Tenggara
34,93468,Lalohao,74.02.19.2019,Wonggeduku,Kabupaten,Konawe,Sulawesi Tenggara
35,93468,Lalousu,74.02.19.2006,Wonggeduku,Kabupaten,Konawe,Sulawesi Tenggara
36,93468,Langgonawe,74.02.19.2018,Wonggeduku,Kabupaten,Konawe,Sulawesi Tenggara
37,93468,Polandangi,74.02.19.2027,Wonggeduku,Kabupaten,Konawe,Sulawesi Tenggara
38,93468,Puuduria,74.02.19.1009,Wonggeduku,Kabupaten,Konawe,Sulawesi Tenggara
39,93468,Tawarolondo,74.02.19.2026,Wonggeduku,Kabupaten,Konawe,Sulawesi Tenggara
40,93468,Tetemotaha,74.02.19.2015,Wonggeduku,Kabupaten,Konawe,Sulawesi Tenggara
41,93468,Tetewonua (Teteona),74.02.19.2029,Wonggeduku,Kabupaten,Konawe,Sulawesi Tenggara
42,93468,Wakusao (Wukusao / Tomulipu),74.02.19.2020,Wonggeduku,Kabupaten,Konawe,Sulawesi Tenggara
43,93468,Wawonggole,74.02.19.2012,Wonggeduku,Kabupaten,Konawe,Sulawesi Tenggara
44,93468,Wawoone,74.02.19.2008,Wonggeduku,Kabupaten,Konawe,Sulawesi Tenggara
45,93468,Wawosolo,74.02.19.2010,Wonggeduku,Kabupaten,Konawe,Sulawesi Tenggara
46,93754,Bungi,74.04.28.2006,Wolowa,Kabupaten,Buton,Sulawesi Tenggara
47,93754,Galanti,74.04.28.2007,Wolowa,Kabupaten,Buton,Sulawesi Tenggara
48,93754,Kaumbu,74.04.28.2001,Wolowa,Kabupaten,Buton,Sulawesi Tenggara
49,93754,Matawia,74.04.28.2003,Wolowa,Kabupaten,Buton,Sulawesi Tenggara
50,93754,Suka Maju (Sukamaju),74.04.28.2005,Wolowa,Kabupaten,Buton,Sulawesi Tenggara
51,93754,Wolowa,74.04.28.2002,Wolowa,Kabupaten,Buton,Sulawesi Tenggara
52,93754,Wolowa Baru,74.04.28.2004,Wolowa,Kabupaten,Buton,Sulawesi Tenggara
53,93553,Donggala,74.01.10.2002,Wolo,Kabupaten,Kolaka,Sulawesi Tenggara
54,93553,Iwoimopuro,74.01.10.2019,Wolo,Kabupaten,Kolaka,Sulawesi Tenggara
55,93553,Lalonaha,74.01.10.2011,Wolo,Kabupaten,Kolaka,Sulawesi Tenggara
56,93553,Lalonggopi,74.01.10.2015,Wolo,Kabupaten,Kolaka,Sulawesi Tenggara
57,93553,Lana,74.01.10.2012,Wolo,Kabupaten,Kolaka,Sulawesi Tenggara
58,93553,Langgomali,74.01.10.2010,Wolo,Kabupaten,Kolaka,Sulawesi Tenggara
59,93553,Lapao-Pao,74.01.10.2009,Wolo,Kabupaten,Kolaka,Sulawesi Tenggara
60,93553,Muara Lapao Pao,74.01.10.2016,Wolo,Kabupaten,Kolaka,Sulawesi Tenggara
61,93553,Samaenre,74.01.10.2018,Wolo,Kabupaten,Kolaka,Sulawesi Tenggara
62,93553,Tolowe Ponrewaru,74.01.10.2008,Wolo,Kabupaten,Kolaka,Sulawesi Tenggara
63,93553,Ulu Rina,74.01.10.2021,Wolo,Kabupaten,Kolaka,Sulawesi Tenggara
64,93553,Ulu Wolo,74.01.10.1007,Wolo,Kabupaten,Kolaka,Sulawesi Tenggara
65,93553,Ululapao-pao (Ulu Lapao-Pao),74.01.10.2003,Wolo,Kabupaten,Kolaka,Sulawesi Tenggara
66,93553,Wolo,74.01.10.1001,Wolo,Kabupaten,Kolaka,Sulawesi Tenggara
67,93714,Bataraguru,74.72.02.1003,Wolio,Kota,Bau Bau,Sulawesi Tenggara
68,93717,Batulo,74.72.02.1005,Wolio,Kota,Bau Bau,Sulawesi Tenggara
69,93711,Bukit Wolio Indah,74.72.02.1011,Wolio,Kota,Bau Bau,Sulawesi Tenggara
70,93715,Kadolo Katapi,74.72.02.1007,Wolio,Kota,Bau Bau,Sulawesi Tenggara
71,93712,Tomba,74.72.02.1002,Wolio,Kota,Bau Bau,Sulawesi Tenggara
72,93711,Wale,74.72.02.1001,Wolio,Kota,Bau Bau,Sulawesi Tenggara
73,93713,Wangkanapi,74.72.02.1004,Wolio,Kota,Bau Bau,Sulawesi Tenggara
74,93878,Amoito Jaya,74.05.18.2003,Wolasi,Kabupaten,Konawe Selatan,Sulawesi Tenggara
75,93878,Aoma,74.05.18.2002,Wolasi,Kabupaten,Konawe Selatan,Sulawesi Tenggara
76,93878,Aunupe,74.05.18.2007,Wolasi,Kabupaten,Konawe Selatan,Sulawesi Tenggara
77,93878,Leleka,74.05.18.2004,Wolasi,Kabupaten,Konawe Selatan,Sulawesi Tenggara
78,93878,Mata Wolasi,74.05.18.2005,Wolasi,Kabupaten,Konawe Selatan,Sulawesi Tenggara
79,93878,Wolasi,74.05.18.2001,Wolasi,Kabupaten,Konawe Selatan,Sulawesi Tenggara
80,93343,Culumbatu,74.09.02.2006,Wiwirano,Kabupaten,Konawe Utara,Sulawesi Tenggara
81,93343,Lamonae,74.09.02.1001,Wiwirano,Kabupaten,Konawe Utara,Sulawesi Tenggara
82,93343,Lamonae Utama,74.09.02.2010,Wiwirano,Kabupaten,Konawe Utara,Sulawesi Tenggara
83,93343,Lamparinga,74.09.02.2009,Wiwirano,Kabupaten,Konawe Utara,Sulawesi Tenggara
84,93343,Larompana,74.09.02.2022,Wiwirano,Kabupaten,Konawe Utara,Sulawesi Tenggara
85,93343,Mata Osole,74.09.02.2013,Wiwirano,Kabupaten,Konawe Utara,Sulawesi Tenggara
86,93343,Padalere,74.09.02.2002,Wiwirano,Kabupaten,Konawe Utara,Sulawesi Tenggara
87,93343,Padalere Utama,74.09.02.2024,Wiwirano,Kabupaten,Konawe Utara,Sulawesi Tenggara
88,93343,Pondoa,74.09.02.2014,Wiwirano,Kabupaten,Konawe Utara,Sulawesi Tenggara
89,93343,Tetewatu,74.09.02.2004,Wiwirano,Kabupaten,Konawe Utara,Sulawesi Tenggara
90,93343,Wacu Pinodo,74.09.02.2023,Wiwirano,Kabupaten,Konawe Utara,Sulawesi Tenggara
91,93343,Wacumelewe (Macumelewe),74.09.02.2012,Wiwirano,Kabupaten,Konawe Utara,Sulawesi Tenggara
92,93343,Wawoheo,74.09.02.2007,Wiwirano,Kabupaten,Konawe Utara,Sulawesi Tenggara
93,93343,Wawonsangi,74.09.02.2020,Wiwirano,Kabupaten,Konawe Utara,Sulawesi Tenggara
94,93343,Wawontoaho,74.09.02.2021,Wiwirano,Kabupaten,Konawe Utara,Sulawesi Tenggara
95,93462,Analahumbuti,74.02.03.2018,Wawotobi,Kabupaten,Konawe,Sulawesi Tenggara
96,93462,Anggotoa,74.02.03.2017,Wawotobi,Kabupaten,Konawe,Sulawesi Tenggara
97,93462,Bose Bose,74.02.03.1027,Wawotobi,Kabupaten,Konawe,Sulawesi Tenggara
98,93462,Hopa-Hopa,74.02.03.1007,Wawotobi,Kabupaten,Konawe,Sulawesi Tenggara
99,93462,Inalahi,74.02.03.1002,Wawotobi,Kabupaten,Konawe,Sulawesi Tenggara
100,93462,Inolobu,74.02.03.1020,Wawotobi,Kabupaten,Konawe,Sulawesi Tenggara
101,93462,Karandu,74.02.03.2025,Wawotobi,Kabupaten,Konawe,Sulawesi Tenggara
102,93462,Kasumewuho,74.02.03.2031,Wawotobi,Kabupaten,Konawe,Sulawesi Tenggara
103,93462,Kasupute,74.02.03.1011,Wawotobi,Kabupaten,Konawe,Sulawesi Tenggara
104,93462,Korumba,74.02.03.2026,Wawotobi,Kabupaten,Konawe,Sulawesi Tenggara
105,93462,Kukuluri,74.02.03.2032,Wawotobi,Kabupaten,Konawe,Sulawesi Tenggara
106,93462,Kulahi,74.02.03.1008,Wawotobi,Kabupaten,Konawe,Sulawesi Tenggara
107,93462,Lalosabila,74.02.03.1006,Wawotobi,Kabupaten,Konawe,Sulawesi Tenggara
108,93462,Nario Indah,74.02.03.2013,Wawotobi,Kabupaten,Konawe,Sulawesi Tenggara
109,93462,Nohu Nohu,74.02.03.1019,Wawotobi,Kabupaten,Konawe,Sulawesi Tenggara
110,93462,Palarahi,74.02.03.1010,Wawotobi,Kabupaten,Konawe,Sulawesi Tenggara
111,93462,Puusinauwi,74.02.03.1028,Wawotobi,Kabupaten,Konawe,Sulawesi Tenggara
112,93462,Ranoeya,74.02.03.1009,Wawotobi,Kabupaten,Konawe,Sulawesi Tenggara
113,93462,Wawotobi,74.02.03.1001,Wawotobi,Kabupaten,Konawe,Sulawesi Tenggara
114,93398,Dongkalaea,74.12.02.2002,Wawonii Utara,Kabupaten,Konawe Kepulauan,Sulawesi Tenggara
115,93398,Labeau,74.12.02.2003,Wawonii Utara,Kabupaten,Konawe Kepulauan,Sulawesi Tenggara
116,93398,Labisa,74.12.02.2014,Wawonii Utara,Kabupaten,Konawe Kepulauan,Sulawesi Tenggara
117,93398,Lansilowo,74.12.02.1008,Wawonii Utara,Kabupaten,Konawe Kepulauan,Sulawesi Tenggara
118,93398,Mata Bubu,74.12.02.2015,Wawonii Utara,Kabupaten,Konawe Kepulauan,Sulawesi Tenggara
119,93398,Mata Buranga,74.12.02.2007,Wawonii Utara,Kabupaten,Konawe Kepulauan,Sulawesi Tenggara
120,93398,Mataiwoi (Mata Iwoi),74.12.02.2013,Wawonii Utara,Kabupaten,Konawe Kepulauan,Sulawesi Tenggara
121,93398,Mawa,74.12.02.2006,Wawonii Utara,Kabupaten,Konawe Kepulauan,Sulawesi Tenggara
122,93398,Palingi,74.12.02.2005,Wawonii Utara,Kabupaten,Konawe Kepulauan,Sulawesi Tenggara
123,93398,Palingi Barat,74.12.02.2011,Wawonii Utara,Kabupaten,Konawe Kepulauan,Sulawesi Tenggara
124,93398,Palingi Timur,74.12.02.2018,Wawonii Utara,Kabupaten,Konawe Kepulauan,Sulawesi Tenggara
125,93398,Sawa Indah,74.12.02.2021,Wawonii Utara,Kabupaten,Konawe Kepulauan,Sulawesi Tenggara
126,93398,Tambaone (Tombaone),74.12.02.2004,Wawonii Utara,Kabupaten,Konawe Kepulauan,Sulawesi Tenggara
127,93398,Tambaone Utama (Tombaone Utama),74.12.02.2009,Wawonii Utara,Kabupaten,Konawe Kepulauan,Sulawesi Tenggara
128,93398,Tapum Batu,74.12.02.2017,Wawonii Utara,Kabupaten,Konawe Kepulauan,Sulawesi Tenggara
129,93398,Tepolawa,74.12.02.2020,Wawonii Utara,Kabupaten,Konawe Kepulauan,Sulawesi Tenggara
130,93398,Tongalere,74.12.02.2019,Wawonii Utara,Kabupaten,Konawe Kepulauan,Sulawesi Tenggara
131,93398,Tumburano,74.12.02.2012,Wawonii Utara,Kabupaten,Konawe Kepulauan,Sulawesi Tenggara
132,93398,Wawobeau (Wawo Beau),74.12.02.2016,Wawonii Utara,Kabupaten,Konawe Kepulauan,Sulawesi Tenggara
133,93398,Wawoea,74.12.02.2010,Wawonii Utara,Kabupaten,Konawe Kepulauan,Sulawesi Tenggara
134,93398,Waworope,74.12.02.2001,Wawonii Utara,Kabupaten,Konawe Kepulauan,Sulawesi Tenggara
135,93397,Baho Bubu,74.12.03.2010,Wawonii Timur Laut,Kabupaten,Konawe Kepulauan,Sulawesi Tenggara
136,93397,Bangun Mekar,74.12.03.2001,Wawonii Timur Laut,Kabupaten,Konawe Kepulauan,Sulawesi Tenggara
137,93397,Dimba,74.12.03.2005,Wawonii Timur Laut,Kabupaten,Konawe Kepulauan,Sulawesi Tenggara
138,93397,Ladianta,74.12.03.1004,Wawonii Timur Laut,Kabupaten,Konawe Kepulauan,Sulawesi Tenggara
139,93397,Mata Dimba,74.12.03.2006,Wawonii Timur Laut,Kabupaten,Konawe Kepulauan,Sulawesi Tenggara
140,93397,Noko,74.12.03.2002,Wawonii Timur Laut,Kabupaten,Konawe Kepulauan,Sulawesi Tenggara
141,93397,Patande,74.12.03.2009,Wawonii Timur Laut,Kabupaten,Konawe Kepulauan,Sulawesi Tenggara
142,93397,Puurau,74.12.03.2007,Wawonii Timur Laut,Kabupaten,Konawe Kepulauan,Sulawesi Tenggara
143,93397,Tangkombuno,74.12.03.2003,Wawonii Timur Laut,Kabupaten,Konawe Kepulauan,Sulawesi Tenggara
144,93397,Watuondo (Watu Ondo),74.12.03.2008,Wawonii Timur Laut,Kabupaten,Konawe Kepulauan,Sulawesi Tenggara
145,93396,Butuea,74.12.04.2009,Wawonii Timur,Kabupaten,Konawe Kepulauan,Sulawesi Tenggara
146,93396,Lapulu,74.12.04.2006,Wawonii Timur,Kabupaten,Konawe Kepulauan,Sulawesi Tenggara
147,93396,Laywo Jaya (Laywo),74.12.04.2007,Wawonii Timur,Kabupaten,Konawe Kepulauan,Sulawesi Tenggara
148,93396,Lebo,74.12.04.2002,Wawonii Timur,Kabupaten,Konawe Kepulauan,Sulawesi Tenggara
149,93396,Lembono,74.12.04.2010,Wawonii Timur,Kabupaten,Konawe Kepulauan,Sulawesi Tenggara
150,93396,Munse,74.12.04.1001,Wawonii Timur,Kabupaten,Konawe Kepulauan,Sulawesi Tenggara
151,93396,Munse Indah,74.12.04.2005,Wawonii Timur,Kabupaten,Konawe Kepulauan,Sulawesi Tenggara
152,93396,Nanga,74.12.04.2008,Wawonii Timur,Kabupaten,Konawe Kepulauan,Sulawesi Tenggara
153,93396,Saburano,74.12.04.2011,Wawonii Timur,Kabupaten,Konawe Kepulauan,Sulawesi Tenggara
154,93396,Tekonea,74.12.04.2003,Wawonii Timur,Kabupaten,Konawe Kepulauan,Sulawesi Tenggara
155,93396,Wakadawu,74.12.04.2004,Wawonii Timur,Kabupaten,Konawe Kepulauan,Sulawesi Tenggara
156,93394,Bahaba,74.12.05.2015,Wawonii Tenggara,Kabupaten,Konawe Kepulauan,Sulawesi Tenggara
157,93394,Dompo-dompo Jaya,74.12.05.2007,Wawonii Tenggara,Kabupaten,Konawe Kepulauan,Sulawesi Tenggara
158,93394,Kekea,74.12.05.2016,Wawonii Tenggara,Kabupaten,Konawe Kepulauan,Sulawesi Tenggara
159,93394,Masolo (Mosolo),74.12.05.2002,Wawonii Tenggara,Kabupaten,Konawe Kepulauan,Sulawesi Tenggara
160,93394,Nambo Jaya,74.12.05.2001,Wawonii Tenggara,Kabupaten,Konawe Kepulauan,Sulawesi Tenggara
161,93394,Polara,74.12.05.1005,Wawonii Tenggara,Kabupaten,Konawe Kepulauan,Sulawesi Tenggara
162,93394,Roko Roko,74.12.05.2006,Wawonii Tenggara,Kabupaten,Konawe Kepulauan,Sulawesi Tenggara
163,93394,Sainoa Indah,74.12.05.2011,Wawonii Tenggara,Kabupaten,Konawe Kepulauan,Sulawesi Tenggara
164,93394,Sinar Masolo,74.12.05.2013,Wawonii Tenggara,Kabupaten,Konawe Kepulauan,Sulawesi Tenggara
165,93394,Sinaulu Jaya,74.12.05.2003,Wawonii Tenggara,Kabupaten,Konawe Kepulauan,Sulawesi Tenggara
166,93394,Sukarela Jaya,74.12.05.2009,Wawonii Tenggara,Kabupaten,Konawe Kepulauan,Sulawesi Tenggara
167,93394,Teparoko,74.12.05.2008,Wawonii Tenggara,Kabupaten,Konawe Kepulauan,Sulawesi Tenggara
168,93394,Tondonggito,74.12.05.2004,Wawonii Tenggara,Kabupaten,Konawe Kepulauan,Sulawesi Tenggara
169,93394,Waturai,74.12.05.2014,Wawonii Tenggara,Kabupaten,Konawe Kepulauan,Sulawesi Tenggara
170,93394,Wunse Jaya,74.12.05.2012,Wawonii Tenggara,Kabupaten,Konawe Kepulauan,Sulawesi Tenggara
171,93393,Baho Puu Wulu,74.12.07.2012,Wawonii Tengah,Kabupaten,Konawe Kepulauan,Sulawesi Tenggara
172,93393,Batumea,74.12.07.2001,Wawonii Tengah,Kabupaten,Konawe Kepulauan,Sulawesi Tenggara
173,93393,Lamongupa,74.12.07.2004,Wawonii Tengah,Kabupaten,Konawe Kepulauan,Sulawesi Tenggara
174,93393,Lampeapi,74.12.07.1003,Wawonii Tengah,Kabupaten,Konawe Kepulauan,Sulawesi Tenggara
175,93393,Lampeapi Baru,74.12.07.2009,Wawonii Tengah,Kabupaten,Konawe Kepulauan,Sulawesi Tenggara
176,93393,Mekar Sari,74.12.07.2007,Wawonii Tengah,Kabupaten,Konawe Kepulauan,Sulawesi Tenggara
177,93393,Morobea,74.12.07.2006,Wawonii Tengah,Kabupaten,Konawe Kepulauan,Sulawesi Tenggara
178,93393,Pesue,74.12.07.2010,Wawonii Tengah,Kabupaten,Konawe Kepulauan,Sulawesi Tenggara
179,93393,Puurau,74.12.07.2011,Wawonii Tengah,Kabupaten,Konawe Kepulauan,Sulawesi Tenggara
180,93393,Rawa Indah,74.12.07.2008,Wawonii Tengah,Kabupaten,Konawe Kepulauan,Sulawesi Tenggara
181,93393,Tumbu Tumbu Jaya,74.12.07.2005,Wawonii Tengah,Kabupaten,Konawe Kepulauan,Sulawesi Tenggara
182,93393,Wawo Indah,74.12.07.2002,Wawonii Tengah,Kabupaten,Konawe Kepulauan,Sulawesi Tenggara
183,93392,Baku Baku,74.12.06.2005,Wawonii Selatan,Kabupaten,Konawe Kepulauan,Sulawesi Tenggara
184,93392,Bobolio,74.12.06.2002,Wawonii Selatan,Kabupaten,Konawe Kepulauan,Sulawesi Tenggara
185,93392,Langgara Jaya,74.12.06.2011,Wawonii Selatan,Kabupaten,Konawe Kepulauan,Sulawesi Tenggara
186,93392,Lawey,74.12.06.2004,Wawonii Selatan,Kabupaten,Konawe Kepulauan,Sulawesi Tenggara
187,93392,Puuwatu,74.12.06.2009,Wawonii Selatan,Kabupaten,Konawe Kepulauan,Sulawesi Tenggara
188,93392,Sawaea,74.12.06.1006,Wawonii Selatan,Kabupaten,Konawe Kepulauan,Sulawesi Tenggara
189,93392,Sawapatani (Sawa Patani),74.12.06.2007,Wawonii Selatan,Kabupaten,Konawe Kepulauan,Sulawesi Tenggara
190,93392,Wawoone (Wawo One),74.12.06.2010,Wawonii Selatan,Kabupaten,Konawe Kepulauan,Sulawesi Tenggara
191,93392,Wawosou (Wawouso),74.12.06.2003,Wawonii Selatan,Kabupaten,Konawe Kepulauan,Sulawesi Tenggara
192,93392,Wawouso Baru,74.12.06.2008,Wawonii Selatan,Kabupaten,Konawe Kepulauan,Sulawesi Tenggara
193,93392,Wungkolo,74.12.06.2001,Wawonii Selatan,Kabupaten,Konawe Kepulauan,Sulawesi Tenggara
194,93391,Bukit Permai,74.12.01.2006,Wawonii Barat,Kabupaten,Konawe Kepulauan,Sulawesi Tenggara
195,93391,Kawa-Kawali,74.12.01.2015,Wawonii Barat,Kabupaten,Konawe Kepulauan,Sulawesi Tenggara
196,93391,Lamoluo,74.12.01.2005,Wawonii Barat,Kabupaten,Konawe Kepulauan,Sulawesi Tenggara
197,93391,Langara Indah,74.12.01.2004,Wawonii Barat,Kabupaten,Konawe Kepulauan,Sulawesi Tenggara
198,93391,Langara Iwawo,74.12.01.2002,Wawonii Barat,Kabupaten,Konawe Kepulauan,Sulawesi Tenggara
199,93391,Langara Laut,74.12.01.1001,Wawonii Barat,Kabupaten,Konawe Kepulauan,Sulawesi Tenggara
200,93391,Langara Tanjung Batu,74.12.01.2016,Wawonii Barat,Kabupaten,Konawe Kepulauan,Sulawesi Tenggara
201,93391,Langaro Bajo (Langara Bajo),74.12.01.2008,Wawonii Barat,Kabupaten,Konawe Kepulauan,Sulawesi Tenggara
202,93391,langkowala,74.12.01.2014,Wawonii Barat,Kabupaten,Konawe Kepulauan,Sulawesi Tenggara
203,93391,Lanowatu,74.12.01.2011,Wawonii Barat,Kabupaten,Konawe Kepulauan,Sulawesi Tenggara
204,93391,Lantula,74.12.01.2012,Wawonii Barat,Kabupaten,Konawe Kepulauan,Sulawesi Tenggara
205,93391,Mata Baho,74.12.01.2010,Wawonii Barat,Kabupaten,Konawe Kepulauan,Sulawesi Tenggara
206,93391,Mata Langara,74.12.01.2009,Wawonii Barat,Kabupaten,Konawe Kepulauan,Sulawesi Tenggara
207,93391,Pasir Putih,74.12.01.2013,Wawonii Barat,Kabupaten,Konawe Kepulauan,Sulawesi Tenggara
208,93391,Wawobili,74.12.01.2007,Wawonii Barat,Kabupaten,Konawe Kepulauan,Sulawesi Tenggara
209,93391,Wawolaa (Wawola),74.12.01.2003,Wawonii Barat,Kabupaten,Konawe Kepulauan,Sulawesi Tenggara
210,93342,Barasanga,74.09.11.2004,Wawolesea,Kabupaten,Konawe Utara,Sulawesi Tenggara
211,93342,Kampoh Bunga,74.09.11.2002,Wawolesea,Kabupaten,Konawe Utara,Sulawesi Tenggara
212,93342,Kampoh Cina,74.09.11.2009,Wawolesea,Kabupaten,Konawe Utara,Sulawesi Tenggara
213,93342,Lemo Bajo,74.09.11.2003,Wawolesea,Kabupaten,Konawe Utara,Sulawesi Tenggara
214,93342,Otipulu,74.09.11.2007,Wawolesea,Kabupaten,Konawe Utara,Sulawesi Tenggara
215,93342,Tanjung Bunga,74.09.11.2001,Wawolesea,Kabupaten,Konawe Utara,Sulawesi Tenggara
216,93342,Toreo,74.09.11.2006,Wawolesea,Kabupaten,Konawe Utara,Sulawesi Tenggara
217,93342,Wawolesea,74.09.11.2005,Wawolesea,Kabupaten,Konawe Utara,Sulawesi Tenggara
218,93962,Latawe,74.08.07.2006,Wawo,Kabupaten,Kolaka Utara,Sulawesi Tenggara
219,93962,Pumbolo,74.08.07.2004,Wawo,Kabupaten,Kolaka Utara,Sulawesi Tenggara
220,93962,Salurengko,74.08.07.2007,Wawo,Kabupaten,Kolaka Utara,Sulawesi Tenggara
221,93962,Tinukari,74.08.07.2003,Wawo,Kabupaten,Kolaka Utara,Sulawesi Tenggara
222,93962,Ulu Wawo,74.08.07.2005,Wawo,Kabupaten,Kolaka Utara,Sulawesi Tenggara
223,93962,Walasiho,74.08.07.2001,Wawo,Kabupaten,Kolaka Utara,Sulawesi Tenggara
224,93962,Wawo,74.08.07.2002,Wawo,Kabupaten,Kolaka Utara,Sulawesi Tenggara
225,93959,Lahabaru,74.08.09.2002,Watunohu,Kabupaten,Kolaka Utara,Sulawesi Tenggara
226,93959,Lelehao,74.08.09.2008,Watunohu,Kabupaten,Kolaka Utara,Sulawesi Tenggara
227,93959,Nyule,74.08.09.2006,Watunohu,Kabupaten,Kolaka Utara,Sulawesi Tenggara
228,93959,Samaturu,74.08.09.2007,Watunohu,Kabupaten,Kolaka Utara,Sulawesi Tenggara
229,93959,Sapoiha,74.08.09.2005,Watunohu,Kabupaten,Kolaka Utara,Sulawesi Tenggara
230,93959,Sarona,74.08.09.2004,Watunohu,Kabupaten,Kolaka Utara,Sulawesi Tenggara
231,93959,Tambuha,74.08.09.2003,Watunohu,Kabupaten,Kolaka Utara,Sulawesi Tenggara
232,93959,Watunohu,74.08.09.2001,Watunohu,Kabupaten,Kolaka Utara,Sulawesi Tenggara
233,93566,Gunung Sari,74.01.08.2023,Watubangga,Kabupaten,Kolaka,Sulawesi Tenggara
234,93566,Kastura,74.01.08.2020,Watubangga,Kabupaten,Kolaka,Sulawesi Tenggara
235,93566,Kukutio,74.01.08.2007,Watubangga,Kabupaten,Kolaka,Sulawesi Tenggara
236,93566,Lamundre,74.01.08.2002,Watubangga,Kabupaten,Kolaka,Sulawesi Tenggara
237,93566,Langgosipi,74.01.08.2011,Watubangga,Kabupaten,Kolaka,Sulawesi Tenggara
238,93566,Mataosu,74.01.08.2017,Watubangga,Kabupaten,Kolaka,Sulawesi Tenggara
239,93566,Mataosu Ujung,74.01.08.2025,Watubangga,Kabupaten,Kolaka,Sulawesi Tenggara
240,93566,Peoho,74.01.08.2016,Watubangga,Kabupaten,Kolaka,Sulawesi Tenggara
241,93566,Polenga,74.01.08.2018,Watubangga,Kabupaten,Kolaka,Sulawesi Tenggara
242,93566,Ranoteta,74.01.08.2026,Watubangga,Kabupaten,Kolaka,Sulawesi Tenggara
243,93566,Sumber Rejeki,74.01.08.2012,Watubangga,Kabupaten,Kolaka,Sulawesi Tenggara
244,93566,Tandebura,74.01.08.1006,Watubangga,Kabupaten,Kolaka,Sulawesi Tenggara
245,93566,Watubangga,74.01.08.1001,Watubangga,Kabupaten,Kolaka,Sulawesi Tenggara
246,93566,Wolulu,74.01.08.1015,Watubangga,Kabupaten,Kolaka,Sulawesi Tenggara
247,93624,Bangkali,74.03.19.2006,Watopute,Kabupaten,Muna,Sulawesi Tenggara
248,93624,Bhangkali Barat,74.03.19.2005,Watopute,Kabupaten,Muna,Sulawesi Tenggara
249,93624,Dana,74.03.19.1004,Watopute,Kabupaten,Muna,Sulawesi Tenggara
250,93624,Labaha,74.03.19.2008,Watopute,Kabupaten,Muna,Sulawesi Tenggara
251,93624,Lakapodo,74.03.19.2001,Watopute,Kabupaten,Muna,Sulawesi Tenggara
252,93624,Matarawa,74.03.19.2003,Watopute,Kabupaten,Muna,Sulawesi Tenggara
253,93624,Wakadia,74.03.19.2002,Watopute,Kabupaten,Muna,Sulawesi Tenggara
254,93624,Wali,74.03.19.1007,Watopute,Kabupaten,Muna,Sulawesi Tenggara
255,93795,Kabita,74.07.05.2015,Wangi Wangi Selatan,Kabupaten,Wakatobi,Sulawesi Tenggara
256,93795,Kabita Togo,74.07.05.2024,Wangi Wangi Selatan,Kabupaten,Wakatobi,Sulawesi Tenggara
257,93795,Kapota,74.07.05.2011,Wangi Wangi Selatan,Kabupaten,Wakatobi,Sulawesi Tenggara
258,93795,Kapota Utara,74.07.05.2023,Wangi Wangi Selatan,Kabupaten,Wakatobi,Sulawesi Tenggara
259,93795,Komala,74.07.05.2012,Wangi Wangi Selatan,Kabupaten,Wakatobi,Sulawesi Tenggara
260,93795,Liya Bahari Indah,74.07.05.2031,Wangi Wangi Selatan,Kabupaten,Wakatobi,Sulawesi Tenggara
261,93795,Liya Mawi (Liyamawi),74.07.05.2021,Wangi Wangi Selatan,Kabupaten,Wakatobi,Sulawesi Tenggara
262,93795,Liya Onemaelangka,74.07.05.2026,Wangi Wangi Selatan,Kabupaten,Wakatobi,Sulawesi Tenggara
263,93795,Liya Togo,74.07.05.2022,Wangi Wangi Selatan,Kabupaten,Wakatobi,Sulawesi Tenggara
264,93795,Mandati I,74.07.05.1017,Wangi Wangi Selatan,Kabupaten,Wakatobi,Sulawesi Tenggara
265,93795,Mandati II,74.07.05.1016,Wangi Wangi Selatan,Kabupaten,Wakatobi,Sulawesi Tenggara
266,93795,Mandati III,74.07.05.1025,Wangi Wangi Selatan,Kabupaten,Wakatobi,Sulawesi Tenggara
267,93795,Matahora (Metohora),74.07.05.2014,Wangi Wangi Selatan,Kabupaten,Wakatobi,Sulawesi Tenggara
268,93795,Mola Bahari,74.07.05.2029,Wangi Wangi Selatan,Kabupaten,Wakatobi,Sulawesi Tenggara
269,93795,Mola Nelayan Bhakti,74.07.05.2030,Wangi Wangi Selatan,Kabupaten,Wakatobi,Sulawesi Tenggara
270,93795,Mola Samaturu,74.07.05.2028,Wangi Wangi Selatan,Kabupaten,Wakatobi,Sulawesi Tenggara
271,93795,Mola Selatan,74.07.05.2019,Wangi Wangi Selatan,Kabupaten,Wakatobi,Sulawesi Tenggara
272,93795,Mola Utara,74.07.05.2018,Wangi Wangi Selatan,Kabupaten,Wakatobi,Sulawesi Tenggara
273,93795,Numana,74.07.05.2020,Wangi Wangi Selatan,Kabupaten,Wakatobi,Sulawesi Tenggara
274,93795,Wisata Kolo (Wisata Koto),74.07.05.2027,Wangi Wangi Selatan,Kabupaten,Wakatobi,Sulawesi Tenggara
275,93795,Wungka,74.07.05.2013,Wangi Wangi Selatan,Kabupaten,Wakatobi,Sulawesi Tenggara
276,93791,Koroe Onawa (Koroe Onawe),74.07.01.2030,Wangi Wangi,Kabupaten,Wakatobi,Sulawesi Tenggara
277,93791,Longa,74.07.01.2013,Wangi Wangi,Kabupaten,Wakatobi,Sulawesi Tenggara
278,93791,Maleko,74.07.01.2009,Wangi Wangi,Kabupaten,Wakatobi,Sulawesi Tenggara
279,93791,Pada Raya Makmur,74.07.01.2022,Wangi Wangi,Kabupaten,Wakatobi,Sulawesi Tenggara
280,93791,Patuno,74.07.01.2024,Wangi Wangi,Kabupaten,Wakatobi,Sulawesi Tenggara
281,93791,Pongo,74.07.01.1002,Wangi Wangi,Kabupaten,Wakatobi,Sulawesi Tenggara
282,93791,Pookambua,74.07.01.2032,Wangi Wangi,Kabupaten,Wakatobi,Sulawesi Tenggara
283,93791,Posalu,74.07.01.2029,Wangi Wangi,Kabupaten,Wakatobi,Sulawesi Tenggara
284,93791,Sombu,74.07.01.2005,Wangi Wangi,Kabupaten,Wakatobi,Sulawesi Tenggara
285,93791,Tindoi,74.07.01.2008,Wangi Wangi,Kabupaten,Wakatobi,Sulawesi Tenggara
286,93791,Tindoi Timur,74.07.01.2028,Wangi Wangi,Kabupaten,Wakatobi,Sulawesi Tenggara
287,93791,Waelumu,74.07.01.2023,Wangi Wangi,Kabupaten,Wakatobi,Sulawesi Tenggara
288,93791,Waetuno,74.07.01.1007,Wangi Wangi,Kabupaten,Wakatobi,Sulawesi Tenggara
289,93791,Waginopo,74.07.01.2027,Wangi Wangi,Kabupaten,Wakatobi,Sulawesi Tenggara
290,93791,Waha,74.07.01.2006,Wangi Wangi,Kabupaten,Wakatobi,Sulawesi Tenggara
291,93791,Wanci,74.07.01.1003,Wangi Wangi,Kabupaten,Wakatobi,Sulawesi Tenggara
292,93791,Wandoka,74.07.01.1004,Wangi Wangi,Kabupaten,Wakatobi,Sulawesi Tenggara
293,93791,Wandoka Selatan,74.07.01.1026,Wangi Wangi,Kabupaten,Wakatobi,Sulawesi Tenggara
294,93791,Wandoka Utara,74.07.01.1025,Wangi Wangi,Kabupaten,Wakatobi,Sulawesi Tenggara
295,93791,Wapia-pia,74.07.01.2031,Wangi Wangi,Kabupaten,Wakatobi,Sulawesi Tenggara
296,93671,Laba Jaya,74.10.06.2013,Wakorumba Utara,Kabupaten,Buton Utara,Sulawesi Tenggara
297,93671,Labaraga,74.10.06.2006,Wakorumba Utara,Kabupaten,Buton Utara,Sulawesi Tenggara
298,93671,Labuan,74.10.06.1007,Wakorumba Utara,Kabupaten,Buton Utara,Sulawesi Tenggara
299,93671,Labuan Bajo,74.10.06.2005,Wakorumba Utara,Kabupaten,Buton Utara,Sulawesi Tenggara
300,93671,Labuan Walio,74.10.06.1008,Wakorumba Utara,Kabupaten,Buton Utara,Sulawesi Tenggara
301,93671,Labuko,74.10.06.2012,Wakorumba Utara,Kabupaten,Buton Utara,Sulawesi Tenggara
302,93671,Laea,74.10.06.2002,Wakorumba Utara,Kabupaten,Buton Utara,Sulawesi Tenggara
303,93671,Lasiwa,74.10.06.2001,Wakorumba Utara,Kabupaten,Buton Utara,Sulawesi Tenggara
304,93671,Matalagi,74.10.06.2003,Wakorumba Utara,Kabupaten,Buton Utara,Sulawesi Tenggara
305,93671,Oengkapala,74.10.06.2011,Wakorumba Utara,Kabupaten,Buton Utara,Sulawesi Tenggara
306,93671,Sumampeno,74.10.06.2010,Wakorumba Utara,Kabupaten,Buton Utara,Sulawesi Tenggara
307,93671,Wamorapa,74.10.06.2009,Wakorumba Utara,Kabupaten,Buton Utara,Sulawesi Tenggara
308,93671,Wantulasi,74.10.06.2004,Wakorumba Utara,Kabupaten,Buton Utara,Sulawesi Tenggara
309,93681,Bhakealu (Bakealu),74.03.13.2004,Wakorumba Selatan,Kabupaten,Muna,Sulawesi Tenggara
310,93681,Labunia,74.03.13.1003,Wakorumba Selatan,Kabupaten,Muna,Sulawesi Tenggara
311,93681,Pure,74.03.13.2005,Wakorumba Selatan,Kabupaten,Muna,Sulawesi Tenggara
312,93681,Wakorumba,74.03.13.2006,Wakorumba Selatan,Kabupaten,Muna,Sulawesi Tenggara
313,93681,Wambona,74.03.13.2001,Wakorumba Selatan,Kabupaten,Muna,Sulawesi Tenggara
314,93652,Kampani,74.13.04.2007,Wadaga,Kabupaten,Muna Barat,Sulawesi Tenggara
315,93652,Katobu,74.13.04.2005,Wadaga,Kabupaten,Muna Barat,Sulawesi Tenggara
316,93652,Lailangga,74.13.04.2001,Wadaga,Kabupaten,Muna Barat,Sulawesi Tenggara
317,93652,Lakanaha,74.13.04.2004,Wadaga,Kabupaten,Muna Barat,Sulawesi Tenggara
318,93652,Lasosodo,74.13.04.2002,Wadaga,Kabupaten,Muna Barat,Sulawesi Tenggara
319,93652,Lindo,74.13.04.2006,Wadaga,Kabupaten,Muna Barat,Sulawesi Tenggara
320,93652,Wakontu,74.13.04.2003,Wadaga,Kabupaten,Muna Barat,Sulawesi Tenggara
321,93753,Bajo Bahari,74.04.29.2007,Wabula,Kabupaten,Buton,Sulawesi Tenggara
322,93753,Holimombo,74.04.29.2004,Wabula,Kabupaten,Buton,Sulawesi Tenggara
323,93753,Koholimembona (Koholimombona),74.04.29.2005,Wabula,Kabupaten,Buton,Sulawesi Tenggara
324,93753,Wabula,74.04.29.2002,Wabula,Kabupaten,Buton,Sulawesi Tenggara
325,93753,Wabula Satu,74.04.29.2006,Wabula,Kabupaten,Buton,Sulawesi Tenggara
326,93753,Wasampela,74.04.29.2003,Wabula,Kabupaten,Buton,Sulawesi Tenggara
327,93753,Wasuemba,74.04.29.2001,Wabula,Kabupaten,Buton,Sulawesi Tenggara
328,93413,Ambekairi,74.02.02.1004,Unaaha,Kabupaten,Konawe,Sulawesi Tenggara
329,93412,Arombu,74.02.02.1005,Unaaha,Kabupaten,Konawe,Sulawesi Tenggara
330,93416,Asambu,74.02.02.1016,Unaaha,Kabupaten,Konawe,Sulawesi Tenggara
331,93416,Asinua,74.02.02.1006,Unaaha,Kabupaten,Konawe,Sulawesi Tenggara
332,93416,Inolobunggadue,74.02.02.1015,Unaaha,Kabupaten,Konawe,Sulawesi Tenggara
333,93414,Latoma,74.02.02.1003,Unaaha,Kabupaten,Konawe,Sulawesi Tenggara
334,93411,Puunaaha,74.02.02.1001,Unaaha,Kabupaten,Konawe,Sulawesi Tenggara
335,93416,Tobeu,74.02.02.1017,Unaaha,Kabupaten,Konawe,Sulawesi Tenggara
336,93411,Tumpas,74.02.02.1002,Unaaha,Kabupaten,Konawe,Sulawesi Tenggara
337,93415,Tuoy,74.02.02.1012,Unaaha,Kabupaten,Konawe,Sulawesi Tenggara
338,93418,Unaaha,74.02.02.1013,Unaaha,Kabupaten,Konawe,Sulawesi Tenggara
339,93416,Wawonggole,74.02.02.1011,Unaaha,Kabupaten,Konawe,Sulawesi Tenggara
340,93574,Amokuni,74.11.08.2014,Uluiwoi,Kabupaten,Kolaka Timur,Sulawesi Tenggara
341,93574,Amololu,74.11.08.2018,Uluiwoi,Kabupaten,Kolaka Timur,Sulawesi Tenggara
342,93574,Aukora,74.11.08.2019,Uluiwoi,Kabupaten,Kolaka Timur,Sulawesi Tenggara
343,93574,Lalombai (Lalombaia),74.11.08.2010,Uluiwoi,Kabupaten,Kolaka Timur,Sulawesi Tenggara
344,93574,Pehanggo,74.11.08.2003,Uluiwoi,Kabupaten,Kolaka Timur,Sulawesi Tenggara
345,93574,Sanggona,74.11.08.1006,Uluiwoi,Kabupaten,Kolaka Timur,Sulawesi Tenggara
346,93574,Tawanga,74.11.08.2005,Uluiwoi,Kabupaten,Kolaka Timur,Sulawesi Tenggara
347,93574,Tondowatu,74.11.08.2004,Uluiwoi,Kabupaten,Kolaka Timur,Sulawesi Tenggara
348,93574,Uete,74.11.08.2007,Uluiwoi,Kabupaten,Kolaka Timur,Sulawesi Tenggara
349,93574,Undolo,74.11.08.2008,Uluiwoi,Kabupaten,Kolaka Timur,Sulawesi Tenggara
350,93466,Amaroa,74.02.18.2009,Uepai,Kabupaten,Konawe,Sulawesi Tenggara
351,93466,Ameroro,74.02.18.2002,Uepai,Kabupaten,Konawe,Sulawesi Tenggara
352,93466,Anggawo,74.02.18.2015,Uepai,Kabupaten,Konawe,Sulawesi Tenggara
353,93466,Anggopiu,74.02.18.2011,Uepai,Kabupaten,Konawe,Sulawesi Tenggara
354,93466,Baruga,74.02.18.2008,Uepai,Kabupaten,Konawe,Sulawesi Tenggara
355,93466,Humboto,74.02.18.2013,Uepai,Kabupaten,Konawe,Sulawesi Tenggara
356,93466,Kasaeda,74.02.18.2016,Uepai,Kabupaten,Konawe,Sulawesi Tenggara
357,93466,Langgomea,74.02.18.2006,Uepai,Kabupaten,Konawe,Sulawesi Tenggara
358,93466,Matahoalu,74.02.18.2005,Uepai,Kabupaten,Konawe,Sulawesi Tenggara
359,93466,Olo-Oloho (Alo-Oloho),74.02.18.2004,Uepai,Kabupaten,Konawe,Sulawesi Tenggara
360,93466,Panggulawu,74.02.18.2018,Uepai,Kabupaten,Konawe,Sulawesi Tenggara
361,93466,Puuroda Jaya,74.02.18.2019,Uepai,Kabupaten,Konawe,Sulawesi Tenggara
362,93466,Rawua,74.02.18.2007,Uepai,Kabupaten,Konawe,Sulawesi Tenggara
363,93466,Tamesandi,74.02.18.2012,Uepai,Kabupaten,Konawe,Sulawesi Tenggara
364,93466,Tanggondipo (Tanggodipo),74.02.18.2017,Uepai,Kabupaten,Konawe,Sulawesi Tenggara
365,93466,Tawamelewe,74.02.18.2010,Uepai,Kabupaten,Konawe,Sulawesi Tenggara
366,93466,Tawarotebota,74.02.18.2003,Uepai,Kabupaten,Konawe,Sulawesi Tenggara
367,93466,Uepai,74.02.18.1001,Uepai,Kabupaten,Konawe,Sulawesi Tenggara
368,93575,Ahilulu (Ahilolu),74.11.11.2007,Ueesi,Kabupaten,Kolaka Timur,Sulawesi Tenggara
369,93575,Alaaha,74.11.11.2008,Ueesi,Kabupaten,Kolaka Timur,Sulawesi Tenggara
370,93575,Konawendepiha,74.11.11.2003,Ueesi,Kabupaten,Kolaka Timur,Sulawesi Tenggara
371,93575,Likuwalanapo,74.11.11.2009,Ueesi,Kabupaten,Kolaka Timur,Sulawesi Tenggara
372,93575,Porabua,74.11.11.2004,Ueesi,Kabupaten,Kolaka Timur,Sulawesi Tenggara
373,93575,Puurau,74.11.11.2011,Ueesi,Kabupaten,Kolaka Timur,Sulawesi Tenggara
374,93575,Silui,74.11.11.2006,Ueesi,Kabupaten,Kolaka Timur,Sulawesi Tenggara
375,93575,Tongauna,74.11.11.2010,Ueesi,Kabupaten,Kolaka Timur,Sulawesi Tenggara
376,93575,Ueesi,74.11.11.2001,Ueesi,Kabupaten,Kolaka Timur,Sulawesi Tenggara
377,93575,Watumendonga,74.11.11.2005,Ueesi,Kabupaten,Kolaka Timur,Sulawesi Tenggara
378,93575,Wesinggote,74.11.11.2002,Ueesi,Kabupaten,Kolaka Timur,Sulawesi Tenggara
379,93623,Bhontu-Bhontu,74.03.37.2005,Towea,Kabupaten,Muna,Sulawesi Tenggara
380,93623,Lakarama,74.03.37.2002,Towea,Kabupaten,Muna,Sulawesi Tenggara
381,93623,Moasi,74.03.37.2003,Towea,Kabupaten,Muna,Sulawesi Tenggara
382,93623,Renda,74.03.37.2004,Towea,Kabupaten,Muna,Sulawesi Tenggara
383,93623,Wangkolabu,74.03.37.2001,Towea,Kabupaten,Muna,Sulawesi Tenggara
384,93789,Puu Wonua,74.06.20.2005,Tontonunu,Kabupaten,Bombana,Sulawesi Tenggara
385,93789,Tete Haka,74.06.20.2003,Tontonunu,Kabupaten,Bombana,Sulawesi Tenggara
386,93789,Tongkoseng,74.06.20.2002,Tontonunu,Kabupaten,Bombana,Sulawesi Tenggara
387,93789,Tontonunu,74.06.20.2001,Tontonunu,Kabupaten,Bombana,Sulawesi Tenggara
388,93789,Watu Melomba,74.06.20.2004,Tontonunu,Kabupaten,Bombana,Sulawesi Tenggara
389,93665,Katumpu,74.03.32.1001,Tongkuno Selatan,Kabupaten,Muna,Sulawesi Tenggara
390,93665,Kulidawa (Kalidawa),74.03.32.2003,Tongkuno Selatan,Kabupaten,Muna,Sulawesi Tenggara
391,93665,Labasa,74.03.32.2004,Tongkuno Selatan,Kabupaten,Muna,Sulawesi Tenggara
392,93665,Lianosa,74.03.32.2006,Tongkuno Selatan,Kabupaten,Muna,Sulawesi Tenggara
393,93665,Owe Waungka,74.03.32.2005,Tongkuno Selatan,Kabupaten,Muna,Sulawesi Tenggara
394,93665,Waale-ale (Waleale),74.03.32.2002,Tongkuno Selatan,Kabupaten,Muna,Sulawesi Tenggara
395,93662,Danagoa,74.03.27.1005,Tongkuno,Kabupaten,Muna,Sulawesi Tenggara
396,93662,Fongkaniwa,74.03.27.2016,Tongkuno,Kabupaten,Muna,Sulawesi Tenggara
397,93662,Kontumolepe,74.03.27.1007,Tongkuno,Kabupaten,Muna,Sulawesi Tenggara
398,93662,Kotano Wuna,74.03.27.2019,Tongkuno,Kabupaten,Muna,Sulawesi Tenggara
399,93662,Laano Sandana,74.03.27.2009,Tongkuno,Kabupaten,Muna,Sulawesi Tenggara
400,93662,Laghontoghe / Lahontohe,74.03.27.2004,Tongkuno,Kabupaten,Muna,Sulawesi Tenggara
401,93662,Lakologou,74.03.27.2006,Tongkuno,Kabupaten,Muna,Sulawesi Tenggara
402,93662,Lamorende,74.03.27.2003,Tongkuno,Kabupaten,Muna,Sulawesi Tenggara
403,93662,Matanooe (Matano Oe),74.03.27.2017,Tongkuno,Kabupaten,Muna,Sulawesi Tenggara
404,93662,Oeno Kandoli,74.03.27.2014,Tongkuno,Kabupaten,Muna,Sulawesi Tenggara
405,93662,Tombula,74.03.27.1008,Tongkuno,Kabupaten,Muna,Sulawesi Tenggara
406,93662,Walengkabhola,74.03.27.2015,Tongkuno,Kabupaten,Muna,Sulawesi Tenggara
407,93460,Ambopi,74.02.42.2005,Tongauna Utara,Kabupaten,Konawe,Sulawesi Tenggara
408,93460,Andalambe,74.02.42.2010,Tongauna Utara,Kabupaten,Konawe,Sulawesi Tenggara
409,93460,Anggohu,74.02.42.2004,Tongauna Utara,Kabupaten,Konawe,Sulawesi Tenggara
410,93460,Barowila,74.02.42.2009,Tongauna Utara,Kabupaten,Konawe,Sulawesi Tenggara
411,93460,Nambeaboru,74.02.42.2006,Tongauna Utara,Kabupaten,Konawe,Sulawesi Tenggara
412,93460,Olo Onua,74.02.42.2008,Tongauna Utara,Kabupaten,Konawe,Sulawesi Tenggara
413,93460,Puundombi (Puundopi),74.02.42.2007,Tongauna Utara,Kabupaten,Konawe,Sulawesi Tenggara
414,93460,Sanuanggamo,74.02.42.2003,Tongauna Utara,Kabupaten,Konawe,Sulawesi Tenggara
415,93460,Uluao,74.02.42.2002,Tongauna Utara,Kabupaten,Konawe,Sulawesi Tenggara
416,93460,Waworoda Jaya,74.02.42.2001,Tongauna Utara,Kabupaten,Konawe,Sulawesi Tenggara
417,93460,Ambepulu,74.02.15.2018,Tongauna,Kabupaten,Konawe,Sulawesi Tenggara
418,93460,Andeposandu (Andeposunde),74.02.15.2012,Tongauna,Kabupaten,Konawe,Sulawesi Tenggara
419,93460,Asao,74.02.15.2007,Tongauna,Kabupaten,Konawe,Sulawesi Tenggara
420,93460,Lalonggowuna,74.02.15.2006,Tongauna,Kabupaten,Konawe,Sulawesi Tenggara
421,93460,Mata Iwoi,74.02.15.1002,Tongauna,Kabupaten,Konawe,Sulawesi Tenggara
422,93460,Mekar Sari,74.02.15.1005,Tongauna,Kabupaten,Konawe,Sulawesi Tenggara
423,93460,Momea,74.02.15.2013,Tongauna,Kabupaten,Konawe,Sulawesi Tenggara
424,93460,Puosu,74.02.15.1003,Tongauna,Kabupaten,Konawe,Sulawesi Tenggara
425,93460,Sendang Mulya Sari,74.02.15.1004,Tongauna,Kabupaten,Konawe,Sulawesi Tenggara
426,93460,Tongauna,74.02.15.1001,Tongauna,Kabupaten,Konawe,Sulawesi Tenggara
427,93797,Bahari,74.07.07.1003,Tomia Timur,Kabupaten,Wakatobi,Sulawesi Tenggara
428,93797,Dete,74.07.07.2006,Tomia Timur,Kabupaten,Wakatobi,Sulawesi Tenggara
429,93797,Kahiyanga (Kahianga),74.07.07.2009,Tomia Timur,Kabupaten,Wakatobi,Sulawesi Tenggara
430,93797,Kulati (Kulate),74.07.07.2007,Tomia Timur,Kabupaten,Wakatobi,Sulawesi Tenggara
431,93797,Patipelong,74.07.07.1001,Tomia Timur,Kabupaten,Wakatobi,Sulawesi Tenggara
432,93797,Rukuwa,74.07.07.1011,Tomia Timur,Kabupaten,Wakatobi,Sulawesi Tenggara
433,93797,Timu,74.07.07.2005,Tomia Timur,Kabupaten,Wakatobi,Sulawesi Tenggara
434,93797,Tongano Barat,74.07.07.1002,Tomia Timur,Kabupaten,Wakatobi,Sulawesi Tenggara
435,93797,Tongano Timur,74.07.07.1004,Tomia Timur,Kabupaten,Wakatobi,Sulawesi Tenggara
436,93797,Wawaotimu (Wawotimu),74.07.07.2008,Tomia Timur,Kabupaten,Wakatobi,Sulawesi Tenggara
437,93793,Kollo Soha,74.07.03.2018,Tomia,Kabupaten,Wakatobi,Sulawesi Tenggara
438,93793,Lamanggau,74.07.03.2003,Tomia,Kabupaten,Wakatobi,Sulawesi Tenggara
439,93793,Onemay,74.07.03.1016,Tomia,Kabupaten,Wakatobi,Sulawesi Tenggara
440,93793,Patua,74.07.03.2015,Tomia,Kabupaten,Wakatobi,Sulawesi Tenggara
441,93793,Patua Dua (II),74.07.03.2019,Tomia,Kabupaten,Wakatobi,Sulawesi Tenggara
442,93793,Runduma,74.07.03.2012,Tomia,Kabupaten,Wakatobi,Sulawesi Tenggara
443,93793,Teemoane,74.07.03.2017,Tomia,Kabupaten,Wakatobi,Sulawesi Tenggara
444,93793,Waha,74.07.03.1001,Tomia,Kabupaten,Wakatobi,Sulawesi Tenggara
445,93793,Waiti (Waitii),74.07.03.2004,Tomia,Kabupaten,Wakatobi,Sulawesi Tenggara
446,93793,Waitii Barat,74.07.03.2002,Tomia,Kabupaten,Wakatobi,Sulawesi Tenggara
447,93951,Bahari,74.08.15.2004,Tolala,Kabupaten,Kolaka Utara,Sulawesi Tenggara
448,93951,Lawaki Jaya,74.08.15.2001,Tolala,Kabupaten,Kolaka Utara,Sulawesi Tenggara
449,93951,Leleulu (Lelewulu),74.08.15.2005,Tolala,Kabupaten,Kolaka Utara,Sulawesi Tenggara
450,93951,Loka,74.08.15.2006,Tolala,Kabupaten,Kolaka Utara,Sulawesi Tenggara
451,93951,Patikala,74.08.15.2002,Tolala,Kabupaten,Kolaka Utara,Sulawesi Tenggara
452,93951,Tolala,74.08.15.2003,Tolala,Kabupaten,Kolaka Utara,Sulawesi Tenggara
453,93796,Haka,74.07.08.2005,Togo Binongko,Kabupaten,Wakatobi,Sulawesi Tenggara
454,93796,Oihu,74.07.08.2002,Togo Binongko,Kabupaten,Wakatobi,Sulawesi Tenggara
455,93796,Popalia,74.07.08.1004,Togo Binongko,Kabupaten,Wakatobi,Sulawesi Tenggara
456,93796,Sowa,74.07.08.1003,Togo Binongko,Kabupaten,Wakatobi,Sulawesi Tenggara
457,93796,Waloindi,74.07.08.2001,Togo Binongko,Kabupaten,Wakatobi,Sulawesi Tenggara
458,93565,Anawua,74.01.24.2004,Toari,Kabupaten,Kolaka,Sulawesi Tenggara
459,93565,Horongkuli,74.01.24.2010,Toari,Kabupaten,Kolaka,Sulawesi Tenggara
460,93565,Lakito,74.01.24.2002,Toari,Kabupaten,Kolaka,Sulawesi Tenggara
461,93565,Rahabite,74.01.24.2007,Toari,Kabupaten,Kolaka,Sulawesi Tenggara
462,93565,Rano jaya,74.01.24.2006,Toari,Kabupaten,Kolaka,Sulawesi Tenggara
463,93565,Rano Sangia,74.01.24.2009,Toari,Kabupaten,Kolaka,Sulawesi Tenggara
464,93565,Ranomentaa,74.01.24.1003,Toari,Kabupaten,Kolaka,Sulawesi Tenggara
465,93565,Toari,74.01.24.2001,Toari,Kabupaten,Kolaka,Sulawesi Tenggara
466,93565,Wonua Raya,74.01.24.2008,Toari,Kabupaten,Kolaka,Sulawesi Tenggara
467,93565,Wowoli,74.01.24.2005,Toari,Kabupaten,Kolaka,Sulawesi Tenggara
468,93963,Lapolu,74.08.14.2006,Tiwu,Kabupaten,Kolaka Utara,Sulawesi Tenggara
469,93963,Lawadia,74.08.14.2002,Tiwu,Kabupaten,Kolaka Utara,Sulawesi Tenggara
470,93963,Mattiro Bulu,74.08.14.2001,Tiwu,Kabupaten,Kolaka Utara,Sulawesi Tenggara
471,93963,Tahibua,74.08.14.2005,Tiwu,Kabupaten,Kolaka Utara,Sulawesi Tenggara
472,93963,Tanggeawo (Tanggeau),74.08.14.2007,Tiwu,Kabupaten,Kolaka Utara,Sulawesi Tenggara
473,93963,Tiwu,74.08.14.2004,Tiwu,Kabupaten,Kolaka Utara,Sulawesi Tenggara
474,93963,Watumea,74.08.14.2003,Tiwu,Kabupaten,Kolaka Utara,Sulawesi Tenggara
475,93656,Bero,74.13.08.2003,Tiworo Utara,Kabupaten,Muna Barat,Sulawesi Tenggara
476,93656,Mandike,74.13.08.2002,Tiworo Utara,Kabupaten,Muna Barat,Sulawesi Tenggara
477,93656,Santigi,74.13.08.2004,Tiworo Utara,Kabupaten,Muna Barat,Sulawesi Tenggara
478,93656,Santiri,74.13.08.2006,Tiworo Utara,Kabupaten,Muna Barat,Sulawesi Tenggara
479,93656,Tasipi,74.13.08.2001,Tiworo Utara,Kabupaten,Muna Barat,Sulawesi Tenggara
480,93656,Tiga,74.13.08.2007,Tiworo Utara,Kabupaten,Muna Barat,Sulawesi Tenggara
481,93656,Tondasi,74.13.08.2005,Tiworo Utara,Kabupaten,Muna Barat,Sulawesi Tenggara
482,93654,Labukolo,74.13.07.2002,Tiworo Tengah,Kabupaten,Muna Barat,Sulawesi Tenggara
483,93654,Lakabu,74.13.07.2007,Tiworo Tengah,Kabupaten,Muna Barat,Sulawesi Tenggara
484,93654,Langku Langku,74.13.07.2003,Tiworo Tengah,Kabupaten,Muna Barat,Sulawesi Tenggara
485,93654,Mekar Jaya,74.13.07.2004,Tiworo Tengah,Kabupaten,Muna Barat,Sulawesi Tenggara
486,93654,Momuntu,74.13.07.2006,Tiworo Tengah,Kabupaten,Muna Barat,Sulawesi Tenggara
487,93654,Suka Damai (Sukadamai),74.13.07.2008,Tiworo Tengah,Kabupaten,Muna Barat,Sulawesi Tenggara
488,93654,Wanseriwu,74.13.07.2001,Tiworo Tengah,Kabupaten,Muna Barat,Sulawesi Tenggara
489,93654,Wapae Jaya,74.13.07.2005,Tiworo Tengah,Kabupaten,Muna Barat,Sulawesi Tenggara
490,93644,Barakkah (Barakka),74.13.05.2005,Tiworo Selatan,Kabupaten,Muna Barat,Sulawesi Tenggara
491,93644,Kasimpa Jaya,74.13.05.2003,Tiworo Selatan,Kabupaten,Muna Barat,Sulawesi Tenggara
492,93644,Katangana,74.13.05.2002,Tiworo Selatan,Kabupaten,Muna Barat,Sulawesi Tenggara
493,93644,Parura Jaya,74.13.05.2001,Tiworo Selatan,Kabupaten,Muna Barat,Sulawesi Tenggara
494,93644,Sangia Tiworo,74.13.05.2004,Tiworo Selatan,Kabupaten,Muna Barat,Sulawesi Tenggara
495,93653,Katela,74.13.09.2001,Tiworo Kepulauan,Kabupaten,Muna Barat,Sulawesi Tenggara
496,93653,Lasama,74.13.09.2002,Tiworo Kepulauan,Kabupaten,Muna Barat,Sulawesi Tenggara
497,93653,Laworo,74.13.09.2007,Tiworo Kepulauan,Kabupaten,Muna Barat,Sulawesi Tenggara
498,93653,Sido Makmur,74.13.09.2003,Tiworo Kepulauan,Kabupaten,Muna Barat,Sulawesi Tenggara
499,93653,Tiworo,74.13.09.1005,Tiworo Kepulauan,Kabupaten,Muna Barat,Sulawesi Tenggara
500,93653,Wandoke,74.13.09.2009,Tiworo Kepulauan,Kabupaten,Muna Barat,Sulawesi Tenggara
501,93653,Waturempe,74.13.09.2006,Tiworo Kepulauan,Kabupaten,Muna Barat,Sulawesi Tenggara
502,93653,Waumere,74.13.09.1004,Tiworo Kepulauan,Kabupaten,Muna Barat,Sulawesi Tenggara
503,93653,Wulanga Jaya,74.13.09.2008,Tiworo Kepulauan,Kabupaten,Muna Barat,Sulawesi Tenggara
504,93582,Karemotingge,74.11.01.2015,Tirawuta,Kabupaten,Kolaka Timur,Sulawesi Tenggara
505,93582,Lalingato,74.11.01.2010,Tirawuta,Kabupaten,Kolaka Timur,Sulawesi Tenggara
506,93582,Lara,74.11.01.2007,Tirawuta,Kabupaten,Kolaka Timur,Sulawesi Tenggara
507,93582,Loka,74.11.01.2013,Tirawuta,Kabupaten,Kolaka Timur,Sulawesi Tenggara
508,93582,Matabondu,74.11.01.2014,Tirawuta,Kabupaten,Kolaka Timur,Sulawesi Tenggara
509,93582,Orawa,74.11.01.2009,Tirawuta,Kabupaten,Kolaka Timur,Sulawesi Tenggara
510,93582,Poni Poniki,74.11.01.2003,Tirawuta,Kabupaten,Kolaka Timur,Sulawesi Tenggara
511,93582,Rate Rate,74.11.01.1002,Tirawuta,Kabupaten,Kolaka Timur,Sulawesi Tenggara
512,93582,Roko Roko,74.11.01.2012,Tirawuta,Kabupaten,Kolaka Timur,Sulawesi Tenggara
513,93582,Simbune,74.11.01.2001,Tirawuta,Kabupaten,Kolaka Timur,Sulawesi Tenggara
514,93582,Tababu,74.11.01.1016,Tirawuta,Kabupaten,Kolaka Timur,Sulawesi Tenggara
515,93582,Tasahea,74.11.01.2006,Tirawuta,Kabupaten,Kolaka Timur,Sulawesi Tenggara
516,93582,Tawainalu,74.11.01.2004,Tirawuta,Kabupaten,Kolaka Timur,Sulawesi Tenggara
517,93582,Tirawuta,74.11.01.2011,Tirawuta,Kabupaten,Kolaka Timur,Sulawesi Tenggara
518,93582,Tumbudadio,74.11.01.2008,Tirawuta,Kabupaten,Kolaka Timur,Sulawesi Tenggara
519,93582,Woiha,74.11.01.2005,Tirawuta,Kabupaten,Kolaka Timur,Sulawesi Tenggara
520,93570,Ambapa,74.11.09.2003,Tinondo,Kabupaten,Kolaka Timur,Sulawesi Tenggara
521,93570,Ameroro,74.11.09.2004,Tinondo,Kabupaten,Kolaka Timur,Sulawesi Tenggara
522,93570,Iwoimea,74.11.09.2012,Tinondo,Kabupaten,Kolaka Timur,Sulawesi Tenggara
523,93570,Lamunde,74.11.09.2005,Tinondo,Kabupaten,Kolaka Timur,Sulawesi Tenggara
524,93570,Singgere,74.11.09.2010,Tinondo,Kabupaten,Kolaka Timur,Sulawesi Tenggara
525,93570,Solewatu,74.11.09.2002,Tinondo,Kabupaten,Kolaka Timur,Sulawesi Tenggara
526,93570,Talata,74.11.09.2007,Tinondo,Kabupaten,Kolaka Timur,Sulawesi Tenggara
527,93570,Tawa-tawaro,74.11.09.2009,Tinondo,Kabupaten,Kolaka Timur,Sulawesi Tenggara
528,93570,Tawarombadaka,74.11.09.2006,Tinondo,Kabupaten,Kolaka Timur,Sulawesi Tenggara
529,93570,Tinengi,74.11.09.1001,Tinondo,Kabupaten,Kolaka Timur,Sulawesi Tenggara
530,93570,Tutuwi,74.11.09.2011,Tinondo,Kabupaten,Kolaka Timur,Sulawesi Tenggara
531,93570,Weamo,74.11.09.2008,Tinondo,Kabupaten,Kolaka Timur,Sulawesi Tenggara
532,93886,Akuni,74.05.01.2036,Tinanggea,Kabupaten,Konawe Selatan,Sulawesi Tenggara
533,93886,Asingi,74.05.01.2006,Tinanggea,Kabupaten,Konawe Selatan,Sulawesi Tenggara
534,93886,Bomba-bomba,74.05.01.2035,Tinanggea,Kabupaten,Konawe Selatan,Sulawesi Tenggara
535,93886,Bungin Permai,74.05.01.2010,Tinanggea,Kabupaten,Konawe Selatan,Sulawesi Tenggara
536,93886,Lalo Watu,74.05.01.2030,Tinanggea,Kabupaten,Konawe Selatan,Sulawesi Tenggara
537,93886,Lalonggasu,74.05.01.2019,Tinanggea,Kabupaten,Konawe Selatan,Sulawesi Tenggara
538,93886,Lanowulu,74.05.01.2029,Tinanggea,Kabupaten,Konawe Selatan,Sulawesi Tenggara
539,93886,Lapoa,74.05.01.2003,Tinanggea,Kabupaten,Konawe Selatan,Sulawesi Tenggara
540,93886,Lapulu,74.05.01.2024,Tinanggea,Kabupaten,Konawe Selatan,Sulawesi Tenggara
541,93886,Lasuai,74.05.01.2037,Tinanggea,Kabupaten,Konawe Selatan,Sulawesi Tenggara
542,93886,Matambawi,74.05.01.2038,Tinanggea,Kabupaten,Konawe Selatan,Sulawesi Tenggara
543,93886,Matandahi,74.05.01.2039,Tinanggea,Kabupaten,Konawe Selatan,Sulawesi Tenggara
544,93886,Moolo Indah,74.05.01.2020,Tinanggea,Kabupaten,Konawe Selatan,Sulawesi Tenggara
545,93886,Ngapaah (Ngapaaha),74.05.01.1002,Tinanggea,Kabupaten,Konawe Selatan,Sulawesi Tenggara
546,93886,Palotawo (Palo Tawo),74.05.01.2014,Tinanggea,Kabupaten,Konawe Selatan,Sulawesi Tenggara
547,93886,Panggoosi,74.05.01.2034,Tinanggea,Kabupaten,Konawe Selatan,Sulawesi Tenggara
548,93886,Roraya,74.05.01.2027,Tinanggea,Kabupaten,Konawe Selatan,Sulawesi Tenggara
549,93886,Tatangge,74.05.01.2032,Tinanggea,Kabupaten,Konawe Selatan,Sulawesi Tenggara
550,93886,Telutu Jaya,74.05.01.2021,Tinanggea,Kabupaten,Konawe Selatan,Sulawesi Tenggara
551,93886,Tinanggea,74.05.01.1001,Tinanggea,Kabupaten,Konawe Selatan,Sulawesi Tenggara
552,93886,Torokeku,74.05.01.2023,Tinanggea,Kabupaten,Konawe Selatan,Sulawesi Tenggara
553,93886,Wadonggo (Wadanggo),74.05.01.2009,Tinanggea,Kabupaten,Konawe Selatan,Sulawesi Tenggara
554,93886,Watu Melewe (Watumelewe),74.05.01.2007,Tinanggea,Kabupaten,Konawe Selatan,Sulawesi Tenggara
555,93886,Wundumbolo,74.05.01.2033,Tinanggea,Kabupaten,Konawe Selatan,Sulawesi Tenggara
556,93564,Anaiwoi,74.01.18.1003,Tanggetada,Kabupaten,Kolaka,Sulawesi Tenggara
557,93564,Lalonggolosua,74.01.18.2007,Tanggetada,Kabupaten,Kolaka,Sulawesi Tenggara
558,93564,Lamedai,74.01.18.2001,Tanggetada,Kabupaten,Kolaka,Sulawesi Tenggara
559,93564,Lamoiko,74.01.18.2013,Tanggetada,Kabupaten,Kolaka,Sulawesi Tenggara
560,93564,Oneeha,74.01.18.2012,Tanggetada,Kabupaten,Kolaka,Sulawesi Tenggara
561,93564,Palewai,74.01.18.2010,Tanggetada,Kabupaten,Kolaka,Sulawesi Tenggara
562,93564,Petudua,74.01.18.2008,Tanggetada,Kabupaten,Kolaka,Sulawesi Tenggara
563,93564,Pewisoa Jaya,74.01.18.2004,Tanggetada,Kabupaten,Kolaka,Sulawesi Tenggara
564,93564,Popalia,74.01.18.2006,Tanggetada,Kabupaten,Kolaka,Sulawesi Tenggara
565,93564,Puundaipa,74.01.18.2011,Tanggetada,Kabupaten,Kolaka,Sulawesi Tenggara
566,93564,Rahanggada,74.01.18.2009,Tanggetada,Kabupaten,Kolaka,Sulawesi Tenggara
567,93564,Tanggetada,74.01.18.2002,Tanggetada,Kabupaten,Kolaka,Sulawesi Tenggara
568,93564,Tinggo,74.01.18.2014,Tanggetada,Kabupaten,Kolaka,Sulawesi Tenggara
569,93564,Tondowolio,74.01.18.2005,Tanggetada,Kabupaten,Kolaka,Sulawesi Tenggara
570,93766,Kokoe,74.14.05.2001,Talaga Raya,Kabupaten,Buton Tengah,Sulawesi Tenggara
571,93766,Liwulompona,74.14.05.2006,Talaga Raya,Kabupaten,Buton Tengah,Sulawesi Tenggara
572,93766,Pangilia,74.14.05.2007,Talaga Raya,Kabupaten,Buton Tengah,Sulawesi Tenggara
573,93766,Talaga Besar,74.14.05.2002,Talaga Raya,Kabupaten,Buton Tengah,Sulawesi Tenggara
574,93766,Talaga II (Talaga Dua),74.14.05.2003,Talaga Raya,Kabupaten,Buton Tengah,Sulawesi Tenggara
575,93766,Talaga Satu,74.14.05.1004,Talaga Raya,Kabupaten,Buton Tengah,Sulawesi Tenggara
576,93766,Wulu,74.14.05.2005,Talaga Raya,Kabupaten,Buton Tengah,Sulawesi Tenggara
577,93451,Atowatu,74.02.11.2002,Soropia,Kabupaten,Konawe,Sulawesi Tenggara
578,93451,Bajo Indah,74.02.11.2017,Soropia,Kabupaten,Konawe,Sulawesi Tenggara
579,93451,Bajoe,74.02.11.2024,Soropia,Kabupaten,Konawe,Sulawesi Tenggara
580,93451,Bokori,74.02.11.2014,Soropia,Kabupaten,Konawe,Sulawesi Tenggara
581,93451,Leppe,74.02.11.2023,Soropia,Kabupaten,Konawe,Sulawesi Tenggara
582,93451,Mekar,74.02.11.2016,Soropia,Kabupaten,Konawe,Sulawesi Tenggara
583,93451,Saponda,74.02.11.2015,Soropia,Kabupaten,Konawe,Sulawesi Tenggara
584,93451,Saponda Laut,74.02.11.2025,Soropia,Kabupaten,Konawe,Sulawesi Tenggara
585,93451,Sawapudo,74.02.11.2012,Soropia,Kabupaten,Konawe,Sulawesi Tenggara
586,93451,Soropia,74.02.11.2010,Soropia,Kabupaten,Konawe,Sulawesi Tenggara
587,93451,Sorue Jaya,74.02.11.2006,Soropia,Kabupaten,Konawe,Sulawesi Tenggara
588,93451,Tapulaga,74.02.11.2011,Soropia,Kabupaten,Konawe,Sulawesi Tenggara
589,93451,Telaga Biru,74.02.11.2022,Soropia,Kabupaten,Konawe,Sulawesi Tenggara
590,93451,Toronipa,74.02.11.1001,Soropia,Kabupaten,Konawe,Sulawesi Tenggara
591,93451,Waworaha,74.02.11.2004,Soropia,Kabupaten,Konawe,Sulawesi Tenggara
592,93731,Bugi,74.72.03.1004,Sorawolio (Sora Walio / Sorowalio),Kota,Bau Bau,Sulawesi Tenggara
593,93731,Gonda Baru,74.72.03.1003,Sorawolio (Sora Walio / Sorowalio),Kota,Bau Bau,Sulawesi Tenggara
594,93731,Kaisabu Baru,74.72.03.1001,Sorawolio (Sora Walio / Sorowalio),Kota,Bau Bau,Sulawesi Tenggara
595,93731,Karya Baru,74.72.03.1002,Sorawolio (Sora Walio / Sorowalio),Kota,Bau Bau,Sulawesi Tenggara
596,93758,Bahari Makmur,74.04.27.2011,Siotapina (Siontapia / Siontapina),Kabupaten,Buton,Sulawesi Tenggara
597,93758,Gunungjaya (Gunung Jaya),74.04.27.2010,Siotapina (Siontapia / Siontapina),Kabupaten,Buton,Sulawesi Tenggara
598,93758,Karya Jaya,74.04.27.2008,Siotapina (Siontapia / Siontapina),Kabupaten,Buton,Sulawesi Tenggara
599,93758,Kumbewaha,74.04.27.2005,Siotapina (Siontapia / Siontapina),Kabupaten,Buton,Sulawesi Tenggara
600,93758,Kuraa,74.04.27.2004,Siotapina (Siontapia / Siontapina),Kabupaten,Buton,Sulawesi Tenggara
601,93758,Labuandiri,74.04.27.2007,Siotapina (Siontapia / Siontapina),Kabupaten,Buton,Sulawesi Tenggara
602,93758,Manuru,74.04.27.2009,Siotapina (Siontapia / Siontapina),Kabupaten,Buton,Sulawesi Tenggara
603,93758,Matanauwe,74.04.27.2002,Siotapina (Siontapia / Siontapina),Kabupaten,Buton,Sulawesi Tenggara
604,93758,Sampuabalo,74.04.27.2003,Siotapina (Siontapia / Siontapina),Kabupaten,Buton,Sulawesi Tenggara
605,93758,Sumber Sari,74.04.27.2006,Siotapina (Siontapia / Siontapina),Kabupaten,Buton,Sulawesi Tenggara
606,93758,Walompo,74.04.27.2001,Siotapina (Siontapia / Siontapina),Kabupaten,Buton,Sulawesi Tenggara
607,93744,Kamoali,74.15.05.2007,Siompu Barat,Kabupaten,Buton Selatan,Sulawesi Tenggara
608,93744,Katampe,74.15.05.2005,Siompu Barat,Kabupaten,Buton Selatan,Sulawesi Tenggara
609,93744,Lalole,74.15.05.2003,Siompu Barat,Kabupaten,Buton Selatan,Sulawesi Tenggara
610,93744,Lamaninggara,74.15.05.2006,Siompu Barat,Kabupaten,Buton Selatan,Sulawesi Tenggara
611,93744,Mbanua,74.15.05.2002,Siompu Barat,Kabupaten,Buton Selatan,Sulawesi Tenggara
612,93744,Mokobeau,74.15.05.2008,Siompu Barat,Kabupaten,Buton Selatan,Sulawesi Tenggara
613,93744,Molona,74.15.05.2001,Siompu Barat,Kabupaten,Buton Selatan,Sulawesi Tenggara
614,93744,Watuampara,74.15.05.2004,Siompu Barat,Kabupaten,Buton Selatan,Sulawesi Tenggara
615,93743,Batuawu,74.15.06.2007,Siompu,Kabupaten,Buton Selatan,Sulawesi Tenggara
616,93743,Biwinapada,74.15.06.2001,Siompu,Kabupaten,Buton Selatan,Sulawesi Tenggara
617,93743,Kaimbulawa,74.15.06.2002,Siompu,Kabupaten,Buton Selatan,Sulawesi Tenggara
618,93743,Karae,74.15.06.2006,Siompu,Kabupaten,Buton Selatan,Sulawesi Tenggara
619,93743,Lapara,74.15.06.2010,Siompu,Kabupaten,Buton Selatan,Sulawesi Tenggara
620,93743,Lontoi,74.15.06.2005,Siompu,Kabupaten,Buton Selatan,Sulawesi Tenggara
621,93743,Nggulanggula,74.15.06.2008,Siompu,Kabupaten,Buton Selatan,Sulawesi Tenggara
622,93743,Tongali,74.15.06.2004,Siompu,Kabupaten,Buton Selatan,Sulawesi Tenggara
623,93743,Waindawula,74.15.06.2009,Siompu,Kabupaten,Buton Selatan,Sulawesi Tenggara
624,93743,Wakinamboro,74.15.06.2003,Siompu,Kabupaten,Buton Selatan,Sulawesi Tenggara
625,93657,Kampobalano,74.13.01.2003,Sawerigadi,Kabupaten,Muna Barat,Sulawesi Tenggara
626,93657,Lakalamba,74.13.01.2008,Sawerigadi,Kabupaten,Muna Barat,Sulawesi Tenggara
627,93657,Lawada Jaya,74.13.01.2009,Sawerigadi,Kabupaten,Muna Barat,Sulawesi Tenggara
628,93657,Lombu Jaya,74.13.01.2010,Sawerigadi,Kabupaten,Muna Barat,Sulawesi Tenggara
629,93657,Maperaha,74.13.01.2004,Sawerigadi,Kabupaten,Muna Barat,Sulawesi Tenggara
630,93657,Marobea,74.13.01.2006,Sawerigadi,Kabupaten,Muna Barat,Sulawesi Tenggara
631,93657,Nihi,74.13.01.2005,Sawerigadi,Kabupaten,Muna Barat,Sulawesi Tenggara
632,93657,Ondoke,74.13.01.2007,Sawerigadi,Kabupaten,Muna Barat,Sulawesi Tenggara
633,93657,Wakoila,74.13.01.2001,Sawerigadi,Kabupaten,Muna Barat,Sulawesi Tenggara
634,93657,Waukuni,74.13.01.2002,Sawerigadi,Kabupaten,Muna Barat,Sulawesi Tenggara
635,93357,Kokapi,74.09.07.2008,Sawa,Kabupaten,Konawe Utara,Sulawesi Tenggara
636,93357,Laimeo,74.09.07.2004,Sawa,Kabupaten,Konawe Utara,Sulawesi Tenggara
637,93357,Lalembo,74.09.07.2003,Sawa,Kabupaten,Konawe Utara,Sulawesi Tenggara
638,93357,Matanggonawe,74.09.07.2007,Sawa,Kabupaten,Konawe Utara,Sulawesi Tenggara
639,93357,Panggulawu,74.09.07.2023,Sawa,Kabupaten,Konawe Utara,Sulawesi Tenggara
640,93357,Pekaroa,74.09.07.2024,Sawa,Kabupaten,Konawe Utara,Sulawesi Tenggara
641,93357,Pudonggala,74.09.07.2005,Sawa,Kabupaten,Konawe Utara,Sulawesi Tenggara
642,93357,Pudonggala Utama,74.09.07.2016,Sawa,Kabupaten,Konawe Utara,Sulawesi Tenggara
643,93357,Puupi,74.09.07.2013,Sawa,Kabupaten,Konawe Utara,Sulawesi Tenggara
644,93357,Sawa,74.09.07.1002,Sawa,Kabupaten,Konawe Utara,Sulawesi Tenggara
645,93357,Tanjung Laimeo,74.09.07.2022,Sawa,Kabupaten,Konawe Utara,Sulawesi Tenggara
646,93357,Tongauna (Tangauna),74.09.07.2012,Sawa,Kabupaten,Konawe Utara,Sulawesi Tenggara
647,93357,Tudungano,74.09.07.2021,Sawa,Kabupaten,Konawe Utara,Sulawesi Tenggara
648,93357,Ulu Sawa,74.09.07.2017,Sawa,Kabupaten,Konawe Utara,Sulawesi Tenggara
649,93760,Baruta,74.14.07.2004,Sangia Wambulu,Kabupaten,Buton Tengah,Sulawesi Tenggara
650,93760,Baruta Analalaki (Baruta Analaki),74.14.07.2006,Sangia Wambulu,Kabupaten,Buton Tengah,Sulawesi Tenggara
651,93760,Baruta Lestari,74.14.07.2001,Sangia Wambulu,Kabupaten,Buton Tengah,Sulawesi Tenggara
652,93760,Doda Bahari,74.14.07.2003,Sangia Wambulu,Kabupaten,Buton Tengah,Sulawesi Tenggara
653,93760,Tolandona,74.14.07.1002,Sangia Wambulu,Kabupaten,Buton Tengah,Sulawesi Tenggara
654,93760,Tolandona Matanaeo,74.14.07.2007,Sangia Wambulu,Kabupaten,Buton Tengah,Sulawesi Tenggara
655,93747,Bahari,74.15.02.2010,Sampolawa,Kabupaten,Buton Selatan,Sulawesi Tenggara
656,93747,Bahari 2 (dua),74.15.02.2013,Sampolawa,Kabupaten,Buton Selatan,Sulawesi Tenggara
657,93747,Bahari 3 (tiga),74.15.02.2014,Sampolawa,Kabupaten,Buton Selatan,Sulawesi Tenggara
658,93747,Bangun,74.15.02.2001,Sampolawa,Kabupaten,Buton Selatan,Sulawesi Tenggara
659,93747,Gerak Makmur,74.15.02.2011,Sampolawa,Kabupaten,Buton Selatan,Sulawesi Tenggara
660,93747,Gunung Sejuk,74.15.02.2006,Sampolawa,Kabupaten,Buton Selatan,Sulawesi Tenggara
661,93747,Hendea,74.15.02.2008,Sampolawa,Kabupaten,Buton Selatan,Sulawesi Tenggara
662,93747,Jaya Bakti,74.15.02.1004,Sampolawa,Kabupaten,Buton Selatan,Sulawesi Tenggara
663,93747,Katilombu,74.15.02.1003,Sampolawa,Kabupaten,Buton Selatan,Sulawesi Tenggara
664,93747,Lipu Mangau,74.15.02.2012,Sampolawa,Kabupaten,Buton Selatan,Sulawesi Tenggara
665,93747,Sandang Pangan,74.15.02.2007,Sampolawa,Kabupaten,Buton Selatan,Sulawesi Tenggara
666,93747,Tira,74.15.02.2009,Sampolawa,Kabupaten,Buton Selatan,Sulawesi Tenggara
667,93747,Todombulu,74.15.02.1005,Sampolawa,Kabupaten,Buton Selatan,Sulawesi Tenggara
668,93747,Watiginanda,74.15.02.2016,Sampolawa,Kabupaten,Buton Selatan,Sulawesi Tenggara
669,93747,Wawoangi,74.15.02.2002,Sampolawa,Kabupaten,Buton Selatan,Sulawesi Tenggara
670,93747,Windu Makmur,74.15.02.2015,Sampolawa,Kabupaten,Buton Selatan,Sulawesi Tenggara
671,93458,Andadowi,74.02.05.2012,Sampara,Kabupaten,Konawe,Sulawesi Tenggara
672,93458,Andaroa,74.02.05.2008,Sampara,Kabupaten,Konawe,Sulawesi Tenggara
673,93458,Andepali,74.02.05.2006,Sampara,Kabupaten,Konawe,Sulawesi Tenggara
674,93458,Baini (Baeni),74.02.05.2036,Sampara,Kabupaten,Konawe,Sulawesi Tenggara
675,93458,Bao-bao (Boa-Boa),74.02.05.2028,Sampara,Kabupaten,Konawe,Sulawesi Tenggara
676,93458,Bondoala,74.02.05.2048,Sampara,Kabupaten,Konawe,Sulawesi Tenggara
677,93458,Konggamea (Kongga Mea),74.02.05.2052,Sampara,Kabupaten,Konawe,Sulawesi Tenggara
678,93458,Pohara,74.02.05.2041,Sampara,Kabupaten,Konawe,Sulawesi Tenggara
679,93458,Polua,74.02.05.2038,Sampara,Kabupaten,Konawe,Sulawesi Tenggara
680,93458,Puuloro,74.02.05.2009,Sampara,Kabupaten,Konawe,Sulawesi Tenggara
681,93458,Rawua,74.02.05.1007,Sampara,Kabupaten,Konawe,Sulawesi Tenggara
682,93458,Sampara,74.02.05.1001,Sampara,Kabupaten,Konawe,Sulawesi Tenggara
683,93458,Totombe Jaya,74.02.05.2027,Sampara,Kabupaten,Konawe,Sulawesi Tenggara
684,93458,Wawolimbue,74.02.05.2030,Sampara,Kabupaten,Konawe,Sulawesi Tenggara
685,93458,Wowa Andaroa (Wawo Andaroa),74.02.05.2057,Sampara,Kabupaten,Konawe,Sulawesi Tenggara
686,93521,Amamutu (Amomutu),74.01.20.2006,Samaturu,Kabupaten,Kolaka,Sulawesi Tenggara
687,93521,Awa,74.01.20.2008,Samaturu,Kabupaten,Kolaka,Sulawesi Tenggara
688,93521,Kaloloa,74.01.20.2003,Samaturu,Kabupaten,Kolaka,Sulawesi Tenggara
689,93521,Konaweha,74.01.20.2002,Samaturu,Kabupaten,Kolaka,Sulawesi Tenggara
690,93521,Lambolemo,74.01.20.2005,Samaturu,Kabupaten,Kolaka,Sulawesi Tenggara
691,93521,Latuo,74.01.20.2009,Samaturu,Kabupaten,Kolaka,Sulawesi Tenggara
692,93521,Lawulo,74.01.20.2007,Samaturu,Kabupaten,Kolaka,Sulawesi Tenggara
693,93521,Liku,74.01.20.2018,Samaturu,Kabupaten,Kolaka,Sulawesi Tenggara
694,93521,Malaha,74.01.20.2011,Samaturu,Kabupaten,Kolaka,Sulawesi Tenggara
695,93521,Meura,74.01.20.2019,Samaturu,Kabupaten,Kolaka,Sulawesi Tenggara
696,93521,Puu Lawulo,74.01.20.2017,Samaturu,Kabupaten,Kolaka,Sulawesi Tenggara
697,93521,Puu Tamboli,74.01.20.2015,Samaturu,Kabupaten,Kolaka,Sulawesi Tenggara
698,93521,Sani Sani,74.01.20.2012,Samaturu,Kabupaten,Kolaka,Sulawesi Tenggara
699,93521,Tamboli,74.01.20.2004,Samaturu,Kabupaten,Kolaka,Sulawesi Tenggara
700,93521,Tonganapo,74.01.20.1013,Samaturu,Kabupaten,Kolaka,Sulawesi Tenggara
701,93521,Tosiba,74.01.20.1001,Samaturu,Kabupaten,Kolaka,Sulawesi Tenggara
702,93521,Ulaweng,74.01.20.2016,Samaturu,Kabupaten,Kolaka,Sulawesi Tenggara
703,93521,Ulu Konaweha,74.01.20.2014,Samaturu,Kabupaten,Kolaka,Sulawesi Tenggara
704,93521,Wawo Tambali,74.01.20.2010,Samaturu,Kabupaten,Kolaka,Sulawesi Tenggara
705,93872,Asaria,74.05.24.2007,Sabulakoa,Kabupaten,Konawe Selatan,Sulawesi Tenggara
706,93872,Karoonua,74.05.24.2005,Sabulakoa,Kabupaten,Konawe Selatan,Sulawesi Tenggara
707,93872,Sabulakoa,74.05.24.2001,Sabulakoa,Kabupaten,Konawe Selatan,Sulawesi Tenggara
708,93872,Talumbinga,74.05.24.2002,Sabulakoa,Kabupaten,Konawe Selatan,Sulawesi Tenggara
709,93872,Tetenggabo,74.05.24.2003,Sabulakoa,Kabupaten,Konawe Selatan,Sulawesi Tenggara
710,93872,Ulu Sabulakoa,74.05.24.2006,Sabulakoa,Kabupaten,Konawe Selatan,Sulawesi Tenggara
711,93872,Watu-Watu,74.05.24.2004,Sabulakoa,Kabupaten,Konawe Selatan,Sulawesi Tenggara
712,93872,Wawobende,74.05.24.2008,Sabulakoa,Kabupaten,Konawe Selatan,Sulawesi Tenggara
713,93771,Kampung Baru,74.06.18.1003,Rumbia Tengah,Kabupaten,Bombana,Sulawesi Tenggara
714,93771,Lampata,74.06.18.2005,Rumbia Tengah,Kabupaten,Bombana,Sulawesi Tenggara
715,93771,Lauru,74.06.18.1001,Rumbia Tengah,Kabupaten,Bombana,Sulawesi Tenggara
716,93771,Poea,74.06.18.1002,Rumbia Tengah,Kabupaten,Bombana,Sulawesi Tenggara
717,93771,Tapuhahi,74.06.18.2004,Rumbia Tengah,Kabupaten,Bombana,Sulawesi Tenggara
718,93771,Doule,74.06.04.1004,Rumbia,Kabupaten,Bombana,Sulawesi Tenggara
719,93771,Kasipute,74.06.04.1005,Rumbia,Kabupaten,Bombana,Sulawesi Tenggara
720,93771,Lameroro,74.06.04.1002,Rumbia,Kabupaten,Bombana,Sulawesi Tenggara
721,93771,Lampopala,74.06.04.1003,Rumbia,Kabupaten,Bombana,Sulawesi Tenggara
722,93771,Lanto Wonua (Lantawonua),74.06.04.2001,Rumbia,Kabupaten,Bombana,Sulawesi Tenggara
723,93453,Lalomerui,74.02.23.2007,Routa,Kabupaten,Konawe,Sulawesi Tenggara
724,93453,Parudongka,74.02.23.2003,Routa,Kabupaten,Konawe,Sulawesi Tenggara
725,93453,Puuwiwirano,74.02.23.2005,Routa,Kabupaten,Konawe,Sulawesi Tenggara
726,93453,Ruota,74.02.23.1001,Routa,Kabupaten,Konawe,Sulawesi Tenggara
727,93453,Tanggola,74.02.23.2006,Routa,Kabupaten,Konawe,Sulawesi Tenggara
728,93453,Tirawonua (Tira Wonua),74.02.23.2002,Routa,Kabupaten,Konawe,Sulawesi Tenggara
729,93453,Walandawe,74.02.23.2004,Routa,Kabupaten,Konawe,Sulawesi Tenggara
730,93788,Aneka Marga,74.06.09.1008,Rarowatu Utara,Kabupaten,Bombana,Sulawesi Tenggara
731,93788,Hukaea,74.06.09.2002,Rarowatu Utara,Kabupaten,Bombana,Sulawesi Tenggara
732,93788,Lantowua,74.06.09.2003,Rarowatu Utara,Kabupaten,Bombana,Sulawesi Tenggara
733,93788,Marga Jaya,74.06.09.2006,Rarowatu Utara,Kabupaten,Bombana,Sulawesi Tenggara
734,93788,Tembe,74.06.09.2004,Rarowatu Utara,Kabupaten,Bombana,Sulawesi Tenggara
735,93788,Tunas Baru,74.06.09.2007,Rarowatu Utara,Kabupaten,Bombana,Sulawesi Tenggara
736,93788,Watu Mende (Watu Mentade),74.06.09.2005,Rarowatu Utara,Kabupaten,Bombana,Sulawesi Tenggara
737,93788,Wumbubangka (Wumbu Bangka),74.06.09.2001,Rarowatu Utara,Kabupaten,Bombana,Sulawesi Tenggara
738,93787,Ladumpi,74.06.03.2008,Rarowatu,Kabupaten,Bombana,Sulawesi Tenggara
739,93787,Lakomea,74.06.03.2011,Rarowatu,Kabupaten,Bombana,Sulawesi Tenggara
740,93787,Lampeantani,74.06.03.2013,Rarowatu,Kabupaten,Bombana,Sulawesi Tenggara
741,93787,Pangkuri,74.06.03.2012,Rarowatu,Kabupaten,Bombana,Sulawesi Tenggara
742,93787,Rarowatu,74.06.03.2009,Rarowatu,Kabupaten,Bombana,Sulawesi Tenggara
743,93787,Rau-Rau,74.06.03.2001,Rarowatu,Kabupaten,Bombana,Sulawesi Tenggara
744,93787,Tahi ite,74.06.03.2015,Rarowatu,Kabupaten,Bombana,Sulawesi Tenggara
745,93787,Taubonto,74.06.03.1010,Rarowatu,Kabupaten,Bombana,Sulawesi Tenggara
746,93787,Watu Kalangkari,74.06.03.2014,Rarowatu,Kabupaten,Bombana,Sulawesi Tenggara
747,93961,Landolia,74.08.04.2014,Rante Angin,Kabupaten,Kolaka Utara,Sulawesi Tenggara
748,93961,Lawekara,74.08.04.2015,Rante Angin,Kabupaten,Kolaka Utara,Sulawesi Tenggara
749,93961,Maroko,74.08.04.2013,Rante Angin,Kabupaten,Kolaka Utara,Sulawesi Tenggara
750,93961,Pohu,74.08.04.2005,Rante Angin,Kabupaten,Kolaka Utara,Sulawesi Tenggara
751,93961,Rante Angin,74.08.04.1004,Rante Angin,Kabupaten,Kolaka Utara,Sulawesi Tenggara
752,93961,Rante Baru,74.08.04.2003,Rante Angin,Kabupaten,Kolaka Utara,Sulawesi Tenggara
753,93961,Torotuo (Torotua),74.08.04.2011,Rante Angin,Kabupaten,Kolaka Utara,Sulawesi Tenggara
754,93871,Ambeko (Abeko),74.05.22.2008,Ranomeeto Barat,Kabupaten,Konawe Selatan,Sulawesi Tenggara
755,93871,Amokuni,74.05.22.2001,Ranomeeto Barat,Kabupaten,Konawe Selatan,Sulawesi Tenggara
756,93871,Boro-Boro Lameuru,74.05.22.2005,Ranomeeto Barat,Kabupaten,Konawe Selatan,Sulawesi Tenggara
757,93871,Jati Bali,74.05.22.2003,Ranomeeto Barat,Kabupaten,Konawe Selatan,Sulawesi Tenggara
758,93871,Laikandonga,74.05.22.2004,Ranomeeto Barat,Kabupaten,Konawe Selatan,Sulawesi Tenggara
759,93871,Lameruru (Lameuru),74.05.22.2007,Ranomeeto Barat,Kabupaten,Konawe Selatan,Sulawesi Tenggara
760,93871,Opaasi,74.05.22.2006,Ranomeeto Barat,Kabupaten,Konawe Selatan,Sulawesi Tenggara
761,93871,Sindang Kasih,74.05.22.2002,Ranomeeto Barat,Kabupaten,Konawe Selatan,Sulawesi Tenggara
762,93871,Tunduno,74.05.22.2009,Ranomeeto Barat,Kabupaten,Konawe Selatan,Sulawesi Tenggara
763,93870,Ambaipua,74.05.08.2014,Ranomeeto,Kabupaten,Konawe Selatan,Sulawesi Tenggara
764,93870,Amoito,74.05.08.2008,Ranomeeto,Kabupaten,Konawe Selatan,Sulawesi Tenggara
765,93870,Amoito Siama,74.05.08.2021,Ranomeeto,Kabupaten,Konawe Selatan,Sulawesi Tenggara
766,93870,Boro-Boro R,74.05.08.2004,Ranomeeto,Kabupaten,Konawe Selatan,Sulawesi Tenggara
767,93870,Duduria,74.05.08.2020,Ranomeeto,Kabupaten,Konawe Selatan,Sulawesi Tenggara
768,93870,Kota Bangun,74.05.08.2017,Ranomeeto,Kabupaten,Konawe Selatan,Sulawesi Tenggara
769,93870,Laikaha,74.05.08.2019,Ranomeeto,Kabupaten,Konawe Selatan,Sulawesi Tenggara
770,93870,Langgea,74.05.08.2016,Ranomeeto,Kabupaten,Konawe Selatan,Sulawesi Tenggara
771,93870,Onewila,74.05.08.2002,Ranomeeto,Kabupaten,Konawe Selatan,Sulawesi Tenggara
772,93870,Rambu-Rambu Jaya,74.05.08.2005,Ranomeeto,Kabupaten,Konawe Selatan,Sulawesi Tenggara
773,93870,Ranomeeto,74.05.08.1001,Ranomeeto,Kabupaten,Konawe Selatan,Sulawesi Tenggara
774,93870,Ranooha,74.05.08.2015,Ranomeeto,Kabupaten,Konawe Selatan,Sulawesi Tenggara
775,93115,Abeli Dalam,74.71.09.1005,Puuwatu,Kota,Kendari,Sulawesi Tenggara
776,93115,Lalodati,74.71.09.1006,Puuwatu,Kota,Kendari,Sulawesi Tenggara
777,93115,Punggolaka,74.71.09.1003,Puuwatu,Kota,Kendari,Sulawesi Tenggara
778,93114,Puuwatu (Puwatu),74.71.09.1001,Puuwatu,Kota,Kendari,Sulawesi Tenggara
779,93115,Tobuuha,74.71.09.1004,Puuwatu,Kota,Kendari,Sulawesi Tenggara
780,93114,Watulondo,74.71.09.1002,Puuwatu,Kota,Kendari,Sulawesi Tenggara
781,93464,Ahuawali,74.02.17.2007,Puriala,Kabupaten,Konawe,Sulawesi Tenggara
782,93464,Lalonggatu,74.02.17.2004,Puriala,Kabupaten,Konawe,Sulawesi Tenggara
783,93464,Laloonaha,74.02.17.2015,Puriala,Kabupaten,Konawe,Sulawesi Tenggara
784,93464,Mokaleleo,74.02.17.2010,Puriala,Kabupaten,Konawe,Sulawesi Tenggara
785,93411,Poanaha (Puanaha),74.02.17.2005,Puriala,Kabupaten,Konawe,Sulawesi Tenggara
786,93464,Puriala,74.02.17.2001,Puriala,Kabupaten,Konawe,Sulawesi Tenggara
787,93464,Puuhopa,74.02.17.2014,Puriala,Kabupaten,Konawe,Sulawesi Tenggara
788,93464,Puusangi,74.02.17.2009,Puriala,Kabupaten,Konawe,Sulawesi Tenggara
789,93464,Sonai,74.02.17.2003,Puriala,Kabupaten,Konawe,Sulawesi Tenggara
790,93464,Tetehaka,74.02.17.2013,Puriala,Kabupaten,Konawe,Sulawesi Tenggara
791,93464,Tetewatu (Tetewaru),74.02.17.2012,Puriala,Kabupaten,Konawe,Sulawesi Tenggara
792,93464,Unggulino,74.02.17.2011,Puriala,Kabupaten,Konawe,Sulawesi Tenggara
793,93464,Watundehoa (Watandehoa),74.02.17.1002,Puriala,Kabupaten,Konawe,Sulawesi Tenggara
794,93464,Watusa,74.02.17.2008,Puriala,Kabupaten,Konawe,Sulawesi Tenggara
795,93464,Wawosanggula,74.02.17.2016,Puriala,Kabupaten,Konawe,Sulawesi Tenggara
796,93464,Wonua Morome,74.02.17.2006,Puriala,Kabupaten,Konawe,Sulawesi Tenggara
797,93950,Bangsala,74.08.12.2007,Porehu,Kabupaten,Kolaka Utara,Sulawesi Tenggara
798,93950,Larui,74.08.12.2005,Porehu,Kabupaten,Kolaka Utara,Sulawesi Tenggara
799,93950,Ponggi,74.08.12.2004,Porehu,Kabupaten,Kolaka Utara,Sulawesi Tenggara
800,93950,Porehu,74.08.12.2001,Porehu,Kabupaten,Kolaka Utara,Sulawesi Tenggara
801,93950,Sarambu,74.08.12.2008,Porehu,Kabupaten,Kolaka Utara,Sulawesi Tenggara
802,93950,Tanggaruru (Tangga Ruru),74.08.12.2003,Porehu,Kabupaten,Kolaka Utara,Sulawesi Tenggara
803,93950,Tinuna,74.08.12.2009,Porehu,Kabupaten,Kolaka Utara,Sulawesi Tenggara
804,93950,Tobela,74.08.12.2002,Porehu,Kabupaten,Kolaka Utara,Sulawesi Tenggara
805,93467,Ahuawatu,74.02.04.2019,Pondidaha,Kabupaten,Konawe,Sulawesi Tenggara
806,93467,Ambuulanu (Ambulanu),74.02.04.2030,Pondidaha,Kabupaten,Konawe,Sulawesi Tenggara
807,93467,Amesiu,74.02.04.2034,Pondidaha,Kabupaten,Konawe,Sulawesi Tenggara
808,93467,Belatu,74.02.04.2031,Pondidaha,Kabupaten,Konawe,Sulawesi Tenggara
809,93467,Hongoa,74.02.04.2013,Pondidaha,Kabupaten,Konawe,Sulawesi Tenggara
810,93467,Lahonggumbi,74.02.04.2052,Pondidaha,Kabupaten,Konawe,Sulawesi Tenggara
811,93467,Lalodangge,74.02.04.2046,Pondidaha,Kabupaten,Konawe,Sulawesi Tenggara
812,93467,Laloika,74.02.04.2048,Pondidaha,Kabupaten,Konawe,Sulawesi Tenggara
813,93467,Lalonggotomi,74.02.04.2049,Pondidaha,Kabupaten,Konawe,Sulawesi Tenggara
814,93467,Mumundowu,74.02.04.2016,Pondidaha,Kabupaten,Konawe,Sulawesi Tenggara
815,93467,Pondidaha,74.02.04.1001,Pondidaha,Kabupaten,Konawe,Sulawesi Tenggara
816,93467,Puumbinisi,74.02.04.2035,Pondidaha,Kabupaten,Konawe,Sulawesi Tenggara
817,93467,Sulemandara,74.02.04.2045,Pondidaha,Kabupaten,Konawe,Sulawesi Tenggara
818,93467,Tirawuta,74.02.04.2025,Pondidaha,Kabupaten,Konawe,Sulawesi Tenggara
819,93467,Wawolahumbuti,74.02.04.2047,Pondidaha,Kabupaten,Konawe,Sulawesi Tenggara
820,93467,Wawolemo,74.02.04.2039,Pondidaha,Kabupaten,Konawe,Sulawesi Tenggara
821,93467,Wonua Mandara,74.02.04.2050,Pondidaha,Kabupaten,Konawe,Sulawesi Tenggara
822,93467,Wonua Monapa,74.02.04.2051,Pondidaha,Kabupaten,Konawe,Sulawesi Tenggara
823,93562,Dawi-Dawi,74.01.07.1001,Pomalaa,Kabupaten,Kolaka,Sulawesi Tenggara
824,93562,Hakatutobu,74.01.07.2012,Pomalaa,Kabupaten,Kolaka,Sulawesi Tenggara
825,93562,Huko Huko,74.01.07.2003,Pomalaa,Kabupaten,Kolaka,Sulawesi Tenggara
826,93562,Kumoro,74.01.07.1011,Pomalaa,Kabupaten,Kolaka,Sulawesi Tenggara
827,93562,Oko Oko,74.01.07.2010,Pomalaa,Kabupaten,Kolaka,Sulawesi Tenggara
828,93562,Pelambua,74.01.07.2004,Pomalaa,Kabupaten,Kolaka,Sulawesi Tenggara
829,93562,Pesouha,74.01.07.2007,Pomalaa,Kabupaten,Kolaka,Sulawesi Tenggara
830,93562,Pomalaa,74.01.07.1002,Pomalaa,Kabupaten,Kolaka,Sulawesi Tenggara
831,93562,Sopura,74.01.07.2006,Pomalaa,Kabupaten,Kolaka,Sulawesi Tenggara
832,93562,Tambea,74.01.07.2005,Pomalaa,Kabupaten,Kolaka,Sulawesi Tenggara
833,93562,Tonggoni,74.01.07.1009,Pomalaa,Kabupaten,Kolaka,Sulawesi Tenggara
834,93562,Totobo,74.01.07.2008,Pomalaa,Kabupaten,Kolaka,Sulawesi Tenggara
835,93563,Lamondape,74.01.25.2007,Polinggona,Kabupaten,Kolaka,Sulawesi Tenggara
836,93563,Plasma Jaya,74.01.25.2003,Polinggona,Kabupaten,Kolaka,Sulawesi Tenggara
837,93563,Polinggona,74.01.25.1001,Polinggona,Kabupaten,Kolaka,Sulawesi Tenggara
838,93563,Pondowae (Pondouwaee),74.01.25.2006,Polinggona,Kabupaten,Kolaka,Sulawesi Tenggara
839,93563,Puudongi,74.01.25.2002,Polinggona,Kabupaten,Kolaka,Sulawesi Tenggara
840,93563,Tanggeau,74.01.25.2004,Polinggona,Kabupaten,Kolaka,Sulawesi Tenggara
841,93563,Wulonggere,74.01.25.2005,Polinggona,Kabupaten,Kolaka,Sulawesi Tenggara
842,93579,Andowengga,74.11.04.2005,Poli Polia,Kabupaten,Kolaka Timur,Sulawesi Tenggara
843,93579,Hakambololi,74.11.04.2010,Poli Polia,Kabupaten,Kolaka Timur,Sulawesi Tenggara
844,93579,Inotu Mewao,74.11.04.2011,Poli Polia,Kabupaten,Kolaka Timur,Sulawesi Tenggara
845,93579,Pangi-Pangi,74.11.04.2003,Poli Polia,Kabupaten,Kolaka Timur,Sulawesi Tenggara
846,93579,Pole Maju Jaya,74.11.04.2007,Poli Polia,Kabupaten,Kolaka Timur,Sulawesi Tenggara
847,93579,Polenga Jaya,74.11.04.2008,Poli Polia,Kabupaten,Kolaka Timur,Sulawesi Tenggara
848,93579,Poli-Polia,74.11.04.1001,Poli Polia,Kabupaten,Kolaka Timur,Sulawesi Tenggara
849,93579,Puundokulo,74.11.04.2012,Poli Polia,Kabupaten,Kolaka Timur,Sulawesi Tenggara
850,93579,Taosu (Toasu),74.11.04.2006,Poli Polia,Kabupaten,Kolaka Timur,Sulawesi Tenggara
851,93579,Tokai,74.11.04.2004,Poli Polia,Kabupaten,Kolaka Timur,Sulawesi Tenggara
852,93579,Wia Wia,74.11.04.2002,Poli Polia,Kabupaten,Kolaka Timur,Sulawesi Tenggara
853,93579,Wundumbite,74.11.04.2009,Poli Polia,Kabupaten,Kolaka Timur,Sulawesi Tenggara
854,93777,Karya Baru,74.06.10.2003,Poleang Utara,Kabupaten,Bombana,Sulawesi Tenggara
855,93777,Lawatu Ea (Es),74.06.10.2007,Poleang Utara,Kabupaten,Bombana,Sulawesi Tenggara
856,93777,Pulau Ea (Es),74.06.10.2006,Poleang Utara,Kabupaten,Bombana,Sulawesi Tenggara
857,93777,Rompu Rompu,74.06.10.2005,Poleang Utara,Kabupaten,Bombana,Sulawesi Tenggara
858,93777,Tampawulu (Tanpabulu),74.06.10.2001,Poleang Utara,Kabupaten,Bombana,Sulawesi Tenggara
859,93777,Tanah Poleang,74.06.10.2002,Poleang Utara,Kabupaten,Bombana,Sulawesi Tenggara
860,93777,Toburi,74.06.10.2004,Poleang Utara,Kabupaten,Bombana,Sulawesi Tenggara
861,93777,Wambarema,74.06.10.2008,Poleang Utara,Kabupaten,Bombana,Sulawesi Tenggara
862,93776,Bambaea,74.06.02.1011,Poleang Timur,Kabupaten,Bombana,Sulawesi Tenggara
863,93776,Biru,74.06.02.2004,Poleang Timur,Kabupaten,Bombana,Sulawesi Tenggara
864,93776,Mambo,74.06.02.2010,Poleang Timur,Kabupaten,Bombana,Sulawesi Tenggara
865,93776,Puu Lemo,74.06.02.1015,Poleang Timur,Kabupaten,Bombana,Sulawesi Tenggara
866,93776,Teppoe,74.06.02.2003,Poleang Timur,Kabupaten,Bombana,Sulawesi Tenggara
867,93775,Lamoare,74.06.12.2004,Poleang Tenggara,Kabupaten,Bombana,Sulawesi Tenggara
868,93775,Larete,74.06.12.2001,Poleang Tenggara,Kabupaten,Bombana,Sulawesi Tenggara
869,93775,Lemo,74.06.12.2002,Poleang Tenggara,Kabupaten,Bombana,Sulawesi Tenggara
870,93775,Rambaha,74.06.12.2005,Poleang Tenggara,Kabupaten,Bombana,Sulawesi Tenggara
871,93775,Terapung,74.06.12.2003,Poleang Tenggara,Kabupaten,Bombana,Sulawesi Tenggara
872,93779,Lebo Ea,74.06.19.2002,Poleang Tengah,Kabupaten,Bombana,Sulawesi Tenggara
873,93779,Mulaeno,74.06.19.2001,Poleang Tengah,Kabupaten,Bombana,Sulawesi Tenggara
874,93779,Paria,74.06.19.2003,Poleang Tengah,Kabupaten,Bombana,Sulawesi Tenggara
875,93779,Poleondro,74.06.19.2004,Poleang Tengah,Kabupaten,Bombana,Sulawesi Tenggara
876,93773,Akacipong,74.06.11.2004,Poleang Selatan,Kabupaten,Bombana,Sulawesi Tenggara
877,93773,Batu Putih,74.06.11.2001,Poleang Selatan,Kabupaten,Bombana,Sulawesi Tenggara
878,93773,Kali Baru,74.06.11.2003,Poleang Selatan,Kabupaten,Bombana,Sulawesi Tenggara
879,93773,La Ea,74.06.11.2005,Poleang Selatan,Kabupaten,Bombana,Sulawesi Tenggara
880,93773,Waemputang,74.06.11.2002,Poleang Selatan,Kabupaten,Bombana,Sulawesi Tenggara
881,93772,Analere,74.06.07.2011,Poleang Barat,Kabupaten,Bombana,Sulawesi Tenggara
882,93772,Babamolingku (Baba Molingku),74.06.07.2001,Poleang Barat,Kabupaten,Bombana,Sulawesi Tenggara
883,93772,Balasari,74.06.07.2008,Poleang Barat,Kabupaten,Bombana,Sulawesi Tenggara
884,93772,Bulumanai,74.06.07.2009,Poleang Barat,Kabupaten,Bombana,Sulawesi Tenggara
885,93772,Lameong-Meong,74.06.07.2006,Poleang Barat,Kabupaten,Bombana,Sulawesi Tenggara
886,93772,Matabundu,74.06.07.2010,Poleang Barat,Kabupaten,Bombana,Sulawesi Tenggara
887,93772,Pabiring,74.06.07.2007,Poleang Barat,Kabupaten,Bombana,Sulawesi Tenggara
888,93772,Rakadua,74.06.07.2005,Poleang Barat,Kabupaten,Bombana,Sulawesi Tenggara
889,93772,Ranokomea (Rano Komea),74.06.07.2004,Poleang Barat,Kabupaten,Bombana,Sulawesi Tenggara
890,93772,Timbala,74.06.07.2003,Poleang Barat,Kabupaten,Bombana,Sulawesi Tenggara
891,93772,Toari Bombana (Toari Buton),74.06.07.2002,Poleang Barat,Kabupaten,Bombana,Sulawesi Tenggara
892,93772,Barangka (Barangga),74.06.01.1016,Poleang,Kabupaten,Bombana,Sulawesi Tenggara
893,93772,Boeara,74.06.01.1007,Poleang,Kabupaten,Bombana,Sulawesi Tenggara
894,93772,Boepinang,74.06.01.1010,Poleang,Kabupaten,Bombana,Sulawesi Tenggara
895,93772,Boepinang Barat,74.06.01.1015,Poleang,Kabupaten,Bombana,Sulawesi Tenggara
896,93772,Kasabolo,74.06.01.1017,Poleang,Kabupaten,Bombana,Sulawesi Tenggara
897,93772,Kastarib,74.06.01.1008,Poleang,Kabupaten,Bombana,Sulawesi Tenggara
898,93772,Matiro Walie,74.06.01.2019,Poleang,Kabupaten,Bombana,Sulawesi Tenggara
899,93772,Pallimae,74.06.01.2011,Poleang,Kabupaten,Bombana,Sulawesi Tenggara
900,93772,Pukurumba (Pokorumba),74.06.01.2009,Poleang,Kabupaten,Bombana,Sulawesi Tenggara
901,93772,Salosa,74.06.01.2018,Poleang,Kabupaten,Bombana,Sulawesi Tenggara
902,93231,Andonohu (Anduonohu),74.71.04.1003,Poasia,Kota,Kendari,Sulawesi Tenggara
903,93231,Anggoeya,74.71.04.1005,Poasia,Kota,Kendari,Sulawesi Tenggara
904,93233,Matabubu,74.71.04.1006,Poasia,Kota,Kendari,Sulawesi Tenggara
905,93232,Rahandouna,74.71.04.1004,Poasia,Kota,Kendari,Sulawesi Tenggara
906,93232,Wundumbatu,74.71.04.1021,Poasia,Kota,Kendari,Sulawesi Tenggara
907,93685,Bumbu,74.03.28.2010,Pasir Putih,Kabupaten,Muna,Sulawesi Tenggara
908,93685,Kamosope,74.03.28.2007,Pasir Putih,Kabupaten,Muna,Sulawesi Tenggara
909,93685,Kogholifano (Koholifano),74.03.28.2001,Pasir Putih,Kabupaten,Muna,Sulawesi Tenggara
910,93685,Labulawa,74.03.28.2009,Pasir Putih,Kabupaten,Muna,Sulawesi Tenggara
911,93685,Liwumetingki,74.03.28.2008,Pasir Putih,Kabupaten,Muna,Sulawesi Tenggara
912,93685,Pola,74.03.28.2002,Pasir Putih,Kabupaten,Muna,Sulawesi Tenggara
913,93684,Kolese,74.03.33.2001,Pasi Kolaga,Kabupaten,Muna,Sulawesi Tenggara
914,93684,Lambelu,74.03.33.2004,Pasi Kolaga,Kabupaten,Muna,Sulawesi Tenggara
915,93684,Mata Indaha / Indah,74.03.33.2003,Pasi Kolaga,Kabupaten,Muna,Sulawesi Tenggara
916,93684,Tampunabale,74.03.33.2002,Pasi Kolaga,Kabupaten,Muna,Sulawesi Tenggara
917,93752,Awainulu,74.04.11.1023,Pasarwajo (Pasar Wajo),Kabupaten,Buton,Sulawesi Tenggara
918,93752,Banabungi,74.04.11.2025,Pasarwajo (Pasar Wajo),Kabupaten,Buton,Sulawesi Tenggara
919,93752,Dongkala,74.04.11.2019,Pasarwajo (Pasar Wajo),Kabupaten,Buton,Sulawesi Tenggara
920,93752,Holimombo,74.04.11.1020,Pasarwajo (Pasar Wajo),Kabupaten,Buton,Sulawesi Tenggara
921,93752,Holimombo Jaya,74.04.11.2017,Pasarwajo (Pasar Wajo),Kabupaten,Buton,Sulawesi Tenggara
922,93752,Kabawakole,74.04.11.2029,Pasarwajo (Pasar Wajo),Kabupaten,Buton,Sulawesi Tenggara
923,93752,Kambulabulana,74.04.11.1026,Pasarwajo (Pasar Wajo),Kabupaten,Buton,Sulawesi Tenggara
924,93752,Kancinaa,74.04.11.2007,Pasarwajo (Pasar Wajo),Kabupaten,Buton,Sulawesi Tenggara
925,93752,Kaongkeongkea,74.04.11.2031,Pasarwajo (Pasar Wajo),Kabupaten,Buton,Sulawesi Tenggara
926,93752,Kombeli,74.04.11.1021,Pasarwajo (Pasar Wajo),Kabupaten,Buton,Sulawesi Tenggara
927,93752,Kondowa,74.04.11.2018,Pasarwajo (Pasar Wajo),Kabupaten,Buton,Sulawesi Tenggara
928,93752,Laburunci,74.04.11.2024,Pasarwajo (Pasar Wajo),Kabupaten,Buton,Sulawesi Tenggara
929,93752,Lapodi,74.04.11.2004,Pasarwajo (Pasar Wajo),Kabupaten,Buton,Sulawesi Tenggara
930,93752,Mantowu,74.04.11.2030,Pasarwajo (Pasar Wajo),Kabupaten,Buton,Sulawesi Tenggara
931,93752,Pasarwajo,74.04.11.1027,Pasarwajo (Pasar Wajo),Kabupaten,Buton,Sulawesi Tenggara
932,93752,Saragi,74.04.11.1028,Pasarwajo (Pasar Wajo),Kabupaten,Buton,Sulawesi Tenggara
933,93752,Takimpo,74.04.11.1022,Pasarwajo (Pasar Wajo),Kabupaten,Buton,Sulawesi Tenggara
934,93752,Waangu-angu (Wangu Angu),74.04.11.2002,Pasarwajo (Pasar Wajo),Kabupaten,Buton,Sulawesi Tenggara
935,93752,Wakoko,74.04.11.1005,Pasarwajo (Pasar Wajo),Kabupaten,Buton,Sulawesi Tenggara
936,93752,Warinta,74.04.11.2003,Pasarwajo (Pasar Wajo),Kabupaten,Buton,Sulawesi Tenggara
937,93752,Wasaga,74.04.11.1006,Pasarwajo (Pasar Wajo),Kabupaten,Buton,Sulawesi Tenggara
938,93752,Winning,74.04.11.2008,Pasarwajo (Pasar Wajo),Kabupaten,Buton,Sulawesi Tenggara
939,93667,Kolasa,74.03.25.1007,Parigi,Kabupaten,Muna,Sulawesi Tenggara
940,93667,Kosundano,74.03.25.2012,Parigi,Kabupaten,Muna,Sulawesi Tenggara
941,93667,Labulu-Bulu,74.03.25.2001,Parigi,Kabupaten,Muna,Sulawesi Tenggara
942,93667,Laiba,74.03.25.2003,Parigi,Kabupaten,Muna,Sulawesi Tenggara
943,93667,Latumpu (Latampu / Tampu),74.03.25.2002,Parigi,Kabupaten,Muna,Sulawesi Tenggara
944,93667,Parigi,74.03.25.2008,Parigi,Kabupaten,Muna,Sulawesi Tenggara
945,93667,Wakumoro,74.03.25.1005,Parigi,Kabupaten,Muna,Sulawesi Tenggara
946,93667,Walambeno Wite,74.03.25.1006,Parigi,Kabupaten,Muna,Sulawesi Tenggara
947,93667,Wapuale,74.03.25.2010,Parigi,Kabupaten,Muna,Sulawesi Tenggara
948,93667,Warambe,74.03.25.2004,Parigi,Kabupaten,Muna,Sulawesi Tenggara
949,93667,Wasolangka,74.03.25.1009,Parigi,Kabupaten,Muna,Sulawesi Tenggara
950,93884,Amondo (Amonda),74.05.14.1001,Palangga Selatan,Kabupaten,Konawe Selatan,Sulawesi Tenggara
951,93884,Koeono,74.05.14.2008,Palangga Selatan,Kabupaten,Konawe Selatan,Sulawesi Tenggara
952,93884,Lakara,74.05.14.2002,Palangga Selatan,Kabupaten,Konawe Selatan,Sulawesi Tenggara
953,93884,Lalowua,74.05.14.2009,Palangga Selatan,Kabupaten,Konawe Selatan,Sulawesi Tenggara
954,93884,Mondoe,74.05.14.2010,Palangga Selatan,Kabupaten,Konawe Selatan,Sulawesi Tenggara
955,93884,Parasi,74.05.14.2003,Palangga Selatan,Kabupaten,Konawe Selatan,Sulawesi Tenggara
956,93884,Ulu Lakara (Ululakara),74.05.14.2004,Palangga Selatan,Kabupaten,Konawe Selatan,Sulawesi Tenggara
957,93884,Watu Mbohoti (Watumbohoti),74.05.14.2005,Palangga Selatan,Kabupaten,Konawe Selatan,Sulawesi Tenggara
958,93884,Watu Rapa (Watarapa / Waturapa),74.05.14.2007,Palangga Selatan,Kabupaten,Konawe Selatan,Sulawesi Tenggara
959,93884,Wawo Wonua,74.05.14.2006,Palangga Selatan,Kabupaten,Konawe Selatan,Sulawesi Tenggara
960,93882,Alakaya,74.05.04.2025,Palangga,Kabupaten,Konawe Selatan,Sulawesi Tenggara
961,93882,Anggondara,74.05.04.2005,Palangga,Kabupaten,Konawe Selatan,Sulawesi Tenggara
962,93882,Aosole,74.05.04.2003,Palangga,Kabupaten,Konawe Selatan,Sulawesi Tenggara
963,93882,Eewa,74.05.04.2007,Palangga,Kabupaten,Konawe Selatan,Sulawesi Tenggara
964,93882,Kapujaya (Kapu Jaya),74.05.04.2030,Palangga,Kabupaten,Konawe Selatan,Sulawesi Tenggara
965,93882,Kiaea,74.05.04.2008,Palangga,Kabupaten,Konawe Selatan,Sulawesi Tenggara
966,93882,Mekar Sari,74.05.04.2011,Palangga,Kabupaten,Konawe Selatan,Sulawesi Tenggara
967,93882,Onembute,74.05.04.2013,Palangga,Kabupaten,Konawe Selatan,Sulawesi Tenggara
968,93882,Palangga,74.05.04.1001,Palangga,Kabupaten,Konawe Selatan,Sulawesi Tenggara
969,93882,Sanggi-Sanggi,74.05.04.2032,Palangga,Kabupaten,Konawe Selatan,Sulawesi Tenggara
970,93882,Watudemba,74.05.04.2031,Palangga,Kabupaten,Konawe Selatan,Sulawesi Tenggara
971,93882,Watumerembe,74.05.04.2019,Palangga,Kabupaten,Konawe Selatan,Sulawesi Tenggara
972,93882,Wawonggura,74.05.04.2029,Palangga,Kabupaten,Konawe Selatan,Sulawesi Tenggara
973,93882,Waworaha,74.05.04.2018,Palangga,Kabupaten,Konawe Selatan,Sulawesi Tenggara
974,93882,Wawouru,74.05.04.2022,Palangga,Kabupaten,Konawe Selatan,Sulawesi Tenggara
975,93952,Amoe,74.08.11.2008,Pakue Utara,Kabupaten,Kolaka Utara,Sulawesi Tenggara
976,93952,Kalo,74.08.11.2007,Pakue Utara,Kabupaten,Kolaka Utara,Sulawesi Tenggara
977,93952,Lawata,74.08.11.2003,Pakue Utara,Kabupaten,Kolaka Utara,Sulawesi Tenggara
978,93952,Lengkong Batu,74.08.11.2009,Pakue Utara,Kabupaten,Kolaka Utara,Sulawesi Tenggara
979,93952,Mataleuno,74.08.11.2004,Pakue Utara,Kabupaten,Kolaka Utara,Sulawesi Tenggara
980,93952,Pakue,74.08.11.2002,Pakue Utara,Kabupaten,Kolaka Utara,Sulawesi Tenggara
981,93952,Puundoho,74.08.11.2001,Pakue Utara,Kabupaten,Kolaka Utara,Sulawesi Tenggara
982,93952,Saludongka,74.08.11.2006,Pakue Utara,Kabupaten,Kolaka Utara,Sulawesi Tenggara
983,93952,Teposua,74.08.11.2005,Pakue Utara,Kabupaten,Kolaka Utara,Sulawesi Tenggara
984,93953,Kalahunde,74.08.10.2010,Pakue Tengah,Kabupaten,Kolaka Utara,Sulawesi Tenggara
985,93953,Labipi,74.08.10.2003,Pakue Tengah,Kabupaten,Kolaka Utara,Sulawesi Tenggara
986,93953,Lanipa,74.08.10.2001,Pakue Tengah,Kabupaten,Kolaka Utara,Sulawesi Tenggara
987,93953,Latali,74.08.10.2004,Pakue Tengah,Kabupaten,Kolaka Utara,Sulawesi Tenggara
988,93953,Majapahit,74.08.10.2002,Pakue Tengah,Kabupaten,Kolaka Utara,Sulawesi Tenggara
989,93953,Pasampang,74.08.10.2005,Pakue Tengah,Kabupaten,Kolaka Utara,Sulawesi Tenggara
990,93953,Powalaa,74.08.10.2009,Pakue Tengah,Kabupaten,Kolaka Utara,Sulawesi Tenggara
991,93953,Salulotong (Salutotong),74.08.10.2008,Pakue Tengah,Kabupaten,Kolaka Utara,Sulawesi Tenggara
992,93953,Tarengga,74.08.10.2006,Pakue Tengah,Kabupaten,Kolaka Utara,Sulawesi Tenggara
993,93953,To'lemo,74.08.10.2007,Pakue Tengah,Kabupaten,Kolaka Utara,Sulawesi Tenggara
994,93954,Alipato,74.08.02.2021,Pakue,Kabupaten,Kolaka Utara,Sulawesi Tenggara
995,93954,Kasumeeto,74.08.02.2010,Pakue,Kabupaten,Kolaka Utara,Sulawesi Tenggara
996,93954,Kondara,74.08.02.2018,Pakue,Kabupaten,Kolaka Utara,Sulawesi Tenggara
997,93954,Kosali,74.08.02.2002,Pakue,Kabupaten,Kolaka Utara,Sulawesi Tenggara
998,93954,Lalombundi,74.08.02.2013,Pakue,Kabupaten,Kolaka Utara,Sulawesi Tenggara
999,93954,Lalume,74.08.02.2022,Pakue,Kabupaten,Kolaka Utara,Sulawesi Tenggara
1000,93954,Mikuasi,74.08.02.2003,Pakue,Kabupaten,Kolaka Utara,Sulawesi Tenggara
1001,93954,Olo-Oloho (Olo-Olaha),74.08.02.1001,Pakue,Kabupaten,Kolaka Utara,Sulawesi Tenggara
1002,93954,Seuwwa,74.08.02.2020,Pakue,Kabupaten,Kolaka Utara,Sulawesi Tenggara
1003,93954,Sipakainge,74.08.02.2019,Pakue,Kabupaten,Kolaka Utara,Sulawesi Tenggara
1004,93954,Toaha,74.08.02.2015,Pakue,Kabupaten,Kolaka Utara,Sulawesi Tenggara
1005,93442,Aleuti,74.02.38.2008,Padangguni,Kabupaten,Konawe,Sulawesi Tenggara
1006,93442,Alosika,74.02.38.2005,Padangguni,Kabupaten,Konawe,Sulawesi Tenggara
1007,93442,Atodopi,74.02.38.2001,Padangguni,Kabupaten,Konawe,Sulawesi Tenggara
1008,93442,Garuda,74.02.38.2009,Padangguni,Kabupaten,Konawe,Sulawesi Tenggara
1009,93442,Langgea,74.02.38.2007,Padangguni,Kabupaten,Konawe,Sulawesi Tenggara
1010,93442,Matahori,74.02.38.2002,Padangguni,Kabupaten,Konawe,Sulawesi Tenggara
1011,93442,Matanggorai,74.02.38.2004,Padangguni,Kabupaten,Konawe,Sulawesi Tenggara
1012,93442,Mekar Jaya,74.02.38.2006,Padangguni,Kabupaten,Konawe,Sulawesi Tenggara
1013,93442,Padang Mekar,74.02.38.2011,Padangguni,Kabupaten,Konawe,Sulawesi Tenggara
1014,93442,Padangguni,74.02.38.2010,Padangguni,Kabupaten,Konawe,Sulawesi Tenggara
1015,93442,Sambaosu,74.02.38.2003,Padangguni,Kabupaten,Konawe,Sulawesi Tenggara
1016,93465,Ana Onembute,74.02.37.2012,Onembute,Kabupaten,Konawe,Sulawesi Tenggara
1017,93465,Anggaloosi,74.02.37.2011,Onembute,Kabupaten,Konawe,Sulawesi Tenggara
1018,93465,Kasumeia,74.02.37.2008,Onembute,Kabupaten,Konawe,Sulawesi Tenggara
1019,93465,Kumapo,74.02.37.2007,Onembute,Kabupaten,Konawe,Sulawesi Tenggara
1020,93465,Mataiwoi,74.02.37.2006,Onembute,Kabupaten,Konawe,Sulawesi Tenggara
1021,93465,Napoosi (Nopoosi),74.02.37.2003,Onembute,Kabupaten,Konawe,Sulawesi Tenggara
1022,93465,Onembute,74.02.37.1001,Onembute,Kabupaten,Konawe,Sulawesi Tenggara
1023,93465,Silea,74.02.37.2004,Onembute,Kabupaten,Konawe,Sulawesi Tenggara
1024,93465,Tawapandere,74.02.37.2010,Onembute,Kabupaten,Konawe,Sulawesi Tenggara
1025,93465,Trimulya,74.02.37.2002,Onembute,Kabupaten,Konawe,Sulawesi Tenggara
1026,93465,Ulu Onembute,74.02.37.2009,Onembute,Kabupaten,Konawe,Sulawesi Tenggara
1027,93465,Ulumeraka,74.02.37.2005,Onembute,Kabupaten,Konawe,Sulawesi Tenggara
1028,93354,Bandaeha,74.09.08.2002,Oheo,Kabupaten,Konawe Utara,Sulawesi Tenggara
1029,93354,Bendewuta,74.09.08.2015,Oheo,Kabupaten,Konawe Utara,Sulawesi Tenggara
1030,93354,Horoe,74.09.08.2018,Oheo,Kabupaten,Konawe Utara,Sulawesi Tenggara
1031,93354,Kota Maju,74.09.08.2003,Oheo,Kabupaten,Konawe Utara,Sulawesi Tenggara
1032,93354,Lameoru,74.09.08.2013,Oheo,Kabupaten,Konawe Utara,Sulawesi Tenggara
1033,93354,Landawe,74.09.08.2004,Oheo,Kabupaten,Konawe Utara,Sulawesi Tenggara
1034,93354,Laronaha,74.09.08.2001,Oheo,Kabupaten,Konawe Utara,Sulawesi Tenggara
1035,93354,Linomoiyo,74.09.08.1009,Oheo,Kabupaten,Konawe Utara,Sulawesi Tenggara
1036,93354,Mopute,74.09.08.2006,Oheo,Kabupaten,Konawe Utara,Sulawesi Tenggara
1037,93354,Paka Indah,74.09.08.2011,Oheo,Kabupaten,Konawe Utara,Sulawesi Tenggara
1038,93354,Puuhialu,74.09.08.2008,Oheo,Kabupaten,Konawe Utara,Sulawesi Tenggara
1039,93354,Sambandete,74.09.08.2010,Oheo,Kabupaten,Konawe Utara,Sulawesi Tenggara
1040,93354,Tadoloiyo,74.09.08.2007,Oheo,Kabupaten,Konawe Utara,Sulawesi Tenggara
1041,93354,Tadoloiyo Trans,74.09.08.2019,Oheo,Kabupaten,Konawe Utara,Sulawesi Tenggara
1042,93354,Tinondo,74.09.08.2016,Oheo,Kabupaten,Konawe Utara,Sulawesi Tenggara
1043,93354,Walandawe,74.09.08.2014,Oheo,Kabupaten,Konawe Utara,Sulawesi Tenggara
1044,93354,Wiwirano,74.09.08.2005,Oheo,Kabupaten,Konawe Utara,Sulawesi Tenggara
1045,93958,Beringin,74.08.06.2014,Ngapa,Kabupaten,Kolaka Utara,Sulawesi Tenggara
1046,93958,Koreiha,74.08.06.2009,Ngapa,Kabupaten,Kolaka Utara,Sulawesi Tenggara
1047,93958,Lapai,74.08.06.1003,Ngapa,Kabupaten,Kolaka Utara,Sulawesi Tenggara
1048,93958,Lawolatu,74.08.06.2011,Ngapa,Kabupaten,Kolaka Utara,Sulawesi Tenggara
1049,93958,Mataiwoi,74.08.06.2015,Ngapa,Kabupaten,Kolaka Utara,Sulawesi Tenggara
1050,93958,Ngapa,74.08.06.2002,Ngapa,Kabupaten,Kolaka Utara,Sulawesi Tenggara
1051,93958,Nimbuneha,74.08.06.2016,Ngapa,Kabupaten,Kolaka Utara,Sulawesi Tenggara
1052,93958,Padaelo,74.08.06.2017,Ngapa,Kabupaten,Kolaka Utara,Sulawesi Tenggara
1053,93958,Paruttellang (Paruttelang),74.08.06.2005,Ngapa,Kabupaten,Kolaka Utara,Sulawesi Tenggara
1054,93958,Puurau,74.08.06.2008,Ngapa,Kabupaten,Kolaka Utara,Sulawesi Tenggara
1055,93958,Tadaumera,74.08.06.2012,Ngapa,Kabupaten,Kolaka Utara,Sulawesi Tenggara
1056,93958,Watumotaha,74.08.06.2013,Ngapa,Kabupaten,Kolaka Utara,Sulawesi Tenggara
1057,93658,Kombikuno,74.13.11.2004,Napano Kusambi,Kabupaten,Muna Barat,Sulawesi Tenggara
1058,93658,Lahaji,74.13.11.2002,Napano Kusambi,Kabupaten,Muna Barat,Sulawesi Tenggara
1059,93658,Latawe,74.13.11.2005,Napano Kusambi,Kabupaten,Muna Barat,Sulawesi Tenggara
1060,93658,Masara,74.13.11.2001,Napano Kusambi,Kabupaten,Muna Barat,Sulawesi Tenggara
1061,93658,Tangkumaho,74.13.11.2006,Napano Kusambi,Kabupaten,Muna Barat,Sulawesi Tenggara
1062,93658,Umba,74.13.11.2003,Napano Kusambi,Kabupaten,Muna Barat,Sulawesi Tenggara
1063,93622,Lambiku,74.03.06.2009,Napabalano,Kabupaten,Muna,Sulawesi Tenggara
1064,93622,Langkumapo,74.03.06.2007,Napabalano,Kabupaten,Muna,Sulawesi Tenggara
1065,93622,Napabalano,74.03.06.1004,Napabalano,Kabupaten,Muna,Sulawesi Tenggara
1066,93622,Napalakura,74.03.06.2003,Napabalano,Kabupaten,Muna,Sulawesi Tenggara
1067,93622,Pentiro,74.03.06.2006,Napabalano,Kabupaten,Muna,Sulawesi Tenggara
1068,93622,Tampo,74.03.06.1005,Napabalano,Kabupaten,Muna,Sulawesi Tenggara
1069,93234,Bungkutoko,74.71.11.1004,Nambo,Kota,Kendari,Sulawesi Tenggara
1070,93236,Nambo,74.71.11.1003,Nambo,Kota,Kendari,Sulawesi Tenggara
1071,93236,Petoaha,74.71.11.1002,Nambo,Kota,Kendari,Sulawesi Tenggara
1072,93238,Sambuli,74.71.11.1005,Nambo,Kota,Kendari,Sulawesi Tenggara
1073,93237,Tobimeita,74.71.11.1001,Nambo,Kota,Kendari,Sulawesi Tenggara
1074,93238,Tondonggeu,74.71.11.1006,Nambo,Kota,Kendari,Sulawesi Tenggara
1075,93727,Baadia,74.72.06.1010,Murhum,Kota,Bau Bau,Sulawesi Tenggara
1076,93725,Lamangga,74.72.06.1008,Murhum,Kota,Bau Bau,Sulawesi Tenggara
1077,93727,Melai,74.72.06.1009,Murhum,Kota,Bau Bau,Sulawesi Tenggara
1078,93721,Tanganapada,74.72.06.1011,Murhum,Kota,Bau Bau,Sulawesi Tenggara
1079,93726,Wajo,74.72.06.1007,Murhum,Kota,Bau Bau,Sulawesi Tenggara
1080,93879,Kondoano,74.05.15.2001,Mowila,Kabupaten,Konawe Selatan,Sulawesi Tenggara
1081,93879,Lalosingi,74.05.15.2009,Mowila,Kabupaten,Konawe Selatan,Sulawesi Tenggara
1082,93879,Lamebara (Lamibara),74.05.15.2017,Mowila,Kabupaten,Konawe Selatan,Sulawesi Tenggara
1083,93879,Lamelori (Lamolori),74.05.15.2003,Mowila,Kabupaten,Konawe Selatan,Sulawesi Tenggara
1084,93879,Mataiwoi,74.05.15.2016,Mowila,Kabupaten,Konawe Selatan,Sulawesi Tenggara
1085,93879,Monapa,74.05.15.2012,Mowila,Kabupaten,Konawe Selatan,Sulawesi Tenggara
1086,93879,Mowila,74.05.15.2008,Mowila,Kabupaten,Konawe Selatan,Sulawesi Tenggara
1087,93879,Mulyasari (Mulya Sari / Muliasari),74.05.15.2005,Mowila,Kabupaten,Konawe Selatan,Sulawesi Tenggara
1088,93879,Pudahoa (Pudohoa),74.05.15.2011,Mowila,Kabupaten,Konawe Selatan,Sulawesi Tenggara
1089,93879,Punggulahi,74.05.15.2002,Mowila,Kabupaten,Konawe Selatan,Sulawesi Tenggara
1090,93879,Puuwehuko (Puwehuko),74.05.15.2013,Mowila,Kabupaten,Konawe Selatan,Sulawesi Tenggara
1091,93879,Rakawuta,74.05.15.2006,Mowila,Kabupaten,Konawe Selatan,Sulawesi Tenggara
1092,93879,Ranoaopa (Rano Aopa),74.05.15.2007,Mowila,Kabupaten,Konawe Selatan,Sulawesi Tenggara
1093,93879,Ranombayasa (Rano Mbayasa),74.05.15.2014,Mowila,Kabupaten,Konawe Selatan,Sulawesi Tenggara
1094,93879,Tetesingi,74.05.15.2018,Mowila,Kabupaten,Konawe Selatan,Sulawesi Tenggara
1095,93879,Toluwonua,74.05.15.2004,Mowila,Kabupaten,Konawe Selatan,Sulawesi Tenggara
1096,93879,Wanuakongga (Wanua Kongga),74.05.15.2015,Mowila,Kabupaten,Konawe Selatan,Sulawesi Tenggara
1097,93879,Wonua Monapa,74.05.15.2020,Mowila,Kabupaten,Konawe Selatan,Sulawesi Tenggara
1098,93879,Wonua Sari,74.05.15.2019,Mowila,Kabupaten,Konawe Selatan,Sulawesi Tenggara
1099,93879,Wuura,74.05.15.2010,Mowila,Kabupaten,Konawe Selatan,Sulawesi Tenggara
1100,93571,Horodopi,74.11.07.1004,Mowewe,Kabupaten,Kolaka Timur,Sulawesi Tenggara
1101,93571,Inebenggi,74.11.07.1002,Mowewe,Kabupaten,Kolaka Timur,Sulawesi Tenggara
1102,93571,Lambo Tua,74.11.07.2010,Mowewe,Kabupaten,Kolaka Timur,Sulawesi Tenggara
1103,93571,Lapangisi,74.11.07.2008,Mowewe,Kabupaten,Kolaka Timur,Sulawesi Tenggara
1104,93571,Nelombu,74.11.07.2003,Mowewe,Kabupaten,Kolaka Timur,Sulawesi Tenggara
1105,93571,Puosu,74.11.07.2006,Mowewe,Kabupaten,Kolaka Timur,Sulawesi Tenggara
1106,93571,Sabi-sabila,74.11.07.2009,Mowewe,Kabupaten,Kolaka Timur,Sulawesi Tenggara
1107,93571,Ulu Mowewe,74.11.07.2007,Mowewe,Kabupaten,Kolaka Timur,Sulawesi Tenggara
1108,93571,Watupute,74.11.07.2005,Mowewe,Kabupaten,Kolaka Timur,Sulawesi Tenggara
1109,93571,Woitombo,74.11.07.1001,Mowewe,Kabupaten,Kolaka Timur,Sulawesi Tenggara
1110,93358,Banggina,74.09.10.2004,Motui,Kabupaten,Konawe Utara,Sulawesi Tenggara
1111,93358,Bende,74.09.10.1002,Motui,Kabupaten,Konawe Utara,Sulawesi Tenggara
1112,93358,Kapolano,74.09.10.2014,Motui,Kabupaten,Konawe Utara,Sulawesi Tenggara
1113,93358,Lambuluo,74.09.10.2007,Motui,Kabupaten,Konawe Utara,Sulawesi Tenggara
1114,93358,Matandahi,74.09.10.2003,Motui,Kabupaten,Konawe Utara,Sulawesi Tenggara
1115,93358,Motui,74.09.10.2005,Motui,Kabupaten,Konawe Utara,Sulawesi Tenggara
1116,93358,Poni Poniki,74.09.10.2008,Motui,Kabupaten,Konawe Utara,Sulawesi Tenggara
1117,93358,Punggulahi,74.09.10.2010,Motui,Kabupaten,Konawe Utara,Sulawesi Tenggara
1118,93358,Puuwonggia,74.09.10.2009,Motui,Kabupaten,Konawe Utara,Sulawesi Tenggara
1119,93358,Ranombupulu,74.09.10.2012,Motui,Kabupaten,Konawe Utara,Sulawesi Tenggara
1120,93358,Sama Subur,74.09.10.2011,Motui,Kabupaten,Konawe Utara,Sulawesi Tenggara
1121,93358,Sambasule,74.09.10.2015,Motui,Kabupaten,Konawe Utara,Sulawesi Tenggara
1122,93358,Tobimeita,74.09.10.2013,Motui,Kabupaten,Konawe Utara,Sulawesi Tenggara
1123,93358,Tondowatu,74.09.10.2001,Motui,Kabupaten,Konawe Utara,Sulawesi Tenggara
1124,93358,Wawoluri,74.09.10.2006,Motui,Kabupaten,Konawe Utara,Sulawesi Tenggara
1125,93456,Besu,74.02.39.2003,Morosi,Kabupaten,Konawe,Sulawesi Tenggara
1126,93456,Mendikonu,74.02.39.2001,Morosi,Kabupaten,Konawe,Sulawesi Tenggara
1127,93456,Morosi,74.02.39.2006,Morosi,Kabupaten,Konawe,Sulawesi Tenggara
1128,93456,Paku,74.02.39.2004,Morosi,Kabupaten,Konawe,Sulawesi Tenggara
1129,93456,Paku Jaya,74.02.39.2008,Morosi,Kabupaten,Konawe,Sulawesi Tenggara
1130,93456,Porara,74.02.39.2010,Morosi,Kabupaten,Konawe,Sulawesi Tenggara
1131,93456,Puuruy,74.02.39.2005,Morosi,Kabupaten,Konawe,Sulawesi Tenggara
1132,93456,Tanggobu,74.02.39.2007,Morosi,Kabupaten,Konawe,Sulawesi Tenggara
1133,93456,Tondowatu,74.02.39.2009,Morosi,Kabupaten,Konawe,Sulawesi Tenggara
1134,93456,Wonua Morini,74.02.39.2002,Morosi,Kabupaten,Konawe,Sulawesi Tenggara
1135,93890,Lalowaru,74.05.16.1002,Moramo Utara,Kabupaten,Konawe Selatan,Sulawesi Tenggara
1136,93890,Lamokula,74.05.16.2008,Moramo Utara,Kabupaten,Konawe Selatan,Sulawesi Tenggara
1137,93890,Lombueya (Lombuea),74.05.16.2006,Moramo Utara,Kabupaten,Konawe Selatan,Sulawesi Tenggara
1138,93890,Mata Lamokula,74.05.16.2010,Moramo Utara,Kabupaten,Konawe Selatan,Sulawesi Tenggara
1139,93890,Mata Watu-Watu,74.05.16.2009,Moramo Utara,Kabupaten,Konawe Selatan,Sulawesi Tenggara
1140,93890,Mekar Jaya,74.05.16.2007,Moramo Utara,Kabupaten,Konawe Selatan,Sulawesi Tenggara
1141,93890,Puasana,74.05.16.2001,Moramo Utara,Kabupaten,Konawe Selatan,Sulawesi Tenggara
1142,93890,Sanggula,74.05.16.2005,Moramo Utara,Kabupaten,Konawe Selatan,Sulawesi Tenggara
1143,93890,Tanjung Tiram,74.05.16.2003,Moramo Utara,Kabupaten,Konawe Selatan,Sulawesi Tenggara
1144,93890,Wawatu,74.05.16.2004,Moramo Utara,Kabupaten,Konawe Selatan,Sulawesi Tenggara
1145,93891,Amohola,74.05.10.2010,Moramo,Kabupaten,Konawe Selatan,Sulawesi Tenggara
1146,93891,Bakutara (Bakutaru),74.05.10.2014,Moramo,Kabupaten,Konawe Selatan,Sulawesi Tenggara
1147,93891,Bisikori,74.05.10.2027,Moramo,Kabupaten,Konawe Selatan,Sulawesi Tenggara
1148,93891,Lakomea,74.05.10.2015,Moramo,Kabupaten,Konawe Selatan,Sulawesi Tenggara
1149,93891,Lamboo,74.05.10.2017,Moramo,Kabupaten,Konawe Selatan,Sulawesi Tenggara
1150,93891,Landipo,74.05.10.2016,Moramo,Kabupaten,Konawe Selatan,Sulawesi Tenggara
1151,93891,Lapuko,74.05.10.1001,Moramo,Kabupaten,Konawe Selatan,Sulawesi Tenggara
1152,93891,Marga Citta (Marga Cinta),74.05.10.2012,Moramo,Kabupaten,Konawe Selatan,Sulawesi Tenggara
1153,93891,Moramo,74.05.10.2013,Moramo,Kabupaten,Konawe Selatan,Sulawesi Tenggara
1154,93891,Penambea Barata,74.05.10.2021,Moramo,Kabupaten,Konawe Selatan,Sulawesi Tenggara
1155,93891,Pudaria Jaya,74.05.10.2018,Moramo,Kabupaten,Konawe Selatan,Sulawesi Tenggara
1156,93891,Ranooha Raya,74.05.10.2028,Moramo,Kabupaten,Konawe Selatan,Sulawesi Tenggara
1157,93891,Selabangga,74.05.10.2029,Moramo,Kabupaten,Konawe Selatan,Sulawesi Tenggara
1158,93891,Sumber Sari,74.05.10.2019,Moramo,Kabupaten,Konawe Selatan,Sulawesi Tenggara
1159,93891,Tambosupa,74.05.10.2011,Moramo,Kabupaten,Konawe Selatan,Sulawesi Tenggara
1160,93891,Ulusena,74.05.10.2020,Moramo,Kabupaten,Konawe Selatan,Sulawesi Tenggara
1161,93891,Watu Porambaa,74.05.10.2025,Moramo,Kabupaten,Konawe Selatan,Sulawesi Tenggara
1162,93891,Wawondengi,74.05.10.2023,Moramo,Kabupaten,Konawe Selatan,Sulawesi Tenggara
1163,93891,Wonua Jaya,74.05.10.2026,Moramo,Kabupaten,Konawe Selatan,Sulawesi Tenggara
1164,93891,Wowosunggu (Wawosunggu),74.05.10.2022,Moramo,Kabupaten,Konawe Selatan,Sulawesi Tenggara
1165,93359,Awila,74.09.04.2003,Molawe,Kabupaten,Konawe Utara,Sulawesi Tenggara
1166,93359,Awila Puncak,74.09.04.2008,Molawe,Kabupaten,Konawe Utara,Sulawesi Tenggara
1167,93359,Bandaeha,74.09.04.2001,Molawe,Kabupaten,Konawe Utara,Sulawesi Tenggara
1168,93359,Mandiopo (Mandiodo),74.09.04.2005,Molawe,Kabupaten,Konawe Utara,Sulawesi Tenggara
1169,93359,Mataiwoi,74.09.04.2007,Molawe,Kabupaten,Konawe Utara,Sulawesi Tenggara
1170,93359,Molawe,74.09.04.1002,Molawe,Kabupaten,Konawe Utara,Sulawesi Tenggara
1171,93359,Mowundo,74.09.04.2004,Molawe,Kabupaten,Konawe Utara,Sulawesi Tenggara
1172,93359,Tapuemea,74.09.04.2009,Molawe,Kabupaten,Konawe Utara,Sulawesi Tenggara
1173,93359,Tapunggaya (Tapunggaea),74.09.04.2006,Molawe,Kabupaten,Konawe Utara,Sulawesi Tenggara
1174,93472,Ahuhu (Abuhu),74.02.25.2004,Meluhu,Kabupaten,Konawe,Sulawesi Tenggara
1175,93472,Ahuloa,74.02.25.2007,Meluhu,Kabupaten,Konawe,Sulawesi Tenggara
1176,93472,Lalopisi,74.02.25.2009,Meluhu,Kabupaten,Konawe,Sulawesi Tenggara
1177,93472,Lamelai (Lamelay),74.02.25.2002,Meluhu,Kabupaten,Konawe,Sulawesi Tenggara
1178,93472,Larowiu,74.02.25.2006,Meluhu,Kabupaten,Konawe,Sulawesi Tenggara
1179,93472,Meluhu,74.02.25.1003,Meluhu,Kabupaten,Konawe,Sulawesi Tenggara
1180,93472,Sambasule,74.02.25.2008,Meluhu,Kabupaten,Konawe,Sulawesi Tenggara
1181,93472,Tudameaso,74.02.25.2005,Meluhu,Kabupaten,Konawe,Sulawesi Tenggara
1182,93472,Woerahi (Weorahi),74.02.25.2001,Meluhu,Kabupaten,Konawe,Sulawesi Tenggara
1183,93765,Batubanawa,74.14.02.2008,Mawasangka Timur,Kabupaten,Buton Tengah,Sulawesi Tenggara
1184,93765,Bonemarambe,74.14.02.2001,Mawasangka Timur,Kabupaten,Buton Tengah,Sulawesi Tenggara
1185,93765,Bungi,74.14.02.2004,Mawasangka Timur,Kabupaten,Buton Tengah,Sulawesi Tenggara
1186,93765,Inulu,74.14.02.2006,Mawasangka Timur,Kabupaten,Buton Tengah,Sulawesi Tenggara
1187,93765,Lagili,74.14.02.2003,Mawasangka Timur,Kabupaten,Buton Tengah,Sulawesi Tenggara
1188,93765,Lasori,74.14.02.2007,Mawasangka Timur,Kabupaten,Buton Tengah,Sulawesi Tenggara
1189,93765,Wambuloli,74.14.02.2002,Mawasangka Timur,Kabupaten,Buton Tengah,Sulawesi Tenggara
1190,93765,Wantopi,74.14.02.2005,Mawasangka Timur,Kabupaten,Buton Tengah,Sulawesi Tenggara
1191,93764,Gundu Gundu,74.14.03.2009,Mawasangka Tengah,Kabupaten,Buton Tengah,Sulawesi Tenggara
1192,93764,Katukobari,74.14.03.2010,Mawasangka Tengah,Kabupaten,Buton Tengah,Sulawesi Tenggara
1193,93764,Lakorua,74.14.03.1003,Mawasangka Tengah,Kabupaten,Buton Tengah,Sulawesi Tenggara
1194,93764,Lalibo,74.14.03.2005,Mawasangka Tengah,Kabupaten,Buton Tengah,Sulawesi Tenggara
1195,93764,Langkomu,74.14.03.2006,Mawasangka Tengah,Kabupaten,Buton Tengah,Sulawesi Tenggara
1196,93764,Lanto,74.14.03.2004,Mawasangka Tengah,Kabupaten,Buton Tengah,Sulawesi Tenggara
1197,93764,Lantongau,74.14.03.2002,Mawasangka Tengah,Kabupaten,Buton Tengah,Sulawesi Tenggara
1198,93764,Morikana,74.14.03.2001,Mawasangka Tengah,Kabupaten,Buton Tengah,Sulawesi Tenggara
1199,93764,Watorumbe (Watorambe),74.14.03.2007,Mawasangka Tengah,Kabupaten,Buton Tengah,Sulawesi Tenggara
1200,93764,Watorumbe Bata (Watorambe Bata),74.14.03.2008,Mawasangka Tengah,Kabupaten,Buton Tengah,Sulawesi Tenggara
1201,93762,Air Bajo,74.14.04.2018,Mawasangka,Kabupaten,Buton Tengah,Sulawesi Tenggara
1202,93762,Balobone,74.14.04.2012,Mawasangka,Kabupaten,Buton Tengah,Sulawesi Tenggara
1203,93762,Banga,74.14.04.2004,Mawasangka,Kabupaten,Buton Tengah,Sulawesi Tenggara
1204,93762,Dahiango,74.14.04.2017,Mawasangka,Kabupaten,Buton Tengah,Sulawesi Tenggara
1205,93762,Gumanano,74.14.04.2016,Mawasangka,Kabupaten,Buton Tengah,Sulawesi Tenggara
1206,93762,Kanapa Napa,74.14.04.2007,Mawasangka,Kabupaten,Buton Tengah,Sulawesi Tenggara
1207,93762,Kancebungi,74.14.04.2015,Mawasangka,Kabupaten,Buton Tengah,Sulawesi Tenggara
1208,93762,Matara,74.14.04.2011,Mawasangka,Kabupaten,Buton Tengah,Sulawesi Tenggara
1209,93762,Mawasangka,74.14.04.1002,Mawasangka,Kabupaten,Buton Tengah,Sulawesi Tenggara
1210,93762,Napa,74.14.04.2013,Mawasangka,Kabupaten,Buton Tengah,Sulawesi Tenggara
1211,93762,Oengkolaki,74.14.04.2003,Mawasangka,Kabupaten,Buton Tengah,Sulawesi Tenggara
1212,93762,Polindu,74.14.04.2006,Mawasangka,Kabupaten,Buton Tengah,Sulawesi Tenggara
1213,93762,Tanailandu,74.14.04.2005,Mawasangka,Kabupaten,Buton Tengah,Sulawesi Tenggara
1214,93762,Terapung,74.14.04.2008,Mawasangka,Kabupaten,Buton Tengah,Sulawesi Tenggara
1215,93762,Wakambangura,74.14.04.2014,Mawasangka,Kabupaten,Buton Tengah,Sulawesi Tenggara
1216,93762,Wakambangura II,74.14.04.2019,Mawasangka,Kabupaten,Buton Tengah,Sulawesi Tenggara
1217,93762,Wasilomata II,74.14.04.2009,Mawasangka,Kabupaten,Buton Tengah,Sulawesi Tenggara
1218,93762,Wasilotama I (Wasilomata I),74.14.04.2010,Mawasangka,Kabupaten,Buton Tengah,Sulawesi Tenggara
1219,93762,Watolo,74.14.04.1001,Mawasangka,Kabupaten,Buton Tengah,Sulawesi Tenggara
1220,93786,Kolombi Matausu,74.06.22.2001,Mata Usu,Kabupaten,Bombana,Sulawesi Tenggara
1221,93786,Lamuru,74.06.22.2004,Mata Usu,Kabupaten,Bombana,Sulawesi Tenggara
1222,93786,Morengke,74.06.22.2002,Mata Usu,Kabupaten,Bombana,Sulawesi Tenggara
1223,93786,Totole,74.06.22.2005,Mata Usu,Kabupaten,Bombana,Sulawesi Tenggara
1224,93786,Wia-Wia,74.06.22.2003,Mata Usu,Kabupaten,Bombana,Sulawesi Tenggara
1225,93770,Batusampe Indah,74.06.08.2009,Mata Oleo,Kabupaten,Bombana,Sulawesi Tenggara
1226,93770,Hambawa,74.06.08.2010,Mata Oleo,Kabupaten,Bombana,Sulawesi Tenggara
1227,93770,Laloa,74.06.08.2008,Mata Oleo,Kabupaten,Bombana,Sulawesi Tenggara
1228,93770,Liano,74.06.08.2002,Mata Oleo,Kabupaten,Bombana,Sulawesi Tenggara
1229,93770,Lora,74.06.08.2004,Mata Oleo,Kabupaten,Bombana,Sulawesi Tenggara
1230,93770,Mawar,74.06.08.2007,Mata Oleo,Kabupaten,Bombana,Sulawesi Tenggara
1231,93770,Pomontoro,74.06.08.2001,Mata Oleo,Kabupaten,Bombana,Sulawesi Tenggara
1232,93770,Pu'u Waeya,74.06.08.2011,Mata Oleo,Kabupaten,Bombana,Sulawesi Tenggara
1233,93770,Pulau Tambako,74.06.08.2003,Mata Oleo,Kabupaten,Bombana,Sulawesi Tenggara
1234,93770,Tajuncu,74.06.08.2006,Mata Oleo,Kabupaten,Bombana,Sulawesi Tenggara
1235,93770,Toli-Toli,74.06.08.2005,Mata Oleo,Kabupaten,Bombana,Sulawesi Tenggara
1236,93666,Marobo,74.03.31.2001,Marobo,Kabupaten,Muna,Sulawesi Tenggara
1237,93666,Pasikuta,74.03.31.2003,Marobo,Kabupaten,Muna,Sulawesi Tenggara
1238,93666,Poaroha,74.03.31.2005,Marobo,Kabupaten,Muna,Sulawesi Tenggara
1239,93666,Tapitapi,74.03.31.2004,Marobo,Kabupaten,Muna,Sulawesi Tenggara
1240,93666,Wadolao / Wadolau,74.03.31.2002,Marobo,Kabupaten,Muna,Sulawesi Tenggara
1241,93112,Alolama,74.71.01.1009,Mandonga,Kota,Kendari,Sulawesi Tenggara
1242,93111,Anggilowu,74.71.01.1010,Mandonga,Kota,Kendari,Sulawesi Tenggara
1243,93111,Korumba,74.71.01.1006,Mandonga,Kota,Kendari,Sulawesi Tenggara
1244,93113,Labibia,74.71.01.1007,Mandonga,Kota,Kendari,Sulawesi Tenggara
1245,93111,Mandonga,74.71.01.1005,Mandonga,Kota,Kendari,Sulawesi Tenggara
1246,93113,Wawombalata,74.71.01.1008,Mandonga,Kota,Kendari,Sulawesi Tenggara
1247,93683,Langkoroni,74.03.07.2001,Maligano,Kabupaten,Muna,Sulawesi Tenggara
1248,93683,Lapole,74.03.07.2005,Maligano,Kabupaten,Muna,Sulawesi Tenggara
1249,93683,Latompa,74.03.07.2002,Maligano,Kabupaten,Muna,Sulawesi Tenggara
1250,93683,Maligano,74.03.07.2004,Maligano,Kabupaten,Muna,Sulawesi Tenggara
1251,93683,Poharua (Pohorua),74.03.07.2007,Maligano,Kabupaten,Muna,Sulawesi Tenggara
1252,93683,Raimuna,74.03.07.2003,Maligano,Kabupaten,Muna,Sulawesi Tenggara
1253,93643,Abadi Jaya,74.13.06.2004,Maginti,Kabupaten,Muna Barat,Sulawesi Tenggara
1254,93643,Bangko,74.13.06.2007,Maginti,Kabupaten,Muna Barat,Sulawesi Tenggara
1255,93643,Gala,74.13.06.2005,Maginti,Kabupaten,Muna Barat,Sulawesi Tenggara
1256,93643,Kangkunawe,74.13.06.2001,Maginti,Kabupaten,Muna Barat,Sulawesi Tenggara
1257,93643,Kembar Maminasa,74.13.06.2008,Maginti,Kabupaten,Muna Barat,Sulawesi Tenggara
1258,93643,Maginti,74.13.06.2002,Maginti,Kabupaten,Muna Barat,Sulawesi Tenggara
1259,93643,Pajala,74.13.06.2003,Maginti,Kabupaten,Muna Barat,Sulawesi Tenggara
1260,93643,Pasipadanga,74.13.06.2006,Maginti,Kabupaten,Muna Barat,Sulawesi Tenggara
1261,93626,Kondongia,74.03.18.2003,Lohia,Kabupaten,Muna,Sulawesi Tenggara
1262,93626,Korihi,74.03.18.2008,Lohia,Kabupaten,Muna,Sulawesi Tenggara
1263,93626,Lakarinta,74.03.18.2009,Lohia,Kabupaten,Muna,Sulawesi Tenggara
1264,93626,Liangkobori,74.03.18.2001,Lohia,Kabupaten,Muna,Sulawesi Tenggara
1265,93626,Loghiya,74.03.18.2006,Lohia,Kabupaten,Muna,Sulawesi Tenggara
1266,93626,Lohia,74.03.18.2007,Lohia,Kabupaten,Muna,Sulawesi Tenggara
1267,93626,Maabholu,74.03.18.2002,Lohia,Kabupaten,Muna,Sulawesi Tenggara
1268,93626,Mantobua,74.03.18.2005,Lohia,Kabupaten,Muna,Sulawesi Tenggara
1269,93626,Waara (Waarah),74.03.18.2004,Lohia,Kabupaten,Muna,Sulawesi Tenggara
1270,93581,Iwoikondo,74.11.02.2004,Loea,Kabupaten,Kolaka Timur,Sulawesi Tenggara
1271,93581,Lalowura,74.11.02.2006,Loea,Kabupaten,Kolaka Timur,Sulawesi Tenggara
1272,93581,Lamoare,74.11.02.2003,Loea,Kabupaten,Kolaka Timur,Sulawesi Tenggara
1273,93581,Loea,74.11.02.1001,Loea,Kabupaten,Kolaka Timur,Sulawesi Tenggara
1274,93581,Mataiwoi,74.11.02.2007,Loea,Kabupaten,Kolaka Timur,Sulawesi Tenggara
1275,93581,Peatoa,74.11.02.2005,Loea,Kabupaten,Kolaka Timur,Sulawesi Tenggara
1276,93581,Simbalae (Simbalai),74.11.02.1002,Loea,Kabupaten,Kolaka Timur,Sulawesi Tenggara
1277,93581,Teposua,74.11.02.2008,Loea,Kabupaten,Kolaka Timur,Sulawesi Tenggara
1278,93581,Tinomu,74.11.02.2009,Loea,Kabupaten,Kolaka Timur,Sulawesi Tenggara
1279,93350,Alo-Alo,74.09.06.2001,Lembo,Kabupaten,Konawe Utara,Sulawesi Tenggara
1280,93350,Bungguosu,74.09.06.2005,Lembo,Kabupaten,Konawe Utara,Sulawesi Tenggara
1281,93350,Lapulu,74.09.06.2011,Lembo,Kabupaten,Konawe Utara,Sulawesi Tenggara
1282,93350,Laramo,74.09.06.2010,Lembo,Kabupaten,Konawe Utara,Sulawesi Tenggara
1283,93350,Lembo,74.09.06.1004,Lembo,Kabupaten,Konawe Utara,Sulawesi Tenggara
1284,93350,Padaleu,74.09.06.2003,Lembo,Kabupaten,Konawe Utara,Sulawesi Tenggara
1285,93350,Pasir Putih,74.09.06.2009,Lembo,Kabupaten,Konawe Utara,Sulawesi Tenggara
1286,93350,Puulemo,74.09.06.2002,Lembo,Kabupaten,Konawe Utara,Sulawesi Tenggara
1287,93350,Puusiambu,74.09.06.2006,Lembo,Kabupaten,Konawe Utara,Sulawesi Tenggara
1288,93350,Taipa,74.09.06.2007,Lembo,Kabupaten,Konawe Utara,Sulawesi Tenggara
1289,93350,Tongalino (Tonggalino),74.09.06.2008,Lembo,Kabupaten,Konawe Utara,Sulawesi Tenggara
1290,93350,Watuwula,74.09.06.2012,Lembo,Kabupaten,Konawe Utara,Sulawesi Tenggara
1291,93733,Kalia Lia,74.72.07.1002,Lea-Lea,Kota,Bau Bau,Sulawesi Tenggara
1292,93733,Kantalai,74.72.07.1005,Lea-Lea,Kota,Bau Bau,Sulawesi Tenggara
1293,93733,Kolese,74.72.07.1004,Lea-Lea,Kota,Bau Bau,Sulawesi Tenggara
1294,93733,Lowu-Lowu,74.72.07.1001,Lea-Lea,Kota,Bau Bau,Sulawesi Tenggara
1295,93733,Palabusa,74.72.07.1003,Lea-Lea,Kota,Bau Bau,Sulawesi Tenggara
1296,93651,Lagadi,74.13.03.2001,Lawa,Kabupaten,Muna Barat,Sulawesi Tenggara
1297,93651,Lalemba,74.13.03.2004,Lawa,Kabupaten,Muna Barat,Sulawesi Tenggara
1298,93651,Lapadaku,74.13.03.1008,Lawa,Kabupaten,Muna Barat,Sulawesi Tenggara
1299,93651,Latompe,74.13.03.2003,Lawa,Kabupaten,Muna Barat,Sulawesi Tenggara
1300,93651,Latugho,74.13.03.2002,Lawa,Kabupaten,Muna Barat,Sulawesi Tenggara
1301,93651,Madampi,74.13.03.2005,Lawa,Kabupaten,Muna Barat,Sulawesi Tenggara
1302,93651,Wamelai,74.13.03.1007,Lawa,Kabupaten,Muna Barat,Sulawesi Tenggara
1303,93651,Watumela,74.13.03.2006,Lawa,Kabupaten,Muna Barat,Sulawesi Tenggara
1304,93471,Ambekaeri Utama,74.02.16.2002,Latoma,Kabupaten,Konawe,Sulawesi Tenggara
1305,93471,Amboniki,74.02.16.2004,Latoma,Kabupaten,Konawe,Sulawesi Tenggara
1306,93471,Andoluto,74.02.16.2008,Latoma,Kabupaten,Konawe,Sulawesi Tenggara
1307,93471,Angonga,74.02.16.2012,Latoma,Kabupaten,Konawe,Sulawesi Tenggara
1308,93471,Lalowata,74.02.16.2009,Latoma,Kabupaten,Konawe,Sulawesi Tenggara
1309,93471,Latoma Jaya,74.02.16.2001,Latoma,Kabupaten,Konawe,Sulawesi Tenggara
1310,93471,Nesowi,74.02.16.2006,Latoma,Kabupaten,Konawe,Sulawesi Tenggara
1311,93471,Pinole,74.02.16.2005,Latoma,Kabupaten,Konawe,Sulawesi Tenggara
1312,93471,Titiowa (Titioa),74.02.16.2010,Latoma,Kabupaten,Konawe,Sulawesi Tenggara
1313,93471,Wawolatoma,74.02.16.2007,Latoma,Kabupaten,Konawe,Sulawesi Tenggara
1314,93471,Waworaha,74.02.16.1003,Latoma,Kabupaten,Konawe,Sulawesi Tenggara
1315,93512,Induha,74.01.14.1006,Latambaga,Kabupaten,Kolaka,Sulawesi Tenggara
1316,93512,Kolakaasi (Kolakaasih),74.01.14.1002,Latambaga,Kabupaten,Kolaka,Sulawesi Tenggara
1317,93514,Latambaga,74.01.14.1004,Latambaga,Kabupaten,Kolaka,Sulawesi Tenggara
1318,93512,Mangolo,74.01.14.1001,Latambaga,Kabupaten,Kolaka,Sulawesi Tenggara
1319,93514,Sakuli,74.01.14.1005,Latambaga,Kabupaten,Kolaka,Sulawesi Tenggara
1320,93514,Sea,74.01.14.1003,Latambaga,Kabupaten,Kolaka,Sulawesi Tenggara
1321,93512,Ulunggolaka,74.01.14.1007,Latambaga,Kabupaten,Kolaka,Sulawesi Tenggara
1322,93916,Babussalam,74.08.01.2016,Lasusua,Kabupaten,Kolaka Utara,Sulawesi Tenggara
1323,93916,Batu Ganda Permai,74.08.01.2017,Lasusua,Kabupaten,Kolaka Utara,Sulawesi Tenggara
1324,93911,Lasusua,74.08.01.1001,Lasusua,Kabupaten,Kolaka Utara,Sulawesi Tenggara
1325,93916,Patowonua,74.08.01.2015,Lasusua,Kabupaten,Kolaka Utara,Sulawesi Tenggara
1326,93915,Pitulua,74.08.01.2002,Lasusua,Kabupaten,Kolaka Utara,Sulawesi Tenggara
1327,93912,Ponggiha,74.08.01.2008,Lasusua,Kabupaten,Kolaka Utara,Sulawesi Tenggara
1328,93916,Puncak Monapa (Pucak Monapa),74.08.01.2018,Lasusua,Kabupaten,Kolaka Utara,Sulawesi Tenggara
1329,93916,Rante Limbong (Rante Limbung),74.08.01.2003,Lasusua,Kabupaten,Kolaka Utara,Sulawesi Tenggara
1330,93916,Sulaho,74.08.01.2010,Lasusua,Kabupaten,Kolaka Utara,Sulawesi Tenggara
1331,93916,Tojabi,74.08.01.2007,Lasusua,Kabupaten,Kolaka Utara,Sulawesi Tenggara
1332,93916,Totallang,74.08.01.2006,Lasusua,Kabupaten,Kolaka Utara,Sulawesi Tenggara
1333,93916,Watuliwu,74.08.01.2009,Lasusua,Kabupaten,Kolaka Utara,Sulawesi Tenggara
1334,93341,Boedingi,74.09.12.2006,Lasolo Kepulauan,Kabupaten,Konawe Utara,Sulawesi Tenggara
1335,93341,Boenaga,74.09.12.2001,Lasolo Kepulauan,Kabupaten,Konawe Utara,Sulawesi Tenggara
1336,93341,Labengki,74.09.12.2003,Lasolo Kepulauan,Kabupaten,Konawe Utara,Sulawesi Tenggara
1337,93341,Morombo,74.09.12.2004,Lasolo Kepulauan,Kabupaten,Konawe Utara,Sulawesi Tenggara
1338,93341,Tapunopaka,74.09.12.2005,Lasolo Kepulauan,Kabupaten,Konawe Utara,Sulawesi Tenggara
1339,93341,Waturambaha,74.09.12.2002,Lasolo Kepulauan,Kabupaten,Konawe Utara,Sulawesi Tenggara
1340,93352,Abola,74.09.05.2006,Lasolo,Kabupaten,Konawe Utara,Sulawesi Tenggara
1341,93352,Andeo,74.09.05.2008,Lasolo,Kabupaten,Konawe Utara,Sulawesi Tenggara
1342,93352,Andumowu,74.09.05.2010,Lasolo,Kabupaten,Konawe Utara,Sulawesi Tenggara
1343,93352,Basule,74.09.05.2011,Lasolo,Kabupaten,Konawe Utara,Sulawesi Tenggara
1344,93352,Belalo,74.09.05.2007,Lasolo,Kabupaten,Konawe Utara,Sulawesi Tenggara
1345,93352,Lalowaru,74.09.05.2025,Lasolo,Kabupaten,Konawe Utara,Sulawesi Tenggara
1346,93352,Lametono,74.09.05.2017,Lasolo,Kabupaten,Konawe Utara,Sulawesi Tenggara
1347,93352,Larodangge,74.09.05.2020,Lasolo,Kabupaten,Konawe Utara,Sulawesi Tenggara
1348,93352,Marombo Pantai (Morombo Pantai),74.09.05.2030,Lasolo,Kabupaten,Konawe Utara,Sulawesi Tenggara
1349,93352,Matapila,74.09.05.2009,Lasolo,Kabupaten,Konawe Utara,Sulawesi Tenggara
1350,93352,Muara Tinobu,74.09.05.2026,Lasolo,Kabupaten,Konawe Utara,Sulawesi Tenggara
1351,93352,Otole,74.09.05.2013,Lasolo,Kabupaten,Konawe Utara,Sulawesi Tenggara
1352,93352,Tetelupai,74.09.05.2024,Lasolo,Kabupaten,Konawe Utara,Sulawesi Tenggara
1353,93352,Tinobu,74.09.05.1001,Lasolo,Kabupaten,Konawe Utara,Sulawesi Tenggara
1354,93352,Tokowuta,74.09.05.2031,Lasolo,Kabupaten,Konawe Utara,Sulawesi Tenggara
1355,93352,Watukila,74.09.05.2016,Lasolo,Kabupaten,Konawe Utara,Sulawesi Tenggara
1356,93352,Waworaha,74.09.05.2012,Lasolo,Kabupaten,Konawe Utara,Sulawesi Tenggara
1357,93757,Ambuau Indah,74.04.24.2006,Lasalimu Selatan,Kabupaten,Buton,Sulawesi Tenggara
1358,93757,Ambuau Togo,74.04.24.2022,Lasalimu Selatan,Kabupaten,Buton,Sulawesi Tenggara
1359,93757,Balimu,74.04.24.2023,Lasalimu Selatan,Kabupaten,Buton,Sulawesi Tenggara
1360,93757,Harapan Jaya,74.04.24.2017,Lasalimu Selatan,Kabupaten,Buton,Sulawesi Tenggara
1361,93757,Kinapani Makmur,74.04.24.2007,Lasalimu Selatan,Kabupaten,Buton,Sulawesi Tenggara
1362,93757,Lasalimu,74.04.24.2010,Lasalimu Selatan,Kabupaten,Buton,Sulawesi Tenggara
1363,93757,Megabahari,74.04.24.2019,Lasalimu Selatan,Kabupaten,Buton,Sulawesi Tenggara
1364,93757,Mopaano/Mopano,74.04.24.2008,Lasalimu Selatan,Kabupaten,Buton,Sulawesi Tenggara
1365,93757,Mulya Jaya (Mulia Jaya),74.04.24.2016,Lasalimu Selatan,Kabupaten,Buton,Sulawesi Tenggara
1366,93757,Rejo Sari,74.04.24.2021,Lasalimu Selatan,Kabupaten,Buton,Sulawesi Tenggara
1367,93757,Sangia Arano,74.04.24.2018,Lasalimu Selatan,Kabupaten,Buton,Sulawesi Tenggara
1368,93757,Siomanuru,74.04.24.2013,Lasalimu Selatan,Kabupaten,Buton,Sulawesi Tenggara
1369,93757,Siontapina (Siotapina),74.04.24.2012,Lasalimu Selatan,Kabupaten,Buton,Sulawesi Tenggara
1370,93757,Sumber Agung,74.04.24.2020,Lasalimu Selatan,Kabupaten,Buton,Sulawesi Tenggara
1371,93757,Umalaoge,74.04.24.2009,Lasalimu Selatan,Kabupaten,Buton,Sulawesi Tenggara
1372,93757,Wajah Jaya (Wajahjaya),74.04.24.2011,Lasalimu Selatan,Kabupaten,Buton,Sulawesi Tenggara
1373,93756,Benteng,74.04.23.2013,Lasalimu,Kabupaten,Buton,Sulawesi Tenggara
1374,93756,Bonelalo,74.04.23.2007,Lasalimu,Kabupaten,Buton,Sulawesi Tenggara
1375,93756,Kakenauwe,74.04.23.2001,Lasalimu,Kabupaten,Buton,Sulawesi Tenggara
1376,93756,Kamaru,74.04.23.1005,Lasalimu,Kabupaten,Buton,Sulawesi Tenggara
1377,93756,Lasembangi,74.04.23.2006,Lasalimu,Kabupaten,Buton,Sulawesi Tenggara
1378,93756,Lawele,74.04.23.2003,Lasalimu,Kabupaten,Buton,Sulawesi Tenggara
1379,93756,Nambo,74.04.23.2015,Lasalimu,Kabupaten,Buton,Sulawesi Tenggara
1380,93756,Sribatara,74.04.23.2010,Lasalimu,Kabupaten,Buton,Sulawesi Tenggara
1381,93756,Suandala,74.04.23.2004,Lasalimu,Kabupaten,Buton,Sulawesi Tenggara
1382,93756,Talaga Baru,74.04.23.2014,Lasalimu,Kabupaten,Buton,Sulawesi Tenggara
1383,93756,Togomangura (Togo Mangura),74.04.23.2011,Lasalimu,Kabupaten,Buton,Sulawesi Tenggara
1384,93756,Wagari,74.04.23.2009,Lasalimu,Kabupaten,Buton,Sulawesi Tenggara
1385,93756,Waoleona,74.04.23.2002,Lasalimu,Kabupaten,Buton,Sulawesi Tenggara
1386,93756,Wasambaa,74.04.23.2012,Lasalimu,Kabupaten,Buton,Sulawesi Tenggara
1387,93756,Wasuamba,74.04.23.2008,Lasalimu,Kabupaten,Buton,Sulawesi Tenggara
1388,93621,Bangun Sari,74.03.14.2001,Lasalepa,Kabupaten,Muna,Sulawesi Tenggara
1389,93621,Bonea,74.03.14.2003,Lasalepa,Kabupaten,Muna,Sulawesi Tenggara
1390,93621,Kombungo,74.03.14.2004,Lasalepa,Kabupaten,Muna,Sulawesi Tenggara
1391,93621,Labone,74.03.14.2002,Lasalepa,Kabupaten,Muna,Sulawesi Tenggara
1392,93621,Labunti,74.03.14.2005,Lasalepa,Kabupaten,Muna,Sulawesi Tenggara
1393,93621,Lasalepa,74.03.14.2007,Lasalepa,Kabupaten,Muna,Sulawesi Tenggara
1394,93621,Parida,74.03.14.2006,Lasalepa,Kabupaten,Muna,Sulawesi Tenggara
1395,93746,Burangasi,74.15.03.2004,Lapandewa,Kabupaten,Buton Selatan,Sulawesi Tenggara
1396,93746,Burangasi Rumbia,74.15.03.2003,Lapandewa,Kabupaten,Buton Selatan,Sulawesi Tenggara
1397,93746,Gaya Baru (Gayabaru),74.15.03.2002,Lapandewa,Kabupaten,Buton Selatan,Sulawesi Tenggara
1398,93746,Lapandewa,74.15.03.2006,Lapandewa,Kabupaten,Buton Selatan,Sulawesi Tenggara
1399,93746,Lapandewa Jaya,74.15.03.2007,Lapandewa,Kabupaten,Buton Selatan,Sulawesi Tenggara
1400,93746,Lapandewa Kaindea (Lapandewa Kaidea),74.15.03.2005,Lapandewa,Kabupaten,Buton Selatan,Sulawesi Tenggara
1401,93746,Lapandewa Makmur,74.15.03.2001,Lapandewa,Kabupaten,Buton Selatan,Sulawesi Tenggara
1402,93892,Batu Jaya,74.05.11.2006,Laonti,Kabupaten,Konawe Selatan,Sulawesi Tenggara
1403,93892,Cempedak,74.05.11.2016,Laonti,Kabupaten,Konawe Selatan,Sulawesi Tenggara
1404,93892,Kondono,74.05.11.2013,Laonti,Kabupaten,Konawe Selatan,Sulawesi Tenggara
1405,93892,Labaun Beropa (Labuan Beropa),74.05.11.2001,Laonti,Kabupaten,Konawe Selatan,Sulawesi Tenggara
1406,93892,Labotaone,74.05.11.2005,Laonti,Kabupaten,Konawe Selatan,Sulawesi Tenggara
1407,93892,Laonti,74.05.11.2017,Laonti,Kabupaten,Konawe Selatan,Sulawesi Tenggara
1408,93892,Lawisata,74.05.11.2012,Laonti,Kabupaten,Konawe Selatan,Sulawesi Tenggara
1409,93892,Malaringgi,74.05.11.2008,Laonti,Kabupaten,Konawe Selatan,Sulawesi Tenggara
1410,93892,Namu,74.05.11.2007,Laonti,Kabupaten,Konawe Selatan,Sulawesi Tenggara
1411,93892,Peo Indah,74.05.11.2014,Laonti,Kabupaten,Konawe Selatan,Sulawesi Tenggara
1412,93892,Puudirangga (Puundirangga),74.05.11.2015,Laonti,Kabupaten,Konawe Selatan,Sulawesi Tenggara
1413,93892,Rumbia Rumbia,74.05.11.2018,Laonti,Kabupaten,Konawe Selatan,Sulawesi Tenggara
1414,93892,Sangi-Sangi,74.05.11.2010,Laonti,Kabupaten,Konawe Selatan,Sulawesi Tenggara
1415,93892,Tambeanga,74.05.11.2004,Laonti,Kabupaten,Konawe Selatan,Sulawesi Tenggara
1416,93892,Tambolosu,74.05.11.2002,Laonti,Kabupaten,Konawe Selatan,Sulawesi Tenggara
1417,93892,Tue Tue,74.05.11.2009,Laonti,Kabupaten,Konawe Selatan,Sulawesi Tenggara
1418,93892,Ulu Sawa,74.05.11.2011,Laonti,Kabupaten,Konawe Selatan,Sulawesi Tenggara
1419,93892,Wandaeha,74.05.11.2020,Laonti,Kabupaten,Konawe Selatan,Sulawesi Tenggara
1420,93892,Woru Woru,74.05.11.2003,Laonti,Kabupaten,Konawe Selatan,Sulawesi Tenggara
1421,93774,Anugerah,74.06.21.2006,Lantari Jaya,Kabupaten,Bombana,Sulawesi Tenggara
1422,93774,Kalaero,74.06.21.2007,Lantari Jaya,Kabupaten,Bombana,Sulawesi Tenggara
1423,93774,Lambikasi,74.06.21.2001,Lantari Jaya,Kabupaten,Bombana,Sulawesi Tenggara
1424,93774,Langkowala,74.06.21.2003,Lantari Jaya,Kabupaten,Bombana,Sulawesi Tenggara
1425,93774,Lantari,74.06.21.2002,Lantari Jaya,Kabupaten,Bombana,Sulawesi Tenggara
1426,93774,Pasare Apua,74.06.21.2004,Lantari Jaya,Kabupaten,Bombana,Sulawesi Tenggara
1427,93774,Rarongkeu,74.06.21.2009,Lantari Jaya,Kabupaten,Bombana,Sulawesi Tenggara
1428,93774,Tinabite,74.06.21.2008,Lantari Jaya,Kabupaten,Bombana,Sulawesi Tenggara
1429,93774,Watu-Watu,74.06.21.2010,Lantari Jaya,Kabupaten,Bombana,Sulawesi Tenggara
1430,93351,Alenggo,74.09.03.2009,Langgikima,Kabupaten,Konawe Utara,Sulawesi Tenggara
1431,93351,Lameruru,74.09.03.2002,Langgikima,Kabupaten,Konawe Utara,Sulawesi Tenggara
1432,93351,Langgikima,74.09.03.1003,Langgikima,Kabupaten,Konawe Utara,Sulawesi Tenggara
1433,93351,Mekar Jaya,74.09.03.2010,Langgikima,Kabupaten,Konawe Utara,Sulawesi Tenggara
1434,93351,Molore,74.09.03.2001,Langgikima,Kabupaten,Konawe Utara,Sulawesi Tenggara
1435,93351,Molore Pantai,74.09.03.2011,Langgikima,Kabupaten,Konawe Utara,Sulawesi Tenggara
1436,93351,Morombo Pantai,74.09.03.2005,Langgikima,Kabupaten,Konawe Utara,Sulawesi Tenggara
1437,93351,Ngapa Inia,74.09.03.2012,Langgikima,Kabupaten,Konawe Utara,Sulawesi Tenggara
1438,93351,Pariama,74.09.03.2007,Langgikima,Kabupaten,Konawe Utara,Sulawesi Tenggara
1439,93351,Polora Indah,74.09.03.2006,Langgikima,Kabupaten,Konawe Utara,Sulawesi Tenggara
1440,93351,Sarimukti,74.09.03.2004,Langgikima,Kabupaten,Konawe Utara,Sulawesi Tenggara
1441,93351,Tobimeita,74.09.03.2008,Langgikima,Kabupaten,Konawe Utara,Sulawesi Tenggara
1442,93873,Abenggi,74.05.05.2022,Landono,Kabupaten,Konawe Selatan,Sulawesi Tenggara
1443,93873,Amotowo,74.05.05.2016,Landono,Kabupaten,Konawe Selatan,Sulawesi Tenggara
1444,93873,Arongo,74.05.05.2023,Landono,Kabupaten,Konawe Selatan,Sulawesi Tenggara
1445,93873,Endanga,74.05.05.2024,Landono,Kabupaten,Konawe Selatan,Sulawesi Tenggara
1446,93873,Lakomea,74.05.05.2035,Landono,Kabupaten,Konawe Selatan,Sulawesi Tenggara
1447,93873,Lalonggapu,74.05.05.2008,Landono,Kabupaten,Konawe Selatan,Sulawesi Tenggara
1448,93873,Landono,74.05.05.1001,Landono,Kabupaten,Konawe Selatan,Sulawesi Tenggara
1449,93873,Landono Dua,74.05.05.2015,Landono,Kabupaten,Konawe Selatan,Sulawesi Tenggara
1450,93873,Matabenua / Watawunua,74.05.05.2009,Landono,Kabupaten,Konawe Selatan,Sulawesi Tenggara
1451,93873,Morini Mulya,74.05.05.2042,Landono,Kabupaten,Konawe Selatan,Sulawesi Tenggara
1452,93873,Tridana Mulia,74.05.05.2014,Landono,Kabupaten,Konawe Selatan,Sulawesi Tenggara
1453,93873,Wonua Koa,74.05.05.2028,Landono,Kabupaten,Konawe Selatan,Sulawesi Tenggara
1454,93873,Wonua Sangia,74.05.05.2032,Landono,Kabupaten,Konawe Selatan,Sulawesi Tenggara
1455,93353,Hialu,74.09.13.2011,Landawe,Kabupaten,Konawe Utara,Sulawesi Tenggara
1456,93353,Hialu Utama,74.09.13.2005,Landawe,Kabupaten,Konawe Utara,Sulawesi Tenggara
1457,93353,Kolosua,74.09.13.2003,Landawe,Kabupaten,Konawe Utara,Sulawesi Tenggara
1458,93353,Kuratao,74.09.13.2001,Landawe,Kabupaten,Konawe Utara,Sulawesi Tenggara
1459,93353,Landawe Utama,74.09.13.2009,Landawe,Kabupaten,Konawe Utara,Sulawesi Tenggara
1460,93353,Landiwo,74.09.13.2002,Landawe,Kabupaten,Konawe Utara,Sulawesi Tenggara
1461,93353,Laumoso,74.09.13.2004,Landawe,Kabupaten,Konawe Utara,Sulawesi Tenggara
1462,93353,Mata Benua,74.09.13.2010,Landawe,Kabupaten,Konawe Utara,Sulawesi Tenggara
1463,93353,Matabaho,74.09.13.2008,Landawe,Kabupaten,Konawe Utara,Sulawesi Tenggara
1464,93353,Polo polora,74.09.13.2006,Landawe,Kabupaten,Konawe Utara,Sulawesi Tenggara
1465,93353,Tambakua,74.09.13.2007,Landawe,Kabupaten,Konawe Utara,Sulawesi Tenggara
1466,93464,Amberi,74.02.01.2011,Lambuya,Kabupaten,Konawe,Sulawesi Tenggara
1467,93464,Asaki (Isaki),74.02.01.2007,Lambuya,Kabupaten,Konawe,Sulawesi Tenggara
1468,93464,Awuliti (Wawuliti),74.02.01.2006,Lambuya,Kabupaten,Konawe,Sulawesi Tenggara
1469,93464,Lambuya,74.02.01.1001,Lambuya,Kabupaten,Konawe,Sulawesi Tenggara
1470,93464,Meraka,74.02.01.2027,Lambuya,Kabupaten,Konawe,Sulawesi Tenggara
1471,93464,Tanggobu,74.02.01.2015,Lambuya,Kabupaten,Konawe,Sulawesi Tenggara
1472,93464,Tetembomua,74.02.01.2037,Lambuya,Kabupaten,Konawe,Sulawesi Tenggara
1473,93464,Wanua Hoa (Wanuahoa),74.02.01.2035,Lambuya,Kabupaten,Konawe,Sulawesi Tenggara
1474,93464,Watarema,74.02.01.2036,Lambuya,Kabupaten,Konawe,Sulawesi Tenggara
1475,93464,Waworaha,74.02.01.2012,Lambuya,Kabupaten,Konawe,Sulawesi Tenggara
1476,93578,Atolanu (Atulano),74.11.05.2008,Lambandia,Kabupaten,Kolaka Timur,Sulawesi Tenggara
1477,93578,Bou,74.11.05.2010,Lambandia,Kabupaten,Kolaka Timur,Sulawesi Tenggara
1478,93578,Inotu,74.11.05.2013,Lambandia,Kabupaten,Kolaka Timur,Sulawesi Tenggara
1479,93578,Lalolere,74.11.05.2018,Lambandia,Kabupaten,Kolaka Timur,Sulawesi Tenggara
1480,93578,Lambandia,74.11.05.2012,Lambandia,Kabupaten,Kolaka Timur,Sulawesi Tenggara
1481,93578,Lere Jaya,74.11.05.2009,Lambandia,Kabupaten,Kolaka Timur,Sulawesi Tenggara
1482,93578,Lowa,74.11.05.2007,Lambandia,Kabupaten,Kolaka Timur,Sulawesi Tenggara
1483,93578,Mokupa,74.11.05.2003,Lambandia,Kabupaten,Kolaka Timur,Sulawesi Tenggara
1484,93578,Mondoke,74.11.05.2022,Lambandia,Kabupaten,Kolaka Timur,Sulawesi Tenggara
1485,93578,Onemanu,74.11.05.2026,Lambandia,Kabupaten,Kolaka Timur,Sulawesi Tenggara
1486,93578,Penanggo Jaya,74.11.05.1002,Lambandia,Kabupaten,Kolaka Timur,Sulawesi Tenggara
1487,93578,Penanggoosi,74.11.05.2005,Lambandia,Kabupaten,Kolaka Timur,Sulawesi Tenggara
1488,93578,Penanggootu,74.11.05.2021,Lambandia,Kabupaten,Kolaka Timur,Sulawesi Tenggara
1489,93578,Pomborea,74.11.05.2019,Lambandia,Kabupaten,Kolaka Timur,Sulawesi Tenggara
1490,93578,Wonuambuteo,74.11.05.2001,Lambandia,Kabupaten,Kolaka Timur,Sulawesi Tenggara
1491,93956,Lambai,74.08.08.2001,Lambai,Kabupaten,Kolaka Utara,Sulawesi Tenggara
1492,93956,Lapasi-Pasi,74.08.08.2003,Lambai,Kabupaten,Kolaka Utara,Sulawesi Tenggara
1493,93956,Latawaro,74.08.08.2002,Lambai,Kabupaten,Kolaka Utara,Sulawesi Tenggara
1494,93956,Raoda,74.08.08.2004,Lambai,Kabupaten,Kolaka Utara,Sulawesi Tenggara
1495,93956,Tebongeano (Tebagiano),74.08.08.2007,Lambai,Kabupaten,Kolaka Utara,Sulawesi Tenggara
1496,93956,Woise,74.08.08.2005,Lambai,Kabupaten,Kolaka Utara,Sulawesi Tenggara
1497,93956,Woitombo,74.08.08.2006,Lambai,Kabupaten,Kolaka Utara,Sulawesi Tenggara
1498,93450,Batu Gong,74.02.36.2011,Lalonggasumeeto,Kabupaten,Konawe,Sulawesi Tenggara
1499,93450,Bumi Indah,74.02.36.2006,Lalonggasumeeto,Kabupaten,Konawe,Sulawesi Tenggara
1500,93450,Lalombonda,74.02.36.2004,Lalonggasumeeto,Kabupaten,Konawe,Sulawesi Tenggara
1501,93450,Lolanggasumeeto,74.02.36.2007,Lalonggasumeeto,Kabupaten,Konawe,Sulawesi Tenggara
1502,93450,Nii Tanasa,74.02.36.2002,Lalonggasumeeto,Kabupaten,Konawe,Sulawesi Tenggara
1503,93450,Puuwonua,74.02.36.2005,Lalonggasumeeto,Kabupaten,Konawe,Sulawesi Tenggara
1504,93450,Rapambinopaka,74.02.36.2003,Lalonggasumeeto,Kabupaten,Konawe,Sulawesi Tenggara
1505,93450,Toli Toli,74.02.36.2001,Lalonggasumeeto,Kabupaten,Konawe,Sulawesi Tenggara
1506,93450,Toolawawo,74.02.36.2008,Lalonggasumeeto,Kabupaten,Konawe,Sulawesi Tenggara
1507,93450,Watunggarandu,74.02.36.1009,Lalonggasumeeto,Kabupaten,Konawe,Sulawesi Tenggara
1508,93450,Watunggarandu (Watunggarandu II),74.02.36.2012,Lalonggasumeeto,Kabupaten,Konawe,Sulawesi Tenggara
1509,93450,Wawobungi,74.02.36.2010,Lalonggasumeeto,Kabupaten,Konawe,Sulawesi Tenggara
1510,93572,Keisio (Keiso),74.11.06.2002,Lalolae,Kabupaten,Kolaka Timur,Sulawesi Tenggara
1511,93572,Lalolae,74.11.06.1001,Lalolae,Kabupaten,Kolaka Timur,Sulawesi Tenggara
1512,93572,Lalosingi,74.11.06.2004,Lalolae,Kabupaten,Kolaka Timur,Sulawesi Tenggara
1513,93572,Talodo (Talado),74.11.06.2003,Lalolae,Kabupaten,Kolaka Timur,Sulawesi Tenggara
1514,93572,Wesalo,74.11.06.2005,Lalolae,Kabupaten,Kolaka Timur,Sulawesi Tenggara
1515,93885,Atari Indah,74.05.12.1005,Lalembuu,Kabupaten,Konawe Selatan,Sulawesi Tenggara
1516,93885,Atari Jaya,74.05.12.2002,Lalembuu,Kabupaten,Konawe Selatan,Sulawesi Tenggara
1517,93885,Kapuwila,74.05.12.2006,Lalembuu,Kabupaten,Konawe Selatan,Sulawesi Tenggara
1518,93885,Lalouesamba,74.05.12.2018,Lalembuu,Kabupaten,Konawe Selatan,Sulawesi Tenggara
1519,93885,Lambandia,74.05.12.2004,Lalembuu,Kabupaten,Konawe Selatan,Sulawesi Tenggara
1520,93885,Lambodi Jaya,74.05.12.2001,Lalembuu,Kabupaten,Konawe Selatan,Sulawesi Tenggara
1521,93885,Lelembu Jaya (Lalembu Jaya),74.05.12.2010,Lalembuu,Kabupaten,Konawe Selatan,Sulawesi Tenggara
1522,93885,Merongga Raya,74.05.12.2015,Lalembuu,Kabupaten,Konawe Selatan,Sulawesi Tenggara
1523,93885,Mokupa Jaya (Makupa Jaya),74.05.12.2003,Lalembuu,Kabupaten,Konawe Selatan,Sulawesi Tenggara
1524,93885,Mondoke (Mandoke),74.05.12.2013,Lalembuu,Kabupaten,Konawe Selatan,Sulawesi Tenggara
1525,93885,Padaleu,74.05.12.2017,Lalembuu,Kabupaten,Konawe Selatan,Sulawesi Tenggara
1526,93885,Potuho Jaya,74.05.12.2012,Lalembuu,Kabupaten,Konawe Selatan,Sulawesi Tenggara
1527,93885,Puunangga,74.05.12.2007,Lalembuu,Kabupaten,Konawe Selatan,Sulawesi Tenggara
1528,93885,Puurema Subur,74.05.12.2009,Lalembuu,Kabupaten,Konawe Selatan,Sulawesi Tenggara
1529,93885,Sukamukti (Suka Mukti),74.05.12.2011,Lalembuu,Kabupaten,Konawe Selatan,Sulawesi Tenggara
1530,93885,Sumber Jaya,74.05.12.2014,Lalembuu,Kabupaten,Konawe Selatan,Sulawesi Tenggara
1531,93885,Teteinea (Teteinea Jaya),74.05.12.2008,Lalembuu,Kabupaten,Konawe Selatan,Sulawesi Tenggara
1532,93885,Tombeleu,74.05.12.2016,Lalembuu,Kabupaten,Konawe Selatan,Sulawesi Tenggara
1533,93763,Boneoge,74.14.01.1010,Lakudo,Kabupaten,Buton Tengah,Sulawesi Tenggara
1534,93763,Gu Timur,74.14.01.1008,Lakudo,Kabupaten,Buton Tengah,Sulawesi Tenggara
1535,93763,Lakudo,74.14.01.1007,Lakudo,Kabupaten,Buton Tengah,Sulawesi Tenggara
1536,93763,Lolibu,74.14.01.2002,Lakudo,Kabupaten,Buton Tengah,Sulawesi Tenggara
1537,93763,Madongka,74.14.01.2011,Lakudo,Kabupaten,Buton Tengah,Sulawesi Tenggara
1538,93763,Matawine,74.14.01.2006,Lakudo,Kabupaten,Buton Tengah,Sulawesi Tenggara
1539,93763,Metere,74.14.01.2001,Lakudo,Kabupaten,Buton Tengah,Sulawesi Tenggara
1540,93763,Moko,74.14.01.2004,Lakudo,Kabupaten,Buton Tengah,Sulawesi Tenggara
1541,93763,Mone,74.14.01.2005,Lakudo,Kabupaten,Buton Tengah,Sulawesi Tenggara
1542,93763,Nepa Mekar,74.14.01.2009,Lakudo,Kabupaten,Buton Tengah,Sulawesi Tenggara
1543,93763,One Waara,74.14.01.2014,Lakudo,Kabupaten,Buton Tengah,Sulawesi Tenggara
1544,93763,Teluk Lasongko,74.14.01.2015,Lakudo,Kabupaten,Buton Tengah,Sulawesi Tenggara
1545,93763,Wajogu,74.14.01.2003,Lakudo,Kabupaten,Buton Tengah,Sulawesi Tenggara
1546,93763,Waraa (Wara),74.14.01.2012,Lakudo,Kabupaten,Buton Tengah,Sulawesi Tenggara
1547,93763,Wongko Lakudo,74.14.01.2013,Lakudo,Kabupaten,Buton Tengah,Sulawesi Tenggara
1548,93881,Aoroo (Aoreo),74.05.06.2020,Lainea,Kabupaten,Konawe Selatan,Sulawesi Tenggara
1549,93881,Bangun Jaya,74.05.06.2027,Lainea,Kabupaten,Konawe Selatan,Sulawesi Tenggara
1550,93881,Kaindi,74.05.06.2021,Lainea,Kabupaten,Konawe Selatan,Sulawesi Tenggara
1551,93881,Kalo-kalo,74.05.06.2028,Lainea,Kabupaten,Konawe Selatan,Sulawesi Tenggara
1552,93881,Lainea,74.05.06.2024,Lainea,Kabupaten,Konawe Selatan,Sulawesi Tenggara
1553,93881,Lalonggombu,74.05.06.2011,Lainea,Kabupaten,Konawe Selatan,Sulawesi Tenggara
1554,93881,Matabubu Jaya,74.05.06.2022,Lainea,Kabupaten,Konawe Selatan,Sulawesi Tenggara
1555,93881,Molinese,74.05.06.2025,Lainea,Kabupaten,Konawe Selatan,Sulawesi Tenggara
1556,93881,Pamandati,74.05.06.2014,Lainea,Kabupaten,Konawe Selatan,Sulawesi Tenggara
1557,93881,Pangan Jaya,74.05.06.2015,Lainea,Kabupaten,Konawe Selatan,Sulawesi Tenggara
1558,93881,Polewali,74.05.06.2026,Lainea,Kabupaten,Konawe Selatan,Sulawesi Tenggara
1559,93881,Watumeeto,74.05.06.2013,Lainea,Kabupaten,Konawe Selatan,Sulawesi Tenggara
1560,93880,Aepodu,74.05.19.2003,Laeya,Kabupaten,Konawe Selatan,Sulawesi Tenggara
1561,93880,Ambakumina (Ambukumina),74.05.19.2013,Laeya,Kabupaten,Konawe Selatan,Sulawesi Tenggara
1562,93880,Ambalodangge,74.05.19.1002,Laeya,Kabupaten,Konawe Selatan,Sulawesi Tenggara
1563,93880,Ambesea,74.05.19.2008,Laeya,Kabupaten,Konawe Selatan,Sulawesi Tenggara
1564,93880,Anduna,74.05.19.2012,Laeya,Kabupaten,Konawe Selatan,Sulawesi Tenggara
1565,93880,Anggoroboti,74.05.19.2015,Laeya,Kabupaten,Konawe Selatan,Sulawesi Tenggara
1566,93880,Labokeo,74.05.19.2010,Laeya,Kabupaten,Konawe Selatan,Sulawesi Tenggara
1567,93880,Laeya,74.05.19.2009,Laeya,Kabupaten,Konawe Selatan,Sulawesi Tenggara
1568,93880,Lambakara,74.05.19.2014,Laeya,Kabupaten,Konawe Selatan,Sulawesi Tenggara
1569,93880,Lamong Jaya,74.05.19.2006,Laeya,Kabupaten,Konawe Selatan,Sulawesi Tenggara
1570,93880,Lerepako,74.05.19.2007,Laeya,Kabupaten,Konawe Selatan,Sulawesi Tenggara
1571,93880,Ombu-Ombu Jaya,74.05.19.2005,Laeya,Kabupaten,Konawe Selatan,Sulawesi Tenggara
1572,93880,Puunggaluku (Punggaluku),74.05.19.1001,Laeya,Kabupaten,Konawe Selatan,Sulawesi Tenggara
1573,93880,Puuwulo,74.05.19.2017,Laeya,Kabupaten,Konawe Selatan,Sulawesi Tenggara
1574,93880,Rambu-Rambu,74.05.19.2004,Laeya,Kabupaten,Konawe Selatan,Sulawesi Tenggara
1575,93880,Torobulu,74.05.19.2011,Laeya,Kabupaten,Konawe Selatan,Sulawesi Tenggara
1576,93880,Wonua Kongga,74.05.19.2016,Laeya,Kabupaten,Konawe Selatan,Sulawesi Tenggara
1577,93577,Anggaloosi (Anggoloosi),74.11.03.2011,Ladongi,Kabupaten,Kolaka Timur,Sulawesi Tenggara
1578,93577,Atula,74.11.03.1002,Ladongi,Kabupaten,Kolaka Timur,Sulawesi Tenggara
1579,93577,Ladongi,74.11.03.1001,Ladongi,Kabupaten,Kolaka Timur,Sulawesi Tenggara
1580,93577,Lalowosula (Lalowusula),74.11.03.2009,Ladongi,Kabupaten,Kolaka Timur,Sulawesi Tenggara
1581,93577,Pombeyoha,74.11.03.2013,Ladongi,Kabupaten,Kolaka Timur,Sulawesi Tenggara
1582,93577,Putemata,74.11.03.2005,Ladongi,Kabupaten,Kolaka Timur,Sulawesi Tenggara
1583,93577,Raa-Raa,74.11.03.1003,Ladongi,Kabupaten,Kolaka Timur,Sulawesi Tenggara
1584,93577,Tongandiu,74.11.03.2018,Ladongi,Kabupaten,Kolaka Timur,Sulawesi Tenggara
1585,93577,Welala,74.11.03.1004,Ladongi,Kabupaten,Kolaka Timur,Sulawesi Tenggara
1586,93577,Wunggoloko,74.11.03.2010,Ladongi,Kabupaten,Kolaka Timur,Sulawesi Tenggara
1587,93655,Bakeramba,74.13.10.2010,Kusambi,Kabupaten,Muna Barat,Sulawesi Tenggara
1588,93655,Guali,74.13.10.2007,Kusambi,Kabupaten,Muna Barat,Sulawesi Tenggara
1589,93655,Kasakamu,74.13.10.2002,Kusambi,Kabupaten,Muna Barat,Sulawesi Tenggara
1590,93655,Konawe,74.13.10.1008,Kusambi,Kabupaten,Muna Barat,Sulawesi Tenggara
1591,93655,Kusambi,74.13.10.2009,Kusambi,Kabupaten,Muna Barat,Sulawesi Tenggara
1592,93655,Lakawoghe,74.13.10.2005,Kusambi,Kabupaten,Muna Barat,Sulawesi Tenggara
1593,93655,Lapokainse,74.13.10.2006,Kusambi,Kabupaten,Muna Barat,Sulawesi Tenggara
1594,93655,Lemoambo,74.13.10.2001,Kusambi,Kabupaten,Muna Barat,Sulawesi Tenggara
1595,93655,Sidamangura,74.13.10.2004,Kusambi,Kabupaten,Muna Barat,Sulawesi Tenggara
1596,93655,Tanjung Pinang,74.13.10.2003,Kusambi,Kabupaten,Muna Barat,Sulawesi Tenggara
1597,93675,Bira,74.10.05.2010,Kulisusu Utara,Kabupaten,Buton Utara,Sulawesi Tenggara
1598,93675,E'erinere,74.10.05.2011,Kulisusu Utara,Kabupaten,Buton Utara,Sulawesi Tenggara
1599,93675,Kurolabu,74.10.05.2001,Kulisusu Utara,Kabupaten,Buton Utara,Sulawesi Tenggara
1600,93675,Laanosangia (Lanosangia),74.10.05.2004,Kulisusu Utara,Kabupaten,Buton Utara,Sulawesi Tenggara
1601,93675,Labelete,74.10.05.2012,Kulisusu Utara,Kabupaten,Buton Utara,Sulawesi Tenggara
1602,93675,Lamoahi,74.10.05.2003,Kulisusu Utara,Kabupaten,Buton Utara,Sulawesi Tenggara
1603,93675,Lelamo,74.10.05.2007,Kulisusu Utara,Kabupaten,Buton Utara,Sulawesi Tenggara
1604,93675,Pebaoa,74.10.05.2005,Kulisusu Utara,Kabupaten,Buton Utara,Sulawesi Tenggara
1605,93675,Petetea'a (Peteteaa),74.10.05.2006,Kulisusu Utara,Kabupaten,Buton Utara,Sulawesi Tenggara
1606,93675,Tombia (Torombia / Torumbia),74.10.05.2002,Kulisusu Utara,Kabupaten,Buton Utara,Sulawesi Tenggara
1607,93675,Ulunambo,74.10.05.2009,Kulisusu Utara,Kabupaten,Buton Utara,Sulawesi Tenggara
1608,93675,Wamboule,74.10.05.2013,Kulisusu Utara,Kabupaten,Buton Utara,Sulawesi Tenggara
1609,93675,Waodeburi (Waode Buri),74.10.05.2008,Kulisusu Utara,Kabupaten,Buton Utara,Sulawesi Tenggara
1610,93675,Wowonga Jaya,74.10.05.2014,Kulisusu Utara,Kabupaten,Buton Utara,Sulawesi Tenggara
1611,93670,Bumi Lapero/Lapera,74.10.04.2008,Kulisusu Barat,Kabupaten,Buton Utara,Sulawesi Tenggara
1612,93670,Karya Bhakti (Karya Bakti),74.10.04.2002,Kulisusu Barat,Kabupaten,Buton Utara,Sulawesi Tenggara
1613,93670,Karya Mulya,74.10.04.2009,Kulisusu Barat,Kabupaten,Buton Utara,Sulawesi Tenggara
1614,93670,Kasulatombi,74.10.04.2004,Kulisusu Barat,Kabupaten,Buton Utara,Sulawesi Tenggara
1615,93670,Kotawo (Kotawa),74.10.04.2001,Kulisusu Barat,Kabupaten,Buton Utara,Sulawesi Tenggara
1616,93670,Labulanda,74.10.04.2014,Kulisusu Barat,Kabupaten,Buton Utara,Sulawesi Tenggara
1617,93670,Lambale,74.10.04.2010,Kulisusu Barat,Kabupaten,Buton Utara,Sulawesi Tenggara
1618,93670,Lampala Jaya (Dampala Jaya),74.10.04.2005,Kulisusu Barat,Kabupaten,Buton Utara,Sulawesi Tenggara
1619,93670,Lapandewa,74.10.04.2011,Kulisusu Barat,Kabupaten,Buton Utara,Sulawesi Tenggara
1620,93670,Lauki,74.10.04.2012,Kulisusu Barat,Kabupaten,Buton Utara,Sulawesi Tenggara
1621,93670,Margakarya (Marga Karya),74.10.04.2003,Kulisusu Barat,Kabupaten,Buton Utara,Sulawesi Tenggara
1622,93670,Mekar Jaya,74.10.04.2013,Kulisusu Barat,Kabupaten,Buton Utara,Sulawesi Tenggara
1623,93670,Rahmat Baru,74.10.04.2006,Kulisusu Barat,Kabupaten,Buton Utara,Sulawesi Tenggara
1624,93670,Soloy/Soioi Agung,74.10.04.2007,Kulisusu Barat,Kabupaten,Buton Utara,Sulawesi Tenggara
1625,93672,Bangkudu (Ereke),74.10.01.1008,Kulisusu (Kalingsusu/Kalisusu),Kabupaten,Buton Utara,Sulawesi Tenggara
1626,93672,Banu-Banua Jaya,74.10.01.2024,Kulisusu (Kalingsusu/Kalisusu),Kabupaten,Buton Utara,Sulawesi Tenggara
1627,93672,Bonelipu,74.10.01.1014,Kulisusu (Kalingsusu/Kalisusu),Kabupaten,Buton Utara,Sulawesi Tenggara
1628,93672,Eelahaji,74.10.01.2003,Kulisusu (Kalingsusu/Kalisusu),Kabupaten,Buton Utara,Sulawesi Tenggara
1629,93672,Jampaka,74.10.01.2006,Kulisusu (Kalingsusu/Kalisusu),Kabupaten,Buton Utara,Sulawesi Tenggara
1630,93672,Kadacua,74.10.01.2023,Kulisusu (Kalingsusu/Kalisusu),Kabupaten,Buton Utara,Sulawesi Tenggara
1631,93672,Kalibu,74.10.01.2005,Kulisusu (Kalingsusu/Kalisusu),Kabupaten,Buton Utara,Sulawesi Tenggara
1632,93672,Laangke,74.10.01.2022,Kulisusu (Kalingsusu/Kalisusu),Kabupaten,Buton Utara,Sulawesi Tenggara
1633,93672,Lakonea,74.10.01.1010,Kulisusu (Kalingsusu/Kalisusu),Kabupaten,Buton Utara,Sulawesi Tenggara
1634,93672,Lantagi,74.10.01.2021,Kulisusu (Kalingsusu/Kalisusu),Kabupaten,Buton Utara,Sulawesi Tenggara
1635,93672,Lemo (Bonerombo),74.10.01.1012,Kulisusu (Kalingsusu/Kalisusu),Kabupaten,Buton Utara,Sulawesi Tenggara
1636,93672,Lemo Ea,74.10.01.2020,Kulisusu (Kalingsusu/Kalisusu),Kabupaten,Buton Utara,Sulawesi Tenggara
1637,93672,Linsowu,74.10.01.2011,Kulisusu (Kalingsusu/Kalisusu),Kabupaten,Buton Utara,Sulawesi Tenggara
1638,93672,Lipu,74.10.01.1009,Kulisusu (Kalingsusu/Kalisusu),Kabupaten,Buton Utara,Sulawesi Tenggara
1639,93672,Loji,74.10.01.2007,Kulisusu (Kalingsusu/Kalisusu),Kabupaten,Buton Utara,Sulawesi Tenggara
1640,93672,Malalanda,74.10.01.2019,Kulisusu (Kalingsusu/Kalisusu),Kabupaten,Buton Utara,Sulawesi Tenggara
1641,93672,Rombo,74.10.01.2013,Kulisusu (Kalingsusu/Kalisusu),Kabupaten,Buton Utara,Sulawesi Tenggara
1642,93672,Sara'ea,74.10.01.1016,Kulisusu (Kalingsusu/Kalisusu),Kabupaten,Buton Utara,Sulawesi Tenggara
1643,93672,Tomoahi,74.10.01.2004,Kulisusu (Kalingsusu/Kalisusu),Kabupaten,Buton Utara,Sulawesi Tenggara
1644,93672,Triwacuwacu (Tri Wacu-Wacu),74.10.01.2001,Kulisusu (Kalingsusu/Kalisusu),Kabupaten,Buton Utara,Sulawesi Tenggara
1645,93672,Waculaea,74.10.01.2002,Kulisusu (Kalingsusu/Kalisusu),Kabupaten,Buton Utara,Sulawesi Tenggara
1646,93672,Wandaka,74.10.01.1017,Kulisusu (Kalingsusu/Kalisusu),Kabupaten,Buton Utara,Sulawesi Tenggara
1647,93672,Wasalabose,74.10.01.2018,Kulisusu (Kalingsusu/Kalisusu),Kabupaten,Buton Utara,Sulawesi Tenggara
1648,93625,Bungi,74.03.20.2003,Kontunaga,Kabupaten,Muna,Sulawesi Tenggara
1649,93625,Kontunaga,74.03.20.2004,Kontunaga,Kabupaten,Muna,Sulawesi Tenggara
1650,93625,Lapodidi,74.03.20.2002,Kontunaga,Kabupaten,Muna,Sulawesi Tenggara
1651,93625,Liabalano (Labalano),74.03.20.2001,Kontunaga,Kabupaten,Muna,Sulawesi Tenggara
1652,93625,Maabhodo (Mabodo),74.03.20.2005,Kontunaga,Kabupaten,Muna,Sulawesi Tenggara
1653,93625,Masalili,74.03.20.2006,Kontunaga,Kabupaten,Muna,Sulawesi Tenggara
1654,93660,Bahutara,74.03.30.2004,Kontu Kowuna,Kabupaten,Muna,Sulawesi Tenggara
1655,93660,Kafo Foo,74.03.30.2001,Kontu Kowuna,Kabupaten,Muna,Sulawesi Tenggara
1656,93660,Karoo,74.03.30.2002,Kontu Kowuna,Kabupaten,Muna,Sulawesi Tenggara
1657,93660,Kilambibito,74.03.30.2003,Kontu Kowuna,Kabupaten,Muna,Sulawesi Tenggara
1658,93660,Kontu Kowuna,74.03.30.2005,Kontu Kowuna,Kabupaten,Muna,Sulawesi Tenggara
1659,93660,Laghorio (Lahorio),74.03.30.2006,Kontu Kowuna,Kabupaten,Muna,Sulawesi Tenggara
1660,93874,Alebo,74.05.07.2004,Konda,Kabupaten,Konawe Selatan,Sulawesi Tenggara
1661,93874,Ambololi,74.05.07.2009,Konda,Kabupaten,Konawe Selatan,Sulawesi Tenggara
1662,93874,Amohalo,74.05.07.2020,Konda,Kabupaten,Konawe Selatan,Sulawesi Tenggara
1663,93874,Cialam Jaya,74.05.07.2012,Konda,Kabupaten,Konawe Selatan,Sulawesi Tenggara
1664,93874,Konda,74.05.07.1001,Konda,Kabupaten,Konawe Selatan,Sulawesi Tenggara
1665,93874,Konda Satu,74.05.07.2024,Konda,Kabupaten,Konawe Selatan,Sulawesi Tenggara
1666,93874,Lalowiu,74.05.07.2019,Konda,Kabupaten,Konawe Selatan,Sulawesi Tenggara
1667,93874,Lambusa,74.05.07.2007,Konda,Kabupaten,Konawe Selatan,Sulawesi Tenggara
1668,93874,Lamomea,74.05.07.2003,Konda,Kabupaten,Konawe Selatan,Sulawesi Tenggara
1669,93874,Lawoila,74.05.07.2014,Konda,Kabupaten,Konawe Selatan,Sulawesi Tenggara
1670,93874,Lebo Jaya,74.05.07.2006,Konda,Kabupaten,Konawe Selatan,Sulawesi Tenggara
1671,93874,Masagena,74.05.07.2011,Konda,Kabupaten,Konawe Selatan,Sulawesi Tenggara
1672,93874,Morome (Morame),74.05.07.2005,Konda,Kabupaten,Konawe Selatan,Sulawesi Tenggara
1673,93874,Pambulsa Jaya (Pambulaa Jaya),74.05.07.2008,Konda,Kabupaten,Konawe Selatan,Sulawesi Tenggara
1674,93874,Puosu Jaya,74.05.07.2002,Konda,Kabupaten,Konawe Selatan,Sulawesi Tenggara
1675,93874,Ranowila,74.05.07.2021,Konda,Kabupaten,Konawe Selatan,Sulawesi Tenggara
1676,93874,Tanea,74.05.07.2010,Konda,Kabupaten,Konawe Selatan,Sulawesi Tenggara
1677,93874,Wonua,74.05.07.2013,Konda,Kabupaten,Konawe Selatan,Sulawesi Tenggara
1678,93461,Asinowowo,74.02.32.2011,Konawe,Kabupaten,Konawe,Sulawesi Tenggara
1679,93461,Bungguosu,74.02.32.1001,Konawe,Kabupaten,Konawe,Sulawesi Tenggara
1680,93461,Hudoa,74.02.32.2009,Konawe,Kabupaten,Konawe,Sulawesi Tenggara
1681,93461,Konawe,74.02.32.1003,Konawe,Kabupaten,Konawe,Sulawesi Tenggara
1682,93461,Mokowu (Mekowu),74.02.32.2007,Konawe,Kabupaten,Konawe,Sulawesi Tenggara
1683,93461,Puuwonua,74.02.32.2012,Konawe,Kabupaten,Konawe,Sulawesi Tenggara
1684,93461,Sanggona,74.02.32.2005,Konawe,Kabupaten,Konawe,Sulawesi Tenggara
1685,93461,Tawanga,74.02.32.1004,Konawe,Kabupaten,Konawe,Sulawesi Tenggara
1686,93461,Tudaone,74.02.32.1002,Konawe,Kabupaten,Konawe,Sulawesi Tenggara
1687,93461,Uelawu,74.02.32.2006,Konawe,Kabupaten,Konawe,Sulawesi Tenggara
1688,93461,Uete,74.02.32.2008,Konawe,Kabupaten,Konawe,Sulawesi Tenggara
1689,93461,Wonua Mbae,74.02.32.2010,Konawe,Kabupaten,Konawe,Sulawesi Tenggara
1690,93894,Amolengu,74.05.23.2008,Kolono Timur,Kabupaten,Konawe Selatan,Sulawesi Tenggara
1691,93894,Ampera,74.05.23.2007,Kolono Timur,Kabupaten,Konawe Selatan,Sulawesi Tenggara
1692,93894,Batuh Putih (Batu Putih),74.05.23.2005,Kolono Timur,Kabupaten,Konawe Selatan,Sulawesi Tenggara
1693,93894,Lambangi,74.05.23.2002,Kolono Timur,Kabupaten,Konawe Selatan,Sulawesi Tenggara
1694,93894,Langgapulu,74.05.23.2010,Kolono Timur,Kabupaten,Konawe Selatan,Sulawesi Tenggara
1695,93894,Ngapawali,74.05.23.2004,Kolono Timur,Kabupaten,Konawe Selatan,Sulawesi Tenggara
1696,93894,Rambu-Rambu,74.05.23.2001,Kolono Timur,Kabupaten,Konawe Selatan,Sulawesi Tenggara
1697,93894,Rumba-Rumba,74.05.23.2006,Kolono Timur,Kabupaten,Konawe Selatan,Sulawesi Tenggara
1698,93894,Tumbu-Tumbu Jaya,74.05.23.2003,Kolono Timur,Kabupaten,Konawe Selatan,Sulawesi Tenggara
1699,93894,Ulunese,74.05.23.2009,Kolono Timur,Kabupaten,Konawe Selatan,Sulawesi Tenggara
1700,93895,Alosi,74.05.09.2028,Kolono,Kabupaten,Konawe Selatan,Sulawesi Tenggara
1701,93895,Andinete,74.05.09.2025,Kolono,Kabupaten,Konawe Selatan,Sulawesi Tenggara
1702,93895,Awunio,74.05.09.2012,Kolono,Kabupaten,Konawe Selatan,Sulawesi Tenggara
1703,93895,Kolono,74.05.09.1001,Kolono,Kabupaten,Konawe Selatan,Sulawesi Tenggara
1704,93895,Lamapu,74.05.09.2016,Kolono,Kabupaten,Konawe Selatan,Sulawesi Tenggara
1705,93895,Lamotau,74.05.09.2011,Kolono,Kabupaten,Konawe Selatan,Sulawesi Tenggara
1706,93895,Langgowala,74.05.09.2003,Kolono,Kabupaten,Konawe Selatan,Sulawesi Tenggara
1707,93895,Mataiwoi,74.05.09.2007,Kolono,Kabupaten,Konawe Selatan,Sulawesi Tenggara
1708,93895,Matandahi,74.05.09.2005,Kolono,Kabupaten,Konawe Selatan,Sulawesi Tenggara
1709,93895,Meletumbo,74.05.09.2013,Kolono,Kabupaten,Konawe Selatan,Sulawesi Tenggara
1710,93895,Mondoe Jaya,74.05.09.2009,Kolono,Kabupaten,Konawe Selatan,Sulawesi Tenggara
1711,93895,Puudongi,74.05.09.2030,Kolono,Kabupaten,Konawe Selatan,Sulawesi Tenggara
1712,93895,Puupi,74.05.09.2006,Kolono,Kabupaten,Konawe Selatan,Sulawesi Tenggara
1713,93895,Roda,74.05.09.2014,Kolono,Kabupaten,Konawe Selatan,Sulawesi Tenggara
1714,93895,Sarandua,74.05.09.2031,Kolono,Kabupaten,Konawe Selatan,Sulawesi Tenggara
1715,93895,Sawa,74.05.09.2002,Kolono,Kabupaten,Konawe Selatan,Sulawesi Tenggara
1716,93895,Silea,74.05.09.2029,Kolono,Kabupaten,Konawe Selatan,Sulawesi Tenggara
1717,93895,Tiraosu,74.05.09.2008,Kolono,Kabupaten,Konawe Selatan,Sulawesi Tenggara
1718,93895,Ulusena Jaya,74.05.09.2010,Kolono,Kabupaten,Konawe Selatan,Sulawesi Tenggara
1719,93895,Wawoosu,74.05.09.2026,Kolono,Kabupaten,Konawe Selatan,Sulawesi Tenggara
1720,93895,Waworano,74.05.09.2004,Kolono,Kabupaten,Konawe Selatan,Sulawesi Tenggara
1721,93517,Balandete,74.01.04.1003,Kolaka,Kabupaten,Kolaka,Sulawesi Tenggara
1722,93511,Laloeha,74.01.04.1006,Kolaka,Kabupaten,Kolaka,Sulawesi Tenggara
1723,93518,Lalombaa,74.01.04.1004,Kolaka,Kabupaten,Kolaka,Sulawesi Tenggara
1724,93511,Lamokato,74.01.04.1001,Kolaka,Kabupaten,Kolaka,Sulawesi Tenggara
1725,93519,Sabilambo,74.01.04.1005,Kolaka,Kabupaten,Kolaka,Sulawesi Tenggara
1726,93511,Tahoa,74.01.04.1007,Kolaka,Kabupaten,Kolaka,Sulawesi Tenggara
1727,93515,Watuliandu,74.01.04.1002,Kolaka,Kabupaten,Kolaka,Sulawesi Tenggara
1728,93716,Kadolo,74.72.05.1006,Kokalukuna,Kota,Bau Bau,Sulawesi Tenggara
1729,93716,Kadolomoko,74.72.05.1005,Kokalukuna,Kota,Bau Bau,Sulawesi Tenggara
1730,93719,Lakologou (Lakologuo),74.72.05.1003,Kokalukuna,Kota,Bau Bau,Sulawesi Tenggara
1731,93711,Liwuto,74.72.05.1001,Kokalukuna,Kota,Bau Bau,Sulawesi Tenggara
1732,93711,Sukanayo (Sukanaeyo),74.72.05.1002,Kokalukuna,Kota,Bau Bau,Sulawesi Tenggara
1733,93719,Waruruma,74.72.05.1004,Kokalukuna,Kota,Bau Bau,Sulawesi Tenggara
1734,93957,Ainani Tajriani,74.08.05.2018,Kodeoha,Kabupaten,Kolaka Utara,Sulawesi Tenggara
1735,93957,Awo,74.08.05.2001,Kodeoha,Kabupaten,Kolaka Utara,Sulawesi Tenggara
1736,93957,Delang-Delang,74.08.05.2019,Kodeoha,Kabupaten,Kolaka Utara,Sulawesi Tenggara
1737,93957,Jabal Kubis,74.08.05.2012,Kodeoha,Kabupaten,Kolaka Utara,Sulawesi Tenggara
1738,93957,Jabal Nur,74.08.05.2010,Kodeoha,Kabupaten,Kolaka Utara,Sulawesi Tenggara
1739,93957,Kalu-Kaluku,74.08.05.2009,Kodeoha,Kabupaten,Kolaka Utara,Sulawesi Tenggara
1740,93957,Kamisi,74.08.05.2004,Kodeoha,Kabupaten,Kolaka Utara,Sulawesi Tenggara
1741,93957,Koroha,74.08.05.2003,Kodeoha,Kabupaten,Kolaka Utara,Sulawesi Tenggara
1742,93957,Lametuna,74.08.05.2006,Kodeoha,Kabupaten,Kolaka Utara,Sulawesi Tenggara
1743,93957,Mala-Mala,74.08.05.1002,Kodeoha,Kabupaten,Kolaka Utara,Sulawesi Tenggara
1744,93957,Meeto,74.08.05.2007,Kodeoha,Kabupaten,Kolaka Utara,Sulawesi Tenggara
1745,93957,Sawangaoha (Sawanggaoha),74.08.05.2014,Kodeoha,Kabupaten,Kolaka Utara,Sulawesi Tenggara
1746,93778,Batu Lamburi,74.06.17.2002,Kepulauan Masaloka Raya,Kabupaten,Bombana,Sulawesi Tenggara
1747,93778,Masaloka,74.06.17.2001,Kepulauan Masaloka Raya,Kabupaten,Bombana,Sulawesi Tenggara
1748,93778,Masaloka Barat (Tengah),74.06.17.2005,Kepulauan Masaloka Raya,Kabupaten,Bombana,Sulawesi Tenggara
1749,93778,Masaloka Selatan,74.06.17.2003,Kepulauan Masaloka Raya,Kabupaten,Bombana,Sulawesi Tenggara
1750,93778,Masaloka Timur,74.06.17.2004,Kepulauan Masaloka Raya,Kabupaten,Bombana,Sulawesi Tenggara
1751,93123,Benu Benua,74.71.05.1005,Kendari Barat,Kota,Kendari,Sulawesi Tenggara
1752,93127,Dapu Dapura,74.71.05.1008,Kendari Barat,Kota,Kendari,Sulawesi Tenggara
1753,93121,Kemaraya,74.71.05.1001,Kendari Barat,Kota,Kendari,Sulawesi Tenggara
1754,93127,Lahundape,74.71.05.1009,Kendari Barat,Kota,Kendari,Sulawesi Tenggara
1755,93123,Punggaloba,74.71.05.1004,Kendari Barat,Kota,Kendari,Sulawesi Tenggara
1756,93127,Sanua,74.71.05.1007,Kendari Barat,Kota,Kendari,Sulawesi Tenggara
1757,93124,Sodohoa (Sodoha),74.71.05.1006,Kendari Barat,Kota,Kendari,Sulawesi Tenggara
1758,93122,Tipulu,74.71.05.1003,Kendari Barat,Kota,Kendari,Sulawesi Tenggara
1759,93121,Watu-Watu,74.71.05.1002,Kendari Barat,Kota,Kendari,Sulawesi Tenggara
1760,93125,Gunung Jati,74.71.02.1010,Kendari,Kota,Kendari,Sulawesi Tenggara
1761,93121,Jati Mekar,74.71.02.1017,Kendari,Kota,Kendari,Sulawesi Tenggara
1762,93121,Kampung Salo,74.71.02.1011,Kendari,Kota,Kendari,Sulawesi Tenggara
1763,93127,Kandai,74.71.02.1009,Kendari,Kota,Kendari,Sulawesi Tenggara
1764,93121,Kassilampe (Kessilampe),74.71.02.1014,Kendari,Kota,Kendari,Sulawesi Tenggara
1765,93126,Kendari Caddi,74.71.02.1013,Kendari,Kota,Kendari,Sulawesi Tenggara
1766,93128,Mangga Dua,74.71.02.1012,Kendari,Kota,Kendari,Sulawesi Tenggara
1767,93129,Mata,74.71.02.1015,Kendari,Kota,Kendari,Sulawesi Tenggara
1768,93121,Purirano,74.71.02.1016,Kendari,Kota,Kendari,Sulawesi Tenggara
1769,93913,Katoi,74.08.13.2003,Katoi,Kabupaten,Kolaka Utara,Sulawesi Tenggara
1770,93916,Lambuno,74.08.13.2006,Katoi,Kabupaten,Kolaka Utara,Sulawesi Tenggara
1771,93916,Lanipa-Nipa,74.08.13.2001,Katoi,Kabupaten,Kolaka Utara,Sulawesi Tenggara
1772,93914,Maruge,74.08.13.2005,Katoi,Kabupaten,Kolaka Utara,Sulawesi Tenggara
1773,93914,Simbula,74.08.13.2004,Katoi,Kabupaten,Kolaka Utara,Sulawesi Tenggara
1774,93916,Ujung Tobaku (Tobako),74.08.13.2002,Katoi,Kabupaten,Kolaka Utara,Sulawesi Tenggara
1775,93611,Butung-Butung,74.03.16.1004,Katobu,Kabupaten,Muna,Sulawesi Tenggara
1776,93616,Foo Kuni (Mangga Kuning),74.03.16.1006,Katobu,Kabupaten,Muna,Sulawesi Tenggara
1777,93611,Laende,74.03.16.1007,Katobu,Kabupaten,Muna,Sulawesi Tenggara
1778,93611,Raha I,74.03.16.1008,Katobu,Kabupaten,Muna,Sulawesi Tenggara
1779,93612,Raha II,74.03.16.1005,Katobu,Kabupaten,Muna,Sulawesi Tenggara
1780,93613,Raha III,74.03.16.1002,Katobu,Kabupaten,Muna,Sulawesi Tenggara
1781,93611,Wamponiki,74.03.16.1003,Katobu,Kabupaten,Muna,Sulawesi Tenggara
1782,93615,Watonea,74.03.16.1001,Katobu,Kabupaten,Muna,Sulawesi Tenggara
1783,93755,Barangka,74.04.22.2001,Kapontori,Kabupaten,Buton,Sulawesi Tenggara
1784,93755,Boneatiro,74.04.22.2003,Kapontori,Kabupaten,Buton,Sulawesi Tenggara
1785,93755,Boneatiro Barat,74.04.22.2017,Kapontori,Kabupaten,Buton,Sulawesi Tenggara
1786,93755,Bukit Asri,74.04.22.2010,Kapontori,Kabupaten,Buton,Sulawesi Tenggara
1787,93755,Kamelanta,74.04.22.2011,Kapontori,Kabupaten,Buton,Sulawesi Tenggara
1788,93755,Lambusango,74.04.22.2004,Kapontori,Kabupaten,Buton,Sulawesi Tenggara
1789,93755,Lambusango Timur,74.04.22.2012,Kapontori,Kabupaten,Buton,Sulawesi Tenggara
1790,93755,Mabulugo (Mambulugo),74.04.22.2014,Kapontori,Kabupaten,Buton,Sulawesi Tenggara
1791,93755,Todanga,74.04.22.2007,Kapontori,Kabupaten,Buton,Sulawesi Tenggara
1792,93755,Tuangila,74.04.22.2008,Kapontori,Kabupaten,Buton,Sulawesi Tenggara
1793,93755,Tumada,74.04.22.2016,Kapontori,Kabupaten,Buton,Sulawesi Tenggara
1794,93755,Wakalambe,74.04.22.2002,Kapontori,Kabupaten,Buton,Sulawesi Tenggara
1795,93755,Wakangka,74.04.22.1006,Kapontori,Kabupaten,Buton,Sulawesi Tenggara
1796,93755,Wakuli,74.04.22.2013,Kapontori,Kabupaten,Buton,Sulawesi Tenggara
1797,93755,Wambulu,74.04.22.2015,Kapontori,Kabupaten,Buton,Sulawesi Tenggara
1798,93755,Waondo Wolio,74.04.22.2009,Kapontori,Kabupaten,Buton,Sulawesi Tenggara
1799,93755,Watumotobe,74.04.22.1005,Kapontori,Kabupaten,Buton,Sulawesi Tenggara
1800,93454,Kapoiala,74.02.33.1001,Kapoiala,Kabupaten,Konawe,Sulawesi Tenggara
1801,93454,Kapoiala Baru,74.02.33.2013,Kapoiala,Kabupaten,Konawe,Sulawesi Tenggara
1802,93454,Labotoy,74.02.33.2003,Kapoiala,Kabupaten,Konawe,Sulawesi Tenggara
1803,93454,Labotoy Jaya,74.02.33.2014,Kapoiala,Kabupaten,Konawe,Sulawesi Tenggara
1804,93454,Lalimbue,74.02.33.2010,Kapoiala,Kabupaten,Konawe,Sulawesi Tenggara
1805,93454,Lalimbue Jaya,74.02.33.2002,Kapoiala,Kabupaten,Konawe,Sulawesi Tenggara
1806,93454,Lalonggombuno,74.02.33.2012,Kapoiala,Kabupaten,Konawe,Sulawesi Tenggara
1807,93454,Lamendora,74.02.33.2006,Kapoiala,Kabupaten,Konawe,Sulawesi Tenggara
1808,93454,Muara Sampara,74.02.33.2004,Kapoiala,Kabupaten,Konawe,Sulawesi Tenggara
1809,93454,Pereoa (Pereoe),74.02.33.2008,Kapoiala,Kabupaten,Konawe,Sulawesi Tenggara
1810,93454,Sambaraasi,74.02.33.2005,Kapoiala,Kabupaten,Konawe,Sulawesi Tenggara
1811,93454,Tani Indah,74.02.33.2007,Kapoiala,Kabupaten,Konawe,Sulawesi Tenggara
1812,93454,Tombawatu,74.02.33.2011,Kapoiala,Kabupaten,Konawe,Sulawesi Tenggara
1813,93454,Ulu Lalimbue,74.02.33.2009,Kapoiala,Kabupaten,Konawe,Sulawesi Tenggara
1814,93231,Kambu,74.71.10.1001,Kambu,Kota,Kendari,Sulawesi Tenggara
1815,93231,Lalolara,74.71.10.1004,Kambu,Kota,Kendari,Sulawesi Tenggara
1816,93231,Mokoau,74.71.10.1002,Kambu,Kota,Kendari,Sulawesi Tenggara
1817,93231,Padaleu,74.71.10.1003,Kambu,Kota,Kendari,Sulawesi Tenggara
1818,93674,Baluara,74.10.02.2011,Kambowa,Kabupaten,Buton Utara,Sulawesi Tenggara
1819,93674,Bente,74.10.02.2010,Kambowa,Kabupaten,Buton Utara,Sulawesi Tenggara
1820,93674,Bubu,74.10.02.2001,Kambowa,Kabupaten,Buton Utara,Sulawesi Tenggara
1821,93674,Bubu Barat,74.10.02.2009,Kambowa,Kabupaten,Buton Utara,Sulawesi Tenggara
1822,93674,Kambowa,74.10.02.1004,Kambowa,Kabupaten,Buton Utara,Sulawesi Tenggara
1823,93674,Konde (Kondo),74.10.02.2007,Kambowa,Kabupaten,Buton Utara,Sulawesi Tenggara
1824,93674,Lagundi,74.10.02.2006,Kambowa,Kabupaten,Buton Utara,Sulawesi Tenggara
1825,93674,Lahumoko (Lahamoko Jaya),74.10.02.2002,Kambowa,Kabupaten,Buton Utara,Sulawesi Tenggara
1826,93674,Mata,74.10.02.2008,Kambowa,Kabupaten,Buton Utara,Sulawesi Tenggara
1827,93674,Morindino,74.10.02.2003,Kambowa,Kabupaten,Buton Utara,Sulawesi Tenggara
1828,93674,Pongkowulu (Pongkawulu),74.10.02.2005,Kambowa,Kabupaten,Buton Utara,Sulawesi Tenggara
1829,93790,Darawa,74.07.06.2007,Kaledupa Selatan,Kabupaten,Wakatobi,Sulawesi Tenggara
1830,93790,Kasuwari (Kasuari/Kaswari),74.07.06.2002,Kaledupa Selatan,Kabupaten,Wakatobi,Sulawesi Tenggara
1831,93790,Langge,74.07.06.2004,Kaledupa Selatan,Kabupaten,Wakatobi,Sulawesi Tenggara
1832,93790,Lentea,74.07.06.2006,Kaledupa Selatan,Kabupaten,Wakatobi,Sulawesi Tenggara
1833,93790,Pajam,74.07.06.2003,Kaledupa Selatan,Kabupaten,Wakatobi,Sulawesi Tenggara
1834,93790,Peropa,74.07.06.2009,Kaledupa Selatan,Kabupaten,Wakatobi,Sulawesi Tenggara
1835,93790,Sandi,74.07.06.2008,Kaledupa Selatan,Kabupaten,Wakatobi,Sulawesi Tenggara
1836,93790,Tampara,74.07.06.2001,Kaledupa Selatan,Kabupaten,Wakatobi,Sulawesi Tenggara
1837,93790,Tanjung,74.07.06.2010,Kaledupa Selatan,Kabupaten,Wakatobi,Sulawesi Tenggara
1838,93790,Tanomeha,74.07.06.2005,Kaledupa Selatan,Kabupaten,Wakatobi,Sulawesi Tenggara
1839,93792,Ambeua,74.07.02.1004,Kaledupa,Kabupaten,Wakatobi,Sulawesi Tenggara
1840,93792,Ambeua Raya,74.07.02.2023,Kaledupa,Kabupaten,Wakatobi,Sulawesi Tenggara
1841,93792,Balasuna,74.07.02.2016,Kaledupa,Kabupaten,Wakatobi,Sulawesi Tenggara
1842,93792,Balasuna Selatan,74.07.02.2019,Kaledupa,Kabupaten,Wakatobi,Sulawesi Tenggara
1843,93792,Buranga,74.07.02.1015,Kaledupa,Kabupaten,Wakatobi,Sulawesi Tenggara
1844,93792,Horuo (Haruo),74.07.02.2007,Kaledupa,Kabupaten,Wakatobi,Sulawesi Tenggara
1845,93792,Kalimas,74.07.02.2024,Kaledupa,Kabupaten,Wakatobi,Sulawesi Tenggara
1846,93792,Lagiwae,74.07.02.1005,Kaledupa,Kabupaten,Wakatobi,Sulawesi Tenggara
1847,93792,Laulua (Laolua),74.07.02.1002,Kaledupa,Kabupaten,Wakatobi,Sulawesi Tenggara
1848,93792,Lefuto (Lewuto),74.07.02.2022,Kaledupa,Kabupaten,Wakatobi,Sulawesi Tenggara
1849,93792,Mantigola Makmur (Mantigola / Mantingola),74.07.02.2018,Kaledupa,Kabupaten,Wakatobi,Sulawesi Tenggara
1850,93792,Ollo,74.07.02.2006,Kaledupa,Kabupaten,Wakatobi,Sulawesi Tenggara
1851,93792,Ollo Selatan,74.07.02.2020,Kaledupa,Kabupaten,Wakatobi,Sulawesi Tenggara
1852,93792,Samabahari,74.07.02.2003,Kaledupa,Kabupaten,Wakatobi,Sulawesi Tenggara
1853,93792,Sombano,74.07.02.2001,Kaledupa,Kabupaten,Wakatobi,Sulawesi Tenggara
1854,93792,Waduri,74.07.02.2021,Kaledupa,Kabupaten,Wakatobi,Sulawesi Tenggara
1855,93118,Anaiwoi,74.71.08.1005,Kadia,Kota,Kendari,Sulawesi Tenggara
1856,93118,Bende,74.71.08.1002,Kadia,Kota,Kendari,Sulawesi Tenggara
1857,93117,Kadia,74.71.08.1001,Kadia,Kota,Kendari,Sulawesi Tenggara
1858,93117,Pondambea,74.71.08.1003,Kadia,Kota,Kendari,Sulawesi Tenggara
1859,93117,Wowawanggu,74.71.08.1004,Kadia,Kota,Kendari,Sulawesi Tenggara
1860,93742,Banabungi,74.15.07.2006,Kadatua,Kabupaten,Buton Selatan,Sulawesi Tenggara
1861,93742,Banabungi Selatan,74.15.07.2008,Kadatua,Kabupaten,Buton Selatan,Sulawesi Tenggara
1862,93742,Kaofe,74.15.07.2002,Kadatua,Kabupaten,Buton Selatan,Sulawesi Tenggara
1863,93742,Kapoa,74.15.07.2005,Kadatua,Kabupaten,Buton Selatan,Sulawesi Tenggara
1864,93742,Kapoa Barat,74.15.07.2010,Kadatua,Kabupaten,Buton Selatan,Sulawesi Tenggara
1865,93742,Lipu,74.15.07.2004,Kadatua,Kabupaten,Buton Selatan,Sulawesi Tenggara
1866,93742,Marawali,74.15.07.2009,Kadatua,Kabupaten,Buton Selatan,Sulawesi Tenggara
1867,93742,Mawambunga,74.15.07.2007,Kadatua,Kabupaten,Buton Selatan,Sulawesi Tenggara
1868,93742,Uwemaasi,74.15.07.2003,Kadatua,Kabupaten,Buton Selatan,Sulawesi Tenggara
1869,93742,Waonu,74.15.07.2001,Kadatua,Kabupaten,Buton Selatan,Sulawesi Tenggara
1870,93661,Bea,74.03.24.2004,Kabawo,Kabupaten,Muna,Sulawesi Tenggara
1871,93661,Bente,74.03.24.2003,Kabawo,Kabupaten,Muna,Sulawesi Tenggara
1872,93661,Kambawuna,74.03.24.2010,Kabawo,Kabupaten,Muna,Sulawesi Tenggara
1873,93661,Kasaka,74.03.24.2014,Kabawo,Kabupaten,Muna,Sulawesi Tenggara
1874,93661,Kawite Wite,74.03.24.2002,Kabawo,Kabupaten,Muna,Sulawesi Tenggara
1875,93661,Kontumere,74.03.24.2011,Kabawo,Kabupaten,Muna,Sulawesi Tenggara
1876,93661,Laimpi,74.03.24.1009,Kabawo,Kabupaten,Muna,Sulawesi Tenggara
1877,93661,Lamaeo,74.03.24.2012,Kabawo,Kabupaten,Muna,Sulawesi Tenggara
1878,93661,Lamunu,74.03.24.2001,Kabawo,Kabupaten,Muna,Sulawesi Tenggara
1879,93661,Rangka,74.03.24.2006,Kabawo,Kabupaten,Muna,Sulawesi Tenggara
1880,93661,Wantiworo,74.03.24.2013,Kabawo,Kabupaten,Muna,Sulawesi Tenggara
1881,93664,Kabangka,74.03.23.2002,Kabangka,Kabupaten,Muna,Sulawesi Tenggara
1882,93664,Komba-Komba,74.03.23.2001,Kabangka,Kabupaten,Muna,Sulawesi Tenggara
1883,93664,Lakandito,74.03.23.2011,Kabangka,Kabupaten,Muna,Sulawesi Tenggara
1884,93664,Lupia,74.03.23.2004,Kabangka,Kabupaten,Muna,Sulawesi Tenggara
1885,93664,Oensuli,74.03.23.2008,Kabangka,Kabupaten,Muna,Sulawesi Tenggara
1886,93664,Sarimulyo,74.03.23.2007,Kabangka,Kabupaten,Muna,Sulawesi Tenggara
1887,93664,Wakobulu Agung (Wakobalu Agung),74.03.23.2003,Kabangka,Kabupaten,Muna,Sulawesi Tenggara
1888,93664,Wansugi,74.03.23.2009,Kabangka,Kabupaten,Muna,Sulawesi Tenggara
1889,93664,Wataliku,74.03.23.2010,Kabangka,Kabupaten,Muna,Sulawesi Tenggara
1890,93785,Eemokolo (Eeomokola),74.06.15.2004,Kabaena Utara,Kabupaten,Bombana,Sulawesi Tenggara
1891,93785,Larolanu (Laromanu),74.06.15.2006,Kabaena Utara,Kabupaten,Bombana,Sulawesi Tenggara
1892,93785,Mapila,74.06.15.2001,Kabaena Utara,Kabupaten,Bombana,Sulawesi Tenggara
1893,93785,Sangia Makmur,74.06.15.2003,Kabaena Utara,Kabupaten,Bombana,Sulawesi Tenggara
1894,93785,Tedubara,74.06.15.2005,Kabaena Utara,Kabupaten,Bombana,Sulawesi Tenggara
1895,93785,Wumbulasa,74.06.15.2002,Kabaena Utara,Kabupaten,Bombana,Sulawesi Tenggara
1896,93784,Balo,74.06.06.2006,Kabaena Timur,Kabupaten,Bombana,Sulawesi Tenggara
1897,93784,Bungi-bungi,74.06.06.2011,Kabaena Timur,Kabupaten,Bombana,Sulawesi Tenggara
1898,93784,Dongkala,74.06.06.1009,Kabaena Timur,Kabupaten,Bombana,Sulawesi Tenggara
1899,93784,Lambale,74.06.06.1010,Kabaena Timur,Kabupaten,Bombana,Sulawesi Tenggara
1900,93784,Tapuhaka,74.06.06.2008,Kabaena Timur,Kabupaten,Bombana,Sulawesi Tenggara
1901,93784,Toli-Toli,74.06.06.2007,Kabaena Timur,Kabupaten,Bombana,Sulawesi Tenggara
1902,93784,Wumbuburo (Wumbubura),74.06.06.2005,Kabaena Timur,Kabupaten,Bombana,Sulawesi Tenggara
1903,93783,Enano,74.06.16.2004,Kabaena Tengah,Kabupaten,Bombana,Sulawesi Tenggara
1904,93783,Lamonggi,74.06.16.2001,Kabaena Tengah,Kabupaten,Bombana,Sulawesi Tenggara
1905,93783,Lengora,74.06.16.2003,Kabaena Tengah,Kabupaten,Bombana,Sulawesi Tenggara
1906,93783,Lengora Pantai,74.06.16.2007,Kabaena Tengah,Kabupaten,Bombana,Sulawesi Tenggara
1907,93783,Lengora Selatan,74.06.16.2006,Kabaena Tengah,Kabupaten,Bombana,Sulawesi Tenggara
1908,93783,Tangkeno,74.06.16.2002,Kabaena Tengah,Kabupaten,Bombana,Sulawesi Tenggara
1909,93783,Ulungkura,74.06.16.2005,Kabaena Tengah,Kabupaten,Bombana,Sulawesi Tenggara
1910,93782,Batuawu,74.06.13.2002,Kabaena Selatan,Kabupaten,Bombana,Sulawesi Tenggara
1911,93782,Langkema,74.06.13.2001,Kabaena Selatan,Kabupaten,Bombana,Sulawesi Tenggara
1912,93782,Pongkalaero,74.06.13.2003,Kabaena Selatan,Kabupaten,Bombana,Sulawesi Tenggara
1913,93782,Puu Nunu,74.06.13.2004,Kabaena Selatan,Kabupaten,Bombana,Sulawesi Tenggara
1914,93780,Baliara,74.06.14.2002,Kabaena Barat,Kabupaten,Bombana,Sulawesi Tenggara
1915,93780,Baliara Kepulauan,74.06.14.2004,Kabaena Barat,Kabupaten,Bombana,Sulawesi Tenggara
1916,93780,Baliara Selatan,74.06.14.2005,Kabaena Barat,Kabupaten,Bombana,Sulawesi Tenggara
1917,93780,Rahantari,74.06.14.2003,Kabaena Barat,Kabupaten,Bombana,Sulawesi Tenggara
1918,93780,Sikeli,74.06.14.1001,Kabaena Barat,Kabupaten,Bombana,Sulawesi Tenggara
1919,93781,Rahadopi,74.06.05.2010,Kabaena,Kabupaten,Bombana,Sulawesi Tenggara
1920,93781,Rahampuu,74.06.05.1016,Kabaena,Kabupaten,Bombana,Sulawesi Tenggara
1921,93781,Teomokole,74.06.05.1009,Kabaena,Kabupaten,Bombana,Sulawesi Tenggara
1922,93781,Tirongkotua,74.06.05.2011,Kabaena,Kabupaten,Bombana,Sulawesi Tenggara
1923,93552,Iwoimendaa,74.01.27.2004,Iwoimendaa,Kabupaten,Kolaka,Sulawesi Tenggara
1924,93552,Ladahai,74.01.27.2002,Iwoimendaa,Kabupaten,Kolaka,Sulawesi Tenggara
1925,93552,Lambopini,74.01.27.2005,Iwoimendaa,Kabupaten,Kolaka,Sulawesi Tenggara
1926,93552,Landoula,74.01.27.2010,Iwoimendaa,Kabupaten,Kolaka,Sulawesi Tenggara
1927,93552,Lasiroku,74.01.27.2003,Iwoimendaa,Kabupaten,Kolaka,Sulawesi Tenggara
1928,93552,Lawolia,74.01.27.2008,Iwoimendaa,Kabupaten,Kolaka,Sulawesi Tenggara
1929,93552,Tamborasi,74.01.27.2001,Iwoimendaa,Kabupaten,Kolaka,Sulawesi Tenggara
1930,93552,Ulu Kalo,74.01.27.2006,Iwoimendaa,Kabupaten,Kolaka,Sulawesi Tenggara
1931,93552,Watumelewe,74.01.27.2009,Iwoimendaa,Kabupaten,Kolaka,Sulawesi Tenggara
1932,93552,Wonualaku,74.01.27.2007,Iwoimendaa,Kabupaten,Kolaka,Sulawesi Tenggara
1933,93761,Bantea,74.14.06.2001,Gu,Kabupaten,Buton Tengah,Sulawesi Tenggara
1934,93761,Bombonawulu,74.14.06.1005,Gu,Kabupaten,Buton Tengah,Sulawesi Tenggara
1935,93761,Kamama Mekar,74.14.06.2011,Gu,Kabupaten,Buton Tengah,Sulawesi Tenggara
1936,93761,Kolowa,74.14.06.2010,Gu,Kabupaten,Buton Tengah,Sulawesi Tenggara
1937,93761,Lakapera,74.14.06.2002,Gu,Kabupaten,Buton Tengah,Sulawesi Tenggara
1938,93761,Lowu Lowu,74.14.06.2012,Gu,Kabupaten,Buton Tengah,Sulawesi Tenggara
1939,93761,Rahia,74.14.06.2008,Gu,Kabupaten,Buton Tengah,Sulawesi Tenggara
1940,93761,Wadiabero,74.14.06.2009,Gu,Kabupaten,Buton Tengah,Sulawesi Tenggara
1941,93761,Wakea Kea,74.14.06.2007,Gu,Kabupaten,Buton Tengah,Sulawesi Tenggara
1942,93761,Walando,74.14.06.2003,Gu,Kabupaten,Buton Tengah,Sulawesi Tenggara
1943,93761,Waliko,74.14.06.2006,Gu,Kabupaten,Buton Tengah,Sulawesi Tenggara
1944,93761,Watulea,74.14.06.1004,Gu,Kabupaten,Buton Tengah,Sulawesi Tenggara
1945,93618,Banggai,74.03.17.2007,Duruka,Kabupaten,Muna,Sulawesi Tenggara
1946,93618,Ghone Bhalano,74.03.17.2004,Duruka,Kabupaten,Muna,Sulawesi Tenggara
1947,93618,Ghonsuma (Ghonsume),74.03.17.2001,Duruka,Kabupaten,Muna,Sulawesi Tenggara
1948,93618,Lagasa,74.03.17.2003,Duruka,Kabupaten,Muna,Sulawesi Tenggara
1949,93618,Lasunapa,74.03.17.2006,Duruka,Kabupaten,Muna,Sulawesi Tenggara
1950,93618,Palangga,74.03.17.1002,Duruka,Kabupaten,Muna,Sulawesi Tenggara
1951,93618,Wapunto,74.03.17.1005,Duruka,Kabupaten,Muna,Sulawesi Tenggara
1952,93576,Anambada,74.11.12.2006,Dangia,Kabupaten,Kolaka Timur,Sulawesi Tenggara
1953,93576,Dangia,74.11.12.2003,Dangia,Kabupaten,Kolaka Timur,Sulawesi Tenggara
1954,93576,Gunung Jaya,74.11.12.2001,Dangia,Kabupaten,Kolaka Timur,Sulawesi Tenggara
1955,93576,Lalongkateba,74.11.12.2009,Dangia,Kabupaten,Kolaka Timur,Sulawesi Tenggara
1956,93576,Lamosila,74.11.12.2004,Dangia,Kabupaten,Kolaka Timur,Sulawesi Tenggara
1957,93576,Lembah Subur,74.11.12.2002,Dangia,Kabupaten,Kolaka Timur,Sulawesi Tenggara
1958,93576,Mekar Jaya,74.11.12.2011,Dangia,Kabupaten,Kolaka Timur,Sulawesi Tenggara
1959,93576,Mulia Jaya,74.11.12.2012,Dangia,Kabupaten,Kolaka Timur,Sulawesi Tenggara
1960,93576,Talinduka,74.11.12.2007,Dangia,Kabupaten,Kolaka Timur,Sulawesi Tenggara
1961,93576,Tetembuta,74.11.12.2008,Dangia,Kabupaten,Kolaka Timur,Sulawesi Tenggara
1962,93576,Tetewua,74.11.12.2005,Dangia,Kabupaten,Kolaka Timur,Sulawesi Tenggara
1963,93576,Wande,74.11.12.2010,Dangia,Kabupaten,Kolaka Timur,Sulawesi Tenggara
1964,93732,Kampeonaho,74.72.04.1003,Bungi,Kota,Bau Bau,Sulawesi Tenggara
1965,93732,Liabuku (Lia Buku),74.72.04.1001,Bungi,Kota,Bau Bau,Sulawesi Tenggara
1966,93732,Ngkaring-Karing (Ngkari-Ngkari),74.72.04.1002,Bungi,Kota,Bau Bau,Sulawesi Tenggara
1967,93732,Tampuna,74.72.04.1010,Bungi,Kota,Bau Bau,Sulawesi Tenggara
1968,93732,Waliabuku (Walia Buku),74.72.04.1008,Bungi,Kota,Bau Bau,Sulawesi Tenggara
1969,93815,Adaka Jaya,74.05.17.2005,Buke,Kabupaten,Konawe Selatan,Sulawesi Tenggara
1970,93814,Adayu Indah,74.05.17.2013,Buke,Kabupaten,Konawe Selatan,Sulawesi Tenggara
1971,93813,Andoolo Utama (Andolo Utama),74.05.17.2001,Buke,Kabupaten,Konawe Selatan,Sulawesi Tenggara
1972,93819,Anggokoti,74.05.17.2002,Buke,Kabupaten,Konawe Selatan,Sulawesi Tenggara
1973,93819,Asembu Mulya,74.05.17.2003,Buke,Kabupaten,Konawe Selatan,Sulawesi Tenggara
1974,93816,Awalo (Awolo),74.05.17.2004,Buke,Kabupaten,Konawe Selatan,Sulawesi Tenggara
1975,93812,Buke,74.05.17.2006,Buke,Kabupaten,Konawe Selatan,Sulawesi Tenggara
1976,93812,Pelandia,74.05.17.2007,Buke,Kabupaten,Konawe Selatan,Sulawesi Tenggara
1977,93812,Puudaria (Puudaria Jaya),74.05.17.2008,Buke,Kabupaten,Konawe Selatan,Sulawesi Tenggara
1978,93819,Rahamendaa (Raha Menda Jaya),74.05.17.2009,Buke,Kabupaten,Konawe Selatan,Sulawesi Tenggara
1979,93814,Ranooha Lestari,74.05.17.2016,Buke,Kabupaten,Konawe Selatan,Sulawesi Tenggara
1980,93814,Silea Jaya,74.05.17.2010,Buke,Kabupaten,Konawe Selatan,Sulawesi Tenggara
1981,93814,Tetenggolasa,74.05.17.2012,Buke,Kabupaten,Konawe Selatan,Sulawesi Tenggara
1982,93814,Tirto Martani (Tirto / Tirta Wartani),74.05.17.2011,Buke,Kabupaten,Konawe Selatan,Sulawesi Tenggara
1983,93814,Wanua Maroa,74.05.17.2014,Buke,Kabupaten,Konawe Selatan,Sulawesi Tenggara
1984,93814,Wulele Jaya,74.05.17.2015,Buke,Kabupaten,Konawe Selatan,Sulawesi Tenggara
1985,93673,Bonegunu,74.10.03.1010,Bonegunu,Kabupaten,Buton Utara,Sulawesi Tenggara
1986,93673,Buranga,74.10.03.1006,Bonegunu,Kabupaten,Buton Utara,Sulawesi Tenggara
1987,93673,Damai Laborona,74.10.03.2017,Bonegunu,Kabupaten,Buton Utara,Sulawesi Tenggara
1988,93673,Eensumala (Een Sumala),74.10.03.2009,Bonegunu,Kabupaten,Buton Utara,Sulawesi Tenggara
1989,93673,Gunung Sari,74.10.03.2001,Bonegunu,Kabupaten,Buton Utara,Sulawesi Tenggara
1990,93673,Koboruno,74.10.03.2016,Bonegunu,Kabupaten,Buton Utara,Sulawesi Tenggara
1991,93673,Koepisino,74.10.03.2005,Bonegunu,Kabupaten,Buton Utara,Sulawesi Tenggara
1992,93673,Laano Ipi (Laanoipi),74.10.03.2008,Bonegunu,Kabupaten,Buton Utara,Sulawesi Tenggara
1993,93673,Langere,74.10.03.2004,Bonegunu,Kabupaten,Buton Utara,Sulawesi Tenggara
1994,93673,Ngapa'ea,74.10.03.2015,Bonegunu,Kabupaten,Buton Utara,Sulawesi Tenggara
1995,93673,Rante Gola,74.10.03.2014,Bonegunu,Kabupaten,Buton Utara,Sulawesi Tenggara
1996,93673,Ronta,74.10.03.2002,Bonegunu,Kabupaten,Buton Utara,Sulawesi Tenggara
1997,93673,Tatombuli,74.10.03.2013,Bonegunu,Kabupaten,Buton Utara,Sulawesi Tenggara
1998,93673,Waode Angkalo,74.10.03.2003,Bonegunu,Kabupaten,Buton Utara,Sulawesi Tenggara
1999,93673,Waode Kalowo,74.10.03.2007,Bonegunu,Kabupaten,Buton Utara,Sulawesi Tenggara
2000,93663,Bhone Kainsetala (Bone Kancitala),74.03.26.2007,Bone (Bone Tondo),Kabupaten,Muna,Sulawesi Tenggara
2001,93663,Bone Lolibu,74.03.26.2008,Bone (Bone Tondo),Kabupaten,Muna,Sulawesi Tenggara
2002,93663,Bone Tondo,74.03.26.2006,Bone (Bone Tondo),Kabupaten,Muna,Sulawesi Tenggara
2003,93663,Matombura,74.03.26.2010,Bone (Bone Tondo),Kabupaten,Muna,Sulawesi Tenggara
2004,93663,Oelongko,74.03.26.2009,Bone (Bone Tondo),Kabupaten,Muna,Sulawesi Tenggara
2005,93457,Diolo,74.02.21.2009,Bondoala,Kabupaten,Konawe,Sulawesi Tenggara
2006,93457,Lalonggalaku (Lalonggaluku),74.02.21.2004,Bondoala,Kabupaten,Konawe,Sulawesi Tenggara
2007,93457,Langgaluku Timur (Lalonggaluku Timur),74.02.21.2031,Bondoala,Kabupaten,Konawe,Sulawesi Tenggara
2008,93457,Laosu,74.02.21.1003,Bondoala,Kabupaten,Konawe,Sulawesi Tenggara
2009,93457,Laosu Jaya,74.02.21.2029,Bondoala,Kabupaten,Konawe,Sulawesi Tenggara
2010,93457,Pebunooha,74.02.21.2002,Bondoala,Kabupaten,Konawe,Sulawesi Tenggara
2011,93457,Pebunooha Dalam,74.02.21.2018,Bondoala,Kabupaten,Konawe,Sulawesi Tenggara
2012,93457,Rambu Kongga,74.02.21.2028,Bondoala,Kabupaten,Konawe,Sulawesi Tenggara
2013,93457,Rumbia,74.02.21.2023,Bondoala,Kabupaten,Konawe,Sulawesi Tenggara
2014,93794,Jaya Makmur,74.07.04.2013,Binongko,Kabupaten,Wakatobi,Sulawesi Tenggara
2015,93794,Kampo-Kampo (Kompo-Kompo),74.07.04.2008,Binongko,Kabupaten,Wakatobi,Sulawesi Tenggara
2016,93794,Lagongga (Longongga),74.07.04.2009,Binongko,Kabupaten,Wakatobi,Sulawesi Tenggara
2017,93794,Makoro,74.07.04.2006,Binongko,Kabupaten,Wakatobi,Sulawesi Tenggara
2018,93794,Palahidu,74.07.04.1007,Binongko,Kabupaten,Wakatobi,Sulawesi Tenggara
2019,93794,Palahidu Barat,74.07.04.2011,Binongko,Kabupaten,Wakatobi,Sulawesi Tenggara
2020,93794,Rukuwa,74.07.04.1012,Binongko,Kabupaten,Wakatobi,Sulawesi Tenggara
2021,93794,Taipabu,74.07.04.1005,Binongko,Kabupaten,Wakatobi,Sulawesi Tenggara
2022,93794,Wali,74.07.04.1010,Binongko,Kabupaten,Wakatobi,Sulawesi Tenggara
2023,93724,Katobengke,74.72.01.1007,Betoambari,Kota,Bau Bau,Sulawesi Tenggara
2024,93725,Labalawa,74.72.01.1016,Betoambari,Kota,Bau Bau,Sulawesi Tenggara
2025,93721,Lipu,74.72.01.1014,Betoambari,Kota,Bau Bau,Sulawesi Tenggara
2026,93721,Sulaa,74.72.01.1013,Betoambari,Kota,Bau Bau,Sulawesi Tenggara
2027,93721,Waborobo,74.72.01.1012,Betoambari,Kota,Bau Bau,Sulawesi Tenggara
2028,93459,Amosilu,74.02.20.2002,Besulutu,Kabupaten,Konawe,Sulawesi Tenggara
2029,93459,Andomesinggo,74.02.20.2011,Besulutu,Kabupaten,Konawe,Sulawesi Tenggara
2030,93459,Asunde (Asunda),74.02.20.2005,Besulutu,Kabupaten,Konawe,Sulawesi Tenggara
2031,93459,Besulutu,74.02.20.1003,Besulutu,Kabupaten,Konawe,Sulawesi Tenggara
2032,93459,Labela,74.02.20.2007,Besulutu,Kabupaten,Konawe,Sulawesi Tenggara
2033,93459,Laloumera,74.02.20.2004,Besulutu,Kabupaten,Konawe,Sulawesi Tenggara
2034,93459,Lalowulo,74.02.20.2016,Besulutu,Kabupaten,Konawe,Sulawesi Tenggara
2035,93459,Lawonua,74.02.20.2001,Besulutu,Kabupaten,Konawe,Sulawesi Tenggara
2036,93459,Onembute,74.02.20.2010,Besulutu,Kabupaten,Konawe,Sulawesi Tenggara
2037,93459,Punggaluku,74.02.20.2014,Besulutu,Kabupaten,Konawe,Sulawesi Tenggara
2038,93459,Puulowaru,74.02.20.2012,Besulutu,Kabupaten,Konawe,Sulawesi Tenggara
2039,93459,Puundoho,74.02.20.2013,Besulutu,Kabupaten,Konawe,Sulawesi Tenggara
2040,93459,Ranomolua,74.02.20.2008,Besulutu,Kabupaten,Konawe,Sulawesi Tenggara
2041,93459,Silea,74.02.20.2009,Besulutu,Kabupaten,Konawe,Sulawesi Tenggara
2042,93459,Ulupohara,74.02.20.2006,Besulutu,Kabupaten,Konawe,Sulawesi Tenggara
2043,93459,Waworaha,74.02.20.2015,Besulutu,Kabupaten,Konawe,Sulawesi Tenggara
2044,93877,Awalo,74.05.13.2010,Benua,Kabupaten,Konawe Selatan,Sulawesi Tenggara
2045,93877,Benua,74.05.13.2005,Benua,Kabupaten,Konawe Selatan,Sulawesi Tenggara
2046,93877,Benua Utama,74.05.13.2003,Benua,Kabupaten,Konawe Selatan,Sulawesi Tenggara
2047,93877,Horodopi,74.05.13.2004,Benua,Kabupaten,Konawe Selatan,Sulawesi Tenggara
2048,93877,Kosambi,74.05.13.2011,Benua,Kabupaten,Konawe Selatan,Sulawesi Tenggara
2049,93877,Lamara,74.05.13.2001,Benua,Kabupaten,Konawe Selatan,Sulawesi Tenggara
2050,93877,Palawewu (Palowewu),74.05.13.2006,Benua,Kabupaten,Konawe Selatan,Sulawesi Tenggara
2051,93877,Puosu (Puuosu),74.05.13.2002,Benua,Kabupaten,Konawe Selatan,Sulawesi Tenggara
2052,93877,Puunggawu Kawu (Punggawukawu),74.05.13.2007,Benua,Kabupaten,Konawe Selatan,Sulawesi Tenggara
2053,93877,Puuwehuko,74.05.13.2012,Benua,Kabupaten,Konawe Selatan,Sulawesi Tenggara
2054,93877,Tetehaka,74.05.13.2009,Benua,Kabupaten,Konawe Selatan,Sulawesi Tenggara
2055,93877,Uelawa,74.05.13.2008,Benua,Kabupaten,Konawe Selatan,Sulawesi Tenggara
2056,93561,Baula,74.01.12.2006,Baula,Kabupaten,Kolaka,Sulawesi Tenggara
2057,93561,Longori,74.01.12.2002,Baula,Kabupaten,Kolaka,Sulawesi Tenggara
2058,93561,Pewutaa,74.01.12.2007,Baula,Kabupaten,Kolaka,Sulawesi Tenggara
2059,93561,Puubenua,74.01.12.2005,Baula,Kabupaten,Kolaka,Sulawesi Tenggara
2060,93561,Puubunga,74.01.12.2003,Baula,Kabupaten,Kolaka,Sulawesi Tenggara
2061,93561,Puulemo,74.01.12.2004,Baula,Kabupaten,Kolaka,Sulawesi Tenggara
2062,93561,Puundoho,74.01.12.1001,Baula,Kabupaten,Kolaka,Sulawesi Tenggara
2063,93561,Puuroda,74.01.12.2009,Baula,Kabupaten,Kolaka,Sulawesi Tenggara
2064,93561,Ulu Baula,74.01.12.2010,Baula,Kabupaten,Kolaka,Sulawesi Tenggara
2065,93561,Watalara,74.01.12.2008,Baula,Kabupaten,Kolaka,Sulawesi Tenggara
2066,93721,Bonebone (Bone-Bone),74.72.08.1001,Batupoaro,Kota,Bau Bau,Sulawesi Tenggara
2067,93721,Kaobula,74.72.08.1004,Batupoaro,Kota,Bau Bau,Sulawesi Tenggara
2068,93721,Lanto,74.72.08.1005,Batupoaro,Kota,Bau Bau,Sulawesi Tenggara
2069,93721,Nganganaumala,74.72.08.1006,Batupoaro,Kota,Bau Bau,Sulawesi Tenggara
2070,93722,Tarafu,74.72.08.1002,Batupoaro,Kota,Bau Bau,Sulawesi Tenggara
2071,93722,Wameo,74.72.08.1003,Batupoaro,Kota,Bau Bau,Sulawesi Tenggara
2072,93682,Baluara,74.03.34.2004,Batukara,Kabupaten,Muna,Sulawesi Tenggara
2073,93682,Bone Bone,74.03.34.2001,Batukara,Kabupaten,Muna,Sulawesi Tenggara
2074,93682,Lanobake (Laano Bake),74.03.34.2002,Batukara,Kabupaten,Muna,Sulawesi Tenggara
2075,93682,Moolo,74.03.34.2003,Batukara,Kabupaten,Muna,Sulawesi Tenggara
2076,93955,Batu Api (Batuapi),74.08.03.2011,Batu Putih,Kabupaten,Kolaka Utara,Sulawesi Tenggara
2077,93955,Batu Putih,74.08.03.1001,Batu Putih,Kabupaten,Kolaka Utara,Sulawesi Tenggara
2078,93955,Bukit Baru,74.08.03.2015,Batu Putih,Kabupaten,Kolaka Utara,Sulawesi Tenggara
2079,93955,Bukit Tinggi,74.08.03.2012,Batu Putih,Kabupaten,Kolaka Utara,Sulawesi Tenggara
2080,93955,Latowu,74.08.03.2002,Batu Putih,Kabupaten,Kolaka Utara,Sulawesi Tenggara
2081,93955,Lelewawo,74.08.03.2004,Batu Putih,Kabupaten,Kolaka Utara,Sulawesi Tenggara
2082,93955,Makkuaseng,74.08.03.2021,Batu Putih,Kabupaten,Kolaka Utara,Sulawesi Tenggara
2083,93955,Mosiku,74.08.03.2003,Batu Putih,Kabupaten,Kolaka Utara,Sulawesi Tenggara
2084,93955,Parung Lampe,74.08.03.2016,Batu Putih,Kabupaten,Kolaka Utara,Sulawesi Tenggara
2085,93955,Puncak Harapan,74.08.03.2017,Batu Putih,Kabupaten,Kolaka Utara,Sulawesi Tenggara
2086,93955,Tetebawo,74.08.03.2020,Batu Putih,Kabupaten,Kolaka Utara,Sulawesi Tenggara
2087,93745,Batu Atas Timur (Batuatas Timur),74.15.04.2004,Batu Atas,Kabupaten,Buton Selatan,Sulawesi Tenggara
2088,93745,Batuatas Barat,74.15.04.2002,Batu Atas,Kabupaten,Buton Selatan,Sulawesi Tenggara
2089,93745,Batuatas Liwu,74.15.04.2001,Batu Atas,Kabupaten,Buton Selatan,Sulawesi Tenggara
2090,93745,Taduasa,74.15.04.2006,Batu Atas,Kabupaten,Buton Selatan,Sulawesi Tenggara
2091,93745,Tolando Jaya,74.15.04.2005,Batu Atas,Kabupaten,Buton Selatan,Sulawesi Tenggara
2092,93745,Wacuala,74.15.04.2003,Batu Atas,Kabupaten,Buton Selatan,Sulawesi Tenggara
2093,93745,Wambongi,74.15.04.2007,Batu Atas,Kabupaten,Buton Selatan,Sulawesi Tenggara
2094,93741,Bandar Batauga,74.15.01.1012,Batauga,Kabupaten,Buton Selatan,Sulawesi Tenggara
2095,93741,Bola,74.15.01.2006,Batauga,Kabupaten,Buton Selatan,Sulawesi Tenggara
2096,93741,Busoa,74.15.01.1002,Batauga,Kabupaten,Buton Selatan,Sulawesi Tenggara
2097,93741,Lakambau,74.15.01.1010,Batauga,Kabupaten,Buton Selatan,Sulawesi Tenggara
2098,93741,Lampanairi,74.15.01.2009,Batauga,Kabupaten,Buton Selatan,Sulawesi Tenggara
2099,93741,Laompo,74.15.01.1003,Batauga,Kabupaten,Buton Selatan,Sulawesi Tenggara
2100,93741,Lawela,74.15.01.2001,Batauga,Kabupaten,Buton Selatan,Sulawesi Tenggara
2101,93741,Lawela Selatan,74.15.01.2008,Batauga,Kabupaten,Buton Selatan,Sulawesi Tenggara
2102,93741,Majapahit,74.15.01.1005,Batauga,Kabupaten,Buton Selatan,Sulawesi Tenggara
2103,93741,Masiri,74.15.01.1004,Batauga,Kabupaten,Buton Selatan,Sulawesi Tenggara
2104,93741,Molagina,74.15.01.1011,Batauga,Kabupaten,Buton Selatan,Sulawesi Tenggara
2105,93741,Poogalampa,74.15.01.2007,Batauga,Kabupaten,Buton Selatan,Sulawesi Tenggara
2106,93614,Laiworu,74.03.15.1004,Batalaiworu (Batalaiwaru),Kabupaten,Muna,Sulawesi Tenggara
2107,93614,Sidodadi,74.03.15.1003,Batalaiworu (Batalaiwaru),Kabupaten,Muna,Sulawesi Tenggara
2108,93614,Wakorambu,74.03.15.2002,Batalaiworu (Batalaiwaru),Kabupaten,Muna,Sulawesi Tenggara
2109,93614,Wawesa,74.03.15.2001,Batalaiworu (Batalaiwaru),Kabupaten,Muna,Sulawesi Tenggara
2110,93876,Basala,74.05.21.2007,Basala,Kabupaten,Konawe Selatan,Sulawesi Tenggara
2111,93876,Epeesi,74.05.21.2002,Basala,Kabupaten,Konawe Selatan,Sulawesi Tenggara
2112,93876,Iwoimendoro (Iwoi Mendoro),74.05.21.2001,Basala,Kabupaten,Konawe Selatan,Sulawesi Tenggara
2113,93876,Lambandia,74.05.21.2005,Basala,Kabupaten,Konawe Selatan,Sulawesi Tenggara
2114,93876,Lere,74.05.21.2003,Basala,Kabupaten,Konawe Selatan,Sulawesi Tenggara
2115,93876,Lipumasagena (Lipu Masagena),74.05.21.2004,Basala,Kabupaten,Konawe Selatan,Sulawesi Tenggara
2116,93876,Polo-Pololi,74.05.21.2006,Basala,Kabupaten,Konawe Selatan,Sulawesi Tenggara
2117,93876,Tambekuku (Tombekuku),74.05.21.2008,Basala,Kabupaten,Konawe Selatan,Sulawesi Tenggara
2118,93876,Teporombua,74.05.21.2009,Basala,Kabupaten,Konawe Selatan,Sulawesi Tenggara
2119,93116,Baruga,74.71.03.1001,Baruga,Kota,Kendari,Sulawesi Tenggara
2120,93116,Lepo Lepo,74.71.03.1002,Baruga,Kota,Kendari,Sulawesi Tenggara
2121,93116,Watubangga,74.71.03.1007,Baruga,Kota,Kendari,Sulawesi Tenggara
2122,93116,Wundudopi,74.71.03.1008,Baruga,Kota,Kendari,Sulawesi Tenggara
2123,93650,Barangka,74.13.02.2007,Barangka,Kabupaten,Muna Barat,Sulawesi Tenggara
2124,93650,Bungkolo,74.13.02.2006,Barangka,Kabupaten,Muna Barat,Sulawesi Tenggara
2125,93650,Lafinde,74.13.02.2002,Barangka,Kabupaten,Muna Barat,Sulawesi Tenggara
2126,93650,Lapolea,74.13.02.2008,Barangka,Kabupaten,Muna Barat,Sulawesi Tenggara
2127,93650,Sawerigadi,74.13.02.2005,Barangka,Kabupaten,Muna Barat,Sulawesi Tenggara
2128,93650,Walelei,74.13.02.2004,Barangka,Kabupaten,Muna Barat,Sulawesi Tenggara
2129,93650,Waulai,74.13.02.2003,Barangka,Kabupaten,Muna Barat,Sulawesi Tenggara
2130,93650,Wuna,74.13.02.2001,Barangka,Kabupaten,Muna Barat,Sulawesi Tenggara
2131,93883,Ahuangguluri,74.05.20.2008,Baito,Kabupaten,Konawe Selatan,Sulawesi Tenggara
2132,93883,Amosara (Amasara),74.05.20.2001,Baito,Kabupaten,Konawe Selatan,Sulawesi Tenggara
2133,93883,Baito,74.05.20.2002,Baito,Kabupaten,Konawe Selatan,Sulawesi Tenggara
2134,93883,Matabubu,74.05.20.2003,Baito,Kabupaten,Konawe Selatan,Sulawesi Tenggara
2135,93883,Mekar Jaya,74.05.20.2004,Baito,Kabupaten,Konawe Selatan,Sulawesi Tenggara
2136,93883,Sambahule,74.05.20.2005,Baito,Kabupaten,Konawe Selatan,Sulawesi Tenggara
2137,93883,Tolihe,74.05.20.2006,Baito,Kabupaten,Konawe Selatan,Sulawesi Tenggara
2138,93883,Wonua/Wanua Raya,74.05.20.2007,Baito,Kabupaten,Konawe Selatan,Sulawesi Tenggara
2139,93441,Ambodiaa,74.02.31.1004,Asinua,Kabupaten,Konawe,Sulawesi Tenggara
2140,93441,Angohi,74.02.31.2005,Asinua,Kabupaten,Konawe,Sulawesi Tenggara
2141,93441,Asinua Jaya,74.02.31.2003,Asinua,Kabupaten,Konawe,Sulawesi Tenggara
2142,93441,Asipako,74.02.31.2008,Asinua,Kabupaten,Konawe,Sulawesi Tenggara
2143,93441,Awua Jaya,74.02.31.2006,Asinua,Kabupaten,Konawe,Sulawesi Tenggara
2144,93441,Awua Sari,74.02.31.2007,Asinua,Kabupaten,Konawe,Sulawesi Tenggara
2145,93441,Lasada,74.02.31.2002,Asinua,Kabupaten,Konawe,Sulawesi Tenggara
2146,93441,Nekudu,74.02.31.2001,Asinua,Kabupaten,Konawe,Sulawesi Tenggara
2147,93355,Alaa Wanggudu,74.09.01.2036,Asera,Kabupaten,Konawe Utara,Sulawesi Tenggara
2148,93355,Amorome,74.09.01.2010,Asera,Kabupaten,Konawe Utara,Sulawesi Tenggara
2149,93355,Amorome Utama,74.09.01.2034,Asera,Kabupaten,Konawe Utara,Sulawesi Tenggara
2150,93355,Andedao,74.09.01.2035,Asera,Kabupaten,Konawe Utara,Sulawesi Tenggara
2151,93355,Aseminunulai (Aseminulai),74.09.01.2027,Asera,Kabupaten,Konawe Utara,Sulawesi Tenggara
2152,93355,Asera,74.09.01.1009,Asera,Kabupaten,Konawe Utara,Sulawesi Tenggara
2153,93355,Kota Mulya,74.09.01.2033,Asera,Kabupaten,Konawe Utara,Sulawesi Tenggara
2154,93355,Longeo Utama,74.09.01.2032,Asera,Kabupaten,Konawe Utara,Sulawesi Tenggara
2155,93355,Oheo Trans,74.09.01.2037,Asera,Kabupaten,Konawe Utara,Sulawesi Tenggara
2156,93355,Puunggomosi,74.09.01.2030,Asera,Kabupaten,Konawe Utara,Sulawesi Tenggara
2157,93355,Puuwanggudu,74.09.01.2031,Asera,Kabupaten,Konawe Utara,Sulawesi Tenggara
2158,93355,Tangguluri (Tanggaluri),74.09.01.2008,Asera,Kabupaten,Konawe Utara,Sulawesi Tenggara
2159,93355,Tapuwatu,74.09.01.2024,Asera,Kabupaten,Konawe Utara,Sulawesi Tenggara
2160,93355,Walalindu,74.09.01.2007,Asera,Kabupaten,Konawe Utara,Sulawesi Tenggara
2161,93355,Walasolo,74.09.01.2017,Asera,Kabupaten,Konawe Utara,Sulawesi Tenggara
2162,93355,Wanggudu,74.09.01.1005,Asera,Kabupaten,Konawe Utara,Sulawesi Tenggara
2163,93355,Wanggudu Raya,74.09.01.2006,Asera,Kabupaten,Konawe Utara,Sulawesi Tenggara
2164,93355,Wawolimbue,74.09.01.2016,Asera,Kabupaten,Konawe Utara,Sulawesi Tenggara
2165,93355,Wunduhaka,74.09.01.2020,Asera,Kabupaten,Konawe Utara,Sulawesi Tenggara
2166,93455,Abelisawah,74.02.40.2004,Anggalomoare,Kabupaten,Konawe,Sulawesi Tenggara
2167,93455,Andobeu Jaya,74.02.40.2008,Anggalomoare,Kabupaten,Konawe,Sulawesi Tenggara
2168,93455,Anggalomoare,74.02.40.2001,Anggalomoare,Kabupaten,Konawe,Sulawesi Tenggara
2169,93455,Anggalomoare Jaya,74.02.40.2009,Anggalomoare,Kabupaten,Konawe,Sulawesi Tenggara
2170,93455,Galu,74.02.40.2005,Anggalomoare,Kabupaten,Konawe,Sulawesi Tenggara
2171,93455,Lakomea (Lakome),74.02.40.2003,Anggalomoare,Kabupaten,Konawe,Sulawesi Tenggara
2172,93455,Lasoso,74.02.40.2002,Anggalomoare,Kabupaten,Konawe,Sulawesi Tenggara
2173,93455,Pusawah Jaya (Pusawa Jaya),74.02.40.2010,Anggalomoare,Kabupaten,Konawe,Sulawesi Tenggara
2174,93455,Puusangi,74.02.40.2007,Anggalomoare,Kabupaten,Konawe,Sulawesi Tenggara
2175,93455,Tabanggele,74.02.40.2006,Anggalomoare,Kabupaten,Konawe,Sulawesi Tenggara
2176,93419,Andabia,74.02.24.1004,Anggaberi,Kabupaten,Konawe,Sulawesi Tenggara
2177,93418,Anggaberi,74.02.24.1002,Anggaberi,Kabupaten,Konawe,Sulawesi Tenggara
2178,93419,Lawulo,74.02.24.1003,Anggaberi,Kabupaten,Konawe,Sulawesi Tenggara
2179,93418,Lerehoma,74.02.24.2007,Anggaberi,Kabupaten,Konawe,Sulawesi Tenggara
2180,93417,Parauna,74.02.24.1001,Anggaberi,Kabupaten,Konawe,Sulawesi Tenggara
2181,93417,Toriki,74.02.24.1006,Anggaberi,Kabupaten,Konawe,Sulawesi Tenggara
2182,93417,Unaasi,74.02.24.1005,Anggaberi,Kabupaten,Konawe,Sulawesi Tenggara
2183,93419,Wunduongohi,74.02.24.2008,Anggaberi,Kabupaten,Konawe,Sulawesi Tenggara
2184,93875,Angata,74.05.02.2018,Angata,Kabupaten,Konawe Selatan,Sulawesi Tenggara
2185,93875,Aopa,74.05.02.2002,Angata,Kabupaten,Konawe Selatan,Sulawesi Tenggara
2186,93875,Boloso,74.05.02.2041,Angata,Kabupaten,Konawe Selatan,Sulawesi Tenggara
2187,93875,Kasebo,74.05.02.2016,Angata,Kabupaten,Konawe Selatan,Sulawesi Tenggara
2188,93875,Lamoen,74.05.02.2004,Angata,Kabupaten,Konawe Selatan,Sulawesi Tenggara
2189,93875,Lamoeri,74.05.02.2015,Angata,Kabupaten,Konawe Selatan,Sulawesi Tenggara
2190,93875,Lamooso,74.05.02.2010,Angata,Kabupaten,Konawe Selatan,Sulawesi Tenggara
2191,93875,Landabaro,74.05.02.2011,Angata,Kabupaten,Konawe Selatan,Sulawesi Tenggara
2192,93875,Langgea Indah,74.05.02.2043,Angata,Kabupaten,Konawe Selatan,Sulawesi Tenggara
2193,93875,Matabondu,74.05.02.2020,Angata,Kabupaten,Konawe Selatan,Sulawesi Tenggara
2194,93875,Mataiwoi,74.05.02.2017,Angata,Kabupaten,Konawe Selatan,Sulawesi Tenggara
2195,93875,Mokoau,74.05.02.2040,Angata,Kabupaten,Konawe Selatan,Sulawesi Tenggara
2196,93875,Motaha,74.05.02.2003,Angata,Kabupaten,Konawe Selatan,Sulawesi Tenggara
2197,93875,Pewutaa,74.05.02.2001,Angata,Kabupaten,Konawe Selatan,Sulawesi Tenggara
2198,93875,Puao,74.05.02.2006,Angata,Kabupaten,Konawe Selatan,Sulawesi Tenggara
2199,93875,Pudambu,74.05.02.2019,Angata,Kabupaten,Konawe Selatan,Sulawesi Tenggara
2200,93875,Puulipu,74.05.02.2042,Angata,Kabupaten,Konawe Selatan,Sulawesi Tenggara
2201,93875,Puungoni,74.05.02.2012,Angata,Kabupaten,Konawe Selatan,Sulawesi Tenggara
2202,93875,Puuroe,74.05.02.2014,Angata,Kabupaten,Konawe Selatan,Sulawesi Tenggara
2203,93875,Puusanggula,74.05.02.2005,Angata,Kabupaten,Konawe Selatan,Sulawesi Tenggara
2204,93875,Sandarsi Jaya,74.05.02.2013,Angata,Kabupaten,Konawe Selatan,Sulawesi Tenggara
2205,93875,Sandey,74.05.02.2007,Angata,Kabupaten,Konawe Selatan,Sulawesi Tenggara
2206,93875,Simbangu,74.05.02.2009,Angata,Kabupaten,Konawe Selatan,Sulawesi Tenggara
2207,93875,Teteasa,74.05.02.2008,Angata,Kabupaten,Konawe Selatan,Sulawesi Tenggara
2208,93356,Ambake,74.09.09.2014,Andowia,Kabupaten,Konawe Utara,Sulawesi Tenggara
2209,93356,Amolame,74.09.09.2011,Andowia,Kabupaten,Konawe Utara,Sulawesi Tenggara
2210,93356,Andowia,74.09.09.1001,Andowia,Kabupaten,Konawe Utara,Sulawesi Tenggara
2211,93356,Anggolohipo,74.09.09.2012,Andowia,Kabupaten,Konawe Utara,Sulawesi Tenggara
2212,93356,Banggarema,74.09.09.2010,Andowia,Kabupaten,Konawe Utara,Sulawesi Tenggara
2213,93356,Labungga,74.09.09.2006,Andowia,Kabupaten,Konawe Utara,Sulawesi Tenggara
2214,93356,Lahimbua,74.09.09.2002,Andowia,Kabupaten,Konawe Utara,Sulawesi Tenggara
2215,93356,Lambudoni,74.09.09.2004,Andowia,Kabupaten,Konawe Utara,Sulawesi Tenggara
2216,93356,Lamondowo,74.09.09.2005,Andowia,Kabupaten,Konawe Utara,Sulawesi Tenggara
2217,93356,Larobende,74.09.09.2008,Andowia,Kabupaten,Konawe Utara,Sulawesi Tenggara
2218,93356,Laronanga,74.09.09.2003,Andowia,Kabupaten,Konawe Utara,Sulawesi Tenggara
2219,93356,Mataiwoi,74.09.09.2007,Andowia,Kabupaten,Konawe Utara,Sulawesi Tenggara
2220,93356,Puusuli,74.09.09.2009,Andowia,Kabupaten,Konawe Utara,Sulawesi Tenggara
2221,93356,Puuwonua,74.09.09.2013,Andowia,Kabupaten,Konawe Utara,Sulawesi Tenggara
2222,93356,Waworate,74.09.09.2015,Andowia,Kabupaten,Konawe Utara,Sulawesi Tenggara
2223,93813,Anese,74.05.25.2002,Andoolo Barat,Kabupaten,Konawe Selatan,Sulawesi Tenggara
2224,93819,Bekenggasu,74.05.25.2003,Andoolo Barat,Kabupaten,Konawe Selatan,Sulawesi Tenggara
2225,93819,Bimamaroa,74.05.25.2006,Andoolo Barat,Kabupaten,Konawe Selatan,Sulawesi Tenggara
2226,93818,Lapoa Indah,74.05.25.2008,Andoolo Barat,Kabupaten,Konawe Selatan,Sulawesi Tenggara
2227,93819,Mataiwoi,74.05.25.2010,Andoolo Barat,Kabupaten,Konawe Selatan,Sulawesi Tenggara
2228,93818,Mataupe,74.05.25.2005,Andoolo Barat,Kabupaten,Konawe Selatan,Sulawesi Tenggara
2229,93813,Papawu,74.05.25.2001,Andoolo Barat,Kabupaten,Konawe Selatan,Sulawesi Tenggara
2230,93819,Puundoho,74.05.25.2009,Andoolo Barat,Kabupaten,Konawe Selatan,Sulawesi Tenggara
2231,93819,Watumokala,74.05.25.2004,Andoolo Barat,Kabupaten,Konawe Selatan,Sulawesi Tenggara
2232,93818,Wawobende,74.05.25.2007,Andoolo Barat,Kabupaten,Konawe Selatan,Sulawesi Tenggara
2233,93811,Alangga,74.05.03.1002,Andoolo,Kabupaten,Konawe Selatan,Sulawesi Tenggara
2234,93811,Alengge Agung,74.05.03.2004,Andoolo,Kabupaten,Konawe Selatan,Sulawesi Tenggara
2235,93810,Andoolo,74.05.03.2001,Andoolo,Kabupaten,Konawe Selatan,Sulawesi Tenggara
2236,93819,Ataku,74.05.03.2033,Andoolo,Kabupaten,Konawe Selatan,Sulawesi Tenggara
2237,93819,Bumi Raya,74.05.03.2010,Andoolo,Kabupaten,Konawe Selatan,Sulawesi Tenggara
2238,93819,Lalobao,74.05.03.2014,Andoolo,Kabupaten,Konawe Selatan,Sulawesi Tenggara
2239,93813,Lalonggombu,74.05.03.2015,Andoolo,Kabupaten,Konawe Selatan,Sulawesi Tenggara
2240,93811,Potoro,74.05.03.1018,Andoolo,Kabupaten,Konawe Selatan,Sulawesi Tenggara
2241,93819,Punggapu,74.05.03.2031,Andoolo,Kabupaten,Konawe Selatan,Sulawesi Tenggara
2242,93819,Wunduwatu,74.05.03.2026,Andoolo,Kabupaten,Konawe Selatan,Sulawesi Tenggara
2243,93463,Amandete (Warandete),74.02.28.2012,Amonggedo,Kabupaten,Konawe,Sulawesi Tenggara
2244,93463,Amonggedo,74.02.28.2006,Amonggedo,Kabupaten,Konawe,Sulawesi Tenggara
2245,93463,Amunggedo Baru,74.02.28.1013,Amonggedo,Kabupaten,Konawe,Sulawesi Tenggara
2246,93463,Anahinunu,74.02.28.2001,Amonggedo,Kabupaten,Konawe,Sulawesi Tenggara
2247,93463,Benua,74.02.28.2008,Amonggedo,Kabupaten,Konawe,Sulawesi Tenggara
2248,93463,Dunggua,74.02.28.2007,Amonggedo,Kabupaten,Konawe,Sulawesi Tenggara
2249,93463,Lalombonda,74.02.28.2015,Amonggedo,Kabupaten,Konawe,Sulawesi Tenggara
2250,93463,Lalonona,74.02.28.2005,Amonggedo,Kabupaten,Konawe,Sulawesi Tenggara
2251,93463,Matabura,74.02.28.2009,Amonggedo,Kabupaten,Konawe,Sulawesi Tenggara
2252,93463,Mataiwoi,74.02.28.2014,Amonggedo,Kabupaten,Konawe,Sulawesi Tenggara
2253,93463,Mendikonu,74.02.28.2011,Amonggedo,Kabupaten,Konawe,Sulawesi Tenggara
2254,93463,Puuasana (Puasana),74.02.28.2003,Amonggedo,Kabupaten,Konawe,Sulawesi Tenggara
2255,93463,Ulu Benua,74.02.28.2002,Amonggedo,Kabupaten,Konawe,Sulawesi Tenggara
2256,93463,Watulawu,74.02.28.2004,Amonggedo,Kabupaten,Konawe,Sulawesi Tenggara
2257,93463,Wawohine,74.02.28.2010,Amonggedo,Kabupaten,Konawe,Sulawesi Tenggara
2258,93573,Aere,74.11.10.2001,Aere,Kabupaten,Kolaka Timur,Sulawesi Tenggara
2259,93573,Aladadio,74.11.10.2006,Aere,Kabupaten,Kolaka Timur,Sulawesi Tenggara
2260,93573,Awiu,74.11.10.2005,Aere,Kabupaten,Kolaka Timur,Sulawesi Tenggara
2261,93573,Iwoi Menggura,74.11.10.2003,Aere,Kabupaten,Kolaka Timur,Sulawesi Tenggara
2262,93573,Iwoimea Jaya,74.11.10.2004,Aere,Kabupaten,Kolaka Timur,Sulawesi Tenggara
2263,93573,Pekorea,74.11.10.2002,Aere,Kabupaten,Kolaka Timur,Sulawesi Tenggara
2264,93573,Rubia,74.11.10.2011,Aere,Kabupaten,Kolaka Timur,Sulawesi Tenggara
2265,93573,Taore,74.11.10.2008,Aere,Kabupaten,Kolaka Timur,Sulawesi Tenggara
2266,93573,Tinete,74.11.10.2007,Aere,Kabupaten,Kolaka Timur,Sulawesi Tenggara
2267,93573,Ulundoro,74.11.10.2009,Aere,Kabupaten,Kolaka Timur,Sulawesi Tenggara
2268,93573,Watuwoha (Watuoha),74.11.10.2010,Aere,Kabupaten,Kolaka Timur,Sulawesi Tenggara
2269,93452,Abuki,74.02.10.1001,Abuki,Kabupaten,Konawe,Sulawesi Tenggara
2270,93452,Anggoro,74.02.10.2042,Abuki,Kabupaten,Konawe,Sulawesi Tenggara
2271,93452,Arubia Jaya,74.02.10.2039,Abuki,Kabupaten,Konawe,Sulawesi Tenggara
2272,93452,Asolu,74.02.10.2008,Abuki,Kabupaten,Konawe,Sulawesi Tenggara
2273,93452,Epeea (Epeeya),74.02.10.2015,Abuki,Kabupaten,Konawe,Sulawesi Tenggara
2274,93452,Kasuwura Indah,74.02.10.2038,Abuki,Kabupaten,Konawe,Sulawesi Tenggara
2275,93452,Kumapo,74.02.10.2024,Abuki,Kabupaten,Konawe,Sulawesi Tenggara
2276,93452,Padangguni Utama,74.02.10.2040,Abuki,Kabupaten,Konawe,Sulawesi Tenggara
2277,93452,Punggaluku,74.02.10.2009,Abuki,Kabupaten,Konawe,Sulawesi Tenggara
2278,93452,Sambeani,74.02.10.2007,Abuki,Kabupaten,Konawe,Sulawesi Tenggara
2279,93452,Unaasi Jaya,74.02.10.2035,Abuki,Kabupaten,Konawe,Sulawesi Tenggara
2280,93452,Walay,74.02.10.2012,Abuki,Kabupaten,Konawe,Sulawesi Tenggara
2281,93234,Abeli,74.71.06.1003,Abeli,Kota,Kendari,Sulawesi Tenggara
2282,93234,Anggalomelai (Anggolomelai),74.71.06.1006,Abeli,Kota,Kendari,Sulawesi Tenggara
2283,93234,Benuanirae (Benua Nirae),74.71.06.1004,Abeli,Kota,Kendari,Sulawesi Tenggara
2284,93234,Lapulu,74.71.06.1002,Abeli,Kota,Kendari,Sulawesi Tenggara
2285,93235,Poasia,74.71.06.1008,Abeli,Kota,Kendari,Sulawesi Tenggara
2286,93234,Puday (Pudai),74.71.06.1001,Abeli,Kota,Kendari,Sulawesi Tenggara
2287,93235,Talia,74.71.06.1007,Abeli,Kota,Kendari,Sulawesi Tenggara