no,postal_code,urban,area_code,sub_district,dt2,city,province
1,27356,Aripan,13.02.11.2005,X Koto Singkarak,Kabupaten,Solok,Sumatera Barat
2,27356,Kacang,13.02.11.2006,X Koto Singkarak,Kabupaten,Solok,Sumatera Barat
3,27356,Koto Sani,13.02.11.2003,X Koto Singkarak,Kabupaten,Solok,Sumatera Barat
4,27356,Saniangbaka (Saning Baka),13.02.11.2008,X Koto Singkarak,Kabupaten,Solok,Sumatera Barat
5,27356,Singkarak,13.02.11.2004,X Koto Singkarak,Kabupaten,Solok,Sumatera Barat
6,27356,Sumani,13.02.11.2001,X Koto Singkarak,Kabupaten,Solok,Sumatera Barat
7,27356,Tanjung Alai,13.02.11.2007,X Koto Singkarak,Kabupaten,Solok,Sumatera Barat
8,27356,Tikalak,13.02.11.2002,X Koto Singkarak,Kabupaten,Solok,Sumatera Barat
9,27355,Bukit Kanduang,13.02.12.2007,X Koto Diatas,Kabupaten,Solok,Sumatera Barat
10,27355,Katialo,13.02.12.2005,X Koto Diatas,Kabupaten,Solok,Sumatera Barat
11,27355,Kuncir,13.02.12.2004,X Koto Diatas,Kabupaten,Solok,Sumatera Barat
12,27355,Labuh Panjang,13.02.12.2009,X Koto Diatas,Kabupaten,Solok,Sumatera Barat
13,27355,Paninjauan,13.02.12.2003,X Koto Diatas,Kabupaten,Solok,Sumatera Barat
14,27355,Pasilihan,13.02.12.2006,X Koto Diatas,Kabupaten,Solok,Sumatera Barat
15,27355,Sibarambang,13.02.12.2008,X Koto Diatas,Kabupaten,Solok,Sumatera Barat
16,27355,Sulit Air,13.02.12.2001,X Koto Diatas,Kabupaten,Solok,Sumatera Barat
17,27355,Tanjung Balik,13.02.12.2002,X Koto Diatas,Kabupaten,Solok,Sumatera Barat
18,27151,Aie Angek (Aia/Air Angek),13.04.01.2007,X Koto (Sepuluh Koto),Kabupaten,Tanah Datar,Sumatera Barat
19,27151,Jaho,13.04.01.2002,X Koto (Sepuluh Koto),Kabupaten,Tanah Datar,Sumatera Barat
20,27151,Koto Baru,13.04.01.2009,X Koto (Sepuluh Koto),Kabupaten,Tanah Datar,Sumatera Barat
21,27151,Koto Laweh,13.04.01.2006,X Koto (Sepuluh Koto),Kabupaten,Tanah Datar,Sumatera Barat
22,27151,Pandai Sikek,13.04.01.2008,X Koto (Sepuluh Koto),Kabupaten,Tanah Datar,Sumatera Barat
23,27151,Paninjauan,13.04.01.2004,X Koto (Sepuluh Koto),Kabupaten,Tanah Datar,Sumatera Barat
24,27151,Panyalaian,13.04.01.2005,X Koto (Sepuluh Koto),Kabupaten,Tanah Datar,Sumatera Barat
25,27151,Singgalang,13.04.01.2003,X Koto (Sepuluh Koto),Kabupaten,Tanah Datar,Sumatera Barat
26,27151,Tambangan,13.04.01.2001,X Koto (Sepuluh Koto),Kabupaten,Tanah Datar,Sumatera Barat
27,25576,Ambuang Kapua Sungai Sariak,13.05.05.2008,VII Koto Sungai Sarik,Kabupaten,Padang Pariaman,Sumatera Barat
28,25576,Balah Aie,13.05.05.2001,VII Koto Sungai Sarik,Kabupaten,Padang Pariaman,Sumatera Barat
29,25576,Balah Aie Timur,13.05.05.2012,VII Koto Sungai Sarik,Kabupaten,Padang Pariaman,Sumatera Barat
30,25576,Balah Aie Utara,13.05.05.2011,VII Koto Sungai Sarik,Kabupaten,Padang Pariaman,Sumatera Barat
31,25576,Bisati Sungai Sariak,13.05.05.2007,VII Koto Sungai Sarik,Kabupaten,Padang Pariaman,Sumatera Barat
32,25576,Lareh Nan Panjang,13.05.05.2004,VII Koto Sungai Sarik,Kabupaten,Padang Pariaman,Sumatera Barat
33,25576,Lareh Nan Panjang Barat,13.05.05.2006,VII Koto Sungai Sarik,Kabupaten,Padang Pariaman,Sumatera Barat
34,25576,Lareh Nan Panjang Selatan,13.05.05.2005,VII Koto Sungai Sarik,Kabupaten,Padang Pariaman,Sumatera Barat
35,25576,Lareh Nan Panjang Sungai Sariak,13.05.05.2009,VII Koto Sungai Sarik,Kabupaten,Padang Pariaman,Sumatera Barat
36,25576,Limpato Sungai Sariak,13.05.05.2010,VII Koto Sungai Sarik,Kabupaten,Padang Pariaman,Sumatera Barat
37,25576,Lurah Ampalu,13.05.05.2003,VII Koto Sungai Sarik,Kabupaten,Padang Pariaman,Sumatera Barat
38,25576,Sungai Sariak,13.05.05.2002,VII Koto Sungai Sarik,Kabupaten,Padang Pariaman,Sumatera Barat
39,25575,Gunung Padang Alai,13.05.14.2003,V Koto Timur,Kabupaten,Padang Pariaman,Sumatera Barat
40,25575,Kudu Gantiang,13.05.14.2001,V Koto Timur,Kabupaten,Padang Pariaman,Sumatera Barat
41,25575,Kudu Gantiang Barat,13.05.14.2004,V Koto Timur,Kabupaten,Padang Pariaman,Sumatera Barat
42,25575,Limau Puruik,13.05.14.2002,V Koto Timur,Kabupaten,Padang Pariaman,Sumatera Barat
43,25552,Campago,13.05.06.2001,V Koto Kampung Dalam,Kabupaten,Padang Pariaman,Sumatera Barat
44,25552,Campago Barat,13.05.06.2003,V Koto Kampung Dalam,Kabupaten,Padang Pariaman,Sumatera Barat
45,25552,Campago Selatan,13.05.06.2004,V Koto Kampung Dalam,Kabupaten,Padang Pariaman,Sumatera Barat
46,25552,Sikucua,13.05.06.2002,V Koto Kampung Dalam,Kabupaten,Padang Pariaman,Sumatera Barat
47,25552,Sikucua Barat,13.05.06.2008,V Koto Kampung Dalam,Kabupaten,Padang Pariaman,Sumatera Barat
48,25552,Sikucua Tengah,13.05.06.2007,V Koto Kampung Dalam,Kabupaten,Padang Pariaman,Sumatera Barat
49,25552,Sikucua Timur,13.05.06.2006,V Koto Kampung Dalam,Kabupaten,Padang Pariaman,Sumatera Barat
50,25552,Sikucua Utara,13.05.06.2005,V Koto Kampung Dalam,Kabupaten,Padang Pariaman,Sumatera Barat
51,25572,Kampuang Gelapuang Ulakan,13.05.10.2008,Ulakan Tapakih,Kabupaten,Padang Pariaman,Sumatera Barat
52,25572,Manggopoh Palak Gadang Ulakan,13.05.10.2006,Ulakan Tapakih,Kabupaten,Padang Pariaman,Sumatera Barat
53,25572,Padang Toboh Ulakan,13.05.10.2003,Ulakan Tapakih,Kabupaten,Padang Pariaman,Sumatera Barat
54,25572,Sandi Ulakan,13.05.10.2007,Ulakan Tapakih,Kabupaten,Padang Pariaman,Sumatera Barat
55,25572,Seulayat Ulakan,13.05.10.2005,Ulakan Tapakih,Kabupaten,Padang Pariaman,Sumatera Barat
56,25572,Sungai Gimba Ulakan,13.05.10.2004,Ulakan Tapakih,Kabupaten,Padang Pariaman,Sumatera Barat
57,25572,Tapakih,13.05.10.2001,Ulakan Tapakih,Kabupaten,Padang Pariaman,Sumatera Barat
58,25572,Ulakan,13.05.10.2002,Ulakan Tapakih,Kabupaten,Padang Pariaman,Sumatera Barat
59,27687,Koto Beringin (Koto Baringin),13.10.08.2003,Tiumang,Kabupaten,Dharmasraya,Sumatera Barat
60,27687,Sei/Sungai Langkok,13.10.08.2002,Tiumang,Kabupaten,Dharmasraya,Sumatera Barat
61,27687,Sipangkur,13.10.08.2004,Tiumang,Kabupaten,Dharmasraya,Sumatera Barat
62,27687,Tiumang,13.10.08.2001,Tiumang,Kabupaten,Dharmasraya,Sumatera Barat
63,27679,Panyubarangan (Panyuberangan),13.10.06.2004,Timpeh,Kabupaten,Dharmasraya,Sumatera Barat
64,27679,Ranah Palabi,13.10.06.2005,Timpeh,Kabupaten,Dharmasraya,Sumatera Barat
65,27679,Tabek (Penyebrangan),13.10.06.2003,Timpeh,Kabupaten,Dharmasraya,Sumatera Barat
66,27679,Taratak Tinggi,13.10.06.2002,Timpeh,Kabupaten,Dharmasraya,Sumatera Barat
67,27679,Timpeh,13.10.06.2001,Timpeh,Kabupaten,Dharmasraya,Sumatera Barat
68,26153,Gadut (Gaduk),13.06.09.2003,Tilatang Kamang,Kabupaten,Agam,Sumatera Barat
69,26153,Kapau,13.06.09.2004,Tilatang Kamang,Kabupaten,Agam,Sumatera Barat
70,26153,Koto Tangah,13.06.09.2001,Tilatang Kamang,Kabupaten,Agam,Sumatera Barat
71,26358,Binjai,13.08.13.2003,Tigo Nagari,Kabupaten,Pasaman,Sumatera Barat
72,26358,Ladang Panjang,13.08.13.2002,Tigo Nagari,Kabupaten,Pasaman,Sumatera Barat
73,26358,Ladang Panjang Barat,13.08.13.2005,Tigo Nagari,Kabupaten,Pasaman,Sumatera Barat
74,26358,Malampah,13.08.13.2001,Tigo Nagari,Kabupaten,Pasaman,Sumatera Barat
75,26358,Malampah Barat,13.08.13.2004,Tigo Nagari,Kabupaten,Pasaman,Sumatera Barat
76,27374,Batu Bajanjang (Batu Banjajang),13.02.18.2002,Tigo Lurah,Kabupaten,Solok,Sumatera Barat
77,27374,Garabak Data,13.02.18.2003,Tigo Lurah,Kabupaten,Solok,Sumatera Barat
78,27374,Rangkiang Luluih,13.02.18.2001,Tigo Lurah,Kabupaten,Solok,Sumatera Barat
79,27374,Simanau,13.02.18.2005,Tigo Lurah,Kabupaten,Solok,Sumatera Barat
80,27374,Tanjung Balik Sumiso,13.02.18.2004,Tigo Lurah,Kabupaten,Solok,Sumatera Barat
81,26471,Bayua,13.06.03.2004,Tanjung Raya,Kabupaten,Agam,Sumatera Barat
82,26471,Dalko,13.06.03.2011,Tanjung Raya,Kabupaten,Agam,Sumatera Barat
83,26471,Duo Koto,13.06.03.2007,Tanjung Raya,Kabupaten,Agam,Sumatera Barat
84,26471,Koto Gadang Anam Koto,13.06.03.2008,Tanjung Raya,Kabupaten,Agam,Sumatera Barat
85,26471,Koto Kaciak,13.06.03.2006,Tanjung Raya,Kabupaten,Agam,Sumatera Barat
86,26471,Koto Malintang,13.06.03.2009,Tanjung Raya,Kabupaten,Agam,Sumatera Barat
87,26471,Maninjau,13.06.03.2003,Tanjung Raya,Kabupaten,Agam,Sumatera Barat
88,26471,Paninjauan,13.06.03.2010,Tanjung Raya,Kabupaten,Agam,Sumatera Barat
89,26471,Sungai Batang,13.06.03.2002,Tanjung Raya,Kabupaten,Agam,Sumatera Barat
90,26471,Tanjung Sani,13.06.03.2001,Tanjung Raya,Kabupaten,Agam,Sumatera Barat
91,26473,Durian Kapeh Darussalam,13.06.01.2004,Tanjung Mutiara,Kabupaten,Agam,Sumatera Barat
92,26473,Tiku Limo Jorong,13.06.01.2003,Tanjung Mutiara,Kabupaten,Agam,Sumatera Barat
93,26473,Tiku Selatan,13.06.01.2001,Tanjung Mutiara,Kabupaten,Agam,Sumatera Barat
94,26473,Tiku Utara,13.06.01.2002,Tanjung Mutiara,Kabupaten,Agam,Sumatera Barat
95,27321,Kampung Jawa,13.72.02.1005,Tanjung Harapan,Kota,Solok,Sumatera Barat
96,27323,Koto Panjang,13.72.02.1001,Tanjung Harapan,Kota,Solok,Sumatera Barat
97,27325,Laing,13.72.02.1006,Tanjung Harapan,Kota,Solok,Sumatera Barat
98,27326,Nan Balimo,13.72.02.1004,Tanjung Harapan,Kota,Solok,Sumatera Barat
99,27322,Pasar Pandan Air Mati,13.72.02.1002,Tanjung Harapan,Kota,Solok,Sumatera Barat
100,27324,Tanjung Paku,13.72.02.1003,Tanjung Harapan,Kota,Solok,Sumatera Barat
101,27571,Langki,13.03.03.2005,Tanjung Gadang,Kabupaten,Sijunjung,Sumatera Barat
102,27571,Pulasan,13.03.03.2004,Tanjung Gadang,Kabupaten,Sijunjung,Sumatera Barat
103,27571,Sibakur,13.03.03.2006,Tanjung Gadang,Kabupaten,Sijunjung,Sumatera Barat
104,27571,Sinyamu,13.03.03.2009,Tanjung Gadang,Kabupaten,Sijunjung,Sumatera Barat
105,27571,Tanjung Gadang,13.03.03.2002,Tanjung Gadang,Kabupaten,Sijunjung,Sumatera Barat
106,27571,Tanjung Lolo,13.03.03.2007,Tanjung Gadang,Kabupaten,Sijunjung,Sumatera Barat
107,27571,Taratak Baru,13.03.03.2003,Tanjung Gadang,Kabupaten,Sijunjung,Sumatera Barat
108,27571,Taratak Baru Utara,13.03.03.2008,Tanjung Gadang,Kabupaten,Sijunjung,Sumatera Barat
109,27571,Timbulun,13.03.03.2001,Tanjung Gadang,Kabupaten,Sijunjung,Sumatera Barat
110,27280,Koto Tangah,13.04.05.2003,Tanjung Emas,Kabupaten,Tanah Datar,Sumatera Barat
111,27280,Pagaruyung (Pagaruyuang),13.04.05.2004,Tanjung Emas,Kabupaten,Tanah Datar,Sumatera Barat
112,27280,Saruaso,13.04.05.2002,Tanjung Emas,Kabupaten,Tanah Datar,Sumatera Barat
113,27280,Tanjung Barulak,13.04.05.2001,Tanjung Emas,Kabupaten,Tanah Datar,Sumatera Barat
114,27281,Barulak,13.04.12.2002,Tanjuang Baru (Tanjung Baru),Kabupaten,Tanah Datar,Sumatera Barat
115,27281,Tanjung Alam,13.04.12.2001,Tanjuang Baru (Tanjung Baru),Kabupaten,Tanah Datar,Sumatera Barat
116,27443,Batu Tanjung (Batu Tanjuang),13.73.04.2004,Talawi,Kota,Sawahlunto,Sumatera Barat
117,27444,Bukit Gadang (Bukik Gadang),13.73.04.2003,Talawi,Kota,Sawahlunto,Sumatera Barat
118,27441,Data Mansiang (Datar Mansiang),13.73.04.2007,Talawi,Kota,Sawahlunto,Sumatera Barat
119,27443,Kumbayau,13.73.04.2005,Talawi,Kota,Sawahlunto,Sumatera Barat
120,27449,Rantih,13.73.04.2011,Talawi,Kota,Sawahlunto,Sumatera Barat
121,27447,Salak,13.73.04.2009,Talawi,Kota,Sawahlunto,Sumatera Barat
122,27446,Sijantang Koto,13.73.04.2008,Talawi,Kota,Sawahlunto,Sumatera Barat
123,27448,Sikalang,13.73.04.2010,Talawi,Kota,Sawahlunto,Sumatera Barat
124,27445,Talawi Hilie (Talawi Hilir / Hilia),13.73.04.2001,Talawi,Kota,Sawahlunto,Sumatera Barat
125,27444,Talawi Mudik/Mudiak,13.73.04.2002,Talawi,Kota,Sawahlunto,Sumatera Barat
126,27442,Tumpuk Tangah (Tumpuak Tangah),13.73.04.2006,Talawi,Kota,Sawahlunto,Sumatera Barat
127,26561,Kajai,13.12.04.2001,Talamau,Kabupaten,Pasaman Barat,Sumatera Barat
128,26561,Kajai Selatan,13.12.04.2005,Talamau,Kabupaten,Pasaman Barat,Sumatera Barat
129,26561,Simpang Timbo Abu Kajai,13.12.04.2004,Talamau,Kabupaten,Pasaman Barat,Sumatera Barat
130,26561,Sinuruik,13.12.04.2003,Talamau,Kabupaten,Pasaman Barat,Sumatera Barat
131,26561,Sungai Janiah Talu,13.12.04.2006,Talamau,Kabupaten,Pasaman Barat,Sumatera Barat
132,26561,Tabek Sirah Talu,13.12.04.2007,Talamau,Kabupaten,Pasaman Barat,Sumatera Barat
133,26561,Talu,13.12.04.2002,Talamau,Kabupaten,Pasaman Barat,Sumatera Barat
134,25662,Amping Parak,13.01.08.2003,Sutera,Kabupaten,Pesisir Selatan,Sumatera Barat
135,25662,Amping Parak Timur,13.01.08.2004,Sutera,Kabupaten,Pesisir Selatan,Sumatera Barat
136,25662,Aur Duri Surantih,13.01.08.2007,Sutera,Kabupaten,Pesisir Selatan,Sumatera Barat
137,25662,Ganting Mudiak Selatan Surantih,13.01.08.2011,Sutera,Kabupaten,Pesisir Selatan,Sumatera Barat
138,25662,Ganting Mudiak Utara Surantih,13.01.08.2012,Sutera,Kabupaten,Pesisir Selatan,Sumatera Barat
139,25662,Koto Nan Tigo Selatan Surantih,13.01.08.2009,Sutera,Kabupaten,Pesisir Selatan,Sumatera Barat
140,25662,Koto Nan Tigo Utara Surantih,13.01.08.2010,Sutera,Kabupaten,Pesisir Selatan,Sumatera Barat
141,25662,Koto Taratak,13.01.08.2005,Sutera,Kabupaten,Pesisir Selatan,Sumatera Barat
142,25662,Lansano Taratak,13.01.08.2006,Sutera,Kabupaten,Pesisir Selatan,Sumatera Barat
143,25662,Rawang Gunung Malelo Surantih,13.01.08.2008,Sutera,Kabupaten,Pesisir Selatan,Sumatera Barat
144,25662,Surantih,13.01.08.2002,Sutera,Kabupaten,Pesisir Selatan,Sumatera Barat
145,25662,Taratak,13.01.08.2001,Sutera,Kabupaten,Pesisir Selatan,Sumatera Barat
146,27294,Andaleh Baruh Bukik,13.04.07.2002,Sungayang,Kabupaten,Tanah Datar,Sumatera Barat
147,27294,Minang Kabau (Minangkabau),13.04.07.2005,Sungayang,Kabupaten,Tanah Datar,Sumatera Barat
148,27294,Sungai Patai,13.04.07.2001,Sungayang,Kabupaten,Tanah Datar,Sumatera Barat
149,27294,Sungayang,13.04.07.2004,Sungayang,Kabupaten,Tanah Datar,Sumatera Barat
150,27294,Tanjung (Tanjuang),13.04.07.2003,Sungayang,Kabupaten,Tanah Datar,Sumatera Barat
151,27261,Gurun,13.04.08.2003,Sungai Tarab,Kabupaten,Tanah Datar,Sumatera Barat
152,27261,Koto Baru,13.04.08.2010,Sungai Tarab,Kabupaten,Tanah Datar,Sumatera Barat
153,27261,Koto Tuo,13.04.08.2007,Sungai Tarab,Kabupaten,Tanah Datar,Sumatera Barat
154,27261,Kumango,13.04.08.2009,Sungai Tarab,Kabupaten,Tanah Datar,Sumatera Barat
155,27261,Padang Laweh,13.04.08.2005,Sungai Tarab,Kabupaten,Tanah Datar,Sumatera Barat
156,27261,Pasie/Pasir Laweh,13.04.08.2006,Sungai Tarab,Kabupaten,Tanah Datar,Sumatera Barat
157,27261,Rao-Rao,13.04.08.2008,Sungai Tarab,Kabupaten,Tanah Datar,Sumatera Barat
158,27261,Simpuruik,13.04.08.2001,Sungai Tarab,Kabupaten,Tanah Datar,Sumatera Barat
159,27261,Sungai Tarab,13.04.08.2002,Sungai Tarab,Kabupaten,Tanah Datar,Sumatera Barat
160,27261,Talang Tangah,13.04.08.2004,Sungai Tarab,Kabupaten,Tanah Datar,Sumatera Barat
161,27686,Kurnia Koto Salak,13.10.03.2004,Sungai Rumbai,Kabupaten,Dharmasraya,Sumatera Barat
162,27686,Kurnia Selatan,13.10.03.2008,Sungai Rumbai,Kabupaten,Dharmasraya,Sumatera Barat
163,27686,Sungai Rumbai,13.10.03.2003,Sungai Rumbai,Kabupaten,Dharmasraya,Sumatera Barat
164,27686,Sungai Rumbai Timur,13.10.03.2007,Sungai Rumbai,Kabupaten,Dharmasraya,Sumatera Barat
165,26182,Batagak,13.06.12.2003,Sungai Pua (Puar),Kabupaten,Agam,Sumatera Barat
166,26182,Batu Palano,13.06.12.2004,Sungai Pua (Puar),Kabupaten,Agam,Sumatera Barat
167,26182,Padang Laweh,13.06.12.2001,Sungai Pua (Puar),Kabupaten,Agam,Sumatera Barat
168,26182,Sariak,13.06.12.2005,Sungai Pua (Puar),Kabupaten,Agam,Sumatera Barat
169,26182,Sungai Pua,13.06.12.2002,Sungai Pua (Puar),Kabupaten,Agam,Sumatera Barat
170,27774,Bomas,13.11.02.2007,Sungai Pagu,Kabupaten,Solok Selatan,Sumatera Barat
171,27774,Koto Baru,13.11.02.2002,Sungai Pagu,Kabupaten,Solok Selatan,Sumatera Barat
172,27774,Pasar Muara Labuh,13.11.02.2005,Sungai Pagu,Kabupaten,Solok Selatan,Sumatera Barat
173,27774,Pasir Talang,13.11.02.2001,Sungai Pagu,Kabupaten,Solok Selatan,Sumatera Barat
174,27774,Pasir Talang Barat,13.11.02.2010,Sungai Pagu,Kabupaten,Solok Selatan,Sumatera Barat
175,27774,Pasir Talang Selatan,13.11.02.2012,Sungai Pagu,Kabupaten,Solok Selatan,Sumatera Barat
176,27774,Pasir Talang Timur,13.11.02.2011,Sungai Pagu,Kabupaten,Solok Selatan,Sumatera Barat
177,27774,Pulakek Koto Baru,13.11.02.2006,Sungai Pagu,Kabupaten,Solok Selatan,Sumatera Barat
178,27774,Sako Pasia Talang,13.11.02.2004,Sungai Pagu,Kabupaten,Solok Selatan,Sumatera Barat
179,27774,Sako Selatan Pasia Talang,13.11.02.2009,Sungai Pagu,Kabupaten,Solok Selatan,Sumatera Barat
180,27774,Sako Utara Pasia Talang,13.11.02.2008,Sungai Pagu,Kabupaten,Solok Selatan,Sumatera Barat
181,25561,Guguak Kuranji Hilir,13.05.08.2003,Sungai Limau,Kabupaten,Padang Pariaman,Sumatera Barat
182,25561,Koto Tinggi Kuranji Hilir,13.05.08.2004,Sungai Limau,Kabupaten,Padang Pariaman,Sumatera Barat
183,25561,Kuranji Hilir,13.05.08.2001,Sungai Limau,Kabupaten,Padang Pariaman,Sumatera Barat
184,25561,Pilubang,13.05.08.2002,Sungai Limau,Kabupaten,Padang Pariaman,Sumatera Barat
185,25562,Batu Gadang Kuranji Hulu,13.05.07.2003,Sungai Garingging,Kabupaten,Padang Pariaman,Sumatera Barat
186,25562,Kuranji Hulu,13.05.07.2001,Sungai Garingging,Kabupaten,Padang Pariaman,Sumatera Barat
187,25562,Malai III Koto,13.05.07.2002,Sungai Garingging,Kabupaten,Padang Pariaman,Sumatera Barat
188,25562,Sungai Sirah Kuranji Hulu,13.05.07.2004,Sungai Garingging,Kabupaten,Padang Pariaman,Sumatera Barat
189,26573,Aia Bangih,13.12.01.2001,Sungai Beremas (Sei Beremas),Kabupaten,Pasaman Barat,Sumatera Barat
190,26574,Aua Serumpun,13.12.09.2006,Sungai Aur (Sungaiaur),Kabupaten,Pasaman Barat,Sumatera Barat
191,26574,Kasikputih Sungaitanang,13.12.09.2005,Sungai Aur (Sungaiaur),Kabupaten,Pasaman Barat,Sumatera Barat
192,26574,Ranah Air Haji,13.12.09.2004,Sungai Aur (Sungaiaur),Kabupaten,Pasaman Barat,Sumatera Barat
193,26574,Ranah Malintang,13.12.09.2003,Sungai Aur (Sungaiaur),Kabupaten,Pasaman Barat,Sumatera Barat
194,26574,Salingka Muaro,13.12.09.2002,Sungai Aur (Sungaiaur),Kabupaten,Pasaman Barat,Sumatera Barat
195,26574,Sikilang Sungai Aur Selatan,13.12.09.2007,Sungai Aur (Sungaiaur),Kabupaten,Pasaman Barat,Sumatera Barat
196,26574,Sungai Aua (Sungai Aur),13.12.09.2001,Sungai Aur (Sungaiaur),Kabupaten,Pasaman Barat,Sumatera Barat
197,27563,Kumanis,13.03.09.2007,Sumpur Kudus,Kabupaten,Sijunjung,Sumatera Barat
198,27563,Mangganti,13.03.09.2008,Sumpur Kudus,Kabupaten,Sijunjung,Sumatera Barat
199,27563,Silantai,13.03.09.2001,Sumpur Kudus,Kabupaten,Sijunjung,Sumatera Barat
200,27563,Sisawah,13.03.09.2002,Sumpur Kudus,Kabupaten,Sijunjung,Sumatera Barat
201,27563,Sumpur Kudus,13.03.09.2005,Sumpur Kudus,Kabupaten,Sijunjung,Sumatera Barat
202,27563,Sumpur Kudus Selatan,13.03.09.2009,Sumpur Kudus,Kabupaten,Sijunjung,Sumatera Barat
203,27563,Tamparungo,13.03.09.2006,Sumpur Kudus,Kabupaten,Sijunjung,Sumatera Barat
204,27563,Tanjung Bonai Aur,13.03.09.2004,Sumpur Kudus,Kabupaten,Sijunjung,Sumatera Barat
205,27563,Tanjung Bonai Aur Selatan,13.03.09.2011,Sumpur Kudus,Kabupaten,Sijunjung,Sumatera Barat
206,27563,Tanjung Labuah (Tanjuang Labuah),13.03.09.2010,Sumpur Kudus,Kabupaten,Sijunjung,Sumatera Barat
207,27563,Unggan,13.03.09.2003,Sumpur Kudus,Kabupaten,Sijunjung,Sumatera Barat
208,26255,Andiang,13.07.01.2006,Suliki,Kabupaten,Lima Puluh Kota,Sumatera Barat
209,26255,Kurai,13.07.01.2001,Suliki,Kabupaten,Lima Puluh Kota,Sumatera Barat
210,26255,Limbanang,13.07.01.2005,Suliki,Kabupaten,Lima Puluh Kota,Sumatera Barat
211,26255,Suliki,13.07.01.2004,Suliki,Kabupaten,Lima Puluh Kota,Sumatera Barat
212,26255,Sungai Rimbang,13.07.01.2002,Suliki,Kabupaten,Lima Puluh Kota,Sumatera Barat
213,26255,Tanjuang Bungo,13.07.01.2003,Suliki,Kabupaten,Lima Puluh Kota,Sumatera Barat
214,26250,Situjuah Banda Dalam,13.07.10.2004,Situjuah Limo Nagari (Situjuah Lima Nagari),Kabupaten,Lima Puluh Kota,Sumatera Barat
215,26250,Situjuah Batua,13.07.10.2001,Situjuah Limo Nagari (Situjuah Lima Nagari),Kabupaten,Lima Puluh Kota,Sumatera Barat
216,26250,Situjuah Gadang,13.07.10.2005,Situjuah Limo Nagari (Situjuah Lima Nagari),Kabupaten,Lima Puluh Kota,Sumatera Barat
217,26250,Situjuah Ladang Laweh,13.07.10.2002,Situjuah Limo Nagari (Situjuah Lima Nagari),Kabupaten,Lima Puluh Kota,Sumatera Barat
218,26250,Tungka,13.07.10.2003,Situjuah Limo Nagari (Situjuah Lima Nagari),Kabupaten,Lima Puluh Kota,Sumatera Barat
219,27678,Gunung Medan,13.10.04.2004,Sitiung,Kabupaten,Dharmasraya,Sumatera Barat
220,27678,Sei/Sungai Duo,13.10.04.2005,Sitiung,Kabupaten,Dharmasraya,Sumatera Barat
221,27678,Siguntur,13.10.04.2002,Sitiung,Kabupaten,Dharmasraya,Sumatera Barat
222,27678,Sitiung,13.10.04.2001,Sitiung,Kabupaten,Dharmasraya,Sumatera Barat
223,25398,Betumonga (Beutomonga),13.09.08.2001,Sipora Utara,Kabupaten,Kepulauan Mentawai,Sumatera Barat
224,25398,Bukit Pamewa,13.09.08.2005,Sipora Utara,Kabupaten,Kepulauan Mentawai,Sumatera Barat
225,25398,Gosooinan (Goisooinan),13.09.08.2002,Sipora Utara,Kabupaten,Kepulauan Mentawai,Sumatera Barat
226,25398,Sido Makmur,13.09.08.2004,Sipora Utara,Kabupaten,Kepulauan Mentawai,Sumatera Barat
227,25398,Sipora Jaya,13.09.08.2006,Sipora Utara,Kabupaten,Kepulauan Mentawai,Sumatera Barat
228,25398,Tuapejat,13.09.08.2003,Sipora Utara,Kabupaten,Kepulauan Mentawai,Sumatera Barat
229,25392,Beriulou,13.09.02.2002,Sipora Selatan,Kabupaten,Kepulauan Mentawai,Sumatera Barat
230,25392,Bosua,13.09.02.2001,Sipora Selatan,Kabupaten,Kepulauan Mentawai,Sumatera Barat
231,25392,Mara,13.09.02.2004,Sipora Selatan,Kabupaten,Kepulauan Mentawai,Sumatera Barat
232,25392,Matobe (Matobek),13.09.02.2007,Sipora Selatan,Kabupaten,Kepulauan Mentawai,Sumatera Barat
233,25392,Nemnemleleu (Nem-Nem Leleu),13.09.02.2003,Sipora Selatan,Kabupaten,Kepulauan Mentawai,Sumatera Barat
234,25392,Saureinu (Saureinuk),13.09.02.2008,Sipora Selatan,Kabupaten,Kepulauan Mentawai,Sumatera Barat
235,25392,Sioban,13.09.02.2006,Sipora Selatan,Kabupaten,Kepulauan Mentawai,Sumatera Barat
236,25582,Sintuak,13.05.11.2001,Sintuak Toboh Gadang,Kabupaten,Padang Pariaman,Sumatera Barat
237,25582,Toboh Gadang,13.05.11.2002,Sintuak Toboh Gadang,Kabupaten,Padang Pariaman,Sumatera Barat
238,25582,Toboh Gadang Barat,13.05.11.2004,Sintuak Toboh Gadang,Kabupaten,Padang Pariaman,Sumatera Barat
239,25582,Toboh Gadang Selatan,13.05.11.2003,Sintuak Toboh Gadang,Kabupaten,Padang Pariaman,Sumatera Barat
240,25582,Toboh Gadang Timur,13.05.11.2005,Sintuak Toboh Gadang,Kabupaten,Padang Pariaman,Sumatera Barat
241,26382,Alahan Mati,13.08.16.2001,Simpang Alahan Mati,Kabupaten,Pasaman,Sumatera Barat
242,26382,Alahan Mati Hilia,13.08.16.2003,Simpang Alahan Mati,Kabupaten,Pasaman,Sumatera Barat
243,26382,Simpang,13.08.16.2002,Simpang Alahan Mati,Kabupaten,Pasaman,Sumatera Barat
244,26382,Simpang Utara,13.08.16.2004,Simpang Alahan Mati,Kabupaten,Pasaman,Sumatera Barat
245,27435,Muaro Kalaban,13.73.03.2004,Silungkang,Kota,Sawahlunto,Sumatera Barat
246,27432,Silungkang Duo,13.73.03.2001,Silungkang,Kota,Sawahlunto,Sumatera Barat
247,27433,Silungkang Oso,13.73.03.2002,Silungkang,Kota,Sawahlunto,Sumatera Barat
248,27431,Silungkang Tigo,13.73.03.2003,Silungkang,Kota,Sawahlunto,Sumatera Barat
249,27434,Taratak Bancah/Boncah,13.73.03.2005,Silungkang,Kota,Sawahlunto,Sumatera Barat
250,25675,Air Hitam,13.01.15.2009,Silaut,Kabupaten,Pesisir Selatan,Sumatera Barat
251,25675,Durian Seribu,13.01.15.2007,Silaut,Kabupaten,Pesisir Selatan,Sumatera Barat
252,25675,Lubuk Bunta,13.01.15.2008,Silaut,Kabupaten,Pesisir Selatan,Sumatera Barat
253,25675,Pasir Binjai,13.01.15.2005,Silaut,Kabupaten,Pesisir Selatan,Sumatera Barat
254,25675,Sambungo,13.01.15.2010,Silaut,Kabupaten,Pesisir Selatan,Sumatera Barat
255,25675,Silaut,13.01.15.2001,Silaut,Kabupaten,Pesisir Selatan,Sumatera Barat
256,25675,Sungai Pulai (Sungaipulai),13.01.15.2004,Silaut,Kabupaten,Pesisir Selatan,Sumatera Barat
257,25675,Sungai Sarik (Sungaisarik),13.01.15.2003,Silaut,Kabupaten,Pesisir Selatan,Sumatera Barat
258,25675,Sungai Sirah (Sungaisirah),13.01.15.2002,Silaut,Kabupaten,Pesisir Selatan,Sumatera Barat
259,25675,Talang Binjai,13.01.15.2006,Silaut,Kabupaten,Pesisir Selatan,Sumatera Barat
260,25399,Matobe (Matobek),13.09.09.2003,Sikakap,Kabupaten,Kepulauan Mentawai,Sumatera Barat
261,25399,Sikakap,13.09.09.2001,Sikakap,Kabupaten,Kepulauan Mentawai,Sumatera Barat
262,25399,Taikako,13.09.09.2002,Sikakap,Kabupaten,Kepulauan Mentawai,Sumatera Barat
263,27554,Aie Angek,13.03.04.2008,Sijunjung,Kabupaten,Sijunjung,Sumatera Barat
264,27554,Durian Gadang,13.03.04.2007,Sijunjung,Kabupaten,Sijunjung,Sumatera Barat
265,27554,Kandang Baru,13.03.04.2002,Sijunjung,Kabupaten,Sijunjung,Sumatera Barat
266,27554,Muaro,13.03.04.2001,Sijunjung,Kabupaten,Sijunjung,Sumatera Barat
267,27554,Paru,13.03.04.2006,Sijunjung,Kabupaten,Sijunjung,Sumatera Barat
268,27554,Pematang Panjang,13.03.04.2004,Sijunjung,Kabupaten,Sijunjung,Sumatera Barat
269,27554,Sijunjung,13.03.04.2009,Sijunjung,Kabupaten,Sijunjung,Sumatera Barat
270,27554,Silokek,13.03.04.2003,Sijunjung,Kabupaten,Sijunjung,Sumatera Barat
271,27554,Solok Ambah,13.03.04.2005,Sijunjung,Kabupaten,Sijunjung,Sumatera Barat
272,25395,Bojakan,13.09.04.2003,Siberut Utara,Kabupaten,Kepulauan Mentawai,Sumatera Barat
273,25395,Malancan (Malancang),13.09.04.2008,Siberut Utara,Kabupaten,Kepulauan Mentawai,Sumatera Barat
274,25395,Mongan Poula/Paula,13.09.04.2005,Siberut Utara,Kabupaten,Kepulauan Mentawai,Sumatera Barat
275,25395,Muara/Muaro Sikabaluan,13.09.04.2006,Siberut Utara,Kabupaten,Kepulauan Mentawai,Sumatera Barat
276,25395,Sirilogui,13.09.04.2007,Siberut Utara,Kabupaten,Kepulauan Mentawai,Sumatera Barat
277,25395,Sotboyak,13.09.04.2004,Siberut Utara,Kabupaten,Kepulauan Mentawai,Sumatera Barat
278,25396,Cimpungan,13.09.07.2002,Siberut Tengah,Kabupaten,Kepulauan Mentawai,Sumatera Barat
279,25396,Saibi Muara (Saibi Samukop/Samokop),13.09.07.2001,Siberut Tengah,Kabupaten,Kepulauan Mentawai,Sumatera Barat
280,25396,Saliguma,13.09.07.2003,Siberut Tengah,Kabupaten,Kepulauan Mentawai,Sumatera Barat
281,25397,Madobag (Madobak Ugai),13.09.03.2007,Siberut Selatan,Kabupaten,Kepulauan Mentawai,Sumatera Barat
282,25397,Maileppet/Maleppet,13.09.03.2003,Siberut Selatan,Kabupaten,Kepulauan Mentawai,Sumatera Barat
283,25397,Matotonan,13.09.03.2005,Siberut Selatan,Kabupaten,Kepulauan Mentawai,Sumatera Barat
284,25397,Muara/Muaro Siberut,13.09.03.2002,Siberut Selatan,Kabupaten,Kepulauan Mentawai,Sumatera Barat
285,25397,Muntei,13.09.03.2004,Siberut Selatan,Kabupaten,Kepulauan Mentawai,Sumatera Barat
286,25393,Katurai/Katurei,13.09.06.2001,Siberut Barat Daya,Kabupaten,Kepulauan Mentawai,Sumatera Barat
287,25393,Pasakiat Taileleu (Pasakiat Taleleu),13.09.06.2003,Siberut Barat Daya,Kabupaten,Kepulauan Mentawai,Sumatera Barat
288,25393,Sagulubbeg (Sagulubek / Sagalubeg / Sagalubbek),13.09.06.2002,Siberut Barat Daya,Kabupaten,Kepulauan Mentawai,Sumatera Barat
289,25394,Sigapokna,13.09.05.2003,Siberut Barat,Kabupaten,Kepulauan Mentawai,Sumatera Barat
290,25394,Simalegi/Simaligi,13.09.05.2002,Siberut Barat,Kabupaten,Kepulauan Mentawai,Sumatera Barat
291,25394,Simatalu Sipokak,13.09.05.2001,Siberut Barat,Kabupaten,Kepulauan Mentawai,Sumatera Barat
292,27683,Banai,13.10.05.2004,Sembilan Koto,Kabupaten,Dharmasraya,Sumatera Barat
293,27683,Koto Nan Empat Dibawuh,13.10.05.2003,Sembilan Koto,Kabupaten,Dharmasraya,Sumatera Barat
294,27683,Lubuak Karak,13.10.05.2002,Sembilan Koto,Kabupaten,Dharmasraya,Sumatera Barat
295,27683,Silago,13.10.05.2001,Sembilan Koto,Kabupaten,Dharmasraya,Sumatera Barat
296,26367,Maligi,13.12.11.2004,"Sasak Ranah Pasisie (Pesisir, Pasisir, Pesisie)",Kabupaten,Pasaman Barat,Sumatera Barat
297,26367,Padang Harapan,13.12.11.2002,"Sasak Ranah Pasisie (Pesisir, Pasisir, Pesisie)",Kabupaten,Pasaman Barat,Sumatera Barat
298,26367,Ranah Pasisie,13.12.11.2003,"Sasak Ranah Pasisie (Pesisir, Pasisir, Pesisie)",Kabupaten,Pasaman Barat,Sumatera Barat
299,26367,Sasak,13.12.11.2001,"Sasak Ranah Pasisie (Pesisir, Pasisir, Pesisie)",Kabupaten,Pasaman Barat,Sumatera Barat
300,27773,Bidar Alam,13.11.04.2002,Sangir Jujuan,Kabupaten,Solok Selatan,Sumatera Barat
301,27773,Lubuk/Lubuak Malako,13.11.04.2001,Sangir Jujuan,Kabupaten,Solok Selatan,Sumatera Barat
302,27773,Padang Air Dingin,13.11.04.2004,Sangir Jujuan,Kabupaten,Solok Selatan,Sumatera Barat
303,27773,Padang Gantiang,13.11.04.2006,Sangir Jujuan,Kabupaten,Solok Selatan,Sumatera Barat
304,27773,Padang Limau Sundai,13.11.04.2005,Sangir Jujuan,Kabupaten,Solok Selatan,Sumatera Barat
305,27779,Abai,13.11.05.2001,Sangir Batang Hari,Kabupaten,Solok Selatan,Sumatera Barat
306,27779,Dusun Tangah,13.11.05.2002,Sangir Batang Hari,Kabupaten,Solok Selatan,Sumatera Barat
307,27779,Lubuk Ulang Aling,13.11.05.2003,Sangir Batang Hari,Kabupaten,Solok Selatan,Sumatera Barat
308,27779,Lubuk Ulang Aling Selatan,13.11.05.2006,Sangir Batang Hari,Kabupaten,Solok Selatan,Sumatera Barat
309,27779,Lubuk Ulang Aling Tengah,13.11.05.2007,Sangir Batang Hari,Kabupaten,Solok Selatan,Sumatera Barat
310,27779,Ranah Pantai Cermin,13.11.05.2004,Sangir Batang Hari,Kabupaten,Solok Selatan,Sumatera Barat
311,27779,Sitapus,13.11.05.2005,Sangir Batang Hari,Kabupaten,Solok Selatan,Sumatera Barat
312,27777,Sungai Kunyit,13.11.07.2001,Sangir Balai Janggo,Kabupaten,Solok Selatan,Sumatera Barat
313,27777,Sungai Kunyit Barat,13.11.07.2003,Sangir Balai Janggo,Kabupaten,Solok Selatan,Sumatera Barat
314,27777,Talao Sungai Kunyit,13.11.07.2002,Sangir Balai Janggo,Kabupaten,Solok Selatan,Sumatera Barat
315,27777,Talunan Maju,13.11.07.2004,Sangir Balai Janggo,Kabupaten,Solok Selatan,Sumatera Barat
316,27778,Lubuk Gadang,13.11.01.2001,Sangir,Kabupaten,Solok Selatan,Sumatera Barat
317,27778,Lubuk Gadang Selatan,13.11.01.2003,Sangir,Kabupaten,Solok Selatan,Sumatera Barat
318,27778,Lubuk Gadang Timur,13.11.01.2002,Sangir,Kabupaten,Solok Selatan,Sumatera Barat
319,27778,Lubuk Gadang Utara,13.11.01.2004,Sangir,Kabupaten,Solok Selatan,Sumatera Barat
320,27263,Lawang Mandahiling/Mandahiliang,13.04.10.2003,Salimpaung (Salimpauang),Kabupaten,Tanah Datar,Sumatera Barat
321,27263,Salimpaung,13.04.10.2005,Salimpaung (Salimpauang),Kabupaten,Tanah Datar,Sumatera Barat
322,27263,Situmbuk (Situmbuak),13.04.10.2002,Salimpaung (Salimpauang),Kabupaten,Tanah Datar,Sumatera Barat
323,27263,Sumanik (Sumaniak},13.04.10.2001,Salimpaung (Salimpauang),Kabupaten,Tanah Datar,Sumatera Barat
324,27263,Supayang,13.04.10.2004,Salimpaung (Salimpauang),Kabupaten,Tanah Datar,Sumatera Barat
325,27262,Tabek Patah,13.04.10.2006,Salimpaung (Salimpauang),Kabupaten,Tanah Datar,Sumatera Barat
326,26357,Koto Nopan,13.08.18.2001,Rao Utara,Kabupaten,Pasaman,Sumatera Barat
327,26357,Koto Rajo,13.08.18.2002,Rao Utara,Kabupaten,Pasaman,Sumatera Barat
328,26357,Languang,13.08.18.2003,Rao Utara,Kabupaten,Pasaman,Sumatera Barat
329,26356,Lansek Kadok,13.08.19.2001,Rao Selatan,Kabupaten,Pasaman,Sumatera Barat
330,26356,Lansek Kadok Barat,13.08.19.2004,Rao Selatan,Kabupaten,Pasaman,Sumatera Barat
331,26356,Lubuak Layang,13.08.19.2002,Rao Selatan,Kabupaten,Pasaman,Sumatera Barat
332,26356,Tanjung Betung,13.08.19.2003,Rao Selatan,Kabupaten,Pasaman,Sumatera Barat
333,26356,Tanjung Betung Timur,13.08.19.2006,Rao Selatan,Kabupaten,Pasaman,Sumatera Barat
334,26356,Tanjung Betung Utara,13.08.19.2005,Rao Selatan,Kabupaten,Pasaman,Sumatera Barat
335,26355,Padang Mantinggi Utara,13.08.14.2010,Rao,Kabupaten,Pasaman,Sumatera Barat
336,26355,Padang Metinggi/Mantinggi,13.08.14.2005,Rao,Kabupaten,Pasaman,Sumatera Barat
337,26355,Taruang Taruang,13.08.14.2002,Rao,Kabupaten,Pasaman,Sumatera Barat
338,26355,Taruang Taruang Selatan,13.08.14.2008,Rao,Kabupaten,Pasaman,Sumatera Barat
339,26355,Taruang Taruang Utara,13.08.14.2009,Rao,Kabupaten,Pasaman,Sumatera Barat
340,25666,Koto VIII Pelangai,13.01.02.2007,Ranah Pesisir,Kabupaten,Pesisir Selatan,Sumatera Barat
341,25666,Nyiur Melambai Pelangai (Nyiur Malambai Pelangai),13.01.02.2005,Ranah Pesisir,Kabupaten,Pesisir Selatan,Sumatera Barat
342,25666,Pasia Pelangai (Pasia Palangai),13.01.02.2010,Ranah Pesisir,Kabupaten,Pesisir Selatan,Sumatera Barat
343,25666,Pelangai,13.01.02.2001,Ranah Pesisir,Kabupaten,Pesisir Selatan,Sumatera Barat
344,25666,Pelangai Gadang (Palangai Gadang),13.01.02.2008,Ranah Pesisir,Kabupaten,Pesisir Selatan,Sumatera Barat
345,25666,Pelangai Kaciak,13.01.02.2009,Ranah Pesisir,Kabupaten,Pesisir Selatan,Sumatera Barat
346,25666,Sungai Liku Pelangai (Sungailiku Pelangai),13.01.02.2006,Ranah Pesisir,Kabupaten,Pesisir Selatan,Sumatera Barat
347,25666,Sungai Tunu,13.01.02.2002,Ranah Pesisir,Kabupaten,Pesisir Selatan,Sumatera Barat
348,25666,Sungai Tunu Barat (Sungaitunu Barat),13.01.02.2004,Ranah Pesisir,Kabupaten,Pesisir Selatan,Sumatera Barat
349,25666,Sungai Tunu Utara (Sungaitunu Utara),13.01.02.2003,Ranah Pesisir,Kabupaten,Pesisir Selatan,Sumatera Barat
350,26366,Batahan,13.12.07.2001,Ranah Batahan,Kabupaten,Pasaman Barat,Sumatera Barat
351,26366,Batahan Barat,13.12.07.2005,Ranah Batahan,Kabupaten,Pasaman Barat,Sumatera Barat
352,26366,Batahan Selatan,13.12.07.2006,Ranah Batahan,Kabupaten,Pasaman Barat,Sumatera Barat
353,26366,Batahan Tengah,13.12.07.2004,Ranah Batahan,Kabupaten,Pasaman Barat,Sumatera Barat
354,26366,Batahan Utara,13.12.07.2003,Ranah Batahan,Kabupaten,Pasaman Barat,Sumatera Barat
355,26366,Desa Baru,13.12.07.2002,Ranah Batahan,Kabupaten,Pasaman Barat,Sumatera Barat
356,26366,Desa Baru Barat,13.12.07.2007,Ranah Batahan,Kabupaten,Pasaman Barat,Sumatera Barat
357,25670,Binjai Tapan,13.01.14.2005,Ranah Ampek Hulu Tapan,Kabupaten,Pesisir Selatan,Sumatera Barat
358,25670,Kampung Tengah Tapan,13.01.14.2008,Ranah Ampek Hulu Tapan,Kabupaten,Pesisir Selatan,Sumatera Barat
359,25670,Kubu Tapan (Kobu Tapan),13.01.14.2009,Ranah Ampek Hulu Tapan,Kabupaten,Pesisir Selatan,Sumatera Barat
360,25670,Limau Purut Tapan,13.01.14.2002,Ranah Ampek Hulu Tapan,Kabupaten,Pesisir Selatan,Sumatera Barat
361,25670,Simpang Gunung Tapan (Simpanggunung Tapan),13.01.14.2010,Ranah Ampek Hulu Tapan,Kabupaten,Pesisir Selatan,Sumatera Barat
362,25670,Sungai Gambir Sako Tapan (Sungaigambir),13.01.14.2001,Ranah Ampek Hulu Tapan,Kabupaten,Pesisir Selatan,Sumatera Barat
363,25670,Sungai Pinang Tapan (Sungaipinang Tapan),13.01.14.2006,Ranah Ampek Hulu Tapan,Kabupaten,Pesisir Selatan,Sumatera Barat
364,25670,Talang Balarik Tapan,13.01.14.2003,Ranah Ampek Hulu Tapan,Kabupaten,Pesisir Selatan,Sumatera Barat
365,25670,Talang Koto Pulai Tapan,13.01.14.2007,Ranah Ampek Hulu Tapan,Kabupaten,Pesisir Selatan,Sumatera Barat
366,25670,Tebing Tinggi Tapan,13.01.14.2004,Ranah Ampek Hulu Tapan,Kabupaten,Pesisir Selatan,Sumatera Barat
367,27271,Balimbing,13.04.03.2002,Rambatan,Kabupaten,Tanah Datar,Sumatera Barat
368,27271,III/Tigo Koto,13.04.03.2003,Rambatan,Kabupaten,Tanah Datar,Sumatera Barat
369,27271,Padang Magek,13.04.03.2004,Rambatan,Kabupaten,Tanah Datar,Sumatera Barat
370,27271,Rambatan,13.04.03.2005,Rambatan,Kabupaten,Tanah Datar,Sumatera Barat
371,27271,Simawang,13.04.03.2001,Rambatan,Kabupaten,Tanah Datar,Sumatera Barat
372,27573,Empat Koto Pulau Punjung,13.10.02.2006,Pulau Punjung,Kabupaten,Dharmasraya,Sumatera Barat
373,27573,Gunung Selasih,13.10.02.2008,Pulau Punjung,Kabupaten,Dharmasraya,Sumatera Barat
374,27573,Sikabau,13.10.02.2009,Pulau Punjung,Kabupaten,Dharmasraya,Sumatera Barat
375,27573,Sungai Dareh,13.10.02.2001,Pulau Punjung,Kabupaten,Dharmasraya,Sumatera Barat
376,27573,Sungai Kambut,13.10.02.2007,Pulau Punjung,Kabupaten,Dharmasraya,Sumatera Barat
377,27573,Tebing Tinggi,13.10.02.2002,Pulau Punjung,Kabupaten,Dharmasraya,Sumatera Barat
378,27387,Aie Luo (Aia Luo),13.02.05.2003,Payung Sekaki,Kabupaten,Solok,Sumatera Barat
379,27387,Sirukam,13.02.05.2002,Payung Sekaki,Kabupaten,Solok,Sumatera Barat
380,27387,Supayang,13.02.05.2001,Payung Sekaki,Kabupaten,Solok,Sumatera Barat
381,26214,Balai Tongah Koto,13.76.02.1037,Payakumbuh Utara,Kota,Payakumbuh,Sumatera Barat
382,26212,Ikua Koto Dibalai,13.76.02.1036,Payakumbuh Utara,Kota,Payakumbuh,Sumatera Barat
383,26211,Kapalo Koto Dibalai,13.76.02.1038,Payakumbuh Utara,Kota,Payakumbuh,Sumatera Barat
384,26213,Kotokociak Kubu Tapakrajo,13.76.02.1039,Payakumbuh Utara,Kota,Payakumbuh,Sumatera Barat
385,26218,Napar,13.76.02.1002,Payakumbuh Utara,Kota,Payakumbuh,Sumatera Barat
386,26216,Ompang Tanah Sirah,13.76.02.1032,Payakumbuh Utara,Kota,Payakumbuh,Sumatera Barat
387,26217,Taratak Padang Kampuang,13.76.02.1033,Payakumbuh Utara,Kota,Payakumbuh,Sumatera Barat
388,26218,Tigo Koto Diate,13.76.02.1035,Payakumbuh Utara,Kota,Payakumbuh,Sumatera Barat
389,26215,Tigo Koto Dibaruah,13.76.02.1034,Payakumbuh Utara,Kota,Payakumbuh,Sumatera Barat
390,26235,Balai Jaring,13.76.03.1001,Payakumbuh Timur,Kota,Payakumbuh,Sumatera Barat
391,26237,Koto Baru,13.76.03.1011,Payakumbuh Timur,Kota,Payakumbuh,Sumatera Barat
392,26237,Koto Panjang,13.76.03.1010,Payakumbuh Timur,Kota,Payakumbuh,Sumatera Barat
393,26236,Padang Alai Bodi,13.76.03.1002,Payakumbuh Timur,Kota,Payakumbuh,Sumatera Barat
394,26231,Padang Tangah Payobadar,13.76.03.1003,Payakumbuh Timur,Kota,Payakumbuh,Sumatera Barat
395,26232,Padang Tiakar,13.76.03.1007,Payakumbuh Timur,Kota,Payakumbuh,Sumatera Barat
396,26237,Payobasung,13.76.03.1009,Payakumbuh Timur,Kota,Payakumbuh,Sumatera Barat
397,26233,Sicincin,13.76.03.1005,Payakumbuh Timur,Kota,Payakumbuh,Sumatera Barat
398,26231,Tiakar,13.76.03.1015,Payakumbuh Timur,Kota,Payakumbuh,Sumatera Barat
399,26226,Balai Panjang,13.76.05.1005,Payakumbuh Selatan,Kota,Payakumbuh,Sumatera Barat
400,26228,Kapalo Koto Ampangan,13.76.05.1006,Payakumbuh Selatan,Kota,Payakumbuh,Sumatera Barat
401,26226,Kototuo Limokampuang,13.76.05.1002,Payakumbuh Selatan,Kota,Payakumbuh,Sumatera Barat
402,26227,Limbukan,13.76.05.1003,Payakumbuh Selatan,Kota,Payakumbuh,Sumatera Barat
403,26227,Padang Karambia,13.76.05.1001,Payakumbuh Selatan,Kota,Payakumbuh,Sumatera Barat
404,26228,Sawahpadang Aua Kuniang,13.76.05.1010,Payakumbuh Selatan,Kota,Payakumbuh,Sumatera Barat
405,26225,Bulakan Balai Kandi,13.76.01.1004,Payakumbuh Barat,Kota,Payakumbuh,Sumatera Barat
406,26229,Ibuah,13.76.01.1021,Payakumbuh Barat,Kota,Payakumbuh,Sumatera Barat
407,26223,Koto Tangah,13.76.01.1011,Payakumbuh Barat,Kota,Payakumbuh,Sumatera Barat
408,26226,Kubu Gadang,13.76.01.1003,Payakumbuh Barat,Kota,Payakumbuh,Sumatera Barat
409,26229,Labuah Basilang,13.76.01.1020,Payakumbuh Barat,Kota,Payakumbuh,Sumatera Barat
410,26221,Nunang Daya Bangun,13.76.01.1018,Payakumbuh Barat,Kota,Payakumbuh,Sumatera Barat
411,26224,Padang Tinggi Piliang,13.76.01.1009,Payakumbuh Barat,Kota,Payakumbuh,Sumatera Barat
412,26223,Padangdata Tanahmati,13.76.01.1034,Payakumbuh Barat,Kota,Payakumbuh,Sumatera Barat
413,26224,Padangtongah Balainanduo,13.76.01.1033,Payakumbuh Barat,Kota,Payakumbuh,Sumatera Barat
414,26226,Pakan Sinayan,13.76.01.1002,Payakumbuh Barat,Kota,Payakumbuh,Sumatera Barat
415,26222,Parak Batuang,13.76.01.1017,Payakumbuh Barat,Kota,Payakumbuh,Sumatera Barat
416,26222,Parik Rantang,13.76.01.1016,Payakumbuh Barat,Kota,Payakumbuh,Sumatera Barat
417,26225,Payolansek,13.76.01.1005,Payakumbuh Barat,Kota,Payakumbuh,Sumatera Barat
418,26223,Subarang Batuang,13.76.01.1013,Payakumbuh Barat,Kota,Payakumbuh,Sumatera Barat
419,26225,Talang,13.76.01.1007,Payakumbuh Barat,Kota,Payakumbuh,Sumatera Barat
420,26229,Tanjuang Pauh,13.76.01.1022,Payakumbuh Barat,Kota,Payakumbuh,Sumatera Barat
421,26225,Tanjuanggodang Sungai Pinago,13.76.01.1032,Payakumbuh Barat,Kota,Payakumbuh,Sumatera Barat
422,26251,Koto Baru Simalanggang,13.07.03.2001,Payakumbuh,Kabupaten,Lima Puluh Kota,Sumatera Barat
423,26251,Koto Tangah Simalanggang,13.07.03.2007,Payakumbuh,Kabupaten,Lima Puluh Kota,Sumatera Barat
424,26251,Piobang,13.07.03.2005,Payakumbuh,Kabupaten,Lima Puluh Kota,Sumatera Barat
425,26251,Simalanggang,13.07.03.2003,Payakumbuh,Kabupaten,Lima Puluh Kota,Sumatera Barat
426,26251,Sungai Beringin,13.07.03.2004,Payakumbuh,Kabupaten,Lima Puluh Kota,Sumatera Barat
427,26251,Taeh Baruah,13.07.03.2006,Payakumbuh,Kabupaten,Lima Puluh Kota,Sumatera Barat
428,26251,Taeh Bukik,13.07.03.2002,Payakumbuh,Kabupaten,Lima Puluh Kota,Sumatera Barat
429,27776,Alam Pauh Duo,13.11.06.2001,Pauh Duo,Kabupaten,Solok Selatan,Sumatera Barat
430,27776,Kapau Alam Pauh Duo,13.11.06.2002,Pauh Duo,Kabupaten,Solok Selatan,Sumatera Barat
431,27776,Luak Kapau Alam Pauh Duo,13.11.06.2003,Pauh Duo,Kabupaten,Solok Selatan,Sumatera Barat
432,27776,Pauh Duo Nan Batigo,13.11.06.2004,Pauh Duo,Kabupaten,Solok Selatan,Sumatera Barat
433,25161,Binuang Kampuang Dalam (Binuang Kampung Dalam),13.71.08.1007,Pauh,Kota,Padang,Sumatera Barat
434,25162,Cupak Tangah,13.71.08.1005,Pauh,Kota,Padang,Sumatera Barat
435,25163,Kepala/Kapalo Koto,13.71.08.1008,Pauh,Kota,Padang,Sumatera Barat
436,25164,Koto Lua (Koto Luar),13.71.08.1002,Pauh,Kota,Padang,Sumatera Barat
437,25168,Lambung Bukit/Bukik,13.71.08.1009,Pauh,Kota,Padang,Sumatera Barat
438,25166,Limau Manis,13.71.08.1001,Pauh,Kota,Padang,Sumatera Barat
439,25163,Limau Manis Selatan,13.71.08.1003,Pauh,Kota,Padang,Sumatera Barat
440,25162,Piai Tangah,13.71.08.1004,Pauh,Kota,Padang,Sumatera Barat
441,25161,Pisang,13.71.08.1006,Pauh,Kota,Padang,Sumatera Barat
442,25574,Kampuang Tanjuang Koto Mambang Sungai,13.05.16.2006,Patamuan,Kabupaten,Padang Pariaman,Sumatera Barat
443,25574,Sungai Durian,13.05.16.2001,Patamuan,Kabupaten,Padang Pariaman,Sumatera Barat
444,25574,Tandikek,13.05.16.2002,Patamuan,Kabupaten,Padang Pariaman,Sumatera Barat
445,25574,Tandikek Barat,13.05.16.2005,Patamuan,Kabupaten,Padang Pariaman,Sumatera Barat
446,25574,Tandikek Selatan,13.05.16.2004,Patamuan,Kabupaten,Padang Pariaman,Sumatera Barat
447,25574,Tandikek Utara,13.05.16.2003,Patamuan,Kabupaten,Padang Pariaman,Sumatera Barat
448,26566,Aia Gadang,13.12.03.2006,Pasaman,Kabupaten,Pasaman Barat,Sumatera Barat
449,26566,Aia Gadang Barat,13.12.03.2016,Pasaman,Kabupaten,Pasaman Barat,Sumatera Barat
450,26566,Aia Gadang Timur,13.12.03.2015,Pasaman,Kabupaten,Pasaman Barat,Sumatera Barat
451,26566,Aua Kuniang,13.12.03.2004,Pasaman,Kabupaten,Pasaman Barat,Sumatera Barat
452,26566,Lembah Binuang Aua Kuniang,13.12.03.2019,Pasaman,Kabupaten,Pasaman Barat,Sumatera Barat
453,26566,Lingkuang Aua,13.12.03.2003,Pasaman,Kabupaten,Pasaman Barat,Sumatera Barat
454,26566,Lingkuang Aua Bandarajo,13.12.03.2009,Pasaman,Kabupaten,Pasaman Barat,Sumatera Barat
455,26566,Lingkuang Aua Barat,13.12.03.2012,Pasaman,Kabupaten,Pasaman Barat,Sumatera Barat
456,26566,Lingkuang Aua Baru,13.12.03.2008,Pasaman,Kabupaten,Pasaman Barat,Sumatera Barat
457,26566,Lingkuang Aua Hilia,13.12.03.2013,Pasaman,Kabupaten,Pasaman Barat,Sumatera Barat
458,26566,Lingkuang Aua Jambak,13.12.03.2010,Pasaman,Kabupaten,Pasaman Barat,Sumatera Barat
459,26566,Lingkuang Aua Koto Dalam,13.12.03.2011,Pasaman,Kabupaten,Pasaman Barat,Sumatera Barat
460,26566,Lingkuang Aua Timur,13.12.03.2007,Pasaman,Kabupaten,Pasaman Barat,Sumatera Barat
461,26566,Lubuak Landua Aua Kuniang,13.12.03.2018,Pasaman,Kabupaten,Pasaman Barat,Sumatera Barat
462,26566,Pinaga Aua Kuniang,13.12.03.2017,Pasaman,Kabupaten,Pasaman Barat,Sumatera Barat
463,26566,Sukomananti Aua Kuniang,13.12.03.2014,Pasaman,Kabupaten,Pasaman Barat,Sumatera Barat
464,27264,Batu Basa,13.04.09.2001,Pariangan,Kabupaten,Tanah Datar,Sumatera Barat
465,27264,Pariangan,13.04.09.2005,Pariangan,Kabupaten,Tanah Datar,Sumatera Barat
466,27264,Sawah Tangah,13.04.09.2003,Pariangan,Kabupaten,Tanah Datar,Sumatera Barat
467,27264,Simabur,13.04.09.2004,Pariangan,Kabupaten,Tanah Datar,Sumatera Barat
468,27264,Sungai Jambu,13.04.09.2006,Pariangan,Kabupaten,Tanah Datar,Sumatera Barat
469,27264,Tabek,13.04.09.2002,Pariangan,Kabupaten,Tanah Datar,Sumatera Barat
470,25522,Ampalu,13.77.02.2005,Pariaman Utara,Kota,Pariaman,Sumatera Barat
471,25522,Apar,13.77.02.2006,Pariaman Utara,Kota,Pariaman,Sumatera Barat
472,25521,Balai Naras/Nareh,13.77.02.2016,Pariaman Utara,Kota,Pariaman,Sumatera Barat
473,25524,Cubadak Air Selatan (Cubadak Aia Selatan),13.77.02.2008,Pariaman Utara,Kota,Pariaman,Sumatera Barat
474,25524,Cubadak Air Utara (Cubadak Aia Utara),13.77.02.2012,Pariaman Utara,Kota,Pariaman,Sumatera Barat
475,25524,Cubadak Air/Aia,13.77.02.2021,Pariaman Utara,Kota,Pariaman,Sumatera Barat
476,25522,Manggung (Mangguang),13.77.02.2011,Pariaman Utara,Kota,Pariaman,Sumatera Barat
477,25522,Naras Hilir (Nareh Hilia),13.77.02.2014,Pariaman Utara,Kota,Pariaman,Sumatera Barat
478,25521,Naras I (Nareh I),13.77.02.2015,Pariaman Utara,Kota,Pariaman,Sumatera Barat
479,25521,Padang Birik-Birik (Biriak-Biriak),13.77.02.2017,Pariaman Utara,Kota,Pariaman,Sumatera Barat
480,25526,Sikapak Barat,13.77.02.2009,Pariaman Utara,Kota,Pariaman,Sumatera Barat
481,25526,Sikapak Timur,13.77.02.2010,Pariaman Utara,Kota,Pariaman,Sumatera Barat
482,25521,Sintuk (Sintuak),13.77.02.2018,Pariaman Utara,Kota,Pariaman,Sumatera Barat
483,25529,Sungai Rambai,13.77.02.2019,Pariaman Utara,Kota,Pariaman,Sumatera Barat
484,25523,Tanjung Sabar (Tanjuang Sabar),13.77.02.2007,Pariaman Utara,Kota,Pariaman,Sumatera Barat
485,25521,Tungkal Selatan (Tungka Selatan),13.77.02.2013,Pariaman Utara,Kota,Pariaman,Sumatera Barat
486,25521,Tungkal Utara (Tungka Utara),13.77.02.2020,Pariaman Utara,Kota,Pariaman,Sumatera Barat
487,25531,Air Santok (Aia Santok),13.77.04.2008,Pariaman Timur,Kota,Pariaman,Sumatera Barat
488,25519,Batang Kabung / Kabuang,13.77.04.2006,Pariaman Timur,Kota,Pariaman,Sumatera Barat
489,25519,Bato,13.77.04.2007,Pariaman Timur,Kota,Pariaman,Sumatera Barat
490,25535,Bungo Tanjung,13.77.04.2012,Pariaman Timur,Kota,Pariaman,Sumatera Barat
491,25516,Cubadak Mentawai,13.77.04.2009,Pariaman Timur,Kota,Pariaman,Sumatera Barat
492,25534,Kajai,13.77.04.2016,Pariaman Timur,Kota,Pariaman,Sumatera Barat
493,25534,Kaluat / Kaluaik (Kaluaiak),13.77.04.2015,Pariaman Timur,Kota,Pariaman,Sumatera Barat
494,25524,Kampung Baru Padusunan,13.77.04.2003,Pariaman Timur,Kota,Pariaman,Sumatera Barat
495,25523,Kampung Gadang (Kampuang Gadang),13.77.04.2004,Pariaman Timur,Kota,Pariaman,Sumatera Barat
496,25536,Kampung Kandang,13.77.04.2014,Pariaman Timur,Kota,Pariaman,Sumatera Barat
497,25535,Kampung Tangah,13.77.04.2013,Pariaman Timur,Kota,Pariaman,Sumatera Barat
498,25519,Koto Marapak,13.77.04.2005,Pariaman Timur,Kota,Pariaman,Sumatera Barat
499,25524,Pakasai,13.77.04.2002,Pariaman Timur,Kota,Pariaman,Sumatera Barat
500,25516,Sungai Pasak,13.77.04.2011,Pariaman Timur,Kota,Pariaman,Sumatera Barat
501,25516,Sungai Sirah,13.77.04.2010,Pariaman Timur,Kota,Pariaman,Sumatera Barat
502,25523,Talago Sarik (Talago Sariak),13.77.04.2001,Pariaman Timur,Kota,Pariaman,Sumatera Barat
503,25519,Alai Gelombang (Alai Galombang),13.77.01.1009,Pariaman Tengah,Kota,Pariaman,Sumatera Barat
504,25511,Cimparuh (Cimparuah),13.77.01.2021,Pariaman Tengah,Kota,Pariaman,Sumatera Barat
505,25515,Jalan Baru,13.77.01.1012,Pariaman Tengah,Kota,Pariaman,Sumatera Barat
506,25515,Jalan Kereta Api,13.77.01.1014,Pariaman Tengah,Kota,Pariaman,Sumatera Barat
507,25519,Jati Hilir (Jalan Hilia),13.77.01.1016,Pariaman Tengah,Kota,Pariaman,Sumatera Barat
508,25517,Jati Mudik / Mudiak,13.77.01.2025,Pariaman Tengah,Kota,Pariaman,Sumatera Barat
509,25518,Jawi-Jawi I,13.77.01.1010,Pariaman Tengah,Kota,Pariaman,Sumatera Barat
510,25518,Jawi-Jawi II,13.77.01.1011,Pariaman Tengah,Kota,Pariaman,Sumatera Barat
511,25511,Kampung Jawa I,13.77.01.1007,Pariaman Tengah,Kota,Pariaman,Sumatera Barat
512,25511,Kampung Jawa II,13.77.01.1008,Pariaman Tengah,Kota,Pariaman,Sumatera Barat
513,25513,Kampung Perak,13.77.01.1002,Pariaman Tengah,Kota,Pariaman,Sumatera Barat
514,25512,Kampung Pondok,13.77.01.1005,Pariaman Tengah,Kota,Pariaman,Sumatera Barat
515,25514,Kampung/Kampuang Baru,13.77.01.2020,Pariaman Tengah,Kota,Pariaman,Sumatera Barat
516,25514,Karan Aur,13.77.01.1001,Pariaman Tengah,Kota,Pariaman,Sumatera Barat
517,25513,Lohong,13.77.01.1003,Pariaman Tengah,Kota,Pariaman,Sumatera Barat
518,25513,Pasir,13.77.01.1004,Pariaman Tengah,Kota,Pariaman,Sumatera Barat
519,25512,Pauah/Pauh Barat,13.77.01.2017,Pariaman Tengah,Kota,Pariaman,Sumatera Barat
520,25512,Pauah/Pauh Timur,13.77.01.2018,Pariaman Tengah,Kota,Pariaman,Sumatera Barat
521,25512,Pondok II (Kampung Pondok II),13.77.01.1006,Pariaman Tengah,Kota,Pariaman,Sumatera Barat
522,25511,Rawang,13.77.01.2019,Pariaman Tengah,Kota,Pariaman,Sumatera Barat
523,25517,Taratak,13.77.01.1013,Pariaman Tengah,Kota,Pariaman,Sumatera Barat
524,25516,Ujung Batung (Ujuang Batuang),13.77.01.1015,Pariaman Tengah,Kota,Pariaman,Sumatera Barat
525,25531,Balai Kurai Taji,13.77.03.2007,Pariaman Selatan,Kota,Pariaman,Sumatera Barat
526,25531,Batang Tajongkek,13.77.03.2012,Pariaman Selatan,Kota,Pariaman,Sumatera Barat
527,25539,Kampung/Kampuang Apar,13.77.03.2016,Pariaman Selatan,Kota,Pariaman,Sumatera Barat
528,25537,Marabau,13.77.03.2011,Pariaman Selatan,Kota,Pariaman,Sumatera Barat
529,25538,Marunggi (Marunggih),13.77.03.2017,Pariaman Selatan,Kota,Pariaman,Sumatera Barat
530,25537,Padang Cakur (Padang Cakua),13.77.03.2019,Pariaman Selatan,Kota,Pariaman,Sumatera Barat
531,25539,Palak Aneh,13.77.03.2015,Pariaman Selatan,Kota,Pariaman,Sumatera Barat
532,25538,Pasir Sunur / Pasa Sunua (Pasia Sunua),13.77.03.2006,Pariaman Selatan,Kota,Pariaman,Sumatera Barat
533,25532,Pauh Kurai Taji (Pauah),13.77.03.2008,Pariaman Selatan,Kota,Pariaman,Sumatera Barat
534,25533,Punggung Lading (Pungguang Ladiang),13.77.03.2020,Pariaman Selatan,Kota,Pariaman,Sumatera Barat
535,25533,Rambai,13.77.03.2021,Pariaman Selatan,Kota,Pariaman,Sumatera Barat
536,25539,Sikabu,13.77.03.2013,Pariaman Selatan,Kota,Pariaman,Sumatera Barat
537,25532,Simpang (Kurai Taji),13.77.03.2009,Pariaman Selatan,Kota,Pariaman,Sumatera Barat
538,25537,Sungai Kasai,13.77.03.2014,Pariaman Selatan,Kota,Pariaman,Sumatera Barat
539,25538,Taluk (Taluak),13.77.03.2018,Pariaman Selatan,Kota,Pariaman,Sumatera Barat
540,25536,Toboh Palabah,13.77.03.2010,Pariaman Selatan,Kota,Pariaman,Sumatera Barat
541,26351,Panti,13.08.07.2001,Panti,Kabupaten,Pasaman,Sumatera Barat
542,26351,Panti Selatan,13.08.07.2004,Panti,Kabupaten,Pasaman,Sumatera Barat
543,26351,Panti Timur,13.08.07.2003,Panti,Kabupaten,Pasaman,Sumatera Barat
544,26351,Panti Utara,13.08.07.2005,Panti,Kabupaten,Pasaman,Sumatera Barat
545,27373,Lolo,13.02.03.2001,Pantai Cermin,Kabupaten,Solok,Sumatera Barat
546,27373,Surian,13.02.03.2002,Pantai Cermin,Kabupaten,Solok,Sumatera Barat
547,26272,Gunuang Malintang,13.07.06.2003,Pangkalan Koto Baru,Kabupaten,Lima Puluh Kota,Sumatera Barat
548,26272,Koto Alam,13.07.06.2005,Pangkalan Koto Baru,Kabupaten,Lima Puluh Kota,Sumatera Barat
549,26272,Manggilang,13.07.06.2001,Pangkalan Koto Baru,Kabupaten,Lima Puluh Kota,Sumatera Barat
550,26272,Pangkalan,13.07.06.2004,Pangkalan Koto Baru,Kabupaten,Lima Puluh Kota,Sumatera Barat
551,26272,Tanjung Pauh (Tanjung / Tanjuang Pauah),13.07.06.2006,Pangkalan Koto Baru,Kabupaten,Lima Puluh Kota,Sumatera Barat
552,26272,Tanjung/Tanjuang Balik,13.07.06.2002,Pangkalan Koto Baru,Kabupaten,Lima Puluh Kota,Sumatera Barat
553,25671,Inderapura,13.01.01.2001,Pancung Soal,Kabupaten,Pesisir Selatan,Sumatera Barat
554,25671,Indrapura/Inderapura Barat,13.01.01.2004,Pancung Soal,Kabupaten,Pesisir Selatan,Sumatera Barat
555,25671,Indrapura/Inderapura Selatan,13.01.01.2006,Pancung Soal,Kabupaten,Pesisir Selatan,Sumatera Barat
556,25671,Indrapura/Inderapura Tengah,13.01.01.2012,Pancung Soal,Kabupaten,Pesisir Selatan,Sumatera Barat
557,25671,Kudo-Kudo Inderapura,13.01.01.2005,Pancung Soal,Kabupaten,Pesisir Selatan,Sumatera Barat
558,25671,Muaro Sakai Inderapura,13.01.01.2002,Pancung Soal,Kabupaten,Pesisir Selatan,Sumatera Barat
559,25671,Simpang Lama Inderapura,13.01.01.2009,Pancung Soal,Kabupaten,Pesisir Selatan,Sumatera Barat
560,25671,Tiga Sepakat Inderapura,13.01.01.2003,Pancung Soal,Kabupaten,Pesisir Selatan,Sumatera Barat
561,25671,Tigo Sungai Inderapura (Tigosungai Inderapura),13.01.01.2010,Pancung Soal,Kabupaten,Pesisir Selatan,Sumatera Barat
562,25671,Tluk Amplu Inderapura,13.01.01.2011,Pancung Soal,Kabupaten,Pesisir Selatan,Sumatera Barat
563,26151,Koto Rantang,13.06.10.2001,Palupuh,Kabupaten,Agam,Sumatera Barat
564,26151,Nan Limo,13.06.10.2005,Palupuh,Kabupaten,Agam,Sumatera Barat
565,26151,Nan Tujuah,13.06.10.2004,Palupuh,Kabupaten,Agam,Sumatera Barat
566,26151,Pagadih,13.06.10.2003,Palupuh,Kabupaten,Agam,Sumatera Barat
567,26151,Pasia Laweh,13.06.10.2002,Palupuh,Kabupaten,Agam,Sumatera Barat
568,26164,Ampek Koto (Ampek Koto Palembayan),13.06.11.2004,Palembayan (Pelembayan),Kabupaten,Agam,Sumatera Barat
569,26164,Baringin,13.06.11.2001,Palembayan (Pelembayan),Kabupaten,Agam,Sumatera Barat
570,26164,Salareh Aia,13.06.11.2006,Palembayan (Pelembayan),Kabupaten,Agam,Sumatera Barat
571,26164,Salareh Aia Barat,13.06.11.2009,Palembayan (Pelembayan),Kabupaten,Agam,Sumatera Barat
572,26164,Salareh Aia Timur,13.06.11.2007,Palembayan (Pelembayan),Kabupaten,Agam,Sumatera Barat
573,26164,Salareh Aia Utara,13.06.11.2008,Palembayan (Pelembayan),Kabupaten,Agam,Sumatera Barat
574,26164,Sipinang,13.06.11.2002,Palembayan (Pelembayan),Kabupaten,Agam,Sumatera Barat
575,26164,Sungai Puar,13.06.11.2003,Palembayan (Pelembayan),Kabupaten,Agam,Sumatera Barat
576,26164,Tigo Koto Silungkang,13.06.11.2005,Palembayan (Pelembayan),Kabupaten,Agam,Sumatera Barat
577,25390,Betumonga,13.09.01.2007,Pagai Utara,Kabupaten,Kepulauan Mentawai,Sumatera Barat
578,25390,Saumanganya (Saumanganyak),13.09.01.2009,Pagai Utara,Kabupaten,Kepulauan Mentawai,Sumatera Barat
579,25390,Silabu,13.09.01.2008,Pagai Utara,Kabupaten,Kepulauan Mentawai,Sumatera Barat
580,25391,Bulasat,13.09.10.2002,Pagai Selatan,Kabupaten,Kepulauan Mentawai,Sumatera Barat
581,25391,Makalo,13.09.10.2004,Pagai Selatan,Kabupaten,Kepulauan Mentawai,Sumatera Barat
582,25391,Malakopa (Malakopak),13.09.10.2003,Pagai Selatan,Kabupaten,Kepulauan Mentawai,Sumatera Barat
583,25391,Sinaka (Sinakak),13.09.10.2001,Pagai Selatan,Kabupaten,Kepulauan Mentawai,Sumatera Barat
584,25132,Air Tawar Barat,13.71.04.1002,Padang Utara,Kota,Padang,Sumatera Barat
585,25132,Air Tawar Timur,13.71.04.1001,Padang Utara,Kota,Padang,Sumatera Barat
586,25139,Alai Parak Kopi,13.71.04.1006,Padang Utara,Kota,Padang,Sumatera Barat
587,25137,Gunung Pangilun,13.71.04.1007,Padang Utara,Kota,Padang,Sumatera Barat
588,25136,Lolong Belanti,13.71.04.1005,Padang Utara,Kota,Padang,Sumatera Barat
589,25134,Ulak Karang Selatan,13.71.04.1004,Padang Utara,Kota,Padang,Sumatera Barat
590,25133,Ulak Karang Utara,13.71.04.1003,Padang Utara,Kota,Padang,Sumatera Barat
591,25126,Andalas,13.71.02.1007,Padang Timur,Kota,Padang,Sumatera Barat
592,25122,Ganting Parak Gadang,13.71.02.1010,Padang Timur,Kota,Padang,Sumatera Barat
593,25129,Jati,13.71.02.1003,Padang Timur,Kota,Padang,Sumatera Barat
594,25129,Jati Baru,13.71.02.1002,Padang Timur,Kota,Padang,Sumatera Barat
595,25126,Kubu Dalam Parak Karakah,13.71.02.1008,Padang Timur,Kota,Padang,Sumatera Barat
596,25125,Kubu Marapalam,13.71.02.1006,Padang Timur,Kota,Padang,Sumatera Barat
597,25123,Parak Gadang Timur,13.71.02.1009,Padang Timur,Kota,Padang,Sumatera Barat
598,25121,Sawahan,13.71.02.1001,Padang Timur,Kota,Padang,Sumatera Barat
599,25121,Sawahan Timur,13.71.02.1004,Padang Timur,Kota,Padang,Sumatera Barat
600,25123,Simpang Haru,13.71.02.1005,Padang Timur,Kota,Padang,Sumatera Barat
601,25217,Air Manis (Aia Manih),13.71.01.1011,Padang Selatan,Kota,Padang,Sumatera Barat
602,25211,Alang Laweh,13.71.01.1002,Padang Selatan,Kota,Padang,Sumatera Barat
603,25215,Batang Arau,13.71.01.1005,Padang Selatan,Kota,Padang,Sumatera Barat
604,25211,Belakang Pondok,13.71.01.1001,Padang Selatan,Kota,Padang,Sumatera Barat
605,25215,Bukik/Bukit Gado-gado,13.71.01.1012,Padang Selatan,Kota,Padang,Sumatera Barat
606,25216,Mato/Mata Air,13.71.01.1008,Padang Selatan,Kota,Padang,Sumatera Barat
607,25213,Pasa Gadang (Pasar Gadang),13.71.01.1004,Padang Selatan,Kota,Padang,Sumatera Barat
608,25212,Ranah Parak Rumbio,13.71.01.1003,Padang Selatan,Kota,Padang,Sumatera Barat
609,25216,Rawang,13.71.01.1009,Padang Selatan,Kota,Padang,Sumatera Barat
610,25214,Seberang Padang,13.71.01.1007,Padang Selatan,Kota,Padang,Sumatera Barat
611,25215,Seberang Palinggam,13.71.01.1006,Padang Selatan,Kota,Padang,Sumatera Barat
612,25217,Teluk Bayur/Taluak Bayua,13.71.01.1010,Padang Selatan,Kota,Padang,Sumatera Barat
613,25573,Batu Kalang,13.05.12.2003,Padang Sago,Kabupaten,Padang Pariaman,Sumatera Barat
614,25573,Batu Kalang Utara (Koto Dalam Utara),13.05.12.2006,Padang Sago,Kabupaten,Padang Pariaman,Sumatera Barat
615,25573,Koto Baru,13.05.12.2001,Padang Sago,Kabupaten,Padang Pariaman,Sumatera Barat
616,25573,Koto Dalam,13.05.12.2002,Padang Sago,Kabupaten,Padang Pariaman,Sumatera Barat
617,25573,Koto Dalam Barat,13.05.12.2004,Padang Sago,Kabupaten,Padang Pariaman,Sumatera Barat
618,25573,Koto Dalam Selatan,13.05.12.2005,Padang Sago,Kabupaten,Padang Pariaman,Sumatera Barat
619,27125,Ekor Lubuk,13.74.01.1003,Padang Panjang Timur,Kota,Padang Panjang,Sumatera Barat
620,27127,Ganting,13.74.01.1001,Padang Panjang Timur,Kota,Padang Panjang,Sumatera Barat
621,27128,Guguk Malintang,13.74.01.1005,Padang Panjang Timur,Kota,Padang Panjang,Sumatera Barat
622,27123,Koto Katik,13.74.01.1007,Padang Panjang Timur,Kota,Padang Panjang,Sumatera Barat
623,27122,Koto Panjang,13.74.01.1006,Padang Panjang Timur,Kota,Padang Panjang,Sumatera Barat
624,27124,Ngalau,13.74.01.1004,Padang Panjang Timur,Kota,Padang Panjang,Sumatera Barat
625,27126,Sigando,13.74.01.1002,Padang Panjang Timur,Kota,Padang Panjang,Sumatera Barat
626,27121,Tanah Pak Lambik,13.74.01.1008,Padang Panjang Timur,Kota,Padang Panjang,Sumatera Barat
627,27114,Balai-Balai,13.74.02.1008,Padang Panjang Barat,Kota,Padang Panjang,Sumatera Barat
628,27115,Bukik/Bukit Surungan,13.74.02.1001,Padang Panjang Barat,Kota,Padang Panjang,Sumatera Barat
629,27111,Kampung Manggis,13.74.02.1003,Padang Panjang Barat,Kota,Padang Panjang,Sumatera Barat
630,27113,Pasar Baru,13.74.02.1006,Padang Panjang Barat,Kota,Padang Panjang,Sumatera Barat
631,27116,Pasar Usang,13.74.02.1002,Padang Panjang Barat,Kota,Padang Panjang,Sumatera Barat
632,27117,Silaing Atas,13.74.02.1005,Padang Panjang Barat,Kota,Padang Panjang,Sumatera Barat
633,27118,Silaing Bawah,13.74.02.1004,Padang Panjang Barat,Kota,Padang Panjang,Sumatera Barat
634,27112,Tanah Hitam,13.74.02.1007,Padang Panjang Barat,Kota,Padang Panjang,Sumatera Barat
635,27682,Batu Rijal,13.10.09.2002,Padang Laweh,Kabupaten,Dharmasraya,Sumatera Barat
636,27682,Muaro Sopan,13.10.09.2003,Padang Laweh,Kabupaten,Dharmasraya,Sumatera Barat
637,27682,Padang Laweh,13.10.09.2001,Padang Laweh,Kabupaten,Dharmasraya,Sumatera Barat
638,27682,Sopan Jaya,13.10.09.2004,Padang Laweh,Kabupaten,Dharmasraya,Sumatera Barat
639,26352,Bahagia Padang Gelugua,13.08.17.2004,Padang Gelugur,Kabupaten,Pasaman,Sumatera Barat
640,26352,Padang Gelugur,13.08.17.2001,Padang Gelugur,Kabupaten,Pasaman,Sumatera Barat
641,26352,Sitombol Padang Gelugua,13.08.17.2003,Padang Gelugur,Kabupaten,Pasaman,Sumatera Barat
642,26352,Sontang Cubadak,13.08.17.2002,Padang Gelugur,Kabupaten,Pasaman,Sumatera Barat
643,27282,Atar,13.04.11.2001,Padang Ganting,Kabupaten,Tanah Datar,Sumatera Barat
644,27282,Padang Ganting,13.04.11.2002,Padang Ganting,Kabupaten,Tanah Datar,Sumatera Barat
645,25118,Belakang Tangsi,13.71.03.1008,Padang Barat,Kota,Padang,Sumatera Barat
646,25118,Berok Nipah,13.71.03.1010,Padang Barat,Kota,Padang,Sumatera Barat
647,25114,Flamboyan Baru (Flamboyan / Plamboyan Baru),13.71.03.1001,Padang Barat,Kota,Padang,Sumatera Barat
648,25112,Kampung Jao,13.71.03.1007,Padang Barat,Kota,Padang,Sumatera Barat
649,25119,Kampung Pondok,13.71.03.1009,Padang Barat,Kota,Padang,Sumatera Barat
650,25117,Olo,13.71.03.1006,Padang Barat,Kota,Padang,Sumatera Barat
651,25112,Padang Pasir,13.71.03.1005,Padang Barat,Kota,Padang,Sumatera Barat
652,25115,Purus,13.71.03.1004,Padang Barat,Kota,Padang,Sumatera Barat
653,25111,Rimbo Kaluang,13.71.03.1002,Padang Barat,Kota,Padang,Sumatera Barat
654,25114,Ujung Gurun,13.71.03.1003,Padang Barat,Kota,Padang,Sumatera Barat
655,25145,Gurun Lawas/Laweh,13.71.10.1004,Nanggalo,Kota,Padang,Sumatera Barat
656,25142,Kampung Lapai,13.71.10.1006,Nanggalo,Kota,Padang,Sumatera Barat
657,25143,Kampung Olo,13.71.10.1002,Nanggalo,Kota,Padang,Sumatera Barat
658,25147,Kurao Pagang,13.71.10.1003,Nanggalo,Kota,Padang,Sumatera Barat
659,25146,Surau Gadang,13.71.10.1001,Nanggalo,Kota,Padang,Sumatera Barat
660,25144,Tabing Banda Gadang,13.71.10.1005,Nanggalo,Kota,Padang,Sumatera Barat
661,25571,Kapalo Koto,13.05.03.2001,Nan Sabaris,Kabupaten,Padang Pariaman,Sumatera Barat
662,25571,Kurai Taji,13.05.03.2004,Nan Sabaris,Kabupaten,Padang Pariaman,Sumatera Barat
663,25571,Kurai Taji Timur,13.05.03.2009,Nan Sabaris,Kabupaten,Padang Pariaman,Sumatera Barat
664,25571,Padang Bintungan,13.05.03.2003,Nan Sabaris,Kabupaten,Padang Pariaman,Sumatera Barat
665,25571,Padang Kandang Pulau Air Padang,13.05.03.2006,Nan Sabaris,Kabupaten,Padang Pariaman,Sumatera Barat
666,25571,Pauh Kambar,13.05.03.2002,Nan Sabaris,Kabupaten,Padang Pariaman,Sumatera Barat
667,25571,Sunua,13.05.03.2005,Nan Sabaris,Kabupaten,Padang Pariaman,Sumatera Barat
668,25571,Sunua Barat,13.05.03.2008,Nan Sabaris,Kabupaten,Padang Pariaman,Sumatera Barat
669,25571,Sunua Tengah,13.05.03.2007,Nan Sabaris,Kabupaten,Padang Pariaman,Sumatera Barat
670,26254,Jopang Manganti,13.07.11.2001,Mungka,Kabupaten,Lima Puluh Kota,Sumatera Barat
671,26254,Mungka,13.07.11.2003,Mungka,Kabupaten,Lima Puluh Kota,Sumatera Barat
672,26254,Simpang Kapuak,13.07.11.2002,Mungka,Kabupaten,Lima Puluh Kota,Sumatera Barat
673,26254,Sungai Antuan,13.07.11.2005,Mungka,Kabupaten,Lima Puluh Kota,Sumatera Barat
674,26254,Talang Maur (Talang Maua),13.07.11.2004,Mungka,Kabupaten,Lima Puluh Kota,Sumatera Barat
675,26162,Lawang,13.06.04.2004,Matur,Kabupaten,Agam,Sumatera Barat
676,26162,Matua Hilia (Matur Hilia),13.06.04.2001,Matur,Kabupaten,Agam,Sumatera Barat
677,26162,Matua Mudiak (Matur Mudiak),13.06.04.2002,Matur,Kabupaten,Agam,Sumatera Barat
678,26162,Panta Pauh,13.06.04.2006,Matur,Kabupaten,Agam,Sumatera Barat
679,26162,Parik Panjang,13.06.04.2005,Matur,Kabupaten,Agam,Sumatera Barat
680,26162,Tigo Balai,13.06.04.2003,Matur,Kabupaten,Agam,Sumatera Barat
681,26354,Muaro Sei/Sungai Lolo,13.08.15.2002,Mapat Tunggul Selatan,Kabupaten,Pasaman,Sumatera Barat
682,26354,Silayang,13.08.15.2001,Mapat Tunggul Selatan,Kabupaten,Pasaman,Sumatera Barat
683,26353,Lubuak Gadang (Lubuk Gadang),13.08.08.2002,Mapat Tunggul,Kabupaten,Pasaman,Sumatera Barat
684,26353,Muara Tais,13.08.08.2001,Mapat Tunggul,Kabupaten,Pasaman,Sumatera Barat
685,26353,Muaro Tais Koto Gadang,13.08.08.2006,Mapat Tunggul,Kabupaten,Pasaman,Sumatera Barat
686,26353,Pintu Padang,13.08.08.2005,Mapat Tunggul,Kabupaten,Pasaman,Sumatera Barat
687,26128,Campago Guguk Bulek,13.75.02.1001,Mandiangin Koto Selayan,Kota,Bukittinggi,Sumatera Barat
688,26121,Campago Ipuh,13.75.02.1002,Mandiangin Koto Selayan,Kota,Bukittinggi,Sumatera Barat
689,26127,Garegeh,13.75.02.1008,Mandiangin Koto Selayan,Kota,Bukittinggi,Sumatera Barat
690,26126,Koto Selayan,13.75.02.1007,Mandiangin Koto Selayan,Kota,Bukittinggi,Sumatera Barat
691,26122,Kubu Gulai Bancah,13.75.02.1004,Mandiangin Koto Selayan,Kota,Bukittinggi,Sumatera Barat
692,26129,Manggis Ganting,13.75.02.1009,Mandiangin Koto Selayan,Kota,Bukittinggi,Sumatera Barat
693,26123,Puhun Pintu Kabun,13.75.02.1005,Mandiangin Koto Selayan,Kota,Bukittinggi,Sumatera Barat
694,26124,Puhun Tembok,13.75.02.1003,Mandiangin Koto Selayan,Kota,Bukittinggi,Sumatera Barat
695,26125,Pulai Anak Air,13.75.02.1006,Mandiangin Koto Selayan,Kota,Bukittinggi,Sumatera Barat
696,26163,Malalak Barat,13.06.16.2004,Malalak (Malakak),Kabupaten,Agam,Sumatera Barat
697,26163,Malalak Selatan,13.06.16.2003,Malalak (Malakak),Kabupaten,Agam,Sumatera Barat
698,26163,Malalak Timur,13.06.16.2002,Malalak (Malakak),Kabupaten,Agam,Sumatera Barat
699,26163,Malalak Utara,13.06.16.2001,Malalak (Malakak),Kabupaten,Agam,Sumatera Barat
700,25674,Lunang,13.01.10.2001,Lunang,Kabupaten,Pesisir Selatan,Sumatera Barat
701,25674,Lunang Barat,13.01.10.2005,Lunang,Kabupaten,Pesisir Selatan,Sumatera Barat
702,25674,Lunang Dua,13.01.10.2019,Lunang,Kabupaten,Pesisir Selatan,Sumatera Barat
703,25674,Lunang Satu,13.01.10.2018,Lunang,Kabupaten,Pesisir Selatan,Sumatera Barat
704,25674,Lunang Selatan,13.01.10.2004,Lunang,Kabupaten,Pesisir Selatan,Sumatera Barat
705,25674,Lunang Tengah,13.01.10.2017,Lunang,Kabupaten,Pesisir Selatan,Sumatera Barat
706,25674,Lunang Tiga,13.01.10.2020,Lunang,Kabupaten,Pesisir Selatan,Sumatera Barat
707,25674,Lunang Utara,13.01.10.2003,Lunang,Kabupaten,Pesisir Selatan,Sumatera Barat
708,25674,Pondok Parian Lunang,13.01.10.2016,Lunang,Kabupaten,Pesisir Selatan,Sumatera Barat
709,25674,Sindang Lunang,13.01.10.2015,Lunang,Kabupaten,Pesisir Selatan,Sumatera Barat
710,26568,Giri Maju,13.12.10.2003,Luhak Nan Duo,Kabupaten,Pasaman Barat,Sumatera Barat
711,26568,Jambak Selatan,13.12.10.2008,Luhak Nan Duo,Kabupaten,Pasaman Barat,Sumatera Barat
712,26568,Kapa (Kapar),13.12.10.2002,Luhak Nan Duo,Kabupaten,Pasaman Barat,Sumatera Barat
713,26568,Koto Baru,13.12.10.2001,Luhak Nan Duo,Kabupaten,Pasaman Barat,Sumatera Barat
714,26568,Mahakarya,13.12.10.2005,Luhak Nan Duo,Kabupaten,Pasaman Barat,Sumatera Barat
715,26568,Ophir,13.12.10.2004,Luhak Nan Duo,Kabupaten,Pasaman Barat,Sumatera Barat
716,26568,Pujorahayu,13.12.10.2009,Luhak Nan Duo,Kabupaten,Pasaman Barat,Sumatera Barat
717,26568,Sariak,13.12.10.2006,Luhak Nan Duo,Kabupaten,Pasaman Barat,Sumatera Barat
718,26568,Sungai Talang,13.12.10.2007,Luhak Nan Duo,Kabupaten,Pasaman Barat,Sumatera Barat
719,27317,Aro IV Korong,13.72.01.1006,Lubuk Sikarah,Kota,Solok,Sumatera Barat
720,27314,IX Korong,13.72.01.1004,Lubuk Sikarah,Kota,Solok,Sumatera Barat
721,27315,Kampai Tabu Kerambil/Karambia,13.72.01.1005,Lubuk Sikarah,Kota,Solok,Sumatera Barat
722,27316,Simpang Rumbio,13.72.01.1007,Lubuk Sikarah,Kota,Solok,Sumatera Barat
723,27313,Sinapa Piliang,13.72.01.1003,Lubuk Sikarah,Kota,Solok,Sumatera Barat
724,27312,Tanah Garam,13.72.01.1001,Lubuk Sikarah,Kota,Solok,Sumatera Barat
725,27311,VI Suku,13.72.01.1002,Lubuk Sikarah,Kota,Solok,Sumatera Barat
726,26318,Aia Manggih,13.08.05.2005,Lubuk Sikaping,Kabupaten,Pasaman,Sumatera Barat
727,26318,Aia Manggih Barat,13.08.05.2011,Lubuk Sikaping,Kabupaten,Pasaman,Sumatera Barat
728,26318,Aia Manggih Selatan,13.08.05.2010,Lubuk Sikaping,Kabupaten,Pasaman,Sumatera Barat
729,26318,Aia Manggih Utara,13.08.05.2009,Lubuk Sikaping,Kabupaten,Pasaman,Sumatera Barat
730,26318,Durian Tinggi,13.08.05.2003,Lubuk Sikaping,Kabupaten,Pasaman,Sumatera Barat
731,26318,Jambak,13.08.05.2002,Lubuk Sikaping,Kabupaten,Pasaman,Sumatera Barat
732,26318,Pauah,13.08.05.2004,Lubuk Sikaping,Kabupaten,Pasaman,Sumatera Barat
733,26318,Sundata,13.08.05.2006,Lubuk Sikaping,Kabupaten,Pasaman,Sumatera Barat
734,26318,Sundata Selatan,13.08.05.2013,Lubuk Sikaping,Kabupaten,Pasaman,Sumatera Barat
735,26318,Sundata Utara,13.08.05.2012,Lubuk Sikaping,Kabupaten,Pasaman,Sumatera Barat
736,26318,Tanjuang Baringin,13.08.05.2001,Lubuk Sikaping,Kabupaten,Pasaman,Sumatera Barat
737,26318,Tanjuang Baringin Selatan,13.08.05.2008,Lubuk Sikaping,Kabupaten,Pasaman,Sumatera Barat
738,26318,Tanjuang Baringin Utara,13.08.05.2007,Lubuk Sikaping,Kabupaten,Pasaman,Sumatera Barat
739,25231,Bandar Buat (Banda Buek),13.71.07.1004,Lubuk Kilangan,Kota,Padang,Sumatera Barat
740,25236,Batu Gadang,13.71.07.1003,Lubuk Kilangan,Kota,Padang,Sumatera Barat
741,25235,Beringin/Baringin,13.71.07.1006,Lubuk Kilangan,Kota,Padang,Sumatera Barat
742,25237,Indarung,13.71.07.1001,Lubuk Kilangan,Kota,Padang,Sumatera Barat
743,25232,Koto Lalang,13.71.07.1005,Lubuk Kilangan,Kota,Padang,Sumatera Barat
744,25233,Padang Besi,13.71.07.1002,Lubuk Kilangan,Kota,Padang,Sumatera Barat
745,25234,Tarantang,13.71.07.1007,Lubuk Kilangan,Kota,Padang,Sumatera Barat
746,25222,Banuaran Nan XX (Banuaran),13.71.06.1009,Lubuk Begalung,Kota,Padang,Sumatera Barat
747,25223,Batung Taba Nan XX (Batang Taba Nan XX),13.71.06.1011,Lubuk Begalung,Kota,Padang,Sumatera Barat
748,25225,Cengkeh/Cangkeh Nan XX,13.71.06.1001,Lubuk Begalung,Kota,Padang,Sumatera Barat
749,25227,Gates Nan XX,13.71.06.1014,Lubuk Begalung,Kota,Padang,Sumatera Barat
750,25221,Gurun Laweh Nan XX (Gurun Laweh / Lawas),13.71.06.1006,Lubuk Begalung,Kota,Padang,Sumatera Barat
751,25225,Kampung Baru Nan XX,13.71.06.1002,Lubuk Begalung,Kota,Padang,Sumatera Barat
752,25225,Kampung Jua Nan XX,13.71.06.1015,Lubuk Begalung,Kota,Padang,Sumatera Barat
753,25227,Koto Baru Nan XX (Koto Baru),13.71.06.1008,Lubuk Begalung,Kota,Padang,Sumatera Barat
754,25221,Lubuk Begalung Nan XX (Lubuk Begalung),13.71.06.1005,Lubuk Begalung,Kota,Padang,Sumatera Barat
755,25226,Pagambiran Ampalu Nan XX (Pangambiran),13.71.06.1012,Lubuk Begalung,Kota,Padang,Sumatera Barat
756,25227,Pampangan Nan XX,13.71.06.1013,Lubuk Begalung,Kota,Padang,Sumatera Barat
757,25223,Parak Laweh Pulau Aia Nan XX,13.71.06.1010,Lubuk Begalung,Kota,Padang,Sumatera Barat
758,25224,Tanah Sirah Piai Nan XX,13.71.06.1003,Lubuk Begalung,Kota,Padang,Sumatera Barat
759,25222,Tanjung Aua Nan XX (Tanjung Aur / Tanjuang Aua),13.71.06.1007,Lubuk Begalung,Kota,Padang,Sumatera Barat
760,25224,Tanjung Saba Pitamen Nan XX (Pitameh),13.71.06.1004,Lubuk Begalung,Kota,Padang,Sumatera Barat
761,26451,Garagahan (Geragahan),13.06.02.2002,Lubuk Basung,Kabupaten,Agam,Sumatera Barat
762,26451,Kampung Pinang,13.06.02.2003,Lubuk Basung,Kabupaten,Agam,Sumatera Barat
763,26451,Kampung Tangah,13.06.02.2004,Lubuk Basung,Kabupaten,Agam,Sumatera Barat
764,26451,Lubuk Basung,13.06.02.2001,Lubuk Basung,Kabupaten,Agam,Sumatera Barat
765,26451,Manggopoh,13.06.02.2005,Lubuk Basung,Kabupaten,Agam,Sumatera Barat
766,25581,Aie Tajun Lubuk Alung,13.05.01.2004,Lubuk Alung,Kabupaten,Padang Pariaman,Sumatera Barat
767,25581,Lubuk Alung,13.05.01.2001,Lubuk Alung,Kabupaten,Padang Pariaman,Sumatera Barat
768,25581,Nagari Balah Hilia Lubuk Alung,13.05.01.2009,Lubuk Alung,Kabupaten,Padang Pariaman,Sumatera Barat
769,25581,Pasie Laweh Lubuk Alung,13.05.01.2003,Lubuk Alung,Kabupaten,Padang Pariaman,Sumatera Barat
770,25581,Pungguang Kasiak Lubuk Alung,13.05.01.2002,Lubuk Alung,Kabupaten,Padang Pariaman,Sumatera Barat
771,25581,Salibutan Lubuk Alung,13.05.01.2008,Lubuk Alung,Kabupaten,Padang Pariaman,Sumatera Barat
772,25581,Sikabu Lubuk Alung,13.05.01.2005,Lubuk Alung,Kabupaten,Padang Pariaman,Sumatera Barat
773,25581,Singguliang Lubuk Alung,13.05.01.2007,Lubuk Alung,Kabupaten,Padang Pariaman,Sumatera Barat
774,25581,Sungai Abang Lubuk Alung,13.05.01.2006,Lubuk Alung,Kabupaten,Padang Pariaman,Sumatera Barat
775,27553,Buluah Kasok,13.03.07.2003,Lubuak Tarok,Kabupaten,Sijunjung,Sumatera Barat
776,27553,Kampung Dalam,13.03.07.2004,Lubuak Tarok,Kabupaten,Sijunjung,Sumatera Barat
777,27553,Lalan,13.03.07.2002,Lubuak Tarok,Kabupaten,Sijunjung,Sumatera Barat
778,27553,Latang,13.03.07.2006,Lubuak Tarok,Kabupaten,Sijunjung,Sumatera Barat
779,27553,Lubuak Tarok,13.03.07.2001,Lubuak Tarok,Kabupaten,Sijunjung,Sumatera Barat
780,27553,Silongo,13.03.07.2005,Lubuak Tarok,Kabupaten,Sijunjung,Sumatera Barat
781,26261,Andaleh,13.07.04.2004,Luak (Luhak),Kabupaten,Lima Puluh Kota,Sumatera Barat
782,26261,Mungo,13.07.04.2002,Luak (Luhak),Kabupaten,Lima Puluh Kota,Sumatera Barat
783,26261,Sungai Kamuyang,13.07.04.2003,Luak (Luhak),Kabupaten,Lima Puluh Kota,Sumatera Barat
784,26261,Tj. Haro Sikabu-kabu Pd. Panjang,13.07.04.2001,Luak (Luhak),Kabupaten,Lima Puluh Kota,Sumatera Barat
785,27293,Balai Tangah,13.04.13.2002,Lintau Buo Utara,Kabupaten,Tanah Datar,Sumatera Barat
786,27293,Batu Bulek,13.04.13.2001,Lintau Buo Utara,Kabupaten,Tanah Datar,Sumatera Barat
787,27293,Lubuk/Lubuak Jantan,13.04.13.2004,Lintau Buo Utara,Kabupaten,Tanah Datar,Sumatera Barat
788,27293,Tanjung/Tanjuang Bonai,13.04.13.2003,Lintau Buo Utara,Kabupaten,Tanah Datar,Sumatera Barat
789,27293,Tapi/Tepi Selo,13.04.13.2005,Lintau Buo Utara,Kabupaten,Tanah Datar,Sumatera Barat
790,27292,Buo,13.04.06.2002,Lintau Buo,Kabupaten,Tanah Datar,Sumatera Barat
791,27292,Pangian,13.04.06.2004,Lintau Buo,Kabupaten,Tanah Datar,Sumatera Barat
792,27292,Taluak,13.04.06.2001,Lintau Buo,Kabupaten,Tanah Datar,Sumatera Barat
793,27292,Tigo Jangko,13.04.06.2003,Lintau Buo,Kabupaten,Tanah Datar,Sumatera Barat
794,25668,Air Haji,13.01.09.2002,Linggo Sari Baganti,Kabupaten,Pesisir Selatan,Sumatera Barat
795,25668,Air Haji Barat,13.01.09.2011,Linggo Sari Baganti,Kabupaten,Pesisir Selatan,Sumatera Barat
796,25668,Air Haji Tengah,13.01.09.2012,Linggo Sari Baganti,Kabupaten,Pesisir Selatan,Sumatera Barat
797,25668,Air Haji Tenggara,13.01.09.2008,Linggo Sari Baganti,Kabupaten,Pesisir Selatan,Sumatera Barat
798,25668,Lagan Hilir Punggasan,13.01.09.2007,Linggo Sari Baganti,Kabupaten,Pesisir Selatan,Sumatera Barat
799,25668,Lagan Mudik Punggasan,13.01.09.2006,Linggo Sari Baganti,Kabupaten,Pesisir Selatan,Sumatera Barat
800,25668,Muara Gadang Air Haji (Muaragadang Air Haji),13.01.09.2014,Linggo Sari Baganti,Kabupaten,Pesisir Selatan,Sumatera Barat
801,25668,Muara Kandis Punggasan (Muarakandis Punggasan),13.01.09.2016,Linggo Sari Baganti,Kabupaten,Pesisir Selatan,Sumatera Barat
802,25668,Padang XI Punggasan,13.01.09.2005,Linggo Sari Baganti,Kabupaten,Pesisir Selatan,Sumatera Barat
803,25668,Pasar Bukit Air Haji,13.01.09.2010,Linggo Sari Baganti,Kabupaten,Pesisir Selatan,Sumatera Barat
804,25668,Pasar Lama Muara Air Haji,13.01.09.2009,Linggo Sari Baganti,Kabupaten,Pesisir Selatan,Sumatera Barat
805,25668,Punggasan,13.01.09.2001,Linggo Sari Baganti,Kabupaten,Pesisir Selatan,Sumatera Barat
806,25668,Punggasan Timur,13.01.09.2004,Linggo Sari Baganti,Kabupaten,Pesisir Selatan,Sumatera Barat
807,25668,Punggasan Utara,13.01.09.2003,Linggo Sari Baganti,Kabupaten,Pesisir Selatan,Sumatera Barat
808,25668,Rantau Simalenang Air Haji,13.01.09.2013,Linggo Sari Baganti,Kabupaten,Pesisir Selatan,Sumatera Barat
809,25668,Sungai Sirah Air Haji (Sungaisirah Air Haji),13.01.09.2015,Linggo Sari Baganti,Kabupaten,Pesisir Selatan,Sumatera Barat
810,27213,Baringin,13.04.04.2001,Lima Kaum,Kabupaten,Tanah Datar,Sumatera Barat
811,27216,Cubadak,13.04.04.2004,Lima Kaum,Kabupaten,Tanah Datar,Sumatera Barat
812,27211,Labuah/Labuh,13.04.04.2005,Lima Kaum,Kabupaten,Tanah Datar,Sumatera Barat
813,27211,Lima Kaum (Limo Kaum),13.04.04.2002,Lima Kaum,Kabupaten,Tanah Datar,Sumatera Barat
814,27211,Parambahan,13.04.04.2003,Lima Kaum,Kabupaten,Tanah Datar,Sumatera Barat
815,25663,Kambang,13.01.03.2001,Lengayang,Kabupaten,Pesisir Selatan,Sumatera Barat
816,25663,Kambang Barat,13.01.03.2005,Lengayang,Kabupaten,Pesisir Selatan,Sumatera Barat
817,25663,Kambang Timur,13.01.03.2004,Lengayang,Kabupaten,Pesisir Selatan,Sumatera Barat
818,25663,Kambang Utara,13.01.03.2003,Lengayang,Kabupaten,Pesisir Selatan,Sumatera Barat
819,25663,Lakitan,13.01.03.2002,Lengayang,Kabupaten,Pesisir Selatan,Sumatera Barat
820,25663,Lakitan Selatan,13.01.03.2007,Lengayang,Kabupaten,Pesisir Selatan,Sumatera Barat
821,25663,Lakitan Tengah,13.01.03.2009,Lengayang,Kabupaten,Pesisir Selatan,Sumatera Barat
822,25663,Lakitan Timur,13.01.03.2008,Lengayang,Kabupaten,Pesisir Selatan,Sumatera Barat
823,25663,Lakitan Utara,13.01.03.2006,Lengayang,Kabupaten,Pesisir Selatan,Sumatera Barat
824,27384,Batu Bajanjang,13.02.06.2002,Lembang Jaya,Kabupaten,Solok,Sumatera Barat
825,27384,Batu Banyak,13.02.06.2001,Lembang Jaya,Kabupaten,Solok,Sumatera Barat
826,27384,Koto Gadang Koto Anau (Koto Anau),13.02.06.2005,Lembang Jaya,Kabupaten,Solok,Sumatera Barat
827,27384,Koto Laweh,13.02.06.2003,Lembang Jaya,Kabupaten,Solok,Sumatera Barat
828,27384,Limau Lunggo,13.02.06.2004,Lembang Jaya,Kabupaten,Solok,Sumatera Barat
829,27384,Selayo Tanang B. Sileh (Salayo),13.02.06.2006,Lembang Jaya,Kabupaten,Solok,Sumatera Barat
830,27419,Air/Aia Dingin,13.73.01.1006,Lembah Segar,Kota,Sawahlunto,Sumatera Barat
831,27418,Aur Mulio (Air Mulyo / Aurmulyo),13.73.01.1001,Lembah Segar,Kota,Sawahlunto,Sumatera Barat
832,27415,Kubang Sirakuk/Sirakuak Selatan,13.73.01.1003,Lembah Segar,Kota,Sawahlunto,Sumatera Barat
833,27415,Kubang Sirakuk/Sirakuak Utara,13.73.01.1002,Lembah Segar,Kota,Sawahlunto,Sumatera Barat
834,27413,Kubang Tangah,13.73.01.2009,Lembah Segar,Kota,Sawahlunto,Sumatera Barat
835,27412,Kubang Utara Sikabu,13.73.01.2010,Lembah Segar,Kota,Sawahlunto,Sumatera Barat
836,27418,Lunto Barat,13.73.01.2008,Lembah Segar,Kota,Sawahlunto,Sumatera Barat
837,27416,Lunto Timur,13.73.01.2007,Lembah Segar,Kota,Sawahlunto,Sumatera Barat
838,27415,Pasa Kubang (Pasar Kubang),13.73.01.2011,Lembah Segar,Kota,Sawahlunto,Sumatera Barat
839,27411,Pasar,13.73.01.1004,Lembah Segar,Kota,Sawahlunto,Sumatera Barat
840,27411,Tanah Lapang,13.73.01.1005,Lembah Segar,Kota,Sawahlunto,Sumatera Barat
841,26570,Brastagi Ujung Gading,13.12.02.2002,Lembah Melintang,Kabupaten,Pasaman Barat,Sumatera Barat
842,26570,Koto Gunung Ujung Gading,13.12.02.2005,Lembah Melintang,Kabupaten,Pasaman Barat,Sumatera Barat
843,26570,Koto Sawah Ujung Gading,13.12.02.2006,Lembah Melintang,Kabupaten,Pasaman Barat,Sumatera Barat
844,26570,Kuamang Alai Ujung Gading,13.12.02.2008,Lembah Melintang,Kabupaten,Pasaman Barat,Sumatera Barat
845,26570,Salido Saroha Ujung Gading,13.12.02.2007,Lembah Melintang,Kabupaten,Pasaman Barat,Sumatera Barat
846,26570,Situak Ujung Gading,13.12.02.2009,Lembah Melintang,Kabupaten,Pasaman Barat,Sumatera Barat
847,26570,Taluak Ambun Ujung Gading,13.12.02.2004,Lembah Melintang,Kabupaten,Pasaman Barat,Sumatera Barat
848,26570,Tampus Damai Ujung Gading,13.12.02.2003,Lembah Melintang,Kabupaten,Pasaman Barat,Sumatera Barat
849,26570,Ujung Gading,13.12.02.2001,Lembah Melintang,Kabupaten,Pasaman Barat,Sumatera Barat
850,27371,Aie Dingin (Aia Dingin),13.02.04.2004,Lembah Gumanti,Kabupaten,Solok,Sumatera Barat
851,27371,Alahan Panjang,13.02.04.2001,Lembah Gumanti,Kabupaten,Solok,Sumatera Barat
852,27371,Salimpat,13.02.04.2003,Lembah Gumanti,Kabupaten,Solok,Sumatera Barat
853,27371,Sungai Nanam,13.02.04.2002,Lembah Gumanti,Kabupaten,Solok,Sumatera Barat
854,26262,Ampalu,13.07.09.2003,Lareh Sago Halaban,Kabupaten,Lima Puluh Kota,Sumatera Barat
855,26262,Balai Panjang,13.07.09.2005,Lareh Sago Halaban,Kabupaten,Lima Puluh Kota,Sumatera Barat
856,26262,Batu Payuang (Batu Payung),13.07.09.2002,Lareh Sago Halaban,Kabupaten,Lima Puluh Kota,Sumatera Barat
857,26262,Bukik Sikumpa,13.07.09.2004,Lareh Sago Halaban,Kabupaten,Lima Puluh Kota,Sumatera Barat
858,26262,Halaban,13.07.09.2006,Lareh Sago Halaban,Kabupaten,Lima Puluh Kota,Sumatera Barat
859,26262,Labuah Gunuang,13.07.09.2001,Lareh Sago Halaban,Kabupaten,Lima Puluh Kota,Sumatera Barat
860,26262,Sitanang,13.07.09.2008,Lareh Sago Halaban,Kabupaten,Lima Puluh Kota,Sumatera Barat
861,26262,Tanjung/Tanjuang Gadang,13.07.09.2007,Lareh Sago Halaban,Kabupaten,Lima Puluh Kota,Sumatera Barat
862,26219,Koto Panjang Dalam,13.76.04.1006,Lamposi Tigo Nagori / Nagari,Kota,Payakumbuh,Sumatera Barat
863,26219,Koto Panjang Padang (Koto Panjang),13.76.04.1005,Lamposi Tigo Nagori / Nagari,Kota,Payakumbuh,Sumatera Barat
864,26219,Padang Sikabu,13.76.04.1004,Lamposi Tigo Nagori / Nagari,Kota,Payakumbuh,Sumatera Barat
865,26219,Parambahan,13.76.04.1003,Lamposi Tigo Nagori / Nagari,Kota,Payakumbuh,Sumatera Barat
866,26219,Parik Muko Aie (Parit Muka Air),13.76.04.1002,Lamposi Tigo Nagori / Nagari,Kota,Payakumbuh,Sumatera Barat
867,26219,Sei/Sungai Durian,13.76.04.1001,Lamposi Tigo Nagori / Nagari,Kota,Payakumbuh,Sumatera Barat
868,25154,Ampang,13.71.09.1004,Kuranji,Kota,Padang,Sumatera Barat
869,25151,Anduring,13.71.09.1002,Kuranji,Kota,Padang,Sumatera Barat
870,25158,Gunung Sarik,13.71.09.1008,Kuranji,Kota,Padang,Sumatera Barat
871,25155,Kalumbuk,13.71.09.1005,Kuranji,Kota,Padang,Sumatera Barat
872,25156,Korong Gadang,13.71.09.1006,Kuranji,Kota,Padang,Sumatera Barat
873,25157,Kuranji,13.71.09.1007,Kuranji,Kota,Padang,Sumatera Barat
874,25153,Lubuk Lintah,13.71.09.1003,Kuranji,Kota,Padang,Sumatera Barat
875,25152,Pasar Ambacang,13.71.09.1001,Kuranji,Kota,Padang,Sumatera Barat
876,25159,Sei/Sungai Sapih,13.71.09.1009,Kuranji,Kota,Padang,Sumatera Barat
877,27564,Batu Manjulur,13.03.10.2001,Kupitan,Kabupaten,Sijunjung,Sumatera Barat
878,27564,Desa Kampung Baru,13.03.10.2004,Kupitan,Kabupaten,Sijunjung,Sumatera Barat
879,27564,Padang Sibusuk,13.03.10.2003,Kupitan,Kabupaten,Sijunjung,Sumatera Barat
880,27564,Pamuatan,13.03.10.2002,Kupitan,Kabupaten,Sijunjung,Sumatera Barat
881,27361,Gantuang Ciri,13.02.10.2005,Kubung,Kabupaten,Solok,Sumatera Barat
882,27361,Gaung,13.02.10.2004,Kubung,Kabupaten,Solok,Sumatera Barat
883,27361,Koto Baru,13.02.10.2001,Kubung,Kabupaten,Solok,Sumatera Barat
884,27361,Koto Hilalang,13.02.10.2007,Kubung,Kabupaten,Solok,Sumatera Barat
885,27361,Panyakalan,13.02.10.2003,Kubung,Kabupaten,Solok,Sumatera Barat
886,27361,Saok Laweh,13.02.10.2006,Kubung,Kabupaten,Solok,Sumatera Barat
887,27361,Selayo,13.02.10.2002,Kubung,Kabupaten,Solok,Sumatera Barat
888,27361,Tanjung Bingkung,13.02.10.2008,Kubung,Kabupaten,Solok,Sumatera Barat
889,25654,Ampang Pulai,13.01.07.2006,Koto XI Tarusan,Kabupaten,Pesisir Selatan,Sumatera Barat
890,25654,Barung Barung Balantai Selatan,13.01.07.2009,Koto XI Tarusan,Kabupaten,Pesisir Selatan,Sumatera Barat
891,25654,Barung-Barung Balantai,13.01.07.2008,Koto XI Tarusan,Kabupaten,Pesisir Selatan,Sumatera Barat
892,25654,Barung-Barung Balantai Tengah,13.01.07.2022,Koto XI Tarusan,Kabupaten,Pesisir Selatan,Sumatera Barat
893,25654,Barung-Barung Balantai Timur,13.01.07.2021,Koto XI Tarusan,Kabupaten,Pesisir Selatan,Sumatera Barat
894,25654,Batu Hampa,13.01.07.2004,Koto XI Tarusan,Kabupaten,Pesisir Selatan,Sumatera Barat
895,25654,Batu Hampar Selatan (Batuhampar Selatan),13.01.07.2020,Koto XI Tarusan,Kabupaten,Pesisir Selatan,Sumatera Barat
896,25654,Cerocok Anau Ampang Pulai,13.01.07.2018,Koto XI Tarusan,Kabupaten,Pesisir Selatan,Sumatera Barat
897,25654,Duku,13.01.07.2003,Koto XI Tarusan,Kabupaten,Pesisir Selatan,Sumatera Barat
898,25654,Duku Utara,13.01.07.2015,Koto XI Tarusan,Kabupaten,Pesisir Selatan,Sumatera Barat
899,25654,Jinang Kampung Pansur Ampang Pulai,13.01.07.2017,Koto XI Tarusan,Kabupaten,Pesisir Selatan,Sumatera Barat
900,25654,Kampung Baru Korong Nan Ampek,13.01.07.2014,Koto XI Tarusan,Kabupaten,Pesisir Selatan,Sumatera Barat
901,25654,Kapuah Utara (Kapuh Utara),13.01.07.2011,Koto XI Tarusan,Kabupaten,Pesisir Selatan,Sumatera Barat
902,25654,Kapuh,13.01.07.2007,Koto XI Tarusan,Kabupaten,Pesisir Selatan,Sumatera Barat
903,25654,Mandeh,13.01.07.2010,Koto XI Tarusan,Kabupaten,Pesisir Selatan,Sumatera Barat
904,25654,Nanggalo,13.01.07.2005,Koto XI Tarusan,Kabupaten,Pesisir Selatan,Sumatera Barat
905,25654,Pulau Karam Ampang Pulai (Pulaukaram),13.01.07.2016,Koto XI Tarusan,Kabupaten,Pesisir Selatan,Sumatera Barat
906,25654,Setara Nanggalo,13.01.07.2023,Koto XI Tarusan,Kabupaten,Pesisir Selatan,Sumatera Barat
907,25654,Siguntur,13.01.07.2001,Koto XI Tarusan,Kabupaten,Pesisir Selatan,Sumatera Barat
908,25654,Siguntur Tua,13.01.07.2013,Koto XI Tarusan,Kabupaten,Pesisir Selatan,Sumatera Barat
909,25654,Sungai Nyalo Mudiak Aia (Sungainyalo Mudiak Aia),13.01.07.2019,Koto XI Tarusan,Kabupaten,Pesisir Selatan,Sumatera Barat
910,25654,Sungai Pinang,13.01.07.2002,Koto XI Tarusan,Kabupaten,Pesisir Selatan,Sumatera Barat
911,25654,Taratak Sungai Lundang (Taratak Sei Lundang),13.01.07.2012,Koto XI Tarusan,Kabupaten,Pesisir Selatan,Sumatera Barat
912,27562,Bukit Bual,13.03.08.2006,Koto VII,Kabupaten,Sijunjung,Sumatera Barat
913,27562,Guguak (Guguk),13.03.08.2003,Koto VII,Kabupaten,Sijunjung,Sumatera Barat
914,27562,Limo Koto,13.03.08.2001,Koto VII,Kabupaten,Sijunjung,Sumatera Barat
915,27562,Padang Laweh,13.03.08.2004,Koto VII,Kabupaten,Sijunjung,Sumatera Barat
916,27562,Padang Laweh Selatan,13.03.08.2007,Koto VII,Kabupaten,Sijunjung,Sumatera Barat
917,27562,Palaluar,13.03.08.2002,Koto VII,Kabupaten,Sijunjung,Sumatera Barat
918,27562,Tanjung,13.03.08.2005,Koto VII,Kabupaten,Sijunjung,Sumatera Barat
919,25176,Aie Pacah (Air Pacah),13.71.11.1003,Koto Tangah,Kota,Padang,Sumatera Barat
920,25171,Balai Gadang,13.71.11.1001,Koto Tangah,Kota,Padang,Sumatera Barat
921,25172,Batang Kabung Ganting,13.71.11.1010,Koto Tangah,Kota,Padang,Sumatera Barat
922,25171,Batipuh Panjang,13.71.11.1007,Koto Tangah,Kota,Padang,Sumatera Barat
923,25171,Bungo Pasang,13.71.11.1011,Koto Tangah,Kota,Padang,Sumatera Barat
924,25176,Dadok Tunggul Hitam,13.71.11.1004,Koto Tangah,Kota,Padang,Sumatera Barat
925,25175,Koto Panjang Ikua Koto,13.71.11.1005,Koto Tangah,Kota,Padang,Sumatera Barat
926,25171,Koto Pulai,13.71.11.1006,Koto Tangah,Kota,Padang,Sumatera Barat
927,25173,Lubuk Buaya,13.71.11.1009,Koto Tangah,Kota,Padang,Sumatera Barat
928,25175,Lubuk Minturun,13.71.11.1002,Koto Tangah,Kota,Padang,Sumatera Barat
929,25173,Padang Sarai,13.71.11.1008,Koto Tangah,Kota,Padang,Sumatera Barat
930,25171,Parupuk Tabing,13.71.11.1012,Koto Tangah,Kota,Padang,Sumatera Barat
931,25171,Pasir/Pasie Nan Tigo,13.71.11.1013,Koto Tangah,Kota,Padang,Sumatera Barat
932,27680,Ampalu,13.10.07.2002,Koto Salak,Kabupaten,Dharmasraya,Sumatera Barat
933,27680,Koto Salak,13.10.07.2001,Koto Salak,Kabupaten,Dharmasraya,Sumatera Barat
934,27680,Padukuan,13.10.07.2003,Koto Salak,Kabupaten,Dharmasraya,Sumatera Barat
935,27680,Pulau Mainan,13.10.07.2004,Koto Salak,Kabupaten,Dharmasraya,Sumatera Barat
936,27680,Simalidu,13.10.07.2005,Koto Salak,Kabupaten,Dharmasraya,Sumatera Barat
937,27775,Pakan Rabaa,13.11.03.2001,Koto Parik Gadang Diateh,Kabupaten,Solok Selatan,Sumatera Barat
938,27775,Pakan Rabaa Tengah,13.11.03.2004,Koto Parik Gadang Diateh,Kabupaten,Solok Selatan,Sumatera Barat
939,27775,Pakan Rabaa Timur,13.11.03.2002,Koto Parik Gadang Diateh,Kabupaten,Solok Selatan,Sumatera Barat
940,27775,Pakan Rabaa Utara,13.11.03.2003,Koto Parik Gadang Diateh,Kabupaten,Solok Selatan,Sumatera Barat
941,27685,Abai Siat,13.10.11.2005,Koto Besar,Kabupaten,Dharmasraya,Sumatera Barat
942,27685,Bonjol,13.10.11.2004,Koto Besar,Kabupaten,Dharmasraya,Sumatera Barat
943,27685,Koto Besar,13.10.11.2001,Koto Besar,Kabupaten,Dharmasraya,Sumatera Barat
944,27685,Koto Gadang,13.10.11.2003,Koto Besar,Kabupaten,Dharmasraya,Sumatera Barat
945,27685,Koto Laweh,13.10.11.2006,Koto Besar,Kabupaten,Dharmasraya,Sumatera Barat
946,27685,Koto Ranah,13.10.11.2007,Koto Besar,Kabupaten,Dharmasraya,Sumatera Barat
947,27685,Koto Tinggi,13.10.11.2002,Koto Besar,Kabupaten,Dharmasraya,Sumatera Barat
948,27681,Ampang Kuranji,13.10.01.2005,Koto Baru,Kabupaten,Dharmasraya,Sumatera Barat
949,27681,Koto Baru,13.10.01.2002,Koto Baru,Kabupaten,Dharmasraya,Sumatera Barat
950,27681,Koto Padang,13.10.01.2008,Koto Baru,Kabupaten,Dharmasraya,Sumatera Barat
951,27681,Sialang Gaung,13.10.01.2003,Koto Baru,Kabupaten,Dharmasraya,Sumatera Barat
952,26572,Koto Nan Duo,13.12.08.2004,Koto Balingka,Kabupaten,Pasaman Barat,Sumatera Barat
953,26572,Koto Tangah,13.12.08.2002,Koto Balingka,Kabupaten,Pasaman Barat,Sumatera Barat
954,26572,Koto Tuo,13.12.08.2003,Koto Balingka,Kabupaten,Pasaman Barat,Sumatera Barat
955,26572,Parit (Parik),13.12.08.2001,Koto Balingka,Kabupaten,Pasaman Barat,Sumatera Barat
956,26572,Pematang Panjang,13.12.08.2005,Koto Balingka,Kabupaten,Pasaman Barat,Sumatera Barat
957,26572,Ranah Koto Tinggi,13.12.08.2006,Koto Balingka,Kabupaten,Pasaman Barat,Sumatera Barat
958,26567,Ampek Koto,13.12.05.2003,Kinali,Kabupaten,Pasaman Barat,Sumatera Barat
959,26567,Ampek Koto Barat,13.12.05.2004,Kinali,Kabupaten,Pasaman Barat,Sumatera Barat
960,26567,Anam Koto Selatan,13.12.05.2010,Kinali,Kabupaten,Pasaman Barat,Sumatera Barat
961,26567,Anam Koto Utara,13.12.05.2013,Kinali,Kabupaten,Pasaman Barat,Sumatera Barat
962,26567,Bancah Kariang,13.12.05.2005,Kinali,Kabupaten,Pasaman Barat,Sumatera Barat
963,26567,Bandua Balai,13.12.05.2014,Kinali,Kabupaten,Pasaman Barat,Sumatera Barat
964,26567,Bunuik,13.12.05.2015,Kinali,Kabupaten,Pasaman Barat,Sumatera Barat
965,26567,Katiagan (Katiagan Mandiangin),13.12.05.2002,Kinali,Kabupaten,Pasaman Barat,Sumatera Barat
966,26567,Kinali,13.12.05.2001,Kinali,Kabupaten,Pasaman Barat,Sumatera Barat
967,26567,Koto Gadang Jaya,13.12.05.2012,Kinali,Kabupaten,Pasaman Barat,Sumatera Barat
968,26567,Langgam Saiyo,13.12.05.2009,Kinali,Kabupaten,Pasaman Barat,Sumatera Barat
969,26567,Langgam Sepakat,13.12.05.2008,Kinali,Kabupaten,Pasaman Barat,Sumatera Barat
970,26567,Limau Purut,13.12.05.2017,Kinali,Kabupaten,Pasaman Barat,Sumatera Barat
971,26567,Mudiak Labuah,13.12.05.2006,Kinali,Kabupaten,Pasaman Barat,Sumatera Barat
972,26567,Padang Canduh,13.12.05.2016,Kinali,Kabupaten,Pasaman Barat,Sumatera Barat
973,26567,Sigunanti,13.12.05.2011,Kinali,Kabupaten,Pasaman Barat,Sumatera Barat
974,26567,Tandikek,13.12.05.2007,Kinali,Kabupaten,Pasaman Barat,Sumatera Barat
975,26273,Durian Tinggi,13.07.07.2005,Kapur IX/Sembilan,Kabupaten,Lima Puluh Kota,Sumatera Barat
976,26273,Galugua/Gelugur,13.07.07.2007,Kapur IX/Sembilan,Kabupaten,Lima Puluh Kota,Sumatera Barat
977,26273,Koto Bangun,13.07.07.2002,Kapur IX/Sembilan,Kabupaten,Lima Puluh Kota,Sumatera Barat
978,26273,Koto Lamo,13.07.07.2004,Kapur IX/Sembilan,Kabupaten,Lima Puluh Kota,Sumatera Barat
979,26273,Lubuk/Lubuak Alai,13.07.07.2003,Kapur IX/Sembilan,Kabupaten,Lima Puluh Kota,Sumatera Barat
980,26273,Muaro Paiti,13.07.07.2001,Kapur IX/Sembilan,Kabupaten,Lima Puluh Kota,Sumatera Barat
981,26273,Sialang,13.07.07.2006,Kapur IX/Sembilan,Kabupaten,Lima Puluh Kota,Sumatera Barat
982,26152,Kamang Hilia,13.06.15.2002,Kamang Magek,Kabupaten,Agam,Sumatera Barat
983,26152,Kamang Mudiak,13.06.15.2003,Kamang Magek,Kabupaten,Agam,Sumatera Barat
984,26152,Kamang Tangah Anam Suku,13.06.15.2004,Kamang Magek,Kabupaten,Agam,Sumatera Barat
985,26152,Magek,13.06.15.2001,Kamang Magek,Kabupaten,Agam,Sumatera Barat
986,26152,Pauh Kamang Mudiak,13.06.15.2005,Kamang Magek,Kabupaten,Agam,Sumatera Barat
987,27572,Aia Amo,13.03.06.2004,Kamang Baru,Kabupaten,Sijunjung,Sumatera Barat
988,27572,Kamang,13.03.06.2002,Kamang Baru,Kabupaten,Sijunjung,Sumatera Barat
989,27572,Kunangan Parik Rantang,13.03.06.2006,Kamang Baru,Kabupaten,Sijunjung,Sumatera Barat
990,27572,Lubuk Tarantang,13.03.06.2010,Kamang Baru,Kabupaten,Sijunjung,Sumatera Barat
991,27572,Maloro,13.03.06.2011,Kamang Baru,Kabupaten,Sijunjung,Sumatera Barat
992,27572,Muaro Takuang,13.03.06.2003,Kamang Baru,Kabupaten,Sijunjung,Sumatera Barat
993,27572,Padang Tarok,13.03.06.2008,Kamang Baru,Kabupaten,Sijunjung,Sumatera Barat
994,27572,Siaur,13.03.06.2009,Kamang Baru,Kabupaten,Sijunjung,Sumatera Barat
995,27572,Sungai Batuang,13.03.06.2005,Kamang Baru,Kabupaten,Sijunjung,Sumatera Barat
996,27572,Sungai Lansek,13.03.06.2001,Kamang Baru,Kabupaten,Sijunjung,Sumatera Barat
997,27572,Tanjung Kaliang,13.03.06.2007,Kamang Baru,Kabupaten,Sijunjung,Sumatera Barat
998,27389,Muaro Pingai,13.02.13.2002,Junjung Sirih,Kabupaten,Solok,Sumatera Barat
999,27389,Paninggahan,13.02.13.2001,Junjung Sirih,Kabupaten,Solok,Sumatera Barat
1000,27388,Bukik Bais (Bukit Bais),13.02.09.2005,IX Koto Sungai Lasi,Kabupaten,Solok,Sumatera Barat
1001,27388,Guguak Sarai (Guguk Sarai),13.02.09.2007,IX Koto Sungai Lasi,Kabupaten,Solok,Sumatera Barat
1002,27388,Indudur,13.02.09.2009,IX Koto Sungai Lasi,Kabupaten,Solok,Sumatera Barat
1003,27388,Koto Laweh,13.02.09.2008,IX Koto Sungai Lasi,Kabupaten,Solok,Sumatera Barat
1004,27388,Pianggu,13.02.09.2003,IX Koto Sungai Lasi,Kabupaten,Solok,Sumatera Barat
1005,27388,Siaro Aro,13.02.09.2002,IX Koto Sungai Lasi,Kabupaten,Solok,Sumatera Barat
1006,27388,Sungai Durian,13.02.09.2004,IX Koto Sungai Lasi,Kabupaten,Solok,Sumatera Barat
1007,27388,Sungai Jambur,13.02.09.2006,IX Koto Sungai Lasi,Kabupaten,Solok,Sumatera Barat
1008,27388,Taruang Taruang,13.02.09.2001,IX Koto Sungai Lasi,Kabupaten,Solok,Sumatera Barat
1009,25653,Koto Ranah,13.01.12.2002,IV Nagari Bayang Utara,Kabupaten,Pesisir Selatan,Sumatera Barat
1010,25653,Limau Gadang Pancung Taba,13.01.12.2006,IV Nagari Bayang Utara,Kabupaten,Pesisir Selatan,Sumatera Barat
1011,25653,Muaro Aie,13.01.12.2003,IV Nagari Bayang Utara,Kabupaten,Pesisir Selatan,Sumatera Barat
1012,25653,Pancuang Taba (Pancung Taba),13.01.12.2004,IV Nagari Bayang Utara,Kabupaten,Pesisir Selatan,Sumatera Barat
1013,25653,Puluik Puluik,13.01.12.2001,IV Nagari Bayang Utara,Kabupaten,Pesisir Selatan,Sumatera Barat
1014,25653,Puluik-Puluik Selatan,13.01.12.2005,IV Nagari Bayang Utara,Kabupaten,Pesisir Selatan,Sumatera Barat
1015,27561,Koto Baru,13.03.05.2002,IV Nagari,Kabupaten,Sijunjung,Sumatera Barat
1016,27561,Koto Tuo,13.03.05.2005,IV Nagari,Kabupaten,Sijunjung,Sumatera Barat
1017,27561,Muaro Bodi,13.03.05.2003,IV Nagari,Kabupaten,Sijunjung,Sumatera Barat
1018,27561,Mundam Sakti,13.03.05.2004,IV Nagari,Kabupaten,Sijunjung,Sumatera Barat
1019,27561,Palangki,13.03.05.2001,IV Nagari,Kabupaten,Sijunjung,Sumatera Barat
1020,25564,Balai Baiak Malai III Koto,13.05.09.2005,IV Koto Aur Malintang,Kabupaten,Padang Pariaman,Sumatera Barat
1021,25564,III Koto Aur Malintang,13.05.09.2001,IV Koto Aur Malintang,Kabupaten,Padang Pariaman,Sumatera Barat
1022,25564,III Koto Aur Malintang Selatan,13.05.09.2004,IV Koto Aur Malintang,Kabupaten,Padang Pariaman,Sumatera Barat
1023,25564,III Koto Aur Malintang Timur,13.05.09.2003,IV Koto Aur Malintang,Kabupaten,Padang Pariaman,Sumatera Barat
1024,25564,III Koto Aur Malintang Utara,13.05.09.2002,IV Koto Aur Malintang,Kabupaten,Padang Pariaman,Sumatera Barat
1025,26160,Balingka,13.06.05.2003,IV Koto (Ampek Koto),Kabupaten,Agam,Sumatera Barat
1026,26160,Guguak Tabek Sarojo (Guguk Tabek Sarajo),13.06.05.2005,IV Koto (Ampek Koto),Kabupaten,Agam,Sumatera Barat
1027,26160,Koto Gadang,13.06.05.2008,IV Koto (Ampek Koto),Kabupaten,Agam,Sumatera Barat
1028,26160,Koto Panjang,13.06.05.2006,IV Koto (Ampek Koto),Kabupaten,Agam,Sumatera Barat
1029,26160,Koto Tuo,13.06.05.2004,IV Koto (Ampek Koto),Kabupaten,Agam,Sumatera Barat
1030,26160,Sianok Anam Suku,13.06.05.2007,IV Koto (Ampek Koto),Kabupaten,Agam,Sumatera Barat
1031,26160,Sungai Landia,13.06.05.2002,IV Koto (Ampek Koto),Kabupaten,Agam,Sumatera Barat
1032,25651,Ampang Tareh Lumpo,13.01.05.2013,IV Jurai,Kabupaten,Pesisir Selatan,Sumatera Barat
1033,25651,Ampuan Lumpo,13.01.05.2012,IV Jurai,Kabupaten,Pesisir Selatan,Sumatera Barat
1034,25651,Balai Sinayan Lumpo,13.01.05.2014,IV Jurai,Kabupaten,Pesisir Selatan,Sumatera Barat
1035,25651,Batu Kunik Lumpo,13.01.05.2010,IV Jurai,Kabupaten,Pesisir Selatan,Sumatera Barat
1036,25651,Bukik Kaciak Lumpo (Sungaibukik Kaciak Lumpo),13.01.05.2017,IV Jurai,Kabupaten,Pesisir Selatan,Sumatera Barat
1037,25651,Bunga Pasang Salido,13.01.05.2005,IV Jurai,Kabupaten,Pesisir Selatan,Sumatera Barat
1038,25651,Gunung Bungkuak Lumpo (Gunungbungkuak Lumpo),13.01.05.2018,IV Jurai,Kabupaten,Pesisir Selatan,Sumatera Barat
1039,25651,Koto Rawang,13.01.05.2008,IV Jurai,Kabupaten,Pesisir Selatan,Sumatera Barat
1040,25651,Limau Gadang Lumpo,13.01.05.2009,IV Jurai,Kabupaten,Pesisir Selatan,Sumatera Barat
1041,25651,Lumpo,13.01.05.2004,IV Jurai,Kabupaten,Pesisir Selatan,Sumatera Barat
1042,25651,Painan,13.01.05.2001,IV Jurai,Kabupaten,Pesisir Selatan,Sumatera Barat
1043,25651,Painan Selatan Painan,13.01.05.2019,IV Jurai,Kabupaten,Pesisir Selatan,Sumatera Barat
1044,25651,Painan Timur Painan,13.01.05.2020,IV Jurai,Kabupaten,Pesisir Selatan,Sumatera Barat
1045,25651,Sago Salido,13.01.05.2006,IV Jurai,Kabupaten,Pesisir Selatan,Sumatera Barat
1046,25651,Salido,13.01.05.2003,IV Jurai,Kabupaten,Pesisir Selatan,Sumatera Barat
1047,25651,Salido Sari Bulan,13.01.05.2007,IV Jurai,Kabupaten,Pesisir Selatan,Sumatera Barat
1048,25651,Sungai Gayo Lumpo (Sungaigayo Lumpo),13.01.05.2015,IV Jurai,Kabupaten,Pesisir Selatan,Sumatera Barat
1049,25651,Sungai Sariak Lumpo (Sungaisariak Lumpo),13.01.05.2016,IV Jurai,Kabupaten,Pesisir Selatan,Sumatera Barat
1050,25651,Tambang,13.01.05.2002,IV Jurai,Kabupaten,Pesisir Selatan,Sumatera Barat
1051,25651,Taratak Tangah Lumpo,13.01.05.2011,IV Jurai,Kabupaten,Pesisir Selatan,Sumatera Barat
1052,27372,Sariak Alahan Tigo (Sarik Alahan Tigo),13.02.17.2002,Hiliran Gumanti,Kabupaten,Solok,Sumatera Barat
1053,27372,Sungai Abu,13.02.17.2003,Hiliran Gumanti,Kabupaten,Solok,Sumatera Barat
1054,27372,Talang Babungo,13.02.17.2001,Hiliran Gumanti,Kabupaten,Solok,Sumatera Barat
1055,26271,Batu Balang,13.07.05.2006,Harau,Kabupaten,Lima Puluh Kota,Sumatera Barat
1056,26271,Bukik Limbuku,13.07.05.2004,Harau,Kabupaten,Lima Puluh Kota,Sumatera Barat
1057,26271,Gurun,13.07.05.2008,Harau,Kabupaten,Lima Puluh Kota,Sumatera Barat
1058,26271,Harau,13.07.05.2005,Harau,Kabupaten,Lima Puluh Kota,Sumatera Barat
1059,26271,Koto Tuo,13.07.05.2010,Harau,Kabupaten,Lima Puluh Kota,Sumatera Barat
1060,26271,Lubuak Batingkok,13.07.05.2009,Harau,Kabupaten,Lima Puluh Kota,Sumatera Barat
1061,26271,Pilubang,13.07.05.2011,Harau,Kabupaten,Lima Puluh Kota,Sumatera Barat
1062,26271,Sarilamak,13.07.05.2007,Harau,Kabupaten,Lima Puluh Kota,Sumatera Barat
1063,26271,Solok Bio-Bio,13.07.05.2002,Harau,Kabupaten,Lima Puluh Kota,Sumatera Barat
1064,26271,Taram,13.07.05.2001,Harau,Kabupaten,Lima Puluh Kota,Sumatera Barat
1065,26271,Tarantang,13.07.05.2003,Harau,Kabupaten,Lima Puluh Kota,Sumatera Barat
1066,26571,Bahoras,13.12.06.2004,Gunung Tuleh (Gunungtuleh),Kabupaten,Pasaman Barat,Sumatera Barat
1067,26571,Muaro Kiawai (Muaro Kiawi),13.12.06.2001,Gunung Tuleh (Gunungtuleh),Kabupaten,Pasaman Barat,Sumatera Barat
1068,26571,Muaro Kiawai Barat,13.12.06.2006,Gunung Tuleh (Gunungtuleh),Kabupaten,Pasaman Barat,Sumatera Barat
1069,26571,Muaro Kiawai Hilir,13.12.06.2007,Gunung Tuleh (Gunungtuleh),Kabupaten,Pasaman Barat,Sumatera Barat
1070,26571,Rabi Jonggor,13.12.06.2002,Gunung Tuleh (Gunungtuleh),Kabupaten,Pasaman Barat,Sumatera Barat
1071,26571,Ranah Sungai Magelang,13.12.06.2005,Gunung Tuleh (Gunungtuleh),Kabupaten,Pasaman Barat,Sumatera Barat
1072,26571,Seberang Kenaikan,13.12.06.2003,Gunung Tuleh (Gunungtuleh),Kabupaten,Pasaman Barat,Sumatera Barat
1073,27365,Aie Batumbuak (Aia Batumbuak),13.02.07.2007,Gunung Talang,Kabupaten,Solok,Sumatera Barat
1074,27365,Batang Barus,13.02.07.2006,Gunung Talang,Kabupaten,Solok,Sumatera Barat
1075,27365,Cupak,13.02.07.2001,Gunung Talang,Kabupaten,Solok,Sumatera Barat
1076,27365,Jawi Jawi,13.02.07.2004,Gunung Talang,Kabupaten,Solok,Sumatera Barat
1077,27365,Koto Gadang Guguak,13.02.07.2003,Gunung Talang,Kabupaten,Solok,Sumatera Barat
1078,27365,Koto Gaek Guguk,13.02.07.2008,Gunung Talang,Kabupaten,Solok,Sumatera Barat
1079,27365,Sungai Janiah,13.02.07.2005,Gunung Talang,Kabupaten,Solok,Sumatera Barat
1080,27365,Talang,13.02.07.2002,Gunung Talang,Kabupaten,Solok,Sumatera Barat
1081,26256,Koto Tinggi,13.07.08.2002,Gunuang Omeh (Gunung Mas),Kabupaten,Lima Puluh Kota,Sumatera Barat
1082,26256,Pandam Gadang,13.07.08.2001,Gunuang Omeh (Gunung Mas),Kabupaten,Lima Puluh Kota,Sumatera Barat
1083,26256,Talang Anau,13.07.08.2003,Gunuang Omeh (Gunung Mas),Kabupaten,Lima Puluh Kota,Sumatera Barat
1084,26111,Aur Tajungkang/Tgh. Sawah,13.75.01.1004,Guguak Panjang (Guguk Panjang),Kota,Bukittinggi,Sumatera Barat
1085,26113,Benteng Pasar Atas,13.75.01.1005,Guguak Panjang (Guguk Panjang),Kota,Bukittinggi,Sumatera Barat
1086,26114,Bukik Apik Puhun (Bukit Apit Puhun),13.75.01.1007,Guguak Panjang (Guguk Panjang),Kota,Bukittinggi,Sumatera Barat
1087,26116,Bukit Cangang Kayu Ramang,13.75.01.1002,Guguak Panjang (Guguk Panjang),Kota,Bukittinggi,Sumatera Barat
1088,26115,Kayu Kubu,13.75.01.1006,Guguak Panjang (Guguk Panjang),Kota,Bukittinggi,Sumatera Barat
1089,26112,Pakan Kurai,13.75.01.1003,Guguak Panjang (Guguk Panjang),Kota,Bukittinggi,Sumatera Barat
1090,26117,Tarok Dipo,13.75.01.1001,Guguak Panjang (Guguk Panjang),Kota,Bukittinggi,Sumatera Barat
1091,26253,Guguak VIII Koto,13.07.02.2001,Guguak (Gugu),Kabupaten,Lima Puluh Kota,Sumatera Barat
1092,26253,Kubang,13.07.02.2004,Guguak (Gugu),Kabupaten,Lima Puluh Kota,Sumatera Barat
1093,26253,Simpang Sugiran,13.07.02.2005,Guguak (Gugu),Kabupaten,Lima Puluh Kota,Sumatera Barat
1094,26253,Sungai Talang,13.07.02.2003,Guguak (Gugu),Kabupaten,Lima Puluh Kota,Sumatera Barat
1095,26253,VII/Tujuh Koto Talago,13.07.02.2002,Guguak (Gugu),Kabupaten,Lima Puluh Kota,Sumatera Barat
1096,25583,Gadua/Gadur,13.05.17.2005,Enam Lingkung,Kabupaten,Padang Pariaman,Sumatera Barat
1097,25583,Koto Tinggi,13.05.17.2002,Enam Lingkung,Kabupaten,Padang Pariaman,Sumatera Barat
1098,25583,Pakandangan,13.05.17.2001,Enam Lingkung,Kabupaten,Padang Pariaman,Sumatera Barat
1099,25583,Parit Malintang,13.05.17.2004,Enam Lingkung,Kabupaten,Padang Pariaman,Sumatera Barat
1100,25583,Toboh Ketek,13.05.17.2003,Enam Lingkung,Kabupaten,Padang Pariaman,Sumatera Barat
1101,26311,Cubadak,13.08.12.2002,Duo Koto,Kabupaten,Pasaman,Sumatera Barat
1102,26311,Cubadak Barat,13.08.12.2007,Duo Koto,Kabupaten,Pasaman,Sumatera Barat
1103,26311,Cubadak Tengah,13.08.12.2006,Duo Koto,Kabupaten,Pasaman,Sumatera Barat
1104,26311,Cubadak Timur,13.08.12.2005,Duo Koto,Kabupaten,Pasaman,Sumatera Barat
1105,26311,Simpang Tonang,13.08.12.2001,Duo Koto,Kabupaten,Pasaman,Sumatera Barat
1106,26311,Simpang Tonang Selatan,13.08.12.2003,Duo Koto,Kabupaten,Pasaman,Sumatera Barat
1107,26311,Simpang Tonang Utara,13.08.12.2004,Duo Koto,Kabupaten,Pasaman,Sumatera Barat
1108,27383,Kampung Batu Dalam,13.02.19.2002,Danau Kembar,Kabupaten,Solok,Sumatera Barat
1109,27383,Simpang Tanjuang Nan Ampek/IV,13.02.19.2001,Danau Kembar,Kabupaten,Solok,Sumatera Barat
1110,26191,Bukik Batabuah,13.06.14.2003,Candung,Kabupaten,Agam,Sumatera Barat
1111,26191,Canduang Koto Laweh,13.06.14.2001,Candung,Kabupaten,Agam,Sumatera Barat
1112,26191,Lasi,13.06.14.2002,Candung,Kabupaten,Agam,Sumatera Barat
1113,25237,Bungus Barat,13.71.05.1002,Bungus Teluk Kabung,Kota,Padang,Sumatera Barat
1114,25237,Bungus Selatan,13.71.05.1003,Bungus Teluk Kabung,Kota,Padang,Sumatera Barat
1115,25237,Bungus Timur,13.71.05.1001,Bungus Teluk Kabung,Kota,Padang,Sumatera Barat
1116,25237,Teluk Kabung Selatan,13.71.05.1006,Bungus Teluk Kabung,Kota,Padang,Sumatera Barat
1117,25237,Teluk Kabung Tengah,13.71.05.1005,Bungus Teluk Kabung,Kota,Padang,Sumatera Barat
1118,25237,Teluk Kabung Utara,13.71.05.1004,Bungus Teluk Kabung,Kota,Padang,Sumatera Barat
1119,27381,Bukit Tandang,13.02.08.2003,Bukit Sundi,Kabupaten,Solok,Sumatera Barat
1120,27381,Dilam,13.02.08.2005,Bukit Sundi,Kabupaten,Solok,Sumatera Barat
1121,27381,Kinari,13.02.08.2002,Bukit Sundi,Kabupaten,Solok,Sumatera Barat
1122,27381,Muaro Paneh,13.02.08.2001,Bukit Sundi,Kabupaten,Solok,Sumatera Barat
1123,27381,Parambahan,13.02.08.2004,Bukit Sundi,Kabupaten,Solok,Sumatera Barat
1124,26257,Banja Loweh (Banja Laweh),13.07.12.2002,Bukik Barisan,Kabupaten,Lima Puluh Kota,Sumatera Barat
1125,26257,Baruah Gunuang,13.07.12.2003,Bukik Barisan,Kabupaten,Lima Puluh Kota,Sumatera Barat
1126,26257,Koto Tangah,13.07.12.2005,Bukik Barisan,Kabupaten,Lima Puluh Kota,Sumatera Barat
1127,26257,Maek,13.07.12.2001,Bukik Barisan,Kabupaten,Lima Puluh Kota,Sumatera Barat
1128,26257,Sungai Naniang,13.07.12.2004,Bukik Barisan,Kabupaten,Lima Puluh Kota,Sumatera Barat
1129,26381,Ganggo Hilia,13.08.04.2004,Bonjol,Kabupaten,Pasaman,Sumatera Barat
1130,26381,Ganggo Mudiak,13.08.04.2003,Bonjol,Kabupaten,Pasaman,Sumatera Barat
1131,26381,Koto Kaciak,13.08.04.2002,Bonjol,Kabupaten,Pasaman,Sumatera Barat
1132,26381,Koto Kaciak Barat,13.08.04.2007,Bonjol,Kabupaten,Pasaman,Sumatera Barat
1133,26381,Limo Koto,13.08.04.2001,Bonjol,Kabupaten,Pasaman,Sumatera Barat
1134,25652,Api-api Pasar Baru,13.01.06.2009,Bayang,Kabupaten,Pesisir Selatan,Sumatera Barat
1135,25652,Asam Kamba Pasar Baru (Asamkamba Pasar Baru),13.01.06.2011,Bayang,Kabupaten,Pesisir Selatan,Sumatera Barat
1136,25652,Aur Begalung Talaok,13.01.06.2014,Bayang,Kabupaten,Pesisir Selatan,Sumatera Barat
1137,25652,Gurun Panjang,13.01.06.2008,Bayang,Kabupaten,Pesisir Selatan,Sumatera Barat
1138,25652,Gurun Panjang Barat,13.01.06.2020,Bayang,Kabupaten,Pesisir Selatan,Sumatera Barat
1139,25652,Gurun Panjang Selatan,13.01.06.2021,Bayang,Kabupaten,Pesisir Selatan,Sumatera Barat
1140,25652,Gurun Panjang Utara,13.01.06.2019,Bayang,Kabupaten,Pesisir Selatan,Sumatera Barat
1141,25652,Kapeh Panji Jaya Talaok,13.01.06.2013,Bayang,Kabupaten,Pesisir Selatan,Sumatera Barat
1142,25652,Kapelgam Koto Berapak,13.01.06.2015,Bayang,Kabupaten,Pesisir Selatan,Sumatera Barat
1143,25652,Kapujan Koto Berapak,13.01.06.2018,Bayang,Kabupaten,Pesisir Selatan,Sumatera Barat
1144,25652,Koto Baru Koto Berapak,13.01.06.2016,Bayang,Kabupaten,Pesisir Selatan,Sumatera Barat
1145,25652,Koto Berapak,13.01.06.2005,Bayang,Kabupaten,Pesisir Selatan,Sumatera Barat
1146,25652,Kubang Koto Berapak,13.01.06.2017,Bayang,Kabupaten,Pesisir Selatan,Sumatera Barat
1147,25652,Pasar Baru,13.01.06.2007,Bayang,Kabupaten,Pesisir Selatan,Sumatera Barat
1148,25652,Sawah Laweh Pasar Baru (Sawahlaweh Pasar Baru),13.01.06.2012,Bayang,Kabupaten,Pesisir Selatan,Sumatera Barat
1149,25652,Talaok,13.01.06.2006,Bayang,Kabupaten,Pesisir Selatan,Sumatera Barat
1150,25652,Tanjung Durian Pasar Baru (Tanjungdurian),13.01.06.2010,Bayang,Kabupaten,Pesisir Selatan,Sumatera Barat
1151,27265,Andaleh,13.04.02.2001,Batipuh,Kabupaten,Tanah Datar,Sumatera Barat
1152,27265,Batipuah Baruh,13.04.02.2004,Batipuh,Kabupaten,Tanah Datar,Sumatera Barat
1153,27265,Batipuh Ateh (Batipuah Ateh),13.04.02.2003,Batipuh,Kabupaten,Tanah Datar,Sumatera Barat
1154,27265,Bungo Tanjung/Tanjuang,13.04.02.2008,Batipuh,Kabupaten,Tanah Datar,Sumatera Barat
1155,27265,Gunung Rajo (Gunuang Rajo),13.04.02.2005,Batipuh,Kabupaten,Tanah Datar,Sumatera Barat
1156,27265,Pitalah,13.04.02.2006,Batipuh,Kabupaten,Tanah Datar,Sumatera Barat
1157,27265,Sabu,13.04.02.2002,Batipuh,Kabupaten,Tanah Datar,Sumatera Barat
1158,27265,Tanjung Barulak,13.04.02.2007,Batipuh,Kabupaten,Tanah Datar,Sumatera Barat
1159,27266,Batu Taba,13.04.14.2001,Batipuah Selatan (Batipuh Selatan),Kabupaten,Tanah Datar,Sumatera Barat
1160,27266,Guguak Malalo,13.04.14.2004,Batipuah Selatan (Batipuh Selatan),Kabupaten,Tanah Datar,Sumatera Barat
1161,27266,Padang Laweh Malalo,13.04.14.2003,Batipuah Selatan (Batipuh Selatan),Kabupaten,Tanah Datar,Sumatera Barat
1162,27266,Sumpur,13.04.14.2002,Batipuah Selatan (Batipuh Selatan),Kabupaten,Tanah Datar,Sumatera Barat
1163,25661,IV Koto Hilie,13.01.04.2001,Batang Kapas,Kabupaten,Pesisir Selatan,Sumatera Barat
1164,25661,IV Koto Mudiek,13.01.04.2002,Batang Kapas,Kabupaten,Pesisir Selatan,Sumatera Barat
1165,25661,Koto Nan Duo IV Koto Hilie,13.01.04.2004,Batang Kapas,Kabupaten,Pesisir Selatan,Sumatera Barat
1166,25661,Koto Nan Tigo IV Koto Hilie,13.01.04.2005,Batang Kapas,Kabupaten,Pesisir Selatan,Sumatera Barat
1167,25661,Sungai Nyalo IV Koto Mudiek (Sungainyalo),13.01.04.2008,Batang Kapas,Kabupaten,Pesisir Selatan,Sumatera Barat
1168,25661,Taluak,13.01.04.2003,Batang Kapas,Kabupaten,Pesisir Selatan,Sumatera Barat
1169,25661,Taluk Tigo Sakato,13.01.04.2009,Batang Kapas,Kabupaten,Pesisir Selatan,Sumatera Barat
1170,25661,Teratak Tempatih IV Koto Mudiek,13.01.04.2006,Batang Kapas,Kabupaten,Pesisir Selatan,Sumatera Barat
1171,25661,Tuik IV Koto Mudiek,13.01.04.2007,Batang Kapas,Kabupaten,Pesisir Selatan,Sumatera Barat
1172,25563,Gasan Gadang,13.05.13.2002,Batang Gasan,Kabupaten,Padang Pariaman,Sumatera Barat
1173,25563,Malai V Suku,13.05.13.2001,Batang Gasan,Kabupaten,Padang Pariaman,Sumatera Barat
1174,25563,Malai V Suku Timur,13.05.13.2003,Batang Gasan,Kabupaten,Padang Pariaman,Sumatera Barat
1175,25586,Buayan Lubuk Alung,13.05.02.2004,Batang Anai,Kabupaten,Padang Pariaman,Sumatera Barat
1176,25586,Kasang,13.05.02.2002,Batang Anai,Kabupaten,Padang Pariaman,Sumatera Barat
1177,25586,Katapiang,13.05.02.2001,Batang Anai,Kabupaten,Padang Pariaman,Sumatera Barat
1178,25586,Sungai Buluah,13.05.02.2003,Batang Anai,Kabupaten,Padang Pariaman,Sumatera Barat
1179,25586,Sungai Buluah Barat,13.05.02.2006,Batang Anai,Kabupaten,Padang Pariaman,Sumatera Barat
1180,25586,Sungai Buluah Selatan,13.05.02.2008,Batang Anai,Kabupaten,Padang Pariaman,Sumatera Barat
1181,25586,Sungai Buluah Timur,13.05.02.2005,Batang Anai,Kabupaten,Padang Pariaman,Sumatera Barat
1182,25586,Sungai Buluah Utara,13.05.02.2007,Batang Anai,Kabupaten,Padang Pariaman,Sumatera Barat
1183,26192,Koto Baru (Koto Baru III Jorong),13.06.08.2007,Baso,Kabupaten,Agam,Sumatera Barat
1184,26192,Koto Gadang,13.06.08.2009,Baso,Kabupaten,Agam,Sumatera Barat
1185,26192,Koto Tinggi,13.06.08.2001,Baso,Kabupaten,Agam,Sumatera Barat
1186,26192,Padang Tarok,13.06.08.2005,Baso,Kabupaten,Agam,Sumatera Barat
1187,26192,Salo,13.06.08.2006,Baso,Kabupaten,Agam,Sumatera Barat
1188,26192,Simarasok,13.06.08.2004,Baso,Kabupaten,Agam,Sumatera Barat
1189,26192,Sungai Cubadak,13.06.08.2008,Baso,Kabupaten,Agam,Sumatera Barat
1190,26192,Tabek Panjang,13.06.08.2002,Baso,Kabupaten,Agam,Sumatera Barat
1191,25672,Ampang Tulak Tapan,13.01.11.2008,Basa Ampek Balai Tapan,Kabupaten,Pesisir Selatan,Sumatera Barat
1192,25672,Batang Arah Tapan,13.01.11.2007,Basa Ampek Balai Tapan,Kabupaten,Pesisir Selatan,Sumatera Barat
1193,25672,Batang Betung Tapan,13.01.11.2010,Basa Ampek Balai Tapan,Kabupaten,Pesisir Selatan,Sumatera Barat
1194,25672,Bukit Buai Tapan (Bukitbuai Tapan),13.01.11.2016,Basa Ampek Balai Tapan,Kabupaten,Pesisir Selatan,Sumatera Barat
1195,25672,Dusun Baru Tapan,13.01.11.2019,Basa Ampek Balai Tapan,Kabupaten,Pesisir Selatan,Sumatera Barat
1196,25672,Koto Anau Tapan,13.01.11.2018,Basa Ampek Balai Tapan,Kabupaten,Pesisir Selatan,Sumatera Barat
1197,25672,Pasar Tapan,13.01.11.2002,Basa Ampek Balai Tapan,Kabupaten,Pesisir Selatan,Sumatera Barat
1198,25672,Riak Danau Tapan (Riakdanau Tapan),13.01.11.2017,Basa Ampek Balai Tapan,Kabupaten,Pesisir Selatan,Sumatera Barat
1199,25672,Tanjung Pondok Tapan (Tanjungpondok Tapan),13.01.11.2009,Basa Ampek Balai Tapan,Kabupaten,Pesisir Selatan,Sumatera Barat
1200,25672,Tapan,13.01.11.2001,Basa Ampek Balai Tapan,Kabupaten,Pesisir Selatan,Sumatera Barat
1201,27422,Balai Batu Sadara (Balai Batu Sandaran),13.73.02.2010,Barangin,Kota,Sawahlunto,Sumatera Barat
1202,27425,Durian I,13.73.02.1003,Barangin,Kota,Sawahlunto,Sumatera Barat
1203,27425,Durian II,13.73.02.1004,Barangin,Kota,Sawahlunto,Sumatera Barat
1204,27425,Kolok Mudik/Mudiak,13.73.02.2006,Barangin,Kota,Sawahlunto,Sumatera Barat
1205,27427,Kolok Nan Tuo,13.73.02.2007,Barangin,Kota,Sawahlunto,Sumatera Barat
1206,27424,Lubang Panjang,13.73.02.1002,Barangin,Kota,Sawahlunto,Sumatera Barat
1207,27421,Lumindai,13.73.02.2009,Barangin,Kota,Sawahlunto,Sumatera Barat
1208,27424,Santur/Santua,13.73.02.2005,Barangin,Kota,Sawahlunto,Sumatera Barat
1209,27421,Saringan,13.73.02.1001,Barangin,Kota,Sawahlunto,Sumatera Barat
1210,27423,Talago Gunung/Gunuang,13.73.02.2008,Barangin,Kota,Sawahlunto,Sumatera Barat
1211,26181,Cingkariang,13.06.06.2006,Banuhampu,Kabupaten,Agam,Sumatera Barat
1212,26181,Kubang Putiah,13.06.06.2004,Banuhampu,Kabupaten,Agam,Sumatera Barat
1213,26181,Ladang Laweh,13.06.06.2005,Banuhampu,Kabupaten,Agam,Sumatera Barat
1214,26181,Padang Lua,13.06.06.2001,Banuhampu,Kabupaten,Agam,Sumatera Barat
1215,26181,Pakan Sinayan,13.06.06.2003,Banuhampu,Kabupaten,Agam,Sumatera Barat
1216,26181,Sungai Tanang,13.06.06.2007,Banuhampu,Kabupaten,Agam,Sumatera Barat
1217,26181,Taluak Ampek Suku,13.06.06.2002,Banuhampu,Kabupaten,Agam,Sumatera Barat
1218,26131,Aur Kuning,13.75.03.1001,Aur Birugo Tigo Baleh,Kota,Bukittinggi,Sumatera Barat
1219,26136,Belakang Balok,13.75.03.1003,Aur Birugo Tigo Baleh,Kota,Bukittinggi,Sumatera Barat
1220,26138,Birugo,13.75.03.1002,Aur Birugo Tigo Baleh,Kota,Bukittinggi,Sumatera Barat
1221,26133,Kubu Tanjung,13.75.03.1005,Aur Birugo Tigo Baleh,Kota,Bukittinggi,Sumatera Barat
1222,26135,Ladang Cakiah,13.75.03.1008,Aur Birugo Tigo Baleh,Kota,Bukittinggi,Sumatera Barat
1223,26134,Pakan Labuh/Labuah,13.75.03.1006,Aur Birugo Tigo Baleh,Kota,Bukittinggi,Sumatera Barat
1224,26132,Parit Rantang (Parit Antang),13.75.03.1007,Aur Birugo Tigo Baleh,Kota,Bukittinggi,Sumatera Barat
1225,26137,Sapiran,13.75.03.1004,Aur Birugo Tigo Baleh,Kota,Bukittinggi,Sumatera Barat
1226,27684,Alahan Nan Tigo,13.10.10.2002,Asam Jujuhan,Kabupaten,Dharmasraya,Sumatera Barat
1227,27684,Lubuk Besar,13.10.10.2003,Asam Jujuhan,Kabupaten,Dharmasraya,Sumatera Barat
1228,27684,Sei/Sungai Limau,13.10.10.2001,Asam Jujuhan,Kabupaten,Dharmasraya,Sumatera Barat
1229,27684,Sinamar,13.10.10.2005,Asam Jujuhan,Kabupaten,Dharmasraya,Sumatera Barat
1230,27684,Tanjung Alam,13.10.10.2004,Asam Jujuhan,Kabupaten,Dharmasraya,Sumatera Barat
1231,26161,Batu Kambing,13.06.13.2001,Ampek Nagari (IV Nagari ),Kabupaten,Agam,Sumatera Barat
1232,26161,Bawan,13.06.13.2003,Ampek Nagari (IV Nagari ),Kabupaten,Agam,Sumatera Barat
1233,26161,Sitalang,13.06.13.2002,Ampek Nagari (IV Nagari ),Kabupaten,Agam,Sumatera Barat
1234,26161,Sitanang,13.06.13.2004,Ampek Nagari (IV Nagari ),Kabupaten,Agam,Sumatera Barat
1235,26190,Ampang Gadang,13.06.07.2005,Ampek Angkek (IV Angkat Candung),Kabupaten,Agam,Sumatera Barat
1236,26190,Balai Gurah,13.06.07.2008,Ampek Angkek (IV Angkat Candung),Kabupaten,Agam,Sumatera Barat
1237,26190,Batu Taba,13.06.07.2001,Ampek Angkek (IV Angkat Candung),Kabupaten,Agam,Sumatera Barat
1238,26190,Biaro Gadang,13.06.07.2002,Ampek Angkek (IV Angkat Candung),Kabupaten,Agam,Sumatera Barat
1239,26190,Lambah,13.06.07.2003,Ampek Angkek (IV Angkat Candung),Kabupaten,Agam,Sumatera Barat
1240,26190,Panampuang (Panampung),13.06.07.2004,Ampek Angkek (IV Angkat Candung),Kabupaten,Agam,Sumatera Barat
1241,26190,Pasia,13.06.07.2006,Ampek Angkek (IV Angkat Candung),Kabupaten,Agam,Sumatera Barat
1242,26252,Batuhampar (Batu Hampa),13.07.13.2003,Akabiluru,Kabupaten,Lima Puluh Kota,Sumatera Barat
1243,26252,Durian Gadang,13.07.13.2007,Akabiluru,Kabupaten,Lima Puluh Kota,Sumatera Barat
1244,26252,Koto Tangah Batu Ampa (Koto Tangah Batu Hampa),13.07.13.2002,Akabiluru,Kabupaten,Lima Puluh Kota,Sumatera Barat
1245,26252,Pauh Sangik,13.07.13.2006,Akabiluru,Kabupaten,Lima Puluh Kota,Sumatera Barat
1246,26252,Sariak Laweh,13.07.13.2001,Akabiluru,Kabupaten,Lima Puluh Kota,Sumatera Barat
1247,26252,Suayan,13.07.13.2004,Akabiluru,Kabupaten,Lima Puluh Kota,Sumatera Barat
1248,26252,Sungai Balantiak (Sei / Sungai Balantik),13.07.13.2005,Akabiluru,Kabupaten,Lima Puluh Kota,Sumatera Barat
1249,25673,Damar Lapan Batang Inderapura,13.01.13.2003,Airpura,Kabupaten,Pesisir Selatan,Sumatera Barat
1250,25673,Indrapura/Inderapura Timur,13.01.13.2009,Airpura,Kabupaten,Pesisir Selatan,Sumatera Barat
1251,25673,Indrapura/Inderapura Utara,13.01.13.2001,Airpura,Kabupaten,Pesisir Selatan,Sumatera Barat
1252,25673,Lalang Panjang Inderapura,13.01.13.2004,Airpura,Kabupaten,Pesisir Selatan,Sumatera Barat
1253,25673,Lubuk Betung Inderapura,13.01.13.2006,Airpura,Kabupaten,Pesisir Selatan,Sumatera Barat
1254,25673,Muara Inderapura,13.01.13.2002,Airpura,Kabupaten,Pesisir Selatan,Sumatera Barat
1255,25673,Palokan Inderapura,13.01.13.2005,Airpura,Kabupaten,Pesisir Selatan,Sumatera Barat
1256,25673,Pulau Rajo Inderapura (Pulaurajo Inderapura),13.01.13.2010,Airpura,Kabupaten,Pesisir Selatan,Sumatera Barat
1257,25673,Tanah Bakali Inderapura,13.01.13.2008,Airpura,Kabupaten,Pesisir Selatan,Sumatera Barat
1258,25673,Tluk Kualo Inderapura,13.01.13.2007,Airpura,Kabupaten,Pesisir Selatan,Sumatera Barat
1259,25585,Anduring (Anduriang),13.05.15.2003,2 x 11 Kayu Tanam,Kabupaten,Padang Pariaman,Sumatera Barat
1260,25585,Guguak,13.05.15.2002,2 x 11 Kayu Tanam,Kabupaten,Padang Pariaman,Sumatera Barat
1261,25585,Kapalo Hilalang,13.05.15.2004,2 x 11 Kayu Tanam,Kabupaten,Padang Pariaman,Sumatera Barat
1262,25585,Kayu Tanam,13.05.15.2001,2 x 11 Kayu Tanam,Kabupaten,Padang Pariaman,Sumatera Barat
1263,25584,Lubuk Pandan,13.05.04.2003,2 x 11 Enam Lingkuang,Kabupaten,Padang Pariaman,Sumatera Barat
1264,25584,Sicincin,13.05.04.2002,2 x 11 Enam Lingkuang,Kabupaten,Padang Pariaman,Sumatera Barat
1265,25584,Sungai Asam,13.05.04.2004,2 x 11 Enam Lingkuang,Kabupaten,Padang Pariaman,Sumatera Barat